{
"type": "FeatureCollection",
"name": "Huanipaca_labels",
"crs": { "type": "name", "properties": { "name": "urn:ogc:def:crs:OGC:1.3:CRS84" } },
"features": [
{ "type": "Feature", "properties": { "fid": 1, "osm_id": "3098083322", "code": 1002, "fclass": "town", "population": 0, "name": "Huanipaca" }, "geometry": { "type": "Point", "coordinates": [ -72.9335231, -13.4918729 ] } },
{ "type": "Feature", "properties": { "fid": 2, "osm_id": "3155352530", "code": 1003, "fclass": "village", "population": 0, "name": "Ccoya" }, "geometry": { "type": "Point", "coordinates": [ -73.0004063, -13.5368215 ] } },
{ "type": "Feature", "properties": { "fid": 3, "osm_id": "3544155901", "code": 1004, "fclass": "hamlet", "population": 0, "name": "Anyanca" }, "geometry": { "type": "Point", "coordinates": [ -73.0021717, -13.5325532 ] } },
{ "type": "Feature", "properties": { "fid": 4, "osm_id": "3544155902", "code": 1004, "fclass": "hamlet", "population": 0, "name": "Arriendo" }, "geometry": { "type": "Point", "coordinates": [ -72.8942828, -13.4774504 ] } },
{ "type": "Feature", "properties": { "fid": 5, "osm_id": "3544155903", "code": 1004, "fclass": "hamlet", "population": 0, "name": "Aujello" }, "geometry": { "type": "Point", "coordinates": [ -72.9025802, -13.522281 ] } },
{ "type": "Feature", "properties": { "fid": 6, "osm_id": "3544155904", "code": 1004, "fclass": "hamlet", "population": 0, "name": "Ayaviri" }, "geometry": { "type": "Point", "coordinates": [ -72.9765768, -13.4435968 ] } },
{ "type": "Feature", "properties": { "fid": 7, "osm_id": "3544155905", "code": 1004, "fclass": "hamlet", "population": 0, "name": "Callanca" }, "geometry": { "type": "Point", "coordinates": [ -72.9925094, -13.5016202 ] } },
{ "type": "Feature", "properties": { "fid": 8, "osm_id": "3544155906", "code": 1004, "fclass": "hamlet", "population": 0, "name": "Casantoy" }, "geometry": { "type": "Point", "coordinates": [ -72.8715859, -13.4886703 ] } },
{ "type": "Feature", "properties": { "fid": 9, "osm_id": "3544155907", "code": 1004, "fclass": "hamlet", "population": 0, "name": "Ccallasuque" }, "geometry": { "type": "Point", "coordinates": [ -73.08758, -13.4525352 ] } },
{ "type": "Feature", "properties": { "fid": 10, "osm_id": "3544155908", "code": 1003, "fclass": "village", "population": 0, "name": "Ccarabamba" }, "geometry": { "type": "Point", "coordinates": [ -73.0301866, -13.450741 ] } },
{ "type": "Feature", "properties": { "fid": 11, "osm_id": "3544155909", "code": 1004, "fclass": "hamlet", "population": 0, "name": "Ccollca" }, "geometry": { "type": "Point", "coordinates": [ -72.9417565, -13.4975133 ] } },
{ "type": "Feature", "properties": { "fid": 12, "osm_id": "3544155910", "code": 1004, "fclass": "hamlet", "population": 0, "name": "Ccotaqui" }, "geometry": { "type": "Point", "coordinates": [ -72.9432333, -13.4833982 ] } },
{ "type": "Feature", "properties": { "fid": 13, "osm_id": "3544155911", "code": 1004, "fclass": "hamlet", "population": 0, "name": "Ccoya" }, "geometry": { "type": "Point", "coordinates": [ -73.0009827, -13.5216119 ] } },
{ "type": "Feature", "properties": { "fid": 14, "osm_id": "3544155912", "code": 1004, "fclass": "hamlet", "population": 0, "name": "Chanchayllo" }, "geometry": { "type": "Point", "coordinates": [ -72.8737779, -13.5000932 ] } },
{ "type": "Feature", "properties": { "fid": 15, "osm_id": "3544155913", "code": 1004, "fclass": "hamlet", "population": 0, "name": "Chaquicachayoc" }, "geometry": { "type": "Point", "coordinates": [ -72.8768311, -13.5396114 ] } },
{ "type": "Feature", "properties": { "fid": 16, "osm_id": "3544155914", "code": 1003, "fclass": "village", "population": 0, "name": "Chaquiccocha" }, "geometry": { "type": "Point", "coordinates": [ -73.0361921, -13.5020341 ] } },
{ "type": "Feature", "properties": { "fid": 17, "osm_id": "3544155915", "code": 1004, "fclass": "hamlet", "population": 0, "name": "Chihuampata" }, "geometry": { "type": "Point", "coordinates": [ -72.948009, -13.5014637 ] } },
{ "type": "Feature", "properties": { "fid": 18, "osm_id": "3544155916", "code": 1004, "fclass": "hamlet", "population": 0, "name": "Chuncallqui" }, "geometry": { "type": "Point", "coordinates": [ -72.9845781, -13.4384546 ] } },
{ "type": "Feature", "properties": { "fid": 19, "osm_id": "3544155917", "code": 1004, "fclass": "hamlet", "population": 0, "name": "Cusi Pata" }, "geometry": { "type": "Point", "coordinates": [ -72.9925163, -13.5092304 ] } },
{ "type": "Feature", "properties": { "fid": 20, "osm_id": "3544155918", "code": 1004, "fclass": "hamlet", "population": 0, "name": "Cutabambas" }, "geometry": { "type": "Point", "coordinates": [ -72.8753443, -13.5131164 ] } },
{ "type": "Feature", "properties": { "fid": 21, "osm_id": "3544155919", "code": 1004, "fclass": "hamlet", "population": 0, "name": "Ecnayo" }, "geometry": { "type": "Point", "coordinates": [ -73.012553, -13.4260005 ] } },
{ "type": "Feature", "properties": { "fid": 22, "osm_id": "3544155920", "code": 1004, "fclass": "hamlet", "population": 0, "name": "Etnay" }, "geometry": { "type": "Point", "coordinates": [ -72.9775438, -13.4335191 ] } },
{ "type": "Feature", "properties": { "fid": 23, "osm_id": "3544155921", "code": 1004, "fclass": "hamlet", "population": 0, "name": "Huaccompa" }, "geometry": { "type": "Point", "coordinates": [ -72.9192243, -13.4938447 ] } },
{ "type": "Feature", "properties": { "fid": 24, "osm_id": "3544155922", "code": 1003, "fclass": "village", "population": 0, "name": "Huanchulla" }, "geometry": { "type": "Point", "coordinates": [ -73.0271483, -13.4976451 ] } },
{ "type": "Feature", "properties": { "fid": 25, "osm_id": "3544155923", "code": 1004, "fclass": "hamlet", "population": 0, "name": "Huanusqui" }, "geometry": { "type": "Point", "coordinates": [ -72.9741652, -13.5024998 ] } },
{ "type": "Feature", "properties": { "fid": 26, "osm_id": "3544155924", "code": 1004, "fclass": "hamlet", "population": 0, "name": "Huarayocc" }, "geometry": { "type": "Point", "coordinates": [ -72.9972585, -13.5234946 ] } },
{ "type": "Feature", "properties": { "fid": 27, "osm_id": "3544155925", "code": 1004, "fclass": "hamlet", "population": 0, "name": "Huayllani" }, "geometry": { "type": "Point", "coordinates": [ -72.8965582, -13.4419389 ] } },
{ "type": "Feature", "properties": { "fid": 28, "osm_id": "3544155926", "code": 1004, "fclass": "hamlet", "population": 0, "name": "Huayruropata" }, "geometry": { "type": "Point", "coordinates": [ -72.9956182, -13.5173245 ] } },
{ "type": "Feature", "properties": { "fid": 29, "osm_id": "3544155927", "code": 1004, "fclass": "hamlet", "population": 0, "name": "Humanay" }, "geometry": { "type": "Point", "coordinates": [ -72.881899, -13.4233821 ] } },
{ "type": "Feature", "properties": { "fid": 30, "osm_id": "3544155928", "code": 1004, "fclass": "hamlet", "population": 0, "name": "Ichu Orcco" }, "geometry": { "type": "Point", "coordinates": [ -72.8899567, -13.4535218 ] } },
{ "type": "Feature", "properties": { "fid": 31, "osm_id": "3544155929", "code": 1003, "fclass": "village", "population": 0, "name": "Karquequi" }, "geometry": { "type": "Point", "coordinates": [ -73.0464866, -13.4599962 ] } },
{ "type": "Feature", "properties": { "fid": 32, "osm_id": "3544155930", "code": 1004, "fclass": "hamlet", "population": 0, "name": "Kerapata" }, "geometry": { "type": "Point", "coordinates": [ -72.9332706, -13.485943 ] } },
{ "type": "Feature", "properties": { "fid": 33, "osm_id": "3544155931", "code": 1003, "fclass": "village", "population": 0, "name": "Kiuñalla" }, "geometry": { "type": "Point", "coordinates": [ -72.8942022, -13.4377178 ] } },
{ "type": "Feature", "properties": { "fid": 34, "osm_id": "3544155932", "code": 1004, "fclass": "hamlet", "population": 0, "name": "Lacchirhuay" }, "geometry": { "type": "Point", "coordinates": [ -72.8982013, -13.4463886 ] } },
{ "type": "Feature", "properties": { "fid": 35, "osm_id": "3544155933", "code": 1004, "fclass": "hamlet", "population": 0, "name": "Lambramaqui" }, "geometry": { "type": "Point", "coordinates": [ -72.9209266, -13.4999026 ] } },
{ "type": "Feature", "properties": { "fid": 36, "osm_id": "3544155934", "code": 1004, "fclass": "hamlet", "population": 0, "name": "Layampampa" }, "geometry": { "type": "Point", "coordinates": [ -72.9017823, -13.4989702 ] } },
{ "type": "Feature", "properties": { "fid": 37, "osm_id": "3544155936", "code": 1004, "fclass": "hamlet", "population": 0, "name": "Lirio" }, "geometry": { "type": "Point", "coordinates": [ -72.9581399, -13.445778 ] } },
{ "type": "Feature", "properties": { "fid": 38, "osm_id": "3544155937", "code": 1004, "fclass": "hamlet", "population": 0, "name": "Livirco" }, "geometry": { "type": "Point", "coordinates": [ -72.8840943, -13.5372393 ] } },
{ "type": "Feature", "properties": { "fid": 39, "osm_id": "3544155938", "code": 1004, "fclass": "hamlet", "population": 0, "name": "Llaullipata" }, "geometry": { "type": "Point", "coordinates": [ -72.9408227, -13.4897755 ] } },
{ "type": "Feature", "properties": { "fid": 40, "osm_id": "3544155940", "code": 1004, "fclass": "hamlet", "population": 0, "name": "Macayhuani" }, "geometry": { "type": "Point", "coordinates": [ -72.9040242, -13.4326323 ] } },
{ "type": "Feature", "properties": { "fid": 41, "osm_id": "3544155942", "code": 1004, "fclass": "hamlet", "population": 0, "name": "Marampata" }, "geometry": { "type": "Point", "coordinates": [ -72.999537, -13.4378114 ] } },
{ "type": "Feature", "properties": { "fid": 42, "osm_id": "3544155943", "code": 1004, "fclass": "hamlet", "population": 0, "name": "Marccopucro" }, "geometry": { "type": "Point", "coordinates": [ -72.9286082, -13.4933826 ] } },
{ "type": "Feature", "properties": { "fid": 43, "osm_id": "3544155944", "code": 1004, "fclass": "hamlet", "population": 0, "name": "Marccopucro" }, "geometry": { "type": "Point", "coordinates": [ -72.9515701, -13.5325516 ] } },
{ "type": "Feature", "properties": { "fid": 44, "osm_id": "3544155945", "code": 1004, "fclass": "hamlet", "population": 0, "name": "Mayhuay" }, "geometry": { "type": "Point", "coordinates": [ -72.8977701, -13.4881622 ] } },
{ "type": "Feature", "properties": { "fid": 45, "osm_id": "3544155946", "code": 1004, "fclass": "hamlet", "population": 0, "name": "Mayocc" }, "geometry": { "type": "Point", "coordinates": [ -72.8778204, -13.4764593 ] } },
{ "type": "Feature", "properties": { "fid": 46, "osm_id": "3544155947", "code": 1004, "fclass": "hamlet", "population": 0, "name": "Mitanay" }, "geometry": { "type": "Point", "coordinates": [ -72.9268543, -13.4813167 ] } },
{ "type": "Feature", "properties": { "fid": 47, "osm_id": "3544155949", "code": 1004, "fclass": "hamlet", "population": 0, "name": "Murcoy" }, "geometry": { "type": "Point", "coordinates": [ -72.9149633, -13.4975508 ] } },
{ "type": "Feature", "properties": { "fid": 48, "osm_id": "3544155950", "code": 1003, "fclass": "village", "population": 0, "name": "Mutcapata" }, "geometry": { "type": "Point", "coordinates": [ -72.9234461, -13.4869392 ] } },
{ "type": "Feature", "properties": { "fid": 49, "osm_id": "3544155951", "code": 1003, "fclass": "village", "population": 0, "name": "Occopata" }, "geometry": { "type": "Point", "coordinates": [ -73.0026082, -13.5270201 ] } },
{ "type": "Feature", "properties": { "fid": 50, "osm_id": "3544155952", "code": 1003, "fclass": "village", "population": 0, "name": "Pacobamba" }, "geometry": { "type": "Point", "coordinates": [ -72.9257613, -13.48367 ] } },
{ "type": "Feature", "properties": { "fid": 51, "osm_id": "3544155953", "code": 1004, "fclass": "hamlet", "population": 0, "name": "Pajonal" }, "geometry": { "type": "Point", "coordinates": [ -73.1101228, -13.4737373 ] } },
{ "type": "Feature", "properties": { "fid": 52, "osm_id": "3544155956", "code": 1004, "fclass": "hamlet", "population": 0, "name": "Parhuani" }, "geometry": { "type": "Point", "coordinates": [ -72.8899783, -13.5253603 ] } },
{ "type": "Feature", "properties": { "fid": 53, "osm_id": "3544155957", "code": 1004, "fclass": "hamlet", "population": 0, "name": "Pariguana" }, "geometry": { "type": "Point", "coordinates": [ -72.8966155, -13.4996005 ] } },
{ "type": "Feature", "properties": { "fid": 54, "osm_id": "3544155958", "code": 1004, "fclass": "hamlet", "population": 0, "name": "Pataquisqayoc" }, "geometry": { "type": "Point", "coordinates": [ -73.0780074, -13.4791062 ] } },
{ "type": "Feature", "properties": { "fid": 55, "osm_id": "3544155960", "code": 1004, "fclass": "hamlet", "population": 0, "name": "Potrero" }, "geometry": { "type": "Point", "coordinates": [ -72.9054983, -13.518752 ] } },
{ "type": "Feature", "properties": { "fid": 56, "osm_id": "3544155961", "code": 1004, "fclass": "hamlet", "population": 0, "name": "Pujyupampa" }, "geometry": { "type": "Point", "coordinates": [ -72.9294715, -13.4996303 ] } },
{ "type": "Feature", "properties": { "fid": 57, "osm_id": "3544155962", "code": 1004, "fclass": "hamlet", "population": 0, "name": "Puncutuy" }, "geometry": { "type": "Point", "coordinates": [ -72.8901346, -13.4763829 ] } },
{ "type": "Feature", "properties": { "fid": 58, "osm_id": "3544155963", "code": 1004, "fclass": "hamlet", "population": 0, "name": "Quisuar" }, "geometry": { "type": "Point", "coordinates": [ -72.8980313, -13.5022339 ] } },
{ "type": "Feature", "properties": { "fid": 59, "osm_id": "3544155964", "code": 1004, "fclass": "hamlet", "population": 0, "name": "Rajarajaynioc" }, "geometry": { "type": "Point", "coordinates": [ -72.9949827, -13.5114256 ] } },
{ "type": "Feature", "properties": { "fid": 60, "osm_id": "3544155965", "code": 1004, "fclass": "hamlet", "population": 0, "name": "Roncohuasi" }, "geometry": { "type": "Point", "coordinates": [ -72.885893, -13.5003902 ] } },
{ "type": "Feature", "properties": { "fid": 61, "osm_id": "3544155966", "code": 1004, "fclass": "hamlet", "population": 0, "name": "Rosaspata" }, "geometry": { "type": "Point", "coordinates": [ -72.910707, -13.4795102 ] } },
{ "type": "Feature", "properties": { "fid": 62, "osm_id": "3544155968", "code": 1004, "fclass": "hamlet", "population": 0, "name": "San Francisco" }, "geometry": { "type": "Point", "coordinates": [ -72.8753848, -13.4724169 ] } },
{ "type": "Feature", "properties": { "fid": 63, "osm_id": "3544155969", "code": 1004, "fclass": "hamlet", "population": 0, "name": "San Ignacio" }, "geometry": { "type": "Point", "coordinates": [ -72.8801451, -13.4208886 ] } },
{ "type": "Feature", "properties": { "fid": 64, "osm_id": "3544155970", "code": 1004, "fclass": "hamlet", "population": 0, "name": "San Pedro" }, "geometry": { "type": "Point", "coordinates": [ -72.8840368, -13.477676 ] } },
{ "type": "Feature", "properties": { "fid": 65, "osm_id": "3544155971", "code": 1004, "fclass": "hamlet", "population": 0, "name": "Santa Isabel" }, "geometry": { "type": "Point", "coordinates": [ -72.8689713, -13.4765736 ] } },
{ "type": "Feature", "properties": { "fid": 66, "osm_id": "3544155972", "code": 1004, "fclass": "hamlet", "population": 0, "name": "Sicllabamba" }, "geometry": { "type": "Point", "coordinates": [ -72.919274, -13.4964651 ] } },
{ "type": "Feature", "properties": { "fid": 67, "osm_id": "3544155973", "code": 1004, "fclass": "hamlet", "population": 0, "name": "Soncotoy" }, "geometry": { "type": "Point", "coordinates": [ -72.8881368, -13.4390893 ] } },
{ "type": "Feature", "properties": { "fid": 68, "osm_id": "3544155974", "code": 1003, "fclass": "village", "population": 0, "name": "Sorcca" }, "geometry": { "type": "Point", "coordinates": [ -72.9943978, -13.5068926 ] } },
{ "type": "Feature", "properties": { "fid": 69, "osm_id": "3544155976", "code": 1004, "fclass": "hamlet", "population": 0, "name": "Suyunacuy" }, "geometry": { "type": "Point", "coordinates": [ -72.8995991, -13.4355578 ] } },
{ "type": "Feature", "properties": { "fid": 70, "osm_id": "3544155977", "code": 1003, "fclass": "village", "population": 0, "name": "Tacmara" }, "geometry": { "type": "Point", "coordinates": [ -73.0538332, -13.4780418 ] } },
{ "type": "Feature", "properties": { "fid": 71, "osm_id": "3544155978", "code": 1003, "fclass": "village", "population": 0, "name": "Tambobamba" }, "geometry": { "type": "Point", "coordinates": [ -72.8890838, -13.4823028 ] } },
{ "type": "Feature", "properties": { "fid": 72, "osm_id": "3544155979", "code": 1004, "fclass": "hamlet", "population": 0, "name": "Tirantiyoc" }, "geometry": { "type": "Point", "coordinates": [ -73.0028085, -13.5155066 ] } },
{ "type": "Feature", "properties": { "fid": 73, "osm_id": "3544155981", "code": 1004, "fclass": "hamlet", "population": 0, "name": "Triunfo" }, "geometry": { "type": "Point", "coordinates": [ -73.0298095, -13.4199365 ] } },
{ "type": "Feature", "properties": { "fid": 74, "osm_id": "3544155982", "code": 1004, "fclass": "hamlet", "population": 0, "name": "Truja" }, "geometry": { "type": "Point", "coordinates": [ -72.8897951, -13.4928049 ] } },
{ "type": "Feature", "properties": { "fid": 75, "osm_id": "3544155983", "code": 1004, "fclass": "hamlet", "population": 0, "name": "Uchubamba" }, "geometry": { "type": "Point", "coordinates": [ -73.0292896, -13.5142163 ] } },
{ "type": "Feature", "properties": { "fid": 76, "osm_id": "3544155984", "code": 1004, "fclass": "hamlet", "population": 0, "name": "Uchunccoy" }, "geometry": { "type": "Point", "coordinates": [ -72.9784627, -13.5073818 ] } },
{ "type": "Feature", "properties": { "fid": 77, "osm_id": "3544155985", "code": 1004, "fclass": "hamlet", "population": 0, "name": "Umacalli" }, "geometry": { "type": "Point", "coordinates": [ -73.0196539, -13.4978908 ] } },
{ "type": "Feature", "properties": { "fid": 78, "osm_id": "3544155986", "code": 1004, "fclass": "hamlet", "population": 0, "name": "Uncalla" }, "geometry": { "type": "Point", "coordinates": [ -72.9249821, -13.4007957 ] } },
{ "type": "Feature", "properties": { "fid": 79, "osm_id": "3544155988", "code": 1004, "fclass": "hamlet", "population": 0, "name": "Yaritayoc" }, "geometry": { "type": "Point", "coordinates": [ -72.924295, -13.4926931 ] } },
{ "type": "Feature", "properties": { "fid": 80, "osm_id": "7515874424", "code": 1004, "fclass": "hamlet", "population": 0, "name": "Karquequi" }, "geometry": { "type": "Point", "coordinates": [ -73.0443122, -13.4531569 ] } },
{ "type": "Feature", "properties": { "fid": 81, "osm_id": "7721891977", "code": 1004, "fclass": "hamlet", "population": 0, "name": "Sicllabamba" }, "geometry": { "type": "Point", "coordinates": [ -72.9171836, -13.4876951 ] } },
{ "type": "Feature", "properties": { "fid": 82, "osm_id": "7721891979", "code": 1004, "fclass": "hamlet", "population": 0, "name": "Muñaqui" }, "geometry": { "type": "Point", "coordinates": [ -72.9207843, -13.4854934 ] } },
{ "type": "Feature", "properties": { "fid": 83, "osm_id": "7721891980", "code": 1004, "fclass": "hamlet", "population": 0, "name": "Puncutuy" }, "geometry": { "type": "Point", "coordinates": [ -72.9042366, -13.4808825 ] } },
{ "type": "Feature", "properties": { "fid": 84, "osm_id": "7721891982", "code": 1004, "fclass": "hamlet", "population": 0, "name": "Limanqui" }, "geometry": { "type": "Point", "coordinates": [ -72.9398352, -13.4897841 ] } }
]
}
