{
"type": "FeatureCollection",
"name": "SJO_labels",
"crs": { "type": "name", "properties": { "name": "urn:ogc:def:crs:OGC:1.3:CRS84" } },
"features": [
{ "type": "Feature", "properties": { "fid": 1, "osm_id": "5178149384", "code": 1003, "fclass": "village", "population": 0, "name": "San Juan del Oro" }, "geometry": { "type": "Point", "coordinates": [ -69.1537388, -14.220967 ] } },
{ "type": "Feature", "properties": { "fid": 2, "osm_id": "11292268923", "code": 1004, "fclass": "hamlet", "population": 0, "name": "Santa Ana" }, "geometry": { "type": "Point", "coordinates": [ -69.0680999, -14.1594917 ] } },
{ "type": "Feature", "properties": { "fid": 3, "osm_id": "11292277612", "code": 1004, "fclass": "hamlet", "population": 0, "name": "Pajchani" }, "geometry": { "type": "Point", "coordinates": [ -69.0830854, -14.1926121 ] } },
{ "type": "Feature", "properties": { "fid": 4, "osm_id": "11292277613", "code": 1004, "fclass": "hamlet", "population": 0, "name": "Ccollpani" }, "geometry": { "type": "Point", "coordinates": [ -69.0802127, -14.1722167 ] } },
{ "type": "Feature", "properties": { "fid": 5, "osm_id": "11292287787", "code": 1004, "fclass": "hamlet", "population": 0, "name": "Nogalani" }, "geometry": { "type": "Point", "coordinates": [ -69.1053356, -14.1897673 ] } },
{ "type": "Feature", "properties": { "fid": 6, "osm_id": "11292287788", "code": 1004, "fclass": "hamlet", "population": 0, "name": "San Pedro de Kasasani" }, "geometry": { "type": "Point", "coordinates": [ -69.1013753, -14.2039233 ] } },
{ "type": "Feature", "properties": { "fid": 7, "osm_id": "11292287789", "code": 1003, "fclass": "village", "population": 0, "name": "Yanamayo" }, "geometry": { "type": "Point", "coordinates": [ -69.0968263, -14.2005716 ] } },
{ "type": "Feature", "properties": { "fid": 8, "osm_id": "11292295803", "code": 1004, "fclass": "hamlet", "population": 0, "name": "Huancabamba" }, "geometry": { "type": "Point", "coordinates": [ -69.0310746, -14.1843429 ] } },
{ "type": "Feature", "properties": { "fid": 9, "osm_id": "11292295804", "code": 1004, "fclass": "hamlet", "population": 0, "name": "Vilcabamba" }, "geometry": { "type": "Point", "coordinates": [ -69.0383367, -14.1733402 ] } },
{ "type": "Feature", "properties": { "fid": 10, "osm_id": "11292295805", "code": 1004, "fclass": "hamlet", "population": 0, "name": "Pampa Salinas" }, "geometry": { "type": "Point", "coordinates": [ -69.0247688, -14.1709086 ] } },
{ "type": "Feature", "properties": { "fid": 11, "osm_id": "11292297957", "code": 1004, "fclass": "hamlet", "population": 0, "name": "San Salvador" }, "geometry": { "type": "Point", "coordinates": [ -69.0719475, -14.2048594 ] } },
{ "type": "Feature", "properties": { "fid": 12, "osm_id": "11292297958", "code": 1004, "fclass": "hamlet", "population": 0, "name": "Lucine" }, "geometry": { "type": "Point", "coordinates": [ -69.0348995, -14.2106655 ] } },
{ "type": "Feature", "properties": { "fid": 13, "osm_id": "11292669824", "code": 1004, "fclass": "hamlet", "population": 0, "name": "Challuhuma" }, "geometry": { "type": "Point", "coordinates": [ -69.1500531, -14.2097703 ] } },
{ "type": "Feature", "properties": { "fid": 14, "osm_id": "11292669825", "code": 1004, "fclass": "hamlet", "population": 0, "name": "Santa Rosa Quispicanchis" }, "geometry": { "type": "Point", "coordinates": [ -69.1306349, -14.2134977 ] } },
{ "type": "Feature", "properties": { "fid": 15, "osm_id": "11292669826", "code": 1004, "fclass": "hamlet", "population": 0, "name": "Yurajmayo" }, "geometry": { "type": "Point", "coordinates": [ -69.1127155, -14.2144404 ] } },
{ "type": "Feature", "properties": { "fid": 16, "osm_id": "11294808203", "code": 1004, "fclass": "hamlet", "population": 0, "name": "Belén" }, "geometry": { "type": "Point", "coordinates": [ -69.1597245, -14.2247396 ] } }
]
}
