{
"type": "FeatureCollection",
"name": "Yanatile_labels",
"crs": { "type": "name", "properties": { "name": "urn:ogc:def:crs:OGC:1.3:CRS84" } },
"features": [
{ "type": "Feature", "properties": { "fid": 1, "osm_id": "1237030055", "code": 1040, "fclass": "region", "population": 0, "name": "Calca" }, "geometry": { "type": "Point", "coordinates": [ -72.058177, -12.9397785 ] } },
{ "type": "Feature", "properties": { "fid": 2, "osm_id": "2360499616", "code": 1003, "fclass": "village", "population": 0, "name": "Pantorrilla" }, "geometry": { "type": "Point", "coordinates": [ -72.2630982, -12.6855134 ] } },
{ "type": "Feature", "properties": { "fid": 3, "osm_id": "2360500247", "code": 1003, "fclass": "village", "population": 0, "name": "Huachibamba" }, "geometry": { "type": "Point", "coordinates": [ -72.2081668, -12.7285518 ] } },
{ "type": "Feature", "properties": { "fid": 4, "osm_id": "2360500514", "code": 1002, "fclass": "town", "population": 0, "name": "Quebrada Honda" }, "geometry": { "type": "Point", "coordinates": [ -72.2775948, -12.6819116 ] } },
{ "type": "Feature", "properties": { "fid": 5, "osm_id": "2967028067", "code": 1003, "fclass": "village", "population": 0, "name": "Colca" }, "geometry": { "type": "Point", "coordinates": [ -72.1345505, -12.846789 ] } },
{ "type": "Feature", "properties": { "fid": 6, "osm_id": "3096346252", "code": 1004, "fclass": "hamlet", "population": 0, "name": "Juy Huay" }, "geometry": { "type": "Point", "coordinates": [ -72.0108765, -12.7656833 ] } },
{ "type": "Feature", "properties": { "fid": 7, "osm_id": "3485213498", "code": 1003, "fclass": "village", "population": 0, "name": "Suyo" }, "geometry": { "type": "Point", "coordinates": [ -71.9883805, -12.8108896 ] } },
{ "type": "Feature", "properties": { "fid": 8, "osm_id": "3485215333", "code": 1004, "fclass": "hamlet", "population": 0, "name": null }, "geometry": { "type": "Point", "coordinates": [ -71.9786703, -12.9391266 ] } },
{ "type": "Feature", "properties": { "fid": 9, "osm_id": "3485285255", "code": 1003, "fclass": "village", "population": 0, "name": "Versalles" }, "geometry": { "type": "Point", "coordinates": [ -72.3334377, -12.7062795 ] } },
{ "type": "Feature", "properties": { "fid": 10, "osm_id": "3490844737", "code": 1004, "fclass": "hamlet", "population": 0, "name": "Santa Elena" }, "geometry": { "type": "Point", "coordinates": [ -72.3043286, -12.7598035 ] } },
{ "type": "Feature", "properties": { "fid": 11, "osm_id": "3524030523", "code": 1004, "fclass": "hamlet", "population": 0, "name": null }, "geometry": { "type": "Point", "coordinates": [ -72.0214539, -12.7104143 ] } },
{ "type": "Feature", "properties": { "fid": 12, "osm_id": "3524032290", "code": 1003, "fclass": "village", "population": 0, "name": "Parobamba" }, "geometry": { "type": "Point", "coordinates": [ -71.87877, -12.970223 ] } },
{ "type": "Feature", "properties": { "fid": 13, "osm_id": "3538215325", "code": 1003, "fclass": "village", "population": 0, "name": "Mendosayoc" }, "geometry": { "type": "Point", "coordinates": [ -71.993283, -12.7513332 ] } },
{ "type": "Feature", "properties": { "fid": 14, "osm_id": "3538215926", "code": 1003, "fclass": "village", "population": 0, "name": "Yuracmayo" }, "geometry": { "type": "Point", "coordinates": [ -71.9797066, -12.782863 ] } },
{ "type": "Feature", "properties": { "fid": 15, "osm_id": "3726872308", "code": 1003, "fclass": "village", "population": 0, "name": "Muyupay" }, "geometry": { "type": "Point", "coordinates": [ -72.3609915, -12.6432233 ] } },
{ "type": "Feature", "properties": { "fid": 16, "osm_id": "3958342924", "code": 1003, "fclass": "village", "population": 0, "name": "Cuquipata" }, "geometry": { "type": "Point", "coordinates": [ -72.1786901, -12.7549164 ] } },
{ "type": "Feature", "properties": { "fid": 17, "osm_id": "3958342925", "code": 1004, "fclass": "hamlet", "population": 0, "name": "Maska" }, "geometry": { "type": "Point", "coordinates": [ -72.108078, -12.9260336 ] } },
{ "type": "Feature", "properties": { "fid": 18, "osm_id": "3958343664", "code": 1003, "fclass": "village", "population": 0, "name": "Luy Luy" }, "geometry": { "type": "Point", "coordinates": [ -72.1653127, -12.7778774 ] } },
{ "type": "Feature", "properties": { "fid": 19, "osm_id": "3958444077", "code": 1003, "fclass": "village", "population": 0, "name": null }, "geometry": { "type": "Point", "coordinates": [ -72.2232605, -12.714252 ] } },
{ "type": "Feature", "properties": { "fid": 20, "osm_id": "3958444085", "code": 1003, "fclass": "village", "population": 0, "name": "Riobamba" }, "geometry": { "type": "Point", "coordinates": [ -72.2318693, -12.7056742 ] } },
{ "type": "Feature", "properties": { "fid": 21, "osm_id": "4955686165", "code": 1003, "fclass": "village", "population": 0, "name": "San Jose de Sahuay" }, "geometry": { "type": "Point", "coordinates": [ -71.8582178, -12.9281651 ] } },
{ "type": "Feature", "properties": { "fid": 22, "osm_id": "4955686175", "code": 1003, "fclass": "village", "population": 0, "name": "Solan" }, "geometry": { "type": "Point", "coordinates": [ -71.8868785, -12.8966461 ] } },
{ "type": "Feature", "properties": { "fid": 23, "osm_id": "4955686185", "code": 1003, "fclass": "village", "population": 0, "name": "Otocani" }, "geometry": { "type": "Point", "coordinates": [ -71.9072378, -12.8737207 ] } },
{ "type": "Feature", "properties": { "fid": 24, "osm_id": "4955686862", "code": 1003, "fclass": "village", "population": 0, "name": "Hualla" }, "geometry": { "type": "Point", "coordinates": [ -71.9631486, -12.8384426 ] } },
{ "type": "Feature", "properties": { "fid": 25, "osm_id": "4955686963", "code": 1004, "fclass": "hamlet", "population": 0, "name": null }, "geometry": { "type": "Point", "coordinates": [ -71.9628059, -12.845444 ] } },
{ "type": "Feature", "properties": { "fid": 26, "osm_id": "4955687726", "code": 1004, "fclass": "hamlet", "population": 0, "name": "Sauki" }, "geometry": { "type": "Point", "coordinates": [ -71.9077528, -12.9304806 ] } },
{ "type": "Feature", "properties": { "fid": 27, "osm_id": "4955763165", "code": 1004, "fclass": "hamlet", "population": 0, "name": "San Antonio" }, "geometry": { "type": "Point", "coordinates": [ -72.0395048, -12.7040915 ] } },
{ "type": "Feature", "properties": { "fid": 28, "osm_id": "4955763181", "code": 1004, "fclass": "hamlet", "population": 0, "name": null }, "geometry": { "type": "Point", "coordinates": [ -72.0037241, -12.7419135 ] } },
{ "type": "Feature", "properties": { "fid": 29, "osm_id": "4955763200", "code": 1004, "fclass": "hamlet", "population": 0, "name": "San José" }, "geometry": { "type": "Point", "coordinates": [ -71.9685858, -12.80088 ] } },
{ "type": "Feature", "properties": { "fid": 30, "osm_id": "4955763201", "code": 1004, "fclass": "hamlet", "population": 0, "name": "Ichuni" }, "geometry": { "type": "Point", "coordinates": [ -71.9380167, -12.8026899 ] } },
{ "type": "Feature", "properties": { "fid": 31, "osm_id": "4955764970", "code": 1004, "fclass": "hamlet", "population": 0, "name": null }, "geometry": { "type": "Point", "coordinates": [ -71.9280617, -12.8126053 ] } },
{ "type": "Feature", "properties": { "fid": 32, "osm_id": "4955765242", "code": 1004, "fclass": "hamlet", "population": 0, "name": null }, "geometry": { "type": "Point", "coordinates": [ -71.9225779, -12.8290623 ] } },
{ "type": "Feature", "properties": { "fid": 33, "osm_id": "4955765243", "code": 1003, "fclass": "village", "population": 0, "name": "Televan" }, "geometry": { "type": "Point", "coordinates": [ -71.9280939, -12.8379671 ] } },
{ "type": "Feature", "properties": { "fid": 34, "osm_id": "4955768931", "code": 1004, "fclass": "hamlet", "population": 0, "name": "Jesus Maria" }, "geometry": { "type": "Point", "coordinates": [ -71.8293167, -12.952697 ] } },
{ "type": "Feature", "properties": { "fid": 35, "osm_id": "6391506023", "code": 1003, "fclass": "village", "population": 0, "name": "Umapata" }, "geometry": { "type": "Point", "coordinates": [ -71.9414887, -12.8805799 ] } },
{ "type": "Feature", "properties": { "fid": 36, "osm_id": "6391506024", "code": 1004, "fclass": "hamlet", "population": 0, "name": "Killapata" }, "geometry": { "type": "Point", "coordinates": [ -71.997579, -12.7956225 ] } },
{ "type": "Feature", "properties": { "fid": 37, "osm_id": "6391506025", "code": 1003, "fclass": "village", "population": 0, "name": "Chaquimayo" }, "geometry": { "type": "Point", "coordinates": [ -72.100093, -12.6828912 ] } },
{ "type": "Feature", "properties": { "fid": 38, "osm_id": "6471994562", "code": 1004, "fclass": "hamlet", "population": 0, "name": "Ichio" }, "geometry": { "type": "Point", "coordinates": [ -71.962483, -12.8106791 ] } },
{ "type": "Feature", "properties": { "fid": 39, "osm_id": "7212520888", "code": 1003, "fclass": "village", "population": 0, "name": "Ccorimayo" }, "geometry": { "type": "Point", "coordinates": [ -72.111471, -12.6738384 ] } },
{ "type": "Feature", "properties": { "fid": 40, "osm_id": "7233620417", "code": 1003, "fclass": "village", "population": 0, "name": "Lechemayo" }, "geometry": { "type": "Point", "coordinates": [ -72.103196, -12.6834993 ] } },
{ "type": "Feature", "properties": { "fid": 41, "osm_id": "7233621593", "code": 1003, "fclass": "village", "population": 0, "name": "Pacchac" }, "geometry": { "type": "Point", "coordinates": [ -72.1021973, -12.6763089 ] } },
{ "type": "Feature", "properties": { "fid": 42, "osm_id": "7248644606", "code": 1004, "fclass": "hamlet", "population": 0, "name": "Llactapata" }, "geometry": { "type": "Point", "coordinates": [ -72.0708729, -12.7056931 ] } },
{ "type": "Feature", "properties": { "fid": 43, "osm_id": "7698395707", "code": 1003, "fclass": "village", "population": 0, "name": "Yurac Turuyoc" }, "geometry": { "type": "Point", "coordinates": [ -71.8933405, -13.0047284 ] } },
{ "type": "Feature", "properties": { "fid": 44, "osm_id": "7698423051", "code": 1003, "fclass": "village", "population": 0, "name": "Ccochachayoc" }, "geometry": { "type": "Point", "coordinates": [ -72.1002249, -12.6424388 ] } },
{ "type": "Feature", "properties": { "fid": 45, "osm_id": "7713518150", "code": 1004, "fclass": "hamlet", "population": 0, "name": "Arenalniyoc" }, "geometry": { "type": "Point", "coordinates": [ -72.3217327, -12.6555991 ] } },
{ "type": "Feature", "properties": { "fid": 46, "osm_id": "7713518151", "code": 1004, "fclass": "hamlet", "population": 0, "name": "Moyomonte" }, "geometry": { "type": "Point", "coordinates": [ -72.2897356, -12.6930378 ] } },
{ "type": "Feature", "properties": { "fid": 47, "osm_id": "7717509994", "code": 1004, "fclass": "hamlet", "population": 0, "name": "Otalo" }, "geometry": { "type": "Point", "coordinates": [ -72.1430458, -12.8767532 ] } },
{ "type": "Feature", "properties": { "fid": 48, "osm_id": "7717551861", "code": 1004, "fclass": "hamlet", "population": 0, "name": "Incacancha" }, "geometry": { "type": "Point", "coordinates": [ -71.9275751, -13.0029307 ] } },
{ "type": "Feature", "properties": { "fid": 49, "osm_id": "9704150503", "code": 1004, "fclass": "hamlet", "population": 0, "name": "Churuyoc" }, "geometry": { "type": "Point", "coordinates": [ -72.1227331, -12.6361928 ] } },
{ "type": "Feature", "properties": { "fid": 50, "osm_id": "9704159648", "code": 1004, "fclass": "hamlet", "population": 0, "name": "Naranjayoc" }, "geometry": { "type": "Point", "coordinates": [ -72.10938, -12.6324837 ] } },
{ "type": "Feature", "properties": { "fid": 51, "osm_id": "9704182857", "code": 1004, "fclass": "hamlet", "population": 0, "name": "Barrancas" }, "geometry": { "type": "Point", "coordinates": [ -72.0657845, -12.7034261 ] } },
{ "type": "Feature", "properties": { "fid": 52, "osm_id": "9704194654", "code": 1004, "fclass": "hamlet", "population": 0, "name": "Cedropata" }, "geometry": { "type": "Point", "coordinates": [ -72.101468, -12.6663265 ] } }
]
}
