{
"type": "FeatureCollection",
"name": "SJO_fire_2024",
"features": [
{ "type": "Feature", "properties": { "fid": 24675, "FUENTE": "Servicio Nacional Forestal y de Fauna Silvestre", "DOCREG": null, "FECREG": null, "OBSERV": null, "ZONUTM": 19, "ORIGEN": 0, "REFER": null, "ANNO": "2024", "MES": "04", "DIA": null, "CODPIF": null, "CODRIF": null, "CODOIF": "OIF_PUN_20240910", "CODSIN": null, "SUPIND": 23.85, "NOMDEP": "PUNO", "NOMPRO": "SANDIA", "NOMDIS": "SAN JUAN DEL ORO", "CATDEP": "21", "CATPRO": "2112", "CATDIS": "211207", "VERAFECT": 0.0, "FFECHA": null, "created_us": "MGALAN", "created_da": "2025-06-11", "last_edite": "JMONTALBAN", "last_edi_1": "2025-10-09", "Shape_STAr": 1.99838730287e-05, "Shape_STLe": 0.042571625327599998 }, "geometry": { "type": "MultiPolygon", "coordinates": [ [ [ [ -69.093905561999975, -14.168278800999929 ], [ -69.09388179299998, -14.168302574999927 ], [ -69.093834252999955, -14.168302574999927 ], [ -69.09381048299997, -14.16835012599995 ], [ -69.093810481999981, -14.16844522599996 ], [ -69.09378671199994, -14.168492776999926 ], [ -69.093739171999971, -14.168492775999937 ], [ -69.09371540099994, -14.168516549999936 ], [ -69.09371540099994, -14.168564100999959 ], [ -69.093691630999956, -14.168587874999957 ], [ -69.093644089999941, -14.168587876999936 ], [ -69.093620319999957, -14.168706749999956 ], [ -69.093620318999967, -14.168944500999942 ], [ -69.093596548999983, -14.169063376999929 ], [ -69.093549007999968, -14.16906337599994 ], [ -69.093525237999984, -14.169087150999928 ], [ -69.093525237999984, -14.169134701999951 ], [ -69.093549007999968, -14.169158476999939 ], [ -69.093596548999983, -14.16915847599995 ], [ -69.093620318999967, -14.169229801999961 ], [ -69.093620318999967, -14.169372452999937 ], [ -69.093596547999937, -14.169443776999969 ], [ -69.093549007999968, -14.16944377599998 ], [ -69.093525237999984, -14.169467551999958 ], [ -69.093525237999984, -14.169515101999934 ], [ -69.093549007999968, -14.169538877999969 ], [ -69.093596547999937, -14.169538875999933 ], [ -69.093620319999957, -14.169586426999956 ], [ -69.093620318999967, -14.169681527999956 ], [ -69.093644089999941, -14.169729077999932 ], [ -69.093691629999967, -14.169729075999953 ], [ -69.09371540099994, -14.169800402999954 ], [ -69.09371540099994, -14.169943051999951 ], [ -69.093762940999966, -14.170014376999973 ], [ -69.093858021999949, -14.170014377999962 ], [ -69.093905562999964, -14.17003815299995 ], [ -69.093905562999964, -14.170085701999938 ], [ -69.093929332999949, -14.170109477999972 ], [ -69.093976872999974, -14.170109477999972 ], [ -69.094000642999958, -14.170133251999971 ], [ -69.094000643999948, -14.170180802999937 ], [ -69.094024414999978, -14.170204577999982 ], [ -69.094071954999947, -14.170204577999982 ], [ -69.094095725999978, -14.170394778999935 ], [ -69.094095723999942, -14.170775178999975 ], [ -69.094119494999973, -14.170965379999927 ], [ -69.094167035999988, -14.170965378999938 ], [ -69.094190806999961, -14.170989152999937 ], [ -69.094190806999961, -14.17103670399996 ], [ -69.094167035999988, -14.171060478999948 ], [ -69.094119494999973, -14.171060478999948 ], [ -69.094095725999978, -14.17113180399997 ], [ -69.094095723999942, -14.171274452999967 ], [ -69.094119493999983, -14.171345779999967 ], [ -69.094167036999977, -14.171345779999967 ], [ -69.094190806999961, -14.171369552999977 ], [ -69.094190805999972, -14.171417103999943 ], [ -69.094143265999946, -14.171440879999977 ], [ -69.094048184999963, -14.171440878999931 ], [ -69.094000644999937, -14.171464653999976 ], [ -69.094000643999948, -14.171512203999953 ], [ -69.093976873999964, -14.171535978999941 ], [ -69.093929331999959, -14.171535979999931 ], [ -69.093905562999964, -14.171583529999964 ], [ -69.093905562999964, -14.171678629999974 ], [ -69.093881791999934, -14.171726179999951 ], [ -69.093834252999955, -14.171726178999961 ], [ -69.093810481999981, -14.171678628999928 ], [ -69.093810481999981, -14.171583529999964 ], [ -69.093739171999971, -14.171535977999952 ], [ -69.093596549999972, -14.171535979999931 ], [ -69.093525238999973, -14.171631079999941 ], [ -69.093525238999973, -14.171821279999961 ], [ -69.093406387999948, -14.171916379999971 ], [ -69.093168684999966, -14.171916379999971 ], [ -69.093049831999963, -14.171987704999935 ], [ -69.093049833999942, -14.172130355999968 ], [ -69.093026063999957, -14.172201680999933 ], [ -69.092978522999942, -14.172201679999944 ], [ -69.092954751999969, -14.172249230999967 ], [ -69.092954752999958, -14.17234432999993 ], [ -69.092907211999943, -14.172391880999953 ], [ -69.09281213099996, -14.172391879999964 ], [ -69.092764588999955, -14.172368104999975 ], [ -69.092764588999955, -14.172320555999931 ], [ -69.092693279999935, -14.172296780999943 ], [ -69.092550657999936, -14.172296780999943 ], [ -69.092479346999937, -14.172249230999967 ], [ -69.092479346999937, -14.172154129999967 ], [ -69.092455576999953, -14.172106579999934 ], [ -69.092408035999938, -14.172106579999934 ], [ -69.092384265999954, -14.171963929999947 ], [ -69.092384265999954, -14.171678628999928 ], [ -69.092431806999969, -14.171535978999941 ], [ -69.092526885999973, -14.171535979999931 ], [ -69.092574427999978, -14.171488427999975 ], [ -69.092574426999988, -14.171393329999944 ], [ -69.092526886999963, -14.171345779999967 ], [ -69.092431806999969, -14.171345778999978 ], [ -69.092384265999954, -14.171298228999945 ], [ -69.092384265999954, -14.171203127999945 ], [ -69.09236049499998, -14.171155579999947 ], [ -69.092312954999954, -14.171155577999969 ], [ -69.09228918499997, -14.171131804999959 ], [ -69.09228918499997, -14.171084252999947 ], [ -69.092241644999945, -14.171060478999948 ], [ -69.092146561999982, -14.171060477999958 ], [ -69.092099021999957, -14.171084252999947 ], [ -69.092099022999946, -14.17113180399997 ], [ -69.092075252999962, -14.171155577999969 ], [ -69.092027710999957, -14.171155577999969 ], [ -69.092003940999973, -14.171203129999981 ], [ -69.092003941999963, -14.171298228999945 ], [ -69.091908860999979, -14.171345779999967 ], [ -69.091718696999976, -14.171345778999978 ], [ -69.091623615999936, -14.171250679999957 ], [ -69.091623616999982, -14.171060478999948 ], [ -69.091599846999941, -14.170965378999938 ], [ -69.091552306999972, -14.170965378999938 ], [ -69.091528535999942, -14.17094160399995 ], [ -69.091528535999942, -14.170894053999973 ], [ -69.091504766999947, -14.170870277999938 ], [ -69.091457224999942, -14.170870277999938 ], [ -69.091433454999958, -14.17084650399994 ], [ -69.091433454999958, -14.170798952999974 ], [ -69.091409684999974, -14.170775178999975 ], [ -69.091362144999948, -14.170775178999975 ], [ -69.091338372999985, -14.17075140299994 ], [ -69.091338372999985, -14.170703853999953 ], [ -69.09129083299996, -14.170680078999965 ], [ -69.091195752999965, -14.170680078999965 ], [ -69.09114821199995, -14.170656303999976 ], [ -69.09114821199995, -14.170608752999954 ], [ -69.091124441999966, -14.170584978999955 ], [ -69.091076901999941, -14.170584978999955 ], [ -69.091053130999967, -14.170608752999954 ], [ -69.091053130999967, -14.17065630299993 ], [ -69.091029359999936, -14.170680078999965 ], [ -69.090981819999968, -14.170680078999965 ], [ -69.090958049999983, -14.170608753999943 ], [ -69.090958049999983, -14.170466101999978 ], [ -69.090934278999953, -14.170394777999945 ], [ -69.090886737999938, -14.170394776999956 ], [ -69.090862967999954, -14.170347226999979 ], [ -69.090862967999954, -14.170252128999948 ], [ -69.09083919699998, -14.170204576999936 ], [ -69.090791656999954, -14.170204577999982 ], [ -69.090767887999959, -14.170180802999937 ], [ -69.09076788699997, -14.170133251999971 ], [ -69.090744116999986, -14.170109478999962 ], [ -69.090696575999971, -14.170109477999972 ], [ -69.090672806999976, -14.170085702999927 ], [ -69.09067280499994, -14.17003815299995 ], [ -69.090625265999961, -14.170014377999962 ], [ -69.090530184999977, -14.170014376999973 ], [ -69.090482644999952, -14.169990602999974 ], [ -69.090482643999962, -14.169943051999951 ], [ -69.090458874999968, -14.169919277999952 ], [ -69.090411333999953, -14.169919277999952 ], [ -69.090387563999968, -14.169824177999942 ], [ -69.090387561999933, -14.169633977999979 ], [ -69.090363791999948, -14.169538875999933 ], [ -69.090316250999933, -14.169538875999933 ], [ -69.090292482999985, -14.169515100999945 ], [ -69.090292480999949, -14.169467551999958 ], [ -69.090268711999954, -14.16944377599998 ], [ -69.090221171999985, -14.16944377599998 ], [ -69.090197400999955, -14.169420001999981 ], [ -69.090197400999955, -14.169372450999958 ], [ -69.090173629999981, -14.16934867599997 ], [ -69.090126089999956, -14.169348676999959 ], [ -69.090102319999971, -14.169324900999982 ], [ -69.090102320999961, -14.169277350999948 ], [ -69.090078549999987, -14.16925357599996 ], [ -69.090031008999972, -14.16925357599996 ], [ -69.090007238999988, -14.169277352999927 ], [ -69.090007238999988, -14.169324901999971 ], [ -69.089983468999947, -14.16934867599997 ], [ -69.089935928999978, -14.169348676999959 ], [ -69.089912157999947, -14.169372452999937 ], [ -69.089912157999947, -14.169420001999981 ], [ -69.089840845999959, -14.16944377599998 ], [ -69.089698225999939, -14.16944377599998 ], [ -69.08962691499994, -14.169467551999958 ], [ -69.08962691399995, -14.169515100999945 ], [ -69.089603144999955, -14.169538877999969 ], [ -69.089555603999941, -14.169538876999979 ], [ -69.089531834999946, -14.169515102999981 ], [ -69.089531832999967, -14.169467550999968 ], [ -69.089484292999941, -14.16944377599998 ], [ -69.089389212999947, -14.169443777999959 ], [ -69.089341671999932, -14.169396226999936 ], [ -69.089341670999943, -14.169301126999926 ], [ -69.089317900999959, -14.16925357599996 ], [ -69.089270360999933, -14.169253576999949 ], [ -69.089246590999949, -14.169206025999927 ], [ -69.089246589999959, -14.169110926999963 ], [ -69.089222819999975, -14.169063376999929 ], [ -69.089175279999949, -14.169063376999929 ], [ -69.089151509999965, -14.169039601999941 ], [ -69.089151509999965, -14.168992050999975 ], [ -69.089127738999935, -14.168968276999976 ], [ -69.089080197999976, -14.168968276999976 ], [ -69.089056426999946, -14.168896951999955 ], [ -69.089056426999946, -14.168754299999932 ], [ -69.089032659999987, -14.168682974999967 ], [ -69.088985116999936, -14.168682976999946 ], [ -69.088961347999941, -14.168587876999936 ], [ -69.088961347999941, -14.168397674999937 ], [ -69.088842495999984, -14.168302575999974 ], [ -69.088604793999934, -14.168302574999927 ], [ -69.088485940999988, -14.168611651999981 ], [ -69.088485941999977, -14.169229800999972 ], [ -69.088414629999988, -14.169538877999969 ], [ -69.088272009999969, -14.169538877999969 ], [ -69.08820069899997, -14.169562650999978 ], [ -69.08820069899997, -14.169610202999934 ], [ -69.088176927999939, -14.169633977999979 ], [ -69.08812938799997, -14.169633976999933 ], [ -69.088105617999986, -14.169705302999944 ], [ -69.088105617999986, -14.16984795299993 ], [ -69.08812938799997, -14.169919277999952 ], [ -69.088176927999939, -14.169919276999963 ], [ -69.08820069799998, -14.169966827999929 ], [ -69.08820069899997, -14.170061927999939 ], [ -69.088224468999954, -14.170109477999972 ], [ -69.088272009999969, -14.170109477999972 ], [ -69.088295779999953, -14.17013325299996 ], [ -69.088295779999953, -14.170180801999948 ], [ -69.088343320999968, -14.170204576999936 ], [ -69.088438400999962, -14.170204577999982 ], [ -69.088485940999988, -14.170275902999947 ], [ -69.088485941999977, -14.17041855399998 ], [ -69.088509710999972, -14.170489878999945 ], [ -69.088557251999987, -14.170489878999945 ], [ -69.08858102399995, -14.170513652999944 ], [ -69.08858102399995, -14.170561203999966 ], [ -69.088699874999975, -14.170584978999955 ], [ -69.088937575999978, -14.170584977999965 ], [ -69.089056426999946, -14.170608752999954 ], [ -69.089056426999946, -14.170656303999976 ], [ -69.089080198999966, -14.170680077999975 ], [ -69.089127738999935, -14.170680078999965 ], [ -69.089151509999965, -14.170703853999953 ], [ -69.089151509999965, -14.17075140299994 ], [ -69.089175279999949, -14.170775178999975 ], [ -69.089222820999964, -14.170775177999928 ], [ -69.08924658899997, -14.170798952999974 ], [ -69.08924658899997, -14.17084650399994 ], [ -69.089270360999933, -14.170870277999938 ], [ -69.089317899999969, -14.170870278999928 ], [ -69.089341671999932, -14.170894053999973 ], [ -69.089341671999932, -14.17094160399995 ], [ -69.089365441999973, -14.170965378999938 ], [ -69.089412980999953, -14.170965378999938 ], [ -69.089436752999973, -14.170989153999926 ], [ -69.089436752999973, -14.17103670299997 ], [ -69.089508063999972, -14.171060477999958 ], [ -69.08965068599997, -14.171060477999958 ], [ -69.08972199599998, -14.171084253999936 ], [ -69.08972199599998, -14.171131804999959 ], [ -69.089793306999979, -14.171155578999958 ], [ -69.089935929999967, -14.171155579999947 ], [ -69.090007238999988, -14.171203128999935 ], [ -69.090007238999988, -14.171298229999934 ], [ -69.090031008999972, -14.171345777999932 ], [ -69.090078549999987, -14.171345779999967 ], [ -69.090102320999961, -14.171393329999944 ], [ -69.090102319999971, -14.171488428999965 ], [ -69.090126090999945, -14.171535979999931 ], [ -69.090173629999981, -14.171535979999931 ], [ -69.090197400999955, -14.171559754999976 ], [ -69.090197400999955, -14.171607303999963 ], [ -69.09024494199997, -14.171631079999941 ], [ -69.090340022999953, -14.171631078999951 ], [ -69.090387563999968, -14.171678629999974 ], [ -69.090387561999933, -14.171773728999938 ], [ -69.090411331999974, -14.171821279999961 ], [ -69.090458874999968, -14.171821279999961 ], [ -69.090482643999962, -14.171963930999937 ], [ -69.090482643999962, -14.172249228999931 ], [ -69.090506414999936, -14.172391880999953 ], [ -69.090553955999951, -14.172391880999953 ], [ -69.090577725999935, -14.172415655999941 ], [ -69.090577724999946, -14.172463204999929 ], [ -69.090672806999976, -14.172486980999963 ], [ -69.090862967999954, -14.172486979999974 ], [ -69.090958049999983, -14.172510755999951 ], [ -69.090958049999983, -14.172558305999928 ], [ -69.090981819999968, -14.172582079999927 ], [ -69.091029360999983, -14.172582079999927 ], [ -69.091053130999967, -14.17262962999996 ], [ -69.091053130999967, -14.17272473099996 ], [ -69.091029359999936, -14.172772280999936 ], [ -69.090981820999957, -14.172772280999936 ], [ -69.090958049999983, -14.172796056999971 ], [ -69.090958049999983, -14.172843605999958 ], [ -69.090934279999942, -14.172867379999957 ], [ -69.090886737999938, -14.172867379999957 ], [ -69.090862967999954, -14.172962481999946 ], [ -69.090862967999954, -14.173152681999966 ], [ -69.090886739999974, -14.17324778099993 ], [ -69.090934278999953, -14.17324778099993 ], [ -69.090958049999983, -14.173271555999975 ], [ -69.090958049999983, -14.173319105999951 ], [ -69.090981819999968, -14.173342881999929 ], [ -69.091029360999983, -14.173342881999929 ], [ -69.091053130999967, -14.173390430999973 ], [ -69.091053130999967, -14.173485530999926 ], [ -69.091076901999941, -14.173533081999949 ], [ -69.091124439999987, -14.173533081999949 ], [ -69.09114821299994, -14.173556857999927 ], [ -69.09114821199995, -14.173604405999981 ], [ -69.091171980999945, -14.173628181999959 ], [ -69.09121952199996, -14.173628181999959 ], [ -69.091243292999934, -14.173675732999982 ], [ -69.091243292999934, -14.173770830999956 ], [ -69.09121952199996, -14.173818381999979 ], [ -69.091171980999945, -14.173818381999979 ], [ -69.091148210999961, -14.173842155999978 ], [ -69.09114821199995, -14.173889705999954 ], [ -69.091124441999966, -14.173913482999978 ], [ -69.091076900999951, -14.173913482999978 ], [ -69.091053130999967, -14.173984807999943 ], [ -69.091053129999978, -14.17412745699994 ], [ -69.091029360999983, -14.174198781999962 ], [ -69.090981819999968, -14.174198781999962 ], [ -69.090958049999983, -14.17431765699996 ], [ -69.090958048999937, -14.174555406999957 ], [ -69.090981820999957, -14.174674283999934 ], [ -69.091029360999983, -14.174674283999934 ], [ -69.091053130999967, -14.174698056999944 ], [ -69.091053129999978, -14.174745607999967 ], [ -69.091124441999966, -14.174769382999955 ], [ -69.091267061999986, -14.174769381999965 ], [ -69.091338372999985, -14.174745607999967 ], [ -69.091338375999953, -14.174698056999944 ], [ -69.091362142999969, -14.174674283999934 ], [ -69.091409684999974, -14.174674283999934 ], [ -69.091433454999958, -14.174626731999979 ], [ -69.091433454999958, -14.174531632999958 ], [ -69.091457224999942, -14.174484083999971 ], [ -69.091504764999968, -14.174484082999982 ], [ -69.091528535999942, -14.174460306999947 ], [ -69.091528536999988, -14.17441275799996 ], [ -69.091552305999983, -14.174388982999972 ], [ -69.091599845999951, -14.174388982999972 ], [ -69.091623616999982, -14.174365206999937 ], [ -69.091623616999982, -14.17431765799995 ], [ -69.091718696999976, -14.174293881999972 ], [ -69.091908859999933, -14.174293882999962 ], [ -69.092003941999963, -14.174270107999973 ], [ -69.092003940999973, -14.17422255799994 ], [ -69.092027711999947, -14.174198782999952 ], [ -69.092075252999962, -14.174198782999952 ], [ -69.092099022999946, -14.174103682999942 ], [ -69.092099022999946, -14.173913481999932 ], [ -69.092146561999982, -14.173818381999979 ], [ -69.092241642999966, -14.173818381999979 ], [ -69.092289185999959, -14.173794605999944 ], [ -69.09228918499997, -14.173747056999957 ], [ -69.092312954999954, -14.17372328099998 ], [ -69.092360495999969, -14.17372328099998 ], [ -69.092384265999954, -14.173675732999982 ], [ -69.092384265999954, -14.173580631999982 ], [ -69.092360495999969, -14.173533081999949 ], [ -69.092312954999954, -14.173533081999949 ], [ -69.09228918499997, -14.173509306999961 ], [ -69.09228918499997, -14.173461756999927 ], [ -69.092408036999984, -14.17343798099995 ], [ -69.092645738999977, -14.17343798099995 ], [ -69.092764590999934, -14.173414206999951 ], [ -69.092764588999955, -14.173366656999974 ], [ -69.092883441999959, -14.173342881999929 ], [ -69.093121142999962, -14.173342881999929 ], [ -69.093239995999966, -14.173319105999951 ], [ -69.093239995999966, -14.173271556999964 ], [ -69.09326376599995, -14.173247781999976 ], [ -69.093311305999976, -14.173247781999976 ], [ -69.093335076999949, -14.173176455999965 ], [ -69.093335076999949, -14.173033806999968 ], [ -69.093358846999934, -14.172962481999946 ], [ -69.093406387999948, -14.172962480999956 ], [ -69.093430157999933, -14.172938704999979 ], [ -69.093430157999933, -14.172891155999935 ], [ -69.093620318999967, -14.172867379999957 ], [ -69.094000643999948, -14.172867379999957 ], [ -69.094190805999972, -14.172843606999947 ], [ -69.094190806999961, -14.172796055999981 ], [ -69.094214576999946, -14.172772281999926 ], [ -69.094262116999971, -14.172772280999936 ], [ -69.094285887999945, -14.17272473099996 ], [ -69.094285886999955, -14.17262962999996 ], [ -69.09433342899996, -14.172582079999927 ], [ -69.094428508999954, -14.172582080999973 ], [ -69.094476049999969, -14.172558305999928 ], [ -69.094476049999969, -14.172510755999951 ], [ -69.094571129999963, -14.172486980999963 ], [ -69.094761292999976, -14.172486980999963 ], [ -69.09485637399996, -14.172463205999975 ], [ -69.09485637399996, -14.172415654999952 ], [ -69.094880143999944, -14.172391879999964 ], [ -69.094927684999959, -14.172391880999953 ], [ -69.094951454999944, -14.172296780999943 ], [ -69.094951453999954, -14.17210658099998 ], [ -69.094998994999969, -14.172011479999981 ], [ -69.095094076999942, -14.172011479999981 ], [ -69.095141616999967, -14.171987704999935 ], [ -69.095141617999957, -14.171940153999969 ], [ -69.095165387999941, -14.171916379999971 ], [ -69.095212927999967, -14.171916379999971 ], [ -69.095236697999951, -14.171797504999972 ], [ -69.095236697999951, -14.171559753999929 ], [ -69.095260467999935, -14.171440878999931 ], [ -69.09530800899995, -14.171440878999931 ], [ -69.095331778999935, -14.171393327999965 ], [ -69.095331777999945, -14.171298229999934 ], [ -69.095355548999976, -14.171250678999968 ], [ -69.095403089999934, -14.171250678999968 ], [ -69.095426860999964, -14.17122690399998 ], [ -69.095426858999986, -14.171179353999946 ], [ -69.095450629999959, -14.171155579999947 ], [ -69.095498171999964, -14.171155578999958 ], [ -69.095521940999959, -14.17113180399997 ], [ -69.095521941999948, -14.171084253999936 ], [ -69.095498172999953, -14.171060477999958 ], [ -69.09545062899997, -14.171060477999958 ], [ -69.095426859999975, -14.17103670299997 ], [ -69.095426860999964, -14.170989153999926 ], [ -69.095498172999953, -14.170965378999938 ], [ -69.095640792999973, -14.170965378999938 ], [ -69.095712103999972, -14.17094160399995 ], [ -69.095712103999972, -14.170894053999973 ], [ -69.095735873999956, -14.170870278999928 ], [ -69.095783413999982, -14.170870278999928 ], [ -69.095807184999956, -14.170680078999965 ], [ -69.095807184999956, -14.170299676999946 ], [ -69.09583095499994, -14.170109477999972 ], [ -69.095878495999955, -14.170109477999972 ], [ -69.09590226499995, -14.170061926999949 ], [ -69.095902265999939, -14.169966826999939 ], [ -69.09592603599998, -14.169919277999952 ], [ -69.095973575999949, -14.169919277999952 ], [ -69.095997347999969, -14.169895501999974 ], [ -69.09599734699998, -14.169847951999941 ], [ -69.096044886999948, -14.169824177999942 ], [ -69.096139967999989, -14.169824176999953 ], [ -69.096187507999957, -14.169800402999954 ], [ -69.096187508999947, -14.169752851999931 ], [ -69.096211278999988, -14.169729075999953 ], [ -69.096258819999946, -14.169729075999953 ], [ -69.096282590999976, -14.169657751999978 ], [ -69.096282590999976, -14.169515101999934 ], [ -69.096258819999946, -14.169443777999959 ], [ -69.096211279999977, -14.169443777999959 ], [ -69.096187509999936, -14.169420002999971 ], [ -69.096187508999947, -14.169372451999948 ], [ -69.096211279999977, -14.16934867599997 ], [ -69.096258819999946, -14.169348676999959 ], [ -69.096282589999987, -14.169324900999982 ], [ -69.096282589999987, -14.169277351999938 ], [ -69.096306358999982, -14.169253577999939 ], [ -69.096353900999986, -14.169253576999949 ], [ -69.09637767199996, -14.169229800999972 ], [ -69.096377670999971, -14.169182251999928 ], [ -69.096615373999953, -14.169158476999939 ], [ -69.097090778999984, -14.16915847599995 ], [ -69.097328480999977, -14.169134701999951 ], [ -69.097328480999977, -14.169087150999928 ], [ -69.097352251999951, -14.169063376999929 ], [ -69.097399793999955, -14.16906337599994 ], [ -69.09742356299995, -14.168992051999965 ], [ -69.097423563999939, -14.168849401999978 ], [ -69.097471102999975, -14.168778076999956 ], [ -69.097566184999948, -14.168778076999956 ], [ -69.097613724999974, -14.168754299999932 ], [ -69.097613724999974, -14.168706751999935 ], [ -69.097637493999969, -14.168682975999957 ], [ -69.097685035999973, -14.168682974999967 ], [ -69.097708804999968, -14.168659201999958 ], [ -69.097708805999957, -14.168611650999935 ], [ -69.097732576999988, -14.168587874999957 ], [ -69.097780116999957, -14.168587876999936 ], [ -69.097803885999951, -14.168492775999937 ], [ -69.097803885999951, -14.168302575999974 ], [ -69.097494873999949, -14.168207475999964 ], [ -69.096876846999976, -14.168207475999964 ], [ -69.096567832999938, -14.168231249999963 ], [ -69.096567832999938, -14.168278800999929 ], [ -69.096544062999953, -14.168302575999974 ], [ -69.096496522999985, -14.168302574999927 ], [ -69.096472750999965, -14.168350124999961 ], [ -69.096472753999933, -14.16844522599996 ], [ -69.09644898099998, -14.168492775999937 ], [ -69.096401439999966, -14.168492775999937 ], [ -69.096377670999971, -14.168516550999982 ], [ -69.096377669999981, -14.168564101999948 ], [ -69.096306358999982, -14.168587874999957 ], [ -69.096163738999962, -14.168587874999957 ], [ -69.096092427999963, -14.168611651999981 ], [ -69.096092427999963, -14.168659201999958 ], [ -69.096068657999979, -14.168682974999967 ], [ -69.096021116999964, -14.168682974999967 ], [ -69.09599734699998, -14.168754299999932 ], [ -69.095997347999969, -14.168896951999955 ], [ -69.095949804999975, -14.168968276999976 ], [ -69.09585472599997, -14.168968276999976 ], [ -69.095807184999956, -14.168992051999965 ], [ -69.095807184999956, -14.169039600999952 ], [ -69.095783412999936, -14.169063376999929 ], [ -69.095735873999956, -14.169063376999929 ], [ -69.095712103999972, -14.169087150999928 ], [ -69.095712101999936, -14.169134701999951 ], [ -69.095640792999973, -14.169158476999939 ], [ -69.095498169999985, -14.16915847599995 ], [ -69.095426858999986, -14.169134701999951 ], [ -69.095426860999964, -14.169087150999928 ], [ -69.095331778999935, -14.169063376999929 ], [ -69.095141616999967, -14.169063376999929 ], [ -69.095046535999984, -14.168968276999976 ], [ -69.095046534999938, -14.168778076999956 ], [ -69.095022764999953, -14.168682976999946 ], [ -69.094975225999974, -14.168682975999957 ], [ -69.094951454999944, -14.168659199999979 ], [ -69.094951453999954, -14.168611650999935 ], [ -69.094903914999975, -14.168587874999957 ], [ -69.094808831999956, -14.168587876999936 ], [ -69.094761292999976, -14.168564100999959 ], [ -69.094761292999976, -14.168516551999971 ], [ -69.094713751999961, -14.168492775999937 ], [ -69.094618669999988, -14.168492775999937 ], [ -69.094571129999963, -14.16844522599996 ], [ -69.094571129999963, -14.168350124999961 ], [ -69.094547359999979, -14.168302574999927 ], [ -69.094499818999964, -14.168302574999927 ], [ -69.094476047999933, -14.168278800999929 ], [ -69.094476048999979, -14.168231250999952 ], [ -69.09433342799997, -14.168207475999964 ], [ -69.094048184999963, -14.168207475999964 ], [ -69.093905561999975, -14.168231249999963 ], [ -69.093905561999975, -14.168278800999929 ] ] ] ] } },
{ "type": "Feature", "properties": { "fid": 24676, "FUENTE": "Servicio Nacional Forestal y de Fauna Silvestre", "DOCREG": null, "FECREG": null, "OBSERV": null, "ZONUTM": 19, "ORIGEN": 0, "REFER": null, "ANNO": "2024", "MES": "11", "DIA": null, "CODPIF": null, "CODRIF": null, "CODOIF": "OIF_PUN_20240911", "CODSIN": null, "SUPIND": 1.12, "NOMDEP": "PUNO", "NOMPRO": "SANDIA", "NOMDIS": "SAN JUAN DEL ORO", "CATDEP": "21", "CATPRO": "2112", "CATDIS": "211207", "VERAFECT": 0.0, "FFECHA": null, "created_us": "MGALAN", "created_da": "2025-06-11", "last_edite": "JMONTALBAN", "last_edi_1": "2025-10-09", "Shape_STAr": 9.4011506235200001e-07, "Shape_STLe": 0.0050225870007000002 }, "geometry": { "type": "MultiPolygon", "coordinates": [ [ [ [ -69.156154565999941, -14.18244373899995 ], [ -69.156154566999987, -14.182450753999944 ], [ -69.156063378999988, -14.182450754999934 ], [ -69.156063377999942, -14.182534935999968 ], [ -69.15587398599996, -14.182534936999957 ], [ -69.15587398599996, -14.182541950999962 ], [ -69.155866970999966, -14.182541950999962 ], [ -69.155866971999956, -14.182626133999975 ], [ -69.155775783999957, -14.182626131999939 ], [ -69.155775783999957, -14.182619117999934 ], [ -69.155305809999959, -14.182619117999934 ], [ -69.155305810999948, -14.182626133999975 ], [ -69.155221636999954, -14.182626133999975 ], [ -69.155221636999954, -14.182906737999929 ], [ -69.155305810999948, -14.182906738999975 ], [ -69.155305809999959, -14.182990919999952 ], [ -69.155312823999964, -14.182990919999952 ], [ -69.155312824999953, -14.182997934999946 ], [ -69.155411027999946, -14.182997935999936 ], [ -69.155411028999936, -14.183075101999975 ], [ -69.155418042999941, -14.183075101999975 ], [ -69.155418042999941, -14.18317331399993 ], [ -69.155502216999935, -14.183173314999976 ], [ -69.155502216999935, -14.183180329999971 ], [ -69.15559340599998, -14.183180328999981 ], [ -69.15559340599998, -14.183257495999953 ], [ -69.155600419999985, -14.183257495999953 ], [ -69.155600420999974, -14.183264511999937 ], [ -69.15587398699995, -14.183264510999948 ], [ -69.15587398599996, -14.183446903999936 ], [ -69.155972189999943, -14.183446904999926 ], [ -69.155972188999954, -14.183453919999977 ], [ -69.156063377999942, -14.183453919999977 ], [ -69.156063378999988, -14.183538100999954 ], [ -69.156154566999987, -14.183538100999954 ], [ -69.156154566999987, -14.183545115999948 ], [ -69.156428132999963, -14.183545116999937 ], [ -69.156428132999963, -14.183538100999954 ], [ -69.156617524999945, -14.183538100999954 ], [ -69.156617525999934, -14.18345391899993 ], [ -69.156624538999949, -14.183453919999977 ], [ -69.156624539999939, -14.183257495999953 ], [ -69.156617524999945, -14.183257496999943 ], [ -69.156617524999945, -14.183250480999959 ], [ -69.156540364999955, -14.183250480999959 ], [ -69.156540363999966, -14.183173312999941 ], [ -69.15653335099995, -14.183173312999941 ], [ -69.15653335099995, -14.183075101999975 ], [ -69.156428132999963, -14.183075101999975 ], [ -69.156428132999963, -14.183068085999935 ], [ -69.156343958999969, -14.183068086999981 ], [ -69.156343958999969, -14.182541951999951 ], [ -69.156336943999975, -14.182541951999951 ], [ -69.156336944999964, -14.182450754999934 ], [ -69.156238741999971, -14.182450754999934 ], [ -69.156238740999981, -14.18244373999994 ], [ -69.156154565999941, -14.18244373899995 ] ] ] ] } },
{ "type": "Feature", "properties": { "fid": 24677, "FUENTE": "Servicio Nacional Forestal y de Fauna Silvestre", "DOCREG": null, "FECREG": null, "OBSERV": null, "ZONUTM": 19, "ORIGEN": 0, "REFER": null, "ANNO": "2024", "MES": "11", "DIA": null, "CODPIF": null, "CODRIF": null, "CODOIF": "OIF_PUN_20240912", "CODSIN": null, "SUPIND": 1.45, "NOMDEP": "PUNO", "NOMPRO": "SANDIA", "NOMDIS": "SAN JUAN DEL ORO", "CATDEP": "21", "CATPRO": "2112", "CATDIS": "211207", "VERAFECT": 0.0, "FFECHA": null, "created_us": "MGALAN", "created_da": "2025-06-11", "last_edite": "JMONTALBAN", "last_edi_1": "2025-10-09", "Shape_STAr": 1.21326780469e-06, "Shape_STLe": 0.0069025790004500001 }, "geometry": { "type": "MultiPolygon", "coordinates": [ [ [ [ -69.169305678999933, -14.204789589999962 ], [ -69.169305679999979, -14.204817650999928 ], [ -69.169277621999981, -14.204817650999928 ], [ -69.169277621999981, -14.204873771999928 ], [ -69.169249562999937, -14.204873771999928 ], [ -69.169249562999937, -14.204929891999939 ], [ -69.169221504999939, -14.204929891999939 ], [ -69.169221505999985, -14.204957953999951 ], [ -69.169137329999955, -14.204957953999951 ], [ -69.169137331999934, -14.205098255999928 ], [ -69.169109273999936, -14.205098255999928 ], [ -69.169109272999947, -14.205238557999962 ], [ -69.169081213999959, -14.205238557999962 ], [ -69.169081215999938, -14.205322739999929 ], [ -69.169053156999951, -14.205322739999929 ], [ -69.169053156999951, -14.205350800999952 ], [ -69.168940923999969, -14.205350800999952 ], [ -69.168940924999958, -14.205378860999929 ], [ -69.16891286699996, -14.205378861999975 ], [ -69.168912865999971, -14.205406921999952 ], [ -69.168856750999964, -14.205406921999952 ], [ -69.168856749999975, -14.205463043999941 ], [ -69.168828691999977, -14.205463043999941 ], [ -69.168828691999977, -14.205491102999929 ], [ -69.168800632999933, -14.205491102999929 ], [ -69.168800633999979, -14.205687527999942 ], [ -69.168828692999966, -14.205687526999952 ], [ -69.168828691999977, -14.205799770999931 ], [ -69.168856749999975, -14.205799770999931 ], [ -69.168856749999975, -14.205827830999965 ], [ -69.16891286699996, -14.205827830999965 ], [ -69.16891286699996, -14.206136495999942 ], [ -69.168940924999958, -14.206136495999942 ], [ -69.168940923999969, -14.206164557999955 ], [ -69.169053156999951, -14.206164556999965 ], [ -69.169053156999951, -14.206220678999955 ], [ -69.169081214999949, -14.206220678999955 ], [ -69.169081213999959, -14.206248738999932 ], [ -69.169361794999986, -14.206248738999932 ], [ -69.169361795999976, -14.206220677999966 ], [ -69.169417911999972, -14.206220677999966 ], [ -69.169417911999972, -14.206108436999955 ], [ -69.169530142999974, -14.206108436999955 ], [ -69.169530143999964, -14.206080375999932 ], [ -69.169586260999949, -14.206080375999932 ], [ -69.169586258999971, -14.205996193999965 ], [ -69.169614317999958, -14.205996194999955 ], [ -69.169614318999947, -14.205968132999942 ], [ -69.169698492999942, -14.205968132999942 ], [ -69.169698492999942, -14.205883950999976 ], [ -69.16972655099994, -14.205883950999976 ], [ -69.16972654999995, -14.205855891999931 ], [ -69.169810724999934, -14.205855891999931 ], [ -69.169810724999934, -14.205799768999952 ], [ -69.169838782999989, -14.205799768999952 ], [ -69.169838781999943, -14.205378860999929 ], [ -69.169810723999944, -14.205378860999929 ], [ -69.169810724999934, -14.205350800999952 ], [ -69.16972654999995, -14.205350800999952 ], [ -69.16972654999995, -14.205322740999975 ], [ -69.169698491999952, -14.205322740999975 ], [ -69.169698491999952, -14.205238558999952 ], [ -69.169614317999958, -14.205238558999952 ], [ -69.169614317999958, -14.205126316999952 ], [ -69.169698491999952, -14.205126316999952 ], [ -69.169698491999952, -14.205070195999951 ], [ -69.16972654999995, -14.205070195999951 ], [ -69.16972655099994, -14.204986013999928 ], [ -69.169922956999983, -14.204986013999928 ], [ -69.169922956999983, -14.205070195999951 ], [ -69.169951014999981, -14.205070195999951 ], [ -69.169951014999981, -14.205098255999928 ], [ -69.170091304999971, -14.205098255999928 ], [ -69.170091304999971, -14.205126316999952 ], [ -69.170147420999967, -14.205126316999952 ], [ -69.170147420999967, -14.205154376999928 ], [ -69.170231594999962, -14.205154375999939 ], [ -69.170231595999951, -14.205126316999952 ], [ -69.170371884999952, -14.205126315999962 ], [ -69.170371885999941, -14.205070195999951 ], [ -69.170399943999939, -14.205070195999951 ], [ -69.170399943999939, -14.204957951999972 ], [ -69.170371885999941, -14.204957952999962 ], [ -69.170371885999941, -14.204929892999928 ], [ -69.170259653999949, -14.204929892999928 ], [ -69.170259653999949, -14.204873771999928 ], [ -69.170231595999951, -14.204873771999928 ], [ -69.170231594999962, -14.204845710999962 ], [ -69.170175479999955, -14.204845710999962 ], [ -69.170175478999965, -14.204817648999949 ], [ -69.170147420999967, -14.204817649999939 ], [ -69.170147420999967, -14.204789589999962 ], [ -69.169305678999933, -14.204789589999962 ] ] ] ] } },
{ "type": "Feature", "properties": { "fid": 24678, "FUENTE": "Servicio Nacional Forestal y de Fauna Silvestre", "DOCREG": null, "FECREG": null, "OBSERV": null, "ZONUTM": 19, "ORIGEN": 0, "REFER": null, "ANNO": "2024", "MES": "11", "DIA": null, "CODPIF": null, "CODRIF": null, "CODOIF": "OIF_PUN_20240913", "CODSIN": null, "SUPIND": 1.02, "NOMDEP": "PUNO", "NOMPRO": "SANDIA", "NOMDIS": "SAN JUAN DEL ORO", "CATDEP": "21", "CATPRO": "2112", "CATDIS": "211207", "VERAFECT": 0.0, "FFECHA": null, "created_us": "MGALAN", "created_da": "2025-06-11", "last_edite": "JMONTALBAN", "last_edi_1": "2025-10-09", "Shape_STAr": 8.5424800404600001e-07, "Shape_STLe": 0.00768826000082 }, "geometry": { "type": "MultiPolygon", "coordinates": [ [ [ [ -69.164676097999973, -14.201029473999938 ], [ -69.164676098999962, -14.201057534999961 ], [ -69.164648039999975, -14.201057534999961 ], [ -69.164648039999975, -14.201310078999938 ], [ -69.164311343999941, -14.201310078999938 ], [ -69.164311343999941, -14.201338140999951 ], [ -69.164283284999954, -14.201338139999962 ], [ -69.164283285999943, -14.201450382999951 ], [ -69.164311343999941, -14.201450382999951 ], [ -69.164311343999941, -14.201478442999928 ], [ -69.164367459999937, -14.201478443999974 ], [ -69.164367458999948, -14.201730988999941 ], [ -69.164395517999935, -14.201730987999952 ], [ -69.164395516999946, -14.201759048999975 ], [ -69.16447969099994, -14.201759048999975 ], [ -69.164479691999986, -14.201787109999941 ], [ -69.164507749999984, -14.201787109999941 ], [ -69.164507749999984, -14.201815168999929 ], [ -69.164591923999978, -14.201815168999929 ], [ -69.164591923999978, -14.201787109999941 ], [ -69.164619981999977, -14.201787108999952 ], [ -69.164619981999977, -14.201759048999975 ], [ -69.164676098999962, -14.201759048999975 ], [ -69.164676097999973, -14.201730987999952 ], [ -69.16470415699996, -14.201730988999941 ], [ -69.16470415699996, -14.201646806999975 ], [ -69.164788329999965, -14.201646806999975 ], [ -69.164788329999965, -14.201618745999951 ], [ -69.164816388999952, -14.201618746999941 ], [ -69.164816387999963, -14.201534564999974 ], [ -69.164928619999955, -14.201534563999928 ], [ -69.164928619999955, -14.201506502999962 ], [ -69.164956678999943, -14.201506504999941 ], [ -69.164956678999943, -14.201366201999974 ], [ -69.165125027999977, -14.201366200999928 ], [ -69.165125027999977, -14.201506503999951 ], [ -69.165153084999986, -14.201506502999962 ], [ -69.165153085999975, -14.201534564999974 ], [ -69.165181143999973, -14.201534564999974 ], [ -69.165181142999984, -14.201618746999941 ], [ -69.165209201999971, -14.201618744999962 ], [ -69.165209201999971, -14.201646806999975 ], [ -69.165321433999964, -14.201646805999928 ], [ -69.165321433999964, -14.201702928999964 ], [ -69.165209201999971, -14.201702926999928 ], [ -69.165209201999971, -14.201730988999941 ], [ -69.165181142999984, -14.201730987999952 ], [ -69.165181143999973, -14.201871291999964 ], [ -69.165209200999982, -14.201871290999975 ], [ -69.165209200999982, -14.201899351999941 ], [ -69.165461723999954, -14.201899350999952 ], [ -69.165461723999954, -14.202067714999941 ], [ -69.165489781999952, -14.202067714999941 ], [ -69.165489781999952, -14.202095774999975 ], [ -69.16551783999995, -14.202095775999965 ], [ -69.16551783999995, -14.202067714999941 ], [ -69.165714245999936, -14.202067715999931 ], [ -69.165714246999983, -14.201815170999964 ], [ -69.165742304999981, -14.201815168999929 ], [ -69.165742304999981, -14.201787109999941 ], [ -69.165966769999955, -14.201787109999941 ], [ -69.165966769999955, -14.201815168999929 ], [ -69.165994825999974, -14.201815170999964 ], [ -69.165994825999974, -14.201787108999952 ], [ -69.166022885999951, -14.201787109999941 ], [ -69.166022885999951, -14.201759048999975 ], [ -69.166079001999947, -14.201759048999975 ], [ -69.166079001999947, -14.201730987999952 ], [ -69.166107058999955, -14.201730988999941 ], [ -69.166107059999945, -14.201618745999951 ], [ -69.166079000999957, -14.201618746999941 ], [ -69.166079000999957, -14.201590685999975 ], [ -69.165826478999975, -14.201590684999928 ], [ -69.165826478999975, -14.201338139999962 ], [ -69.165798421999966, -14.201338139999962 ], [ -69.165798421999966, -14.201310078999938 ], [ -69.165742304999981, -14.201310078999938 ], [ -69.165742304999981, -14.201282018999962 ], [ -69.165714246999983, -14.201282019999951 ], [ -69.165714246999983, -14.201253957999938 ], [ -69.165658130999986, -14.201253957999938 ], [ -69.165658130999986, -14.201169776999961 ], [ -69.165630071999942, -14.201169776999961 ], [ -69.165630071999942, -14.201141716999928 ], [ -69.165489781999952, -14.201141715999938 ], [ -69.165489781999952, -14.201169777999951 ], [ -69.165461723999954, -14.201169775999972 ], [ -69.165461724999943, -14.201478443999974 ], [ -69.165377550999949, -14.201478442999928 ], [ -69.16537754899997, -14.201282018999962 ], [ -69.165349491999962, -14.201282019999951 ], [ -69.165349491999962, -14.201253957999938 ], [ -69.165237259999969, -14.201253958999928 ], [ -69.165237259999969, -14.201169776999961 ], [ -69.165209201999971, -14.201169776999961 ], [ -69.165209201999971, -14.201141716999928 ], [ -69.164816387999963, -14.201141716999928 ], [ -69.164816388999952, -14.201057534999961 ], [ -69.164788329999965, -14.201057533999972 ], [ -69.164788329999965, -14.201029474999928 ], [ -69.164676097999973, -14.201029473999938 ] ] ] ] } },
{ "type": "Feature", "properties": { "fid": 24679, "FUENTE": "Servicio Nacional Forestal y de Fauna Silvestre", "DOCREG": null, "FECREG": null, "OBSERV": null, "ZONUTM": 19, "ORIGEN": 0, "REFER": null, "ANNO": "2024", "MES": "11", "DIA": null, "CODPIF": null, "CODRIF": null, "CODOIF": "OIF_PUN_20240914", "CODSIN": null, "SUPIND": 0.8, "NOMDEP": "PUNO", "NOMPRO": "SANDIA", "NOMDIS": "SAN JUAN DEL ORO", "CATDEP": "21", "CATPRO": "2112", "CATDIS": "211207", "VERAFECT": 0.0, "FFECHA": null, "created_us": "MGALAN", "created_da": "2025-06-11", "last_edite": "JMONTALBAN", "last_edi_1": "2025-10-09", "Shape_STAr": 6.6813863162400002e-07, "Shape_STLe": 0.0042448850001400003 }, "geometry": { "type": "MultiPolygon", "coordinates": [ [ [ [ -69.131001440999967, -14.228115101999947 ], [ -69.131001438999988, -14.228153016999954 ], [ -69.130963544999986, -14.228153016999954 ], [ -69.130963544999986, -14.22819093399994 ], [ -69.130849857999976, -14.22819093399994 ], [ -69.130849857999976, -14.228228848999947 ], [ -69.130470900999967, -14.228228850999926 ], [ -69.130470900999967, -14.228266765999933 ], [ -69.130433005999976, -14.228266765999933 ], [ -69.130433004999986, -14.228456347999952 ], [ -69.130470900999967, -14.228456346999963 ], [ -69.130470900999967, -14.228494262999959 ], [ -69.130584587999977, -14.228494262999959 ], [ -69.130584586999987, -14.228608010999949 ], [ -69.130622483999957, -14.228608010999949 ], [ -69.130622483999957, -14.228645927999935 ], [ -69.131531978999988, -14.228645926999945 ], [ -69.131531979999977, -14.228608011999938 ], [ -69.131873040999949, -14.228608011999938 ], [ -69.131873040999949, -14.228494262999959 ], [ -69.131986727999958, -14.228494262999959 ], [ -69.131986726999969, -14.228456345999973 ], [ -69.13202462299995, -14.228456346999963 ], [ -69.13202462299995, -14.228266765999933 ], [ -69.131986727999958, -14.228266765999933 ], [ -69.131986727999958, -14.228228849999937 ], [ -69.131607771999938, -14.228228849999937 ], [ -69.131607770999949, -14.22819093399994 ], [ -69.131531978999988, -14.22819093399994 ], [ -69.131531979999977, -14.228115101999947 ], [ -69.131001440999967, -14.228115101999947 ] ] ] ] } },
{ "type": "Feature", "properties": { "fid": 24680, "FUENTE": "Servicio Nacional Forestal y de Fauna Silvestre", "DOCREG": null, "FECREG": null, "OBSERV": null, "ZONUTM": 19, "ORIGEN": 0, "REFER": null, "ANNO": "2024", "MES": "11", "DIA": null, "CODPIF": null, "CODRIF": null, "CODOIF": "OIF_PUN_20240915", "CODSIN": null, "SUPIND": 0.83, "NOMDEP": "PUNO", "NOMPRO": "SANDIA", "NOMDIS": "SAN JUAN DEL ORO", "CATDEP": "21", "CATPRO": "2112", "CATDIS": "211207", "VERAFECT": 0.0, "FFECHA": null, "created_us": "MGALAN", "created_da": "2025-06-11", "last_edite": "JMONTALBAN", "last_edi_1": "2025-10-09", "Shape_STAr": 6.9400206394299999e-07, "Shape_STLe": 0.0054581620003500003 }, "geometry": { "type": "MultiPolygon", "coordinates": [ [ [ [ -69.115274736999936, -14.228532177999966 ], [ -69.115274736999936, -14.228608010999949 ], [ -69.115047362999974, -14.228608011999938 ], [ -69.115047363999963, -14.228949256999954 ], [ -69.115085258999954, -14.228949256999954 ], [ -69.115085258999954, -14.22898717299995 ], [ -69.115236840999955, -14.228987171999961 ], [ -69.115236841999945, -14.228949256999954 ], [ -69.115274736999936, -14.228949256999954 ], [ -69.115274735999947, -14.228873423999971 ], [ -69.115464214999975, -14.228873423999971 ], [ -69.115464215999964, -14.228835508999964 ], [ -69.115502111999945, -14.228835507999975 ], [ -69.115502110999955, -14.228797592999967 ], [ -69.115653693999946, -14.228797592999967 ], [ -69.115653693999946, -14.228873424999961 ], [ -69.115691588999937, -14.228873424999961 ], [ -69.115691589999983, -14.228949256999954 ], [ -69.115805276999936, -14.228949256999954 ], [ -69.115805276999936, -14.228987171999961 ], [ -69.115918962999956, -14.228987171999961 ], [ -69.115918961999967, -14.229025089999936 ], [ -69.115956857999947, -14.229025089999936 ], [ -69.115956859999983, -14.229063004999944 ], [ -69.116411606999975, -14.229063005999933 ], [ -69.116411606999975, -14.229025087999958 ], [ -69.116449502999956, -14.229025089999936 ], [ -69.116449502999956, -14.228797591999978 ], [ -69.116525293999985, -14.228797591999978 ], [ -69.116525293999985, -14.228759676999971 ], [ -69.116563188999976, -14.228759674999935 ], [ -69.116563188999976, -14.228683842999942 ], [ -69.116601084999957, -14.228683843999931 ], [ -69.116601084999957, -14.228645926999945 ], [ -69.116638979999948, -14.228645927999935 ], [ -69.116638979999948, -14.228532178999956 ], [ -69.116601085999946, -14.228532178999956 ], [ -69.116601085999946, -14.22838051399998 ], [ -69.116525294999974, -14.22838051399998 ], [ -69.116525294999974, -14.228494262999959 ], [ -69.116335814999957, -14.228494262999959 ], [ -69.116335815999946, -14.228532178999956 ], [ -69.116297919999965, -14.228532179999945 ], [ -69.116297919999965, -14.228570095999942 ], [ -69.116222127999947, -14.228570094999952 ], [ -69.116222127999947, -14.228608011999938 ], [ -69.116184232999956, -14.228608010999949 ], [ -69.116184232999956, -14.228532178999956 ], [ -69.116146336999975, -14.228532178999956 ], [ -69.116146337999965, -14.228494262999959 ], [ -69.115388423999946, -14.228494262999959 ], [ -69.115388424999935, -14.22838051399998 ], [ -69.115236841999945, -14.22838051399998 ], [ -69.115236841999945, -14.228532178999956 ], [ -69.115274736999936, -14.228532177999966 ] ] ] ] } },
{ "type": "Feature", "properties": { "fid": 24681, "FUENTE": "Servicio Nacional Forestal y de Fauna Silvestre", "DOCREG": null, "FECREG": null, "OBSERV": null, "ZONUTM": 19, "ORIGEN": 0, "REFER": null, "ANNO": "2024", "MES": "11", "DIA": null, "CODPIF": null, "CODRIF": null, "CODOIF": "OIF_PUN_20240916", "CODSIN": null, "SUPIND": 2.45, "NOMDEP": "PUNO", "NOMPRO": "SANDIA", "NOMDIS": "SAN JUAN DEL ORO", "CATDEP": "21", "CATPRO": "2112", "CATDIS": "211207", "VERAFECT": 0.0, "FFECHA": null, "created_us": "MGALAN", "created_da": "2025-06-11", "last_edite": "JMONTALBAN", "last_edi_1": "2025-10-09", "Shape_STAr": 2.0518337574699999e-06, "Shape_STLe": 0.0100830090005 }, "geometry": { "type": "MultiPolygon", "coordinates": [ [ [ [ -69.118723242999977, -14.230314237999949 ], [ -69.118723242999977, -14.230390070999931 ], [ -69.118457973999966, -14.230390070999931 ], [ -69.118457972999977, -14.230427986999928 ], [ -69.118420077999986, -14.230427986999928 ], [ -69.118420077999986, -14.230503818999978 ], [ -69.118268494999938, -14.230503818999978 ], [ -69.118268494999938, -14.230541734999974 ], [ -69.118230599999947, -14.230541735999964 ], [ -69.118230599999947, -14.23069340099994 ], [ -69.118192702999977, -14.23069339999995 ], [ -69.118192703999966, -14.23080714799994 ], [ -69.118003224999939, -14.230807148999929 ], [ -69.118003224999939, -14.230693398999961 ], [ -69.117889538999975, -14.230693398999961 ], [ -69.117889537999986, -14.230541734999974 ], [ -69.117851642999938, -14.230541735999964 ], [ -69.117851642999938, -14.230503817999931 ], [ -69.117586373999984, -14.230503819999967 ], [ -69.117586372999938, -14.230541734999974 ], [ -69.117548477999946, -14.230541734999974 ], [ -69.117548477999946, -14.231034644999966 ], [ -69.117510580999976, -14.231034645999955 ], [ -69.117510581999966, -14.230845064999926 ], [ -69.117472684999939, -14.230845064999926 ], [ -69.117472685999985, -14.231186310999931 ], [ -69.117434788999958, -14.231186308999952 ], [ -69.117434789999947, -14.231224225999938 ], [ -69.117358998999975, -14.231224225999938 ], [ -69.117359, -14.231262141999935 ], [ -69.117207415999985, -14.231262142999981 ], [ -69.117207415999985, -14.231300058999977 ], [ -69.117169520999937, -14.231300058999977 ], [ -69.117169520999937, -14.231451722999964 ], [ -69.117207416999975, -14.231451723999953 ], [ -69.117207415999985, -14.23148963999995 ], [ -69.117548477999946, -14.23148963999995 ], [ -69.117548476999957, -14.23160338699995 ], [ -69.117813746999957, -14.231603388999929 ], [ -69.117813746999957, -14.231792968999969 ], [ -69.117737953999949, -14.231792968999969 ], [ -69.117737954999939, -14.231830884999965 ], [ -69.117813745999968, -14.231830883999976 ], [ -69.117813745999968, -14.232020465999938 ], [ -69.117851642999938, -14.232020464999948 ], [ -69.117851642999938, -14.232058381999934 ], [ -69.118003224999939, -14.232058380999945 ], [ -69.118003225999985, -14.232020465999938 ], [ -69.118079016999957, -14.232020464999948 ], [ -69.118079016999957, -14.231868800999962 ], [ -69.118230598999958, -14.231868800999962 ], [ -69.118230598999958, -14.231830883999976 ], [ -69.118420076999939, -14.231830884999965 ], [ -69.118420077999986, -14.231868800999962 ], [ -69.118571660999976, -14.231868799999972 ], [ -69.11857165899994, -14.231944632999955 ], [ -69.118609555999967, -14.231944631999966 ], [ -69.118609555999967, -14.232020465999938 ], [ -69.118647451999948, -14.232020465999938 ], [ -69.118647450999958, -14.232058380999945 ], [ -69.119026407999968, -14.23205838299998 ], [ -69.119026407999968, -14.232020464999948 ], [ -69.119064303999949, -14.232020464999948 ], [ -69.119064304999938, -14.231830884999965 ], [ -69.119215886999939, -14.231830884999965 ], [ -69.119215886999939, -14.231868801999951 ], [ -69.11936746899994, -14.231868800999962 ], [ -69.119367469999986, -14.231830883999976 ], [ -69.119405364999977, -14.231830883999976 ], [ -69.119405365999967, -14.231565471999943 ], [ -69.11936746899994, -14.231565470999954 ], [ -69.119367469999986, -14.231527555999946 ], [ -69.119177991999948, -14.231527555999946 ], [ -69.119177990999958, -14.231565472999932 ], [ -69.119064303999949, -14.231565471999943 ], [ -69.119064303999949, -14.231527554999957 ], [ -69.118874825999967, -14.231527555999946 ], [ -69.118874825999967, -14.231413806999967 ], [ -69.118836929999986, -14.231413807999957 ], [ -69.118836929999986, -14.231375889999981 ], [ -69.118761137999968, -14.23137589199996 ], [ -69.118761138999957, -14.231224226999927 ], [ -69.118723242999977, -14.231224226999927 ], [ -69.118723243999966, -14.231186309999941 ], [ -69.118685347999985, -14.231186310999931 ], [ -69.11868534599995, -14.231034645999955 ], [ -69.118723242999977, -14.231034645999955 ], [ -69.118723242999977, -14.230958813999962 ], [ -69.118836929999986, -14.230958811999926 ], [ -69.118836929999986, -14.230920896999976 ], [ -69.118874825999967, -14.230920897999965 ], [ -69.118874825999967, -14.230390070999931 ], [ -69.118836929999986, -14.230390070999931 ], [ -69.118836929999986, -14.230314238999938 ], [ -69.118723242999977, -14.230314237999949 ] ] ] ] } }
]
}
