{
"type": "FeatureCollection",
"name": "SJO_fire_2023",
"crs": { "type": "name", "properties": { "name": "urn:ogc:def:crs:OGC:1.3:CRS84" } },
"features": [
{ "type": "Feature", "properties": { "fid": 1, "FUENTE": "Servicio Nacional Forestal y de Fauna Silvestre", "DOCREG": null, "FECREG": "1899-12-30", "OBSERV": null, "ZONUTM": 19, "ORIGEN": 0, "REFER": null, "ANNO": "2023", "MES": "10", "DIA": null, "CODPIF": null, "CODRIF": null, "CODOIF": "OIF_PUN_20230257", "CODSIN": null, "SUPIND": 6.56, "NOMDEP": "PUNO", "NOMPRO": "SANDIA", "NOMDIS": "SAN JUAN DEL ORO", "CATDEP": "21", "CATPRO": "2112", "CATDIS": "211207", "VERAFECT": 0.0, "FFECHA": null, "created_us": "MGALAN", "created_da": "2025-02-07", "last_edite": "JMONTALBAN", "last_edi_1": "2025-10-09", "Shape_STAr": 5.4931586426500003e-06, "Shape_STLe": 0.018370997404799999 }, "geometry": { "type": "MultiPolygon", "coordinates": [ [ [ [ -69.061331516999985, -14.184750903999941 ], [ -69.060970413999939, -14.18473264499994 ], [ -69.06095169799994, -14.185084955999969 ], [ -69.060319766999953, -14.185053 ], [ -69.060296370999936, -14.185493387999941 ], [ -69.060476922999953, -14.185502518999954 ], [ -69.060458204999975, -14.185854829999926 ], [ -69.060277652999957, -14.185845698999969 ], [ -69.060291690999975, -14.185581465999974 ], [ -69.060020863999966, -14.185567769999977 ], [ -69.05999746599997, -14.186008156999947 ], [ -69.059636361999935, -14.185989893999931 ], [ -69.059631681999974, -14.186077971999964 ], [ -69.059451129999957, -14.186068839999962 ], [ -69.05947920899996, -14.185540375999949 ], [ -69.059208381999952, -14.185526677999974 ], [ -69.059166262999952, -14.186319373999936 ], [ -69.058985710999934, -14.186310240999944 ], [ -69.058966989999988, -14.186662549999937 ], [ -69.058696162999979, -14.186648850999973 ], [ -69.058705522999958, -14.186472696999942 ], [ -69.058615247999967, -14.18646813099997 ], [ -69.058666728999981, -14.185499282999956 ], [ -69.058576453999933, -14.185494716999926 ], [ -69.058571773999972, -14.18558279399997 ], [ -69.058120396999982, -14.185559962999946 ], [ -69.058106356999986, -14.185824193999963 ], [ -69.058196631999976, -14.185828759999936 ], [ -69.058187270999952, -14.186004913999966 ], [ -69.057826169999942, -14.185986647999982 ], [ -69.057821489999981, -14.186074724999969 ], [ -69.057640938999953, -14.186065591999977 ], [ -69.057626896999977, -14.186329821999948 ], [ -69.058168549999948, -14.18635722199997 ], [ -69.058126423999965, -14.187149913999974 ], [ -69.058397251999963, -14.187163613999928 ], [ -69.058387890999938, -14.187339767999958 ], [ -69.058748994999974, -14.187358033999942 ], [ -69.058753674999934, -14.187269956999955 ], [ -69.059205055999939, -14.187292789999958 ], [ -69.059186334999936, -14.187645098999951 ], [ -69.059366886999953, -14.187654230999954 ], [ -69.05937156799996, -14.187566153999967 ], [ -69.060815994999984, -14.187639211999965 ], [ -69.06083939399997, -14.18719882399995 ], [ -69.060749116999943, -14.187194257999977 ], [ -69.060767835999968, -14.186841946999948 ], [ -69.061038665999945, -14.186855643999934 ], [ -69.061043344999973, -14.186767565999958 ], [ -69.060953068999936, -14.186763 ], [ -69.060976465999943, -14.18632261099998 ], [ -69.061337571999957, -14.186340872999949 ], [ -69.061346930999946, -14.18616471699994 ], [ -69.061256653999976, -14.186160150999967 ], [ -69.061331516999985, -14.184750903999941 ] ] ] ] } },
{ "type": "Feature", "properties": { "fid": 2, "FUENTE": "Servicio Nacional Forestal y de Fauna Silvestre", "DOCREG": null, "FECREG": "1899-12-30", "OBSERV": null, "ZONUTM": 19, "ORIGEN": 0, "REFER": null, "ANNO": "2023", "MES": "10", "DIA": null, "CODPIF": null, "CODRIF": null, "CODOIF": "OIF_PUN_20230257", "CODSIN": null, "SUPIND": 2.94, "NOMDEP": "PUNO", "NOMPRO": "SANDIA", "NOMDIS": "SAN JUAN DEL ORO", "CATDEP": "21", "CATPRO": "2112", "CATDIS": "211207", "VERAFECT": 0.0, "FFECHA": null, "created_us": "MGALAN", "created_da": "2025-02-07", "last_edite": "JMONTALBAN", "last_edi_1": "2025-10-09", "Shape_STAr": 2.4636394078000001e-06, "Shape_STLe": 0.0112800335089 }, "geometry": { "type": "MultiPolygon", "coordinates": [ [ [ [ -69.067971744999966, -14.182437080999932 ], [ -69.067967069999952, -14.182525160999944 ], [ -69.06760596099997, -14.18250691399993 ], [ -69.067582582999933, -14.182947313999932 ], [ -69.067311750999977, -14.182933628999933 ], [ -69.067307074999974, -14.183021707999956 ], [ -69.067126519999988, -14.183012583999982 ], [ -69.067112492999968, -14.183276823999961 ], [ -69.066751383999986, -14.183258574999968 ], [ -69.066765411999938, -14.182994335999979 ], [ -69.066584857999942, -14.182985211999949 ], [ -69.066594209999948, -14.182809051999982 ], [ -69.066052547999959, -14.182781677999969 ], [ -69.066043195999953, -14.182957837999936 ], [ -69.065501535999942, -14.182930461999945 ], [ -69.065473475999966, -14.183458937999944 ], [ -69.066105414999981, -14.18349087699994 ], [ -69.066091385999982, -14.183755115999929 ], [ -69.066813603999947, -14.183791615999951 ], [ -69.066799574999948, -14.18405585499994 ], [ -69.067431518999967, -14.184087791999957 ], [ -69.06745022299998, -14.183735471999967 ], [ -69.068714112999942, -14.183799338999961 ], [ -69.068732813999986, -14.183447017999981 ], [ -69.068281424999952, -14.183424208999952 ], [ -69.068276749999939, -14.183512288999964 ], [ -69.067915638999978, -14.18349404199995 ], [ -69.067943691999972, -14.182965560999946 ], [ -69.068124246999957, -14.182974684999976 ], [ -69.068152299999952, -14.182446203999973 ], [ -69.067971744999966, -14.182437080999932 ] ] ] ] } },
{ "type": "Feature", "properties": { "fid": 3, "FUENTE": "Servicio Nacional Forestal y de Fauna Silvestre", "DOCREG": null, "FECREG": "1899-12-30", "OBSERV": null, "ZONUTM": 19, "ORIGEN": 0, "REFER": null, "ANNO": "2023", "MES": "10", "DIA": null, "CODPIF": "PIF_03050_2023", "CODRIF": null, "CODOIF": "OIF_PUN_20230257", "CODSIN": null, "SUPIND": 71.31, "NOMDEP": "PUNO", "NOMPRO": "SANDIA", "NOMDIS": "SAN JUAN DEL ORO", "CATDEP": "21", "CATPRO": "2112", "CATDIS": "211207", "VERAFECT": 0.0, "FFECHA": null, "created_us": "MGALAN", "created_da": "2025-02-07", "last_edite": "JMONTALBAN", "last_edi_1": "2025-10-09", "Shape_STAr": 5.9753727669199997e-05, "Shape_STLe": 0.129543679051 }, "geometry": { "type": "MultiPolygon", "coordinates": [ [ [ [ -69.061331516999985, -14.184750903999941 ], [ -69.061782897999933, -14.184773727999982 ], [ -69.06176418299998, -14.185126039999943 ], [ -69.06185445899996, -14.185130604999927 ], [ -69.061788955999987, -14.18636369799998 ], [ -69.061969508999937, -14.186372828999936 ], [ -69.061974187999965, -14.18628474999997 ], [ -69.062335295999958, -14.186303009999961 ], [ -69.062316579999958, -14.186655322999968 ], [ -69.062587410999981, -14.186669017999975 ], [ -69.062592089999953, -14.186580939999942 ], [ -69.062953198999935, -14.186599198999943 ], [ -69.062967234999974, -14.186334963999968 ], [ -69.06314778899997, -14.186344092999946 ], [ -69.063180537999983, -14.185727542999928 ], [ -69.063090260999957, -14.185722978999934 ], [ -69.063099617999967, -14.185546821999935 ], [ -69.06346072599996, -14.185565078999957 ], [ -69.063474759999963, -14.185300842999936 ], [ -69.063655313999959, -14.185309970999981 ], [ -69.063641279999956, -14.185574206999945 ], [ -69.063821833999953, -14.185583335999979 ], [ -69.063826511999935, -14.185495256999957 ], [ -69.065451504999942, -14.185577404999947 ], [ -69.065465536999966, -14.185313166999947 ], [ -69.065736369999968, -14.18532685699995 ], [ -69.065750400999946, -14.18506261899995 ], [ -69.066111511999964, -14.185080870999968 ], [ -69.066125542999941, -14.184816632999969 ], [ -69.066035264999982, -14.184812069999964 ], [ -69.066039941999975, -14.184723989999952 ], [ -69.065769108999973, -14.184710300999939 ], [ -69.065778462999958, -14.184534141999961 ], [ -69.06523679999998, -14.184506763999934 ], [ -69.065232122999987, -14.184594842999957 ], [ -69.064961290999975, -14.184581152999954 ], [ -69.064951936999933, -14.184757310999942 ], [ -69.064771381999947, -14.184748183999943 ], [ -69.064799445999938, -14.184219709999979 ], [ -69.064709168999968, -14.184215145999929 ], [ -69.064704491999976, -14.184303224999951 ], [ -69.064433660999953, -14.184289534999948 ], [ -69.064419628999985, -14.184553771999958 ], [ -69.064148797999962, -14.184540080999966 ], [ -69.064162830999976, -14.184275844999945 ], [ -69.063621170999966, -14.18424846299996 ], [ -69.063607137999952, -14.184512698999981 ], [ -69.063516860999982, -14.18450813499993 ], [ -69.063512182999943, -14.184596213999953 ], [ -69.063151076999986, -14.184577957999977 ], [ -69.063141720999965, -14.184754114999976 ], [ -69.062961167999958, -14.184744986999931 ], [ -69.062970523999979, -14.184568829999932 ], [ -69.062609418999955, -14.184550572999967 ], [ -69.062637486999961, -14.184022102999961 ], [ -69.062908314999959, -14.184035794999943 ], [ -69.062922348999962, -14.183771558999979 ], [ -69.063102900999979, -14.183780686999967 ], [ -69.06313096599996, -14.183252215999971 ], [ -69.062679586999934, -14.183229396999934 ], [ -69.062674908999952, -14.183317474999967 ], [ -69.062584632999972, -14.183312911999963 ], [ -69.062579955999979, -14.183400989999939 ], [ -69.062670231999959, -14.183405553999933 ], [ -69.062651519999974, -14.18375786699994 ], [ -69.062290416999986, -14.183739610999964 ], [ -69.062341871999934, -14.182770749999975 ], [ -69.062883525999951, -14.182798131999959 ], [ -69.062902235999957, -14.182445817999962 ], [ -69.062721684999985, -14.182436690999964 ], [ -69.062717006999947, -14.18252476999993 ], [ -69.062355904999947, -14.182506514999943 ], [ -69.062365259999979, -14.182330358999934 ], [ -69.062274984999988, -14.18232579499994 ], [ -69.062335789999963, -14.181180776999952 ], [ -69.062967714999957, -14.181212718999973 ], [ -69.062953683999979, -14.181476954999937 ], [ -69.063134233999961, -14.181486080999946 ], [ -69.063176324999972, -14.180693373999929 ], [ -69.063627699999984, -14.180716186999973 ], [ -69.063618346999988, -14.180892344999961 ], [ -69.063979448999987, -14.180910594999943 ], [ -69.063965418999942, -14.181174831999954 ], [ -69.064777899999967, -14.18121589499998 ], [ -69.064763870999968, -14.181480131999933 ], [ -69.064944422999986, -14.181489256999953 ], [ -69.064958450999939, -14.181225018999953 ], [ -69.065229278999936, -14.181238705999931 ], [ -69.065224602999933, -14.181326784999953 ], [ -69.06531487899997, -14.181331346999968 ], [ -69.065305526999964, -14.181507505999946 ], [ -69.06593745899994, -14.181539440999927 ], [ -69.065942134999943, -14.181451361999962 ], [ -69.06612268799995, -14.181460485999935 ], [ -69.066127362999964, -14.18137240599998 ], [ -69.066037086999984, -14.181367843999965 ], [ -69.066046438999933, -14.181191684999931 ], [ -69.066768648999982, -14.181228178999959 ], [ -69.066796700999987, -14.180699699999934 ], [ -69.066255043999945, -14.180672330999926 ], [ -69.066278419999946, -14.180231932999959 ], [ -69.066549247999944, -14.180245617999958 ], [ -69.066567947999943, -14.179893298999957 ], [ -69.066206844999954, -14.179875052999932 ], [ -69.06620216999994, -14.179963132999944 ], [ -69.066111894999949, -14.179958570999929 ], [ -69.066125919999934, -14.179694332999929 ], [ -69.066035643999953, -14.179689770999971 ], [ -69.066040319999956, -14.179601691999949 ], [ -69.066311145999975, -14.179615375999958 ], [ -69.066320495999946, -14.179439216999981 ], [ -69.066049669999984, -14.179425532999971 ], [ -69.066101092999986, -14.178456657999959 ], [ -69.065739992999966, -14.17843841399997 ], [ -69.06575401799995, -14.178174174999981 ], [ -69.065483192999977, -14.178160491999961 ], [ -69.065515915999981, -14.17754393599995 ], [ -69.06542564199998, -14.177539374999981 ], [ -69.065444339999942, -14.177187057999959 ], [ -69.06526379099995, -14.177177935999964 ], [ -69.065254441999969, -14.177354094999941 ], [ -69.064983618999975, -14.177340411999978 ], [ -69.064992968999945, -14.177164252999944 ], [ -69.064451323999947, -14.177136886999961 ], [ -69.064437298999962, -14.177401123999971 ], [ -69.064166476999958, -14.177387439999961 ], [ -69.064152451999973, -14.177651676999972 ], [ -69.063971902999981, -14.177642553999931 ], [ -69.063985928999955, -14.177378316999977 ], [ -69.063624833999938, -14.177360070999953 ], [ -69.063634183999966, -14.177183912999965 ], [ -69.063995278999982, -14.177202158999933 ], [ -69.063999953999939, -14.177114079999967 ], [ -69.064180501999942, -14.177123202999951 ], [ -69.064194526999984, -14.176858965999941 ], [ -69.063923705999969, -14.176845281999931 ], [ -69.063937729999964, -14.176581045999967 ], [ -69.064118277999967, -14.176590167999962 ], [ -69.064132301999962, -14.176325930999951 ], [ -69.064493395999989, -14.17634417499994 ], [ -69.064498070999946, -14.176256095999975 ], [ -69.064407796999944, -14.176251534999949 ], [ -69.064417146999972, -14.176075376999961 ], [ -69.064778240999942, -14.17609362099995 ], [ -69.064806286999953, -14.17556514599994 ], [ -69.064716012999952, -14.175560584999971 ], [ -69.064739383999949, -14.175120188999927 ], [ -69.064919930999963, -14.175129309999932 ], [ -69.064938625999957, -14.174776992999966 ], [ -69.066112180999937, -14.174836273999972 ], [ -69.066126200999975, -14.174572035999972 ], [ -69.066035927999962, -14.174567475999936 ], [ -69.066101351999976, -14.173334361999935 ], [ -69.066552717999969, -14.173357157999931 ], [ -69.066557389999957, -14.173269077999976 ], [ -69.066828209999983, -14.173282755999935 ], [ -69.06683755499995, -14.173106595999968 ], [ -69.066747281999938, -14.173102036999978 ], [ -69.066765971999985, -14.172749717999977 ], [ -69.067036791999953, -14.172763394999947 ], [ -69.067041463999942, -14.172675314999935 ], [ -69.067131736999954, -14.172679872999936 ], [ -69.067113047999953, -14.173032192999926 ], [ -69.067383867999979, -14.173045869999953 ], [ -69.06740255699998, -14.172693549999963 ], [ -69.067583102999947, -14.172702666999953 ], [ -69.067606462999947, -14.172262266999951 ], [ -69.06742591699998, -14.17225314999996 ], [ -69.067411900999957, -14.172517389999939 ], [ -69.066689716999974, -14.172480918999952 ], [ -69.066685043999939, -14.172568998999964 ], [ -69.066594770999984, -14.172564439999974 ], [ -69.066613460999974, -14.172212120999973 ], [ -69.066071824999938, -14.172184767999966 ], [ -69.06606715199996, -14.172272846999931 ], [ -69.065796334999959, -14.172259169999961 ], [ -69.065782315999968, -14.172523407999961 ], [ -69.065511498999967, -14.172509729999945 ], [ -69.065516171999946, -14.172421650999979 ], [ -69.065425898999933, -14.172417091999932 ], [ -69.065477298999951, -14.171448217999966 ], [ -69.064935666999986, -14.17142086399997 ], [ -69.064916975999949, -14.171773180999935 ], [ -69.064736431999961, -14.171764061999966 ], [ -69.064755122999941, -14.171411744999943 ], [ -69.064394035999953, -14.171393507999937 ], [ -69.064389362999975, -14.17148158699996 ], [ -69.063938004999955, -14.171458788999928 ], [ -69.06390061899998, -14.172163419999947 ], [ -69.063990889999957, -14.172167979999927 ], [ -69.063962849999939, -14.172696453999947 ], [ -69.064143393999984, -14.172705572999973 ], [ -69.064124699999979, -14.173057888999949 ], [ -69.063944154999945, -14.173048768999934 ], [ -69.063930133999975, -14.173313005999944 ], [ -69.064832858999978, -14.173358605999965 ], [ -69.064837531999956, -14.173270526999943 ], [ -69.064927804999968, -14.173275086999979 ], [ -69.064941824999948, -14.173010848999979 ], [ -69.065302914999961, -14.173029087999964 ], [ -69.065312261999964, -14.17285292899993 ], [ -69.065221988999951, -14.17284836999994 ], [ -69.065226661999986, -14.172760289999928 ], [ -69.065316934999942, -14.172764849999965 ], [ -69.065321607999977, -14.172676769999953 ], [ -69.065502152999954, -14.172685888999979 ], [ -69.065469440999948, -14.173302444999933 ], [ -69.06528889599997, -14.173293325999964 ], [ -69.065260855999952, -14.173821801999964 ], [ -69.064990036999973, -14.173808121999969 ], [ -69.06498068999997, -14.173984279999956 ], [ -69.064800143999946, -14.173975159999941 ], [ -69.064781448999952, -14.174327476999963 ], [ -69.06414953899997, -14.174295554999958 ], [ -69.064135516999954, -14.174559791999968 ], [ -69.063954970999987, -14.174550670999963 ], [ -69.063940948999971, -14.174814906999927 ], [ -69.063670129999934, -14.174801224999953 ], [ -69.063628058999939, -14.175593933999949 ], [ -69.063447512999971, -14.175584811999954 ], [ -69.063433488999976, -14.175849047999975 ], [ -69.06316266999994, -14.175835363999965 ], [ -69.063176693999935, -14.175571128999934 ], [ -69.062635056999966, -14.175543760999972 ], [ -69.06264908199995, -14.17527952599994 ], [ -69.062287991999938, -14.175261279999972 ], [ -69.062273965999964, -14.175525514999947 ], [ -69.062364238999976, -14.175530076999962 ], [ -69.062359563999962, -14.175618154999938 ], [ -69.061817927999982, -14.17559078499994 ], [ -69.061803901999951, -14.175855019999972 ], [ -69.061352538999984, -14.175832209999953 ], [ -69.06134786399997, -14.175920287999929 ], [ -69.060986773999957, -14.175902039999926 ], [ -69.061019503999944, -14.175285494999969 ], [ -69.060748686999943, -14.17527180899998 ], [ -69.06075803899995, -14.175095652999971 ], [ -69.061028854999961, -14.17510933899996 ], [ -69.061042880999935, -14.174845104999974 ], [ -69.060952608999969, -14.174840542999959 ], [ -69.060999361999961, -14.17395976399996 ], [ -69.061270176999983, -14.173973448999959 ], [ -69.061344972999962, -14.172564199999954 ], [ -69.060983888999942, -14.172545955999965 ], [ -69.061002586999962, -14.172193643999947 ], [ -69.061273399999948, -14.172207326999967 ], [ -69.061296770999945, -14.171766936999973 ], [ -69.060755146999952, -14.171739571999979 ], [ -69.060745797999971, -14.171915727999931 ], [ -69.060836068999947, -14.171920288999956 ], [ -69.060831393999933, -14.172008366999933 ], [ -69.06047031099996, -14.171990122999944 ], [ -69.060456286999965, -14.172254355999939 ], [ -69.060275745999945, -14.172245232999956 ], [ -69.060261720999961, -14.172509465999951 ], [ -69.059990908999964, -14.172495781999942 ], [ -69.059934806999934, -14.173552712999935 ], [ -69.059122367999976, -14.17351165599996 ], [ -69.059150421999959, -14.172983191999947 ], [ -69.058969880999939, -14.172974067999974 ], [ -69.05898390699997, -14.172709836999957 ], [ -69.058622825999976, -14.172691588999953 ], [ -69.058646203999956, -14.172251202999973 ], [ -69.058375392999949, -14.172237516999928 ], [ -69.058384743999966, -14.172061362999955 ], [ -69.058655553999984, -14.172075048999943 ], [ -69.058688280999945, -14.171458507999944 ], [ -69.058959090999963, -14.171472192999943 ], [ -69.05899648999997, -14.170767574999957 ], [ -69.058635411999944, -14.170749328999932 ], [ -69.058626061999973, -14.170925483999952 ], [ -69.058355252999945, -14.170911798999953 ], [ -69.058336552999947, -14.171264107999946 ], [ -69.058156012999973, -14.171254983999972 ], [ -69.058146662999945, -14.171431137999946 ], [ -69.057875853999974, -14.171417452999947 ], [ -69.057815070999936, -14.172562452999955 ], [ -69.057363720999945, -14.172539640999958 ], [ -69.057298253999988, -14.173772714999927 ], [ -69.057659334999983, -14.173790965999956 ], [ -69.057649981999987, -14.173967119999929 ], [ -69.05783052299995, -14.173976244999949 ], [ -69.057797787999959, -14.17459278299998 ], [ -69.057617246999939, -14.17458365799996 ], [ -69.057593862999965, -14.175024041999961 ], [ -69.057684133999942, -14.175028604999966 ], [ -69.057679456999949, -14.175116681999953 ], [ -69.057859998999959, -14.175125807999962 ], [ -69.057850644999974, -14.175301961999935 ], [ -69.058121458999949, -14.175315650999949 ], [ -69.058102751999968, -14.175667958999952 ], [ -69.058193022999944, -14.175672521999957 ], [ -69.058183668999959, -14.17584867599993 ], [ -69.05863502699998, -14.175871490999953 ], [ -69.058649056999968, -14.175607259999936 ], [ -69.058919870999944, -14.17562094799996 ], [ -69.058938576999935, -14.175268638999967 ], [ -69.059119119999934, -14.175277764999976 ], [ -69.059128471999941, -14.175101609999956 ], [ -69.059670100999938, -14.175128984999958 ], [ -69.059646720999979, -14.175569371999927 ], [ -69.060007807999966, -14.175587621999966 ], [ -69.059993779999957, -14.175851854999962 ], [ -69.05963269199998, -14.17583360499998 ], [ -69.059628015999976, -14.175921681999966 ], [ -69.059718287999942, -14.175926244999971 ], [ -69.059694905999947, -14.17636663199994 ], [ -69.059965721999959, -14.176380319999964 ], [ -69.059942339999964, -14.17682070799998 ], [ -69.059852067999941, -14.176816144999975 ], [ -69.059847390999948, -14.176904222999951 ], [ -69.05966684699996, -14.176895096999942 ], [ -69.059629432999941, -14.177599716999964 ], [ -69.059719704999964, -14.177604279999969 ], [ -69.059715027999971, -14.177692356999955 ], [ -69.05944421099997, -14.177678667999942 ], [ -69.059434855999939, -14.177854821999972 ], [ -69.059164038999938, -14.177841131999969 ], [ -69.059150006999971, -14.178105363999975 ], [ -69.059059734999948, -14.178100800999971 ], [ -69.059055056999966, -14.178188877999958 ], [ -69.058152332999953, -14.17814324099993 ], [ -69.058110232999979, -14.178935932999934 ], [ -69.058381050999969, -14.178949625999962 ], [ -69.058371694999948, -14.179125779999936 ], [ -69.059003604999987, -14.17915772799995 ], [ -69.059008281999979, -14.179069649999974 ], [ -69.058918009999957, -14.179065086999969 ], [ -69.058927364999988, -14.17888893199995 ], [ -69.059198183999968, -14.178902622999942 ], [ -69.059212215999935, -14.178638391999982 ], [ -69.059483034999971, -14.178652081999928 ], [ -69.059440936999977, -14.179444778999937 ], [ -69.059711756999945, -14.179458469999929 ], [ -69.059702401999971, -14.179634624999949 ], [ -69.059973222999986, -14.179648315999941 ], [ -69.059959189999972, -14.179912548999937 ], [ -69.059688368999957, -14.179898856999955 ], [ -69.059660302999987, -14.180427321999957 ], [ -69.060021397999947, -14.180445577999933 ], [ -69.059998008999969, -14.180885965999948 ], [ -69.059636912999963, -14.180867708999926 ], [ -69.059632234999981, -14.180955786999959 ], [ -69.059722508999982, -14.180960350999953 ], [ -69.059694439999987, -14.181488815999955 ], [ -69.059513891999984, -14.181479686999978 ], [ -69.059485821999942, -14.182008150999934 ], [ -69.060027467999987, -14.18203553799998 ], [ -69.060018111999966, -14.182211692999942 ], [ -69.060379209999951, -14.182229950999954 ], [ -69.060383887999933, -14.182141872999978 ], [ -69.060474162999981, -14.182146437999961 ], [ -69.060483518999945, -14.181970281999952 ], [ -69.061025166999968, -14.181997666999962 ], [ -69.061001776999944, -14.182438055999967 ], [ -69.061633702999984, -14.182470004999971 ], [ -69.06165241399998, -14.182117691999963 ], [ -69.061562138999989, -14.182113128999958 ], [ -69.061566815999981, -14.182025050999982 ], [ -69.061295991999941, -14.182011358999944 ], [ -69.061324057999968, -14.181482890999973 ], [ -69.061594881999952, -14.181496581999966 ], [ -69.061585526999977, -14.181672737999975 ], [ -69.06185635099996, -14.181686428999967 ], [ -69.061842318999936, -14.181950663999942 ], [ -69.062113143999966, -14.181964354999934 ], [ -69.062071045999971, -14.182757058999982 ], [ -69.061619668999981, -14.182734238999956 ], [ -69.061605634999978, -14.182998472999941 ], [ -69.061786185999949, -14.183007600999929 ], [ -69.061767473999964, -14.183359913999936 ], [ -69.061857749999945, -14.18336447799993 ], [ -69.061834358999988, -14.183804868999971 ], [ -69.06165380799996, -14.183795739999937 ], [ -69.061639772999968, -14.184059973999979 ], [ -69.061820324999985, -14.184069102999956 ], [ -69.061792254999943, -14.184597571999973 ], [ -69.061340874999985, -14.184574747999932 ], [ -69.061331516999985, -14.184750903999941 ] ], [ [ -69.062349820999941, -14.180916541999977 ], [ -69.062359174999983, -14.180740385999968 ], [ -69.06181752699996, -14.180713005999962 ], [ -69.061831557999938, -14.180448771999977 ], [ -69.061560734999944, -14.180435081999974 ], [ -69.061574765999978, -14.180170847999932 ], [ -69.061845588999972, -14.180184536999946 ], [ -69.061854942999958, -14.180008380999936 ], [ -69.061764667999967, -14.180003817999932 ], [ -69.061783375999937, -14.179651504999981 ], [ -69.061332005999986, -14.179628689999959 ], [ -69.061341358999982, -14.17945253399995 ], [ -69.060980263999966, -14.179434280999942 ], [ -69.061008325999978, -14.178905813999961 ], [ -69.060827778999965, -14.178896687999952 ], [ -69.060837131999961, -14.178720531999943 ], [ -69.060746858999948, -14.178715968999938 ], [ -69.060751535999941, -14.178627890999962 ], [ -69.061022355999967, -14.178641579999976 ], [ -69.061041062999948, -14.178289268999947 ], [ -69.060950788999946, -14.178284705999943 ], [ -69.060960141999942, -14.178108549999934 ], [ -69.061592055999938, -14.178140488999929 ], [ -69.061563996999951, -14.178668956999957 ], [ -69.061834817999966, -14.17868264599997 ], [ -69.061811435999971, -14.179123035999964 ], [ -69.062082257999975, -14.179136724999978 ], [ -69.06207290499998, -14.17931288099993 ], [ -69.062163178999981, -14.179317443999935 ], [ -69.062158501999988, -14.179405521999968 ], [ -69.062339050999981, -14.179414647999977 ], [ -69.062310990999947, -14.179943117999926 ], [ -69.062581813999941, -14.17995680599995 ], [ -69.062577137999938, -14.180044884999973 ], [ -69.062667411999939, -14.180049446999931 ], [ -69.062620644999981, -14.18093023199998 ], [ -69.062349820999941, -14.180916541999977 ] ] ] ] } },
{ "type": "Feature", "properties": { "fid": 4, "FUENTE": "Servicio Nacional Forestal y de Fauna Silvestre", "DOCREG": null, "FECREG": "1899-12-30", "OBSERV": null, "ZONUTM": 19, "ORIGEN": 0, "REFER": null, "ANNO": "2023", "MES": "10", "DIA": null, "CODPIF": "PIF_01950_2023", "CODRIF": null, "CODOIF": "OIF_PUN_20230192", "CODSIN": null, "SUPIND": 40.83, "NOMDEP": "PUNO", "NOMPRO": "SANDIA", "NOMDIS": "SAN JUAN DEL ORO", "CATDEP": "21", "CATPRO": "2112", "CATDIS": "211207", "VERAFECT": 0.0, "FFECHA": null, "created_us": "MGALAN", "created_da": "2025-02-07", "last_edite": "JMONTALBAN", "last_edi_1": "2025-10-09", "Shape_STAr": 3.4215204626e-05, "Shape_STLe": 0.080093758161000006 }, "geometry": { "type": "MultiPolygon", "coordinates": [ [ [ [ -69.082039380999959, -14.166366635999964 ], [ -69.082034716999942, -14.16645472099998 ], [ -69.081673613999953, -14.16643651499993 ], [ -69.08165029099996, -14.166876938999962 ], [ -69.081830842999977, -14.166886041999931 ], [ -69.081821512999966, -14.167062211999962 ], [ -69.082363168999962, -14.167089519999934 ], [ -69.082330516999946, -14.16770611499993 ], [ -69.082872174999977, -14.167733422999959 ], [ -69.082876838999937, -14.167645337999943 ], [ -69.082967115999963, -14.167649888999961 ], [ -69.082953121999935, -14.167914144999941 ], [ -69.083314228999939, -14.167932349999944 ], [ -69.083318892999955, -14.167844263999939 ], [ -69.083499445999962, -14.167853366999964 ], [ -69.083480788999964, -14.168205707999959 ], [ -69.083932172999937, -14.168228463999981 ], [ -69.083936837999943, -14.168140377999975 ], [ -69.084297945999936, -14.168158581999933 ], [ -69.08428861699997, -14.168334752999954 ], [ -69.084469171999956, -14.168343854999932 ], [ -69.084450514999958, -14.168696197999964 ], [ -69.084811624999986, -14.168714401999978 ], [ -69.084797631999947, -14.168978658999947 ], [ -69.085519853999983, -14.169015065999929 ], [ -69.085524517999943, -14.168926979999981 ], [ -69.085614795999959, -14.168931529999952 ], [ -69.085586811999974, -14.169460045999926 ], [ -69.086309036999978, -14.169496451999976 ], [ -69.086299709999935, -14.169672623999929 ], [ -69.086660822999988, -14.169690826999954 ], [ -69.086646831999985, -14.169955085999959 ], [ -69.086285717999942, -14.169936882999934 ], [ -69.086276389999966, -14.170113054999945 ], [ -69.086366667999982, -14.170117605999963 ], [ -69.08635733999995, -14.170293778999962 ], [ -69.086447618999955, -14.170298328999934 ], [ -69.086452282999971, -14.170210242999929 ], [ -69.087174512999979, -14.170246647999932 ], [ -69.087179176999939, -14.170158561999926 ], [ -69.087088897999934, -14.170154010999966 ], [ -69.087098224999977, -14.169977837999966 ], [ -69.087549618999958, -14.170000589999972 ], [ -69.087554282999974, -14.169912502999978 ], [ -69.088276514999961, -14.169948903999966 ], [ -69.088262524999948, -14.17021316499995 ], [ -69.088804200999959, -14.17024046399996 ], [ -69.088794874999962, -14.170416637999949 ], [ -69.088975433999963, -14.170425737999949 ], [ -69.088956780999979, -14.170778086999974 ], [ -69.089227620999964, -14.170791735999956 ], [ -69.089232283999934, -14.170703648999961 ], [ -69.089593402999981, -14.170721847999971 ], [ -69.089579413999957, -14.170986109999944 ], [ -69.089669693999952, -14.170990659999973 ], [ -69.089674356999978, -14.170902572999978 ], [ -69.089764636999973, -14.17090712199996 ], [ -69.089745984999979, -14.171259471999974 ], [ -69.090197385999943, -14.171282219999966 ], [ -69.09020204899997, -14.171194132999972 ], [ -69.090292328999965, -14.171198682999943 ], [ -69.090264350999973, -14.171727207999936 ], [ -69.090625473999978, -14.171745406999946 ], [ -69.090583505999973, -14.172538194999959 ], [ -69.091125191999936, -14.172565493999969 ], [ -69.091101876999971, -14.173005932999956 ], [ -69.090831032999972, -14.172992282999928 ], [ -69.090812379999988, -14.173344633999932 ], [ -69.090992941999957, -14.173353733999932 ], [ -69.090997605999974, -14.173265645999948 ], [ -69.091087886999958, -14.173270195999976 ], [ -69.091059906999988, -14.173798722999948 ], [ -69.090789061999942, -14.17378507199993 ], [ -69.090779734999956, -14.173961246999966 ], [ -69.090689453999971, -14.173956696999937 ], [ -69.090684789999955, -14.174044784999978 ], [ -69.090594507999981, -14.17404023399996 ], [ -69.090566525999975, -14.174568759999943 ], [ -69.090837370999964, -14.17458241099996 ], [ -69.090828042999988, -14.174758586999928 ], [ -69.091369734999944, -14.174785888999963 ], [ -69.091379061999987, -14.174609712999938 ], [ -69.091108215999952, -14.174596062999967 ], [ -69.091122206999955, -14.174331798999958 ], [ -69.09130277099996, -14.174340899999947 ], [ -69.091307434999976, -14.174252811999963 ], [ -69.09139771699995, -14.174257361999935 ], [ -69.091411706999963, -14.173993098999972 ], [ -69.091592270999968, -14.174002198999972 ], [ -69.091601596999965, -14.173826022999947 ], [ -69.091872442999943, -14.173839671999929 ], [ -69.091900420999934, -14.173311143999967 ], [ -69.092803238999977, -14.173356638999962 ], [ -69.092807901999947, -14.173268550999978 ], [ -69.093259311999986, -14.173291296999935 ], [ -69.093273298999975, -14.173027031999936 ], [ -69.093453862999979, -14.173036129999957 ], [ -69.093481835999967, -14.172507598999971 ], [ -69.094565220999982, -14.172562181999979 ], [ -69.094583867999972, -14.172209825999971 ], [ -69.094764431999977, -14.172218922999946 ], [ -69.09479240099995, -14.171690388999934 ], [ -69.095063246999985, -14.171704032999969 ], [ -69.095086551999941, -14.171263587999931 ], [ -69.095357397999976, -14.171277230999976 ], [ -69.095385362999934, -14.170748695999976 ], [ -69.095565926999939, -14.170757790999971 ], [ -69.095556605999946, -14.170933969999965 ], [ -69.095917733999954, -14.170952159999956 ], [ -69.095927054999947, -14.170775980999963 ], [ -69.096107618999952, -14.170785074999969 ], [ -69.09613092099994, -14.170344627999953 ], [ -69.096040638999966, -14.170340080999949 ], [ -69.096045298999968, -14.170251991999976 ], [ -69.096948118999933, -14.170297461999951 ], [ -69.096952778999935, -14.170209371999931 ], [ -69.097675037999977, -14.170245744999932 ], [ -69.097689016999936, -14.169981474999929 ], [ -69.098140427999965, -14.170004206999977 ], [ -69.098145087999967, -14.169916116999957 ], [ -69.098235369999941, -14.169920662999971 ], [ -69.098249347999968, -14.169656392999968 ], [ -69.098700759999986, -14.16967912299998 ], [ -69.098710077999954, -14.169502942999941 ], [ -69.098890642999947, -14.169512033999979 ], [ -69.09889530199996, -14.169423943999959 ], [ -69.099075866999954, -14.16943303599993 ], [ -69.099080525999966, -14.169344944999978 ], [ -69.098990243999936, -14.169340398999964 ], [ -69.098999560999971, -14.169164218999981 ], [ -69.098728713999947, -14.169150581999929 ], [ -69.098738031999972, -14.168974400999957 ], [ -69.098557467999967, -14.16896530899993 ], [ -69.098571443999958, -14.168701038999927 ], [ -69.098029751999945, -14.168673763999948 ], [ -69.098015774999965, -14.16893803399995 ], [ -69.097835210999961, -14.16892894199998 ], [ -69.097830551999948, -14.169017031999942 ], [ -69.097740269999974, -14.169012485999929 ], [ -69.097754247999944, -14.168748215999926 ], [ -69.097663965999971, -14.168743669999969 ], [ -69.097682601999963, -14.168391309999947 ], [ -69.096689505999962, -14.168341302999977 ], [ -69.096656888999973, -14.168957929999976 ], [ -69.096115199999986, -14.168930650999982 ], [ -69.096101220999969, -14.169194918999949 ], [ -69.095559532999971, -14.169167637999976 ], [ -69.095545551999976, -14.169431904999954 ], [ -69.095364988999961, -14.169422810999947 ], [ -69.095360328999959, -14.169510899999977 ], [ -69.09508948499996, -14.169497258999968 ], [ -69.095112786999948, -14.169056812999941 ], [ -69.095022505999964, -14.169052265999937 ], [ -69.095027165999966, -14.168964176999964 ], [ -69.094575761999977, -14.168941440999959 ], [ -69.094589742999972, -14.168677173999981 ], [ -69.094228619999967, -14.168658984999979 ], [ -69.094242600999962, -14.168394718999934 ], [ -69.093791198999952, -14.16837198199994 ], [ -69.093707303999963, -14.16995757799998 ], [ -69.094068427999957, -14.169975768999961 ], [ -69.094054444999983, -14.170240035999939 ], [ -69.094235007999941, -14.170249130999935 ], [ -69.094207040999947, -14.170777663999957 ], [ -69.094297321999989, -14.170782211999949 ], [ -69.094246047999945, -14.171751188999963 ], [ -69.094065483999941, -14.171742091999931 ], [ -69.094079468999951, -14.171477825999943 ], [ -69.093718341999988, -14.171459632999927 ], [ -69.093704356999979, -14.171723898999971 ], [ -69.093433511999933, -14.171710252999958 ], [ -69.093414864999943, -14.17206260699993 ], [ -69.092963456999939, -14.172039862999952 ], [ -69.092935482999962, -14.172568392999949 ], [ -69.092393793999975, -14.172541098999943 ], [ -69.092421767999951, -14.172012568999946 ], [ -69.092692611999951, -14.172026215999949 ], [ -69.092725246999976, -14.171409597999968 ], [ -69.092454403999966, -14.171395951999955 ], [ -69.092463727999984, -14.17121977599993 ], [ -69.092102603999933, -14.171201579999945 ], [ -69.092088616999945, -14.171465843999954 ], [ -69.091637211999966, -14.17144309899993 ], [ -69.091646536999974, -14.171266922999962 ], [ -69.091375694999954, -14.171253275999959 ], [ -69.091389681999942, -14.17098901199995 ], [ -69.090757718999953, -14.170957166999926 ], [ -69.090767043999961, -14.170780991999948 ], [ -69.090586483999971, -14.170771892999937 ], [ -69.090605133999986, -14.17041954299998 ], [ -69.09024401399995, -14.170401345999949 ], [ -69.09029529999998, -14.169432382999958 ], [ -69.090114740999979, -14.169423284999937 ], [ -69.090110078999942, -14.169511371999931 ], [ -69.089297563999935, -14.169470428999944 ], [ -69.08931621399995, -14.169118079999976 ], [ -69.089225934999945, -14.169113529999947 ], [ -69.089235259999953, -14.168937355999958 ], [ -69.089054701999942, -14.168928256999948 ], [ -69.089050039999961, -14.169016344999932 ], [ -69.088779202999945, -14.16900269599995 ], [ -69.08879785299996, -14.168650347999971 ], [ -69.089610363999952, -14.168691290999959 ], [ -69.089596376999964, -14.168955552999932 ], [ -69.090047772999981, -14.168978297999956 ], [ -69.09006175899998, -14.168714035999926 ], [ -69.090152038999975, -14.168718584999965 ], [ -69.090156700999955, -14.168630496999981 ], [ -69.090246979999961, -14.168635045999963 ], [ -69.09026096599996, -14.168370783999933 ], [ -69.089538732999983, -14.168334392999952 ], [ -69.089548057999934, -14.168158217999974 ], [ -69.089186942999959, -14.168140021999932 ], [ -69.089182279999989, -14.168228108999926 ], [ -69.089001722999967, -14.168219010999962 ], [ -69.089011046999985, -14.168042836999973 ], [ -69.088920768999969, -14.168038287999934 ], [ -69.088930092999988, -14.167862113999945 ], [ -69.088749535999966, -14.167853014999935 ], [ -69.088758860999974, -14.167676840999945 ], [ -69.088488025999936, -14.167663193999942 ], [ -69.088502012999982, -14.167398932999959 ], [ -69.088411734999966, -14.167394383999977 ], [ -69.088425720999965, -14.167130122999936 ], [ -69.088245164999933, -14.167121024999972 ], [ -69.08825448999994, -14.166944850999926 ], [ -69.087983655999949, -14.16693120399998 ], [ -69.087992980999957, -14.16675503099998 ], [ -69.087902702999941, -14.166750480999951 ], [ -69.087912026999959, -14.166574307999952 ], [ -69.087641193999957, -14.166560660999949 ], [ -69.08761321999998, -14.167089180999938 ], [ -69.087432663999948, -14.167080081999927 ], [ -69.087400025999955, -14.167696687999978 ], [ -69.087129191999963, -14.16768303899994 ], [ -69.087161830999946, -14.167066433999935 ], [ -69.086890998999934, -14.167052784999953 ], [ -69.086886335999964, -14.167140870999958 ], [ -69.085622452999985, -14.167077173999928 ], [ -69.085645768999939, -14.166636743999959 ], [ -69.084833277999962, -14.166595792999942 ], [ -69.084842604999949, -14.166419620999932 ], [ -69.084300945999985, -14.166392319999943 ], [ -69.084291617999952, -14.166568490999964 ], [ -69.084111065999934, -14.166559389999975 ], [ -69.084106401999975, -14.16664747599998 ], [ -69.084016125999938, -14.166642924999962 ], [ -69.084002133999945, -14.166907181999932 ], [ -69.083641027999988, -14.166888978999964 ], [ -69.083655019999981, -14.166624722999927 ], [ -69.083203638999976, -14.166601968999942 ], [ -69.083212966999952, -14.166425798999967 ], [ -69.082039380999959, -14.166366635999964 ] ], [ [ -69.087932368999986, -14.167900158999942 ], [ -69.087918380999952, -14.168164418999936 ], [ -69.087466989999939, -14.168141670999944 ], [ -69.087480977999974, -14.167877410999949 ], [ -69.087932368999986, -14.167900158999942 ] ] ] ] } }
]
}
