{"type":"FeatureCollection","features":[{"type":"Feature","properties":{"Cell_ID":1,"Area_ha":1.0,"LC":"16:0.758737,17:0.000058","XMIN":711023.4004461599,"YMIN":8515153.59738907,"XMAX":711123.4004461599,"YMAX":8515253.59738907},"geometry":{"type":"Polygon","coordinates":[[[-73.05008529376933,-13.423883292171993],[-73.05009259043193,-13.422979577115795],[-73.05101579935209,-13.422986717758222],[-73.05100850613886,-13.423890433312543],[-73.05008529376933,-13.423883292171993]]]}},{"type":"Feature","properties":{"Cell_ID":2,"Area_ha":1.0,"LC":"9:0.537174,16:0.378388","XMIN":711123.4004461599,"YMIN":8515253.59738907,"XMAX":711223.4004461599,"YMAX":8515353.59738907},"geometry":{"type":"Polygon","coordinates":[[[-73.04916938204856,-13.42297243309675],[-73.04917668162346,-13.422068718470351],[-73.05009988655772,-13.422075861991047],[-73.05009259043193,-13.422979577115795],[-73.04916938204856,-13.42297243309675]]]}},{"type":"Feature","properties":{"Cell_ID":3,"Area_ha":1.0,"LC":"9:0.530517,16:0.469483","XMIN":711123.4004461599,"YMIN":8515153.59738907,"XMAX":711223.4004461599,"YMAX":8515253.59738907},"geometry":{"type":"Polygon","coordinates":[[[-73.04916208193661,-13.423876147654585],[-73.04916938204856,-13.42297243309675],[-73.05009259043193,-13.422979577115795],[-73.05008529376933,-13.423883292171993],[-73.04916208193661,-13.423876147654585]]]}},{"type":"Feature","properties":{"Cell_ID":4,"Area_ha":1.0,"LC":"9:0.182051,16:0.403163,17:0.043257","XMIN":711223.4004461599,"YMIN":8515453.59738907,"XMAX":711323.4004461599,"YMAX":8515553.59738907},"geometry":{"type":"Polygon","coordinates":[[[-73.04826077971295,-13.421157857376919],[-73.04826808166234,-13.420254143112],[-73.04919127916213,-13.420261289011899],[-73.04918398066131,-13.4211650037754],[-73.04826077971295,-13.421157857376919]]]}},{"type":"Feature","properties":{"Cell_ID":5,"Area_ha":1.0,"LC":"7:0.054015,9:0.119719,16:0.643878,17:0.181896","XMIN":711223.4004461599,"YMIN":8515353.59738907,"XMAX":711323.4004461599,"YMAX":8515453.59738907},"geometry":{"type":"Polygon","coordinates":[[[-73.04825347722625,-13.422061571573284],[-73.04826077971295,-13.421157857376919],[-73.04918398066131,-13.4211650037754],[-73.04917668162346,-13.422068718470351],[-73.04825347722625,-13.422061571573284]]]}},{"type":"Feature","properties":{"Cell_ID":6,"Area_ha":1.0,"LC":"7:0.174268,9:0.780828,16:0.044904","XMIN":711223.4004461599,"YMIN":8515253.59738907,"XMAX":711323.4004461599,"YMAX":8515353.59738907},"geometry":{"type":"Polygon","coordinates":[[[-73.04824617420226,-13.422965285701087],[-73.04825347722625,-13.422061571573284],[-73.04917668162346,-13.422068718470351],[-73.04916938204856,-13.42297243309675],[-73.04824617420226,-13.422965285701087]]]}},{"type":"Feature","properties":{"Cell_ID":7,"Area_ha":1.0,"LC":"5:0.177639,9:0.662923,18:0.159438","XMIN":711223.4004461599,"YMIN":8515153.59738907,"XMAX":711323.4004461599,"YMAX":8515253.59738907},"geometry":{"type":"Polygon","coordinates":[[[-73.04823887064097,-13.423868999760332],[-73.04824617420226,-13.422965285701087],[-73.04916938204856,-13.42297243309675],[-73.04916208193661,-13.423876147654585],[-73.04823887064097,-13.423868999760332]]]}},{"type":"Feature","properties":{"Cell_ID":8,"Area_ha":1.0,"LC":"3:0.021799,5:0.076502,9:0.483498,18:0.418201","XMIN":711223.4004461599,"YMIN":8515053.59738907,"XMAX":711323.4004461599,"YMAX":8515153.59738907},"geometry":{"type":"Polygon","coordinates":[[[-73.04823156654236,-13.424772713751004],[-73.04823887064097,-13.423868999760332],[-73.04916208193661,-13.423876147654585],[-73.04915478128761,-13.424779862143856],[-73.04823156654236,-13.424772713751004]]]}},{"type":"Feature","properties":{"Cell_ID":9,"Area_ha":1.0,"LC":"9:0.261927,16:0.515625,17:0.003013","XMIN":711323.4004461599,"YMIN":8515553.59738907,"XMAX":711423.4004461599,"YMAX":8515653.59738907},"geometry":{"type":"Polygon","coordinates":[[[-73.04734488469984,-13.420246993836209],[-73.04735218956029,-13.419343280001561],[-73.04827538307447,-13.419350428778538],[-73.04826808166234,-13.420254143112],[-73.04734488469984,-13.420246993836209]]]}},{"type":"Feature","properties":{"Cell_ID":10,"Area_ha":1.0,"LC":"9:0.575013,16:0.424987","XMIN":711323.4004461599,"YMIN":8515453.59738907,"XMAX":711423.4004461599,"YMAX":8515553.59738907},"geometry":{"type":"Polygon","coordinates":[[[-73.04733757930185,-13.421150707602308],[-73.04734488469984,-13.420246993836209],[-73.04826808166234,-13.420254143112],[-73.04826077971295,-13.421157857376919],[-73.04733757930185,-13.421150707602308]]]}},{"type":"Feature","properties":{"Cell_ID":11,"Area_ha":1.0,"LC":"7:0.065704,9:0.178174,13:0.471218,16:0.284904","XMIN":711323.4004461599,"YMIN":8515353.59738907,"XMAX":711423.4004461599,"YMAX":8515453.59738907},"geometry":{"type":"Polygon","coordinates":[[[-73.04733027336633,-13.422054421299848],[-73.04733757930185,-13.421150707602308],[-73.04826077971295,-13.421157857376919],[-73.04825347722625,-13.422061571573284],[-73.04733027336633,-13.422054421299848]]]}},{"type":"Feature","properties":{"Cell_ID":12,"Area_ha":1.0,"LC":"7:0.538075,9:0.460955,13:0.000971","XMIN":711323.4004461599,"YMIN":8515253.59738907,"XMAX":711423.4004461599,"YMAX":8515353.59738907},"geometry":{"type":"Polygon","coordinates":[[[-73.04732296689328,-13.422958134928827],[-73.04733027336633,-13.422054421299848],[-73.04825347722625,-13.422061571573284],[-73.04824617420226,-13.422965285701087],[-73.04732296689328,-13.422958134928827]]]}},{"type":"Feature","properties":{"Cell_ID":13,"Area_ha":1.0,"LC":"5:0.021799,6:0.090109,7:0.000127,9:0.887966","XMIN":711323.4004461599,"YMIN":8515153.59738907,"XMAX":711423.4004461599,"YMAX":8515253.59738907},"geometry":{"type":"Polygon","coordinates":[[[-73.04731565988264,-13.423861848489238],[-73.04732296689328,-13.422958134928827],[-73.04824617420226,-13.422965285701087],[-73.04823887064097,-13.423868999760332],[-73.04731565988264,-13.423861848489238]]]}},{"type":"Feature","properties":{"Cell_ID":14,"Area_ha":1.0,"LC":"5:0.581418,6:0.000127,9:0.378610,14:0.018047,18:0.021799","XMIN":711323.4004461599,"YMIN":8515053.59738907,"XMAX":711423.4004461599,"YMAX":8515153.59738907},"geometry":{"type":"Polygon","coordinates":[[[-73.04730835233444,-13.424765561981081],[-73.04731565988264,-13.423861848489238],[-73.04823887064097,-13.423868999760332],[-73.04823156654236,-13.424772713751004],[-73.04730835233444,-13.424765561981081]]]}},{"type":"Feature","properties":{"Cell_ID":15,"Area_ha":1.0,"LC":"9:0.756621,16:0.021799,17:0.096230","XMIN":711423.4004461599,"YMIN":8515653.59738907,"XMAX":711523.4004461599,"YMAX":8515753.59738907},"geometry":{"type":"Polygon","coordinates":[[[-73.04642899658363,-13.419336127848931],[-73.04643630435461,-13.418432414444775],[-73.04735949388319,-13.418439566098355],[-73.04735218956029,-13.419343280001561],[-73.04642899658363,-13.419336127848931]]]}},{"type":"Feature","properties":{"Cell_ID":16,"Area_ha":1.0,"LC":"9:0.850517,16:0.149483","XMIN":711423.4004461599,"YMIN":8515553.59738907,"XMAX":711523.4004461599,"YMAX":8515653.59738907},"geometry":{"type":"Polygon","coordinates":[[[-73.04642168827486,-13.420239841184529],[-73.04642899658363,-13.419336127848931],[-73.04735218956029,-13.419343280001561],[-73.04734488469984,-13.420246993836209],[-73.04642168827486,-13.420239841184529]]]}},{"type":"Feature","properties":{"Cell_ID":17,"Area_ha":1.0,"LC":"9:0.999564,16:0.000436","XMIN":711423.4004461599,"YMIN":8515453.59738907,"XMAX":711523.4004461599,"YMAX":8515553.59738907},"geometry":{"type":"Polygon","coordinates":[[[-73.04641437942833,-13.421143554451575],[-73.04642168827486,-13.420239841184529],[-73.04734488469984,-13.420246993836209],[-73.04733757930185,-13.421150707602308],[-73.04641437942833,-13.421143554451575]]]}},{"type":"Feature","properties":{"Cell_ID":18,"Area_ha":1.0,"LC":"5:0.337639,9:0.454985,13:0.207376","XMIN":711423.4004461599,"YMIN":8515353.59738907,"XMAX":711523.4004461599,"YMAX":8515453.59738907},"geometry":{"type":"Polygon","coordinates":[[[-73.04640707004398,-13.422047267650054],[-73.04641437942833,-13.421143554451575],[-73.04733757930185,-13.421150707602308],[-73.04733027336633,-13.422054421299848],[-73.04640707004398,-13.422047267650054]]]}},{"type":"Feature","properties":{"Cell_ID":19,"Area_ha":1.0,"LC":"5:0.192597,7:0.247095,9:0.559873,13:0.000436","XMIN":711423.4004461599,"YMIN":8515253.59738907,"XMAX":711523.4004461599,"YMAX":8515353.59738907},"geometry":{"type":"Polygon","coordinates":[[[-73.04639976012184,-13.422950980779973],[-73.04640707004398,-13.422047267650054],[-73.04733027336633,-13.422054421299848],[-73.04732296689328,-13.422958134928827],[-73.04639976012184,-13.422950980779973]]]}},{"type":"Feature","properties":{"Cell_ID":20,"Area_ha":1.0,"LC":"6:0.544452,7:0.360717,9:0.094831","XMIN":711423.4004461599,"YMIN":8515153.59738907,"XMAX":711523.4004461599,"YMAX":8515253.59738907},"geometry":{"type":"Polygon","coordinates":[[[-73.04639244966188,-13.42385469384132],[-73.04639976012184,-13.422950980779973],[-73.04732296689328,-13.422958134928827],[-73.04731565988264,-13.423861848489238],[-73.04639244966188,-13.42385469384132]]]}},{"type":"Feature","properties":{"Cell_ID":21,"Area_ha":1.0,"LC":"5:0.119283,6:0.455548,9:0.065859,14:0.359311","XMIN":711423.4004461599,"YMIN":8515053.59738907,"XMAX":711523.4004461599,"YMAX":8515153.59738907},"geometry":{"type":"Polygon","coordinates":[[[-73.04638513866408,-13.424758406834092],[-73.04639244966188,-13.42385469384132],[-73.04731565988264,-13.423861848489238],[-73.04730835233444,-13.424765561981081],[-73.04638513866408,-13.424758406834092]]]}},{"type":"Feature","properties":{"Cell_ID":22,"Area_ha":1.0,"LC":"5:0.338764,9:0.523216,13:0.101236,14:0.036784","XMIN":711423.4004461599,"YMIN":8514953.59738907,"XMAX":711523.4004461599,"YMAX":8515053.59738907},"geometry":{"type":"Polygon","coordinates":[[[-73.04637782712847,-13.425662119758286],[-73.04638513866408,-13.424758406834092],[-73.04730835233444,-13.424765561981081],[-73.04730104424866,-13.425669275404346],[-73.04637782712847,-13.425662119758286]]]}},{"type":"Feature","properties":{"Cell_ID":23,"Area_ha":1.0,"LC":"6:0.159719,7:0.375241,9:0.214704,14:0.018174","XMIN":711523.4004461599,"YMIN":8515953.59738907,"XMAX":711623.4004461599,"YMAX":8516053.59738907},"geometry":{"type":"Polygon","coordinates":[[[-73.04552773618778,-13.416617833400393],[-73.04553504579279,-13.415714120289879],[-73.046458224441,-13.41572127382104],[-73.04645091828328,-13.416624987430824],[-73.04552773618778,-13.416617833400393]]]}},{"type":"Feature","properties":{"Cell_ID":24,"Area_ha":1.0,"LC":"6:0.550118,7:0.330826,9:0.105423","XMIN":711523.4004461599,"YMIN":8515853.59738907,"XMAX":711623.4004461599,"YMAX":8515953.59738907},"geometry":{"type":"Polygon","coordinates":[[[-73.04552042604479,-13.417521546442366],[-73.04552773618778,-13.416617833400393],[-73.04645091828328,-13.416624987430824],[-73.04644361158782,-13.417528700972074],[-73.04552042604479,-13.417521546442366]]]}},{"type":"Feature","properties":{"Cell_ID":25,"Area_ha":1.0,"LC":"6:0.160562,7:0.235940,9:0.603498","XMIN":711523.4004461599,"YMIN":8515753.59738907,"XMAX":711623.4004461599,"YMAX":8515853.59738907},"geometry":{"type":"Polygon","coordinates":[[[-73.04551311536378,-13.418425259415788],[-73.04552042604479,-13.417521546442366],[-73.04644361158782,-13.417528700972074],[-73.04643630435461,-13.418432414444775],[-73.04551311536378,-13.418425259415788]]]}},{"type":"Feature","properties":{"Cell_ID":26,"Area_ha":1.0,"LC":"7:0.617639,9:0.382361","XMIN":711523.4004461599,"YMIN":8515653.59738907,"XMAX":711623.4004461599,"YMAX":8515753.59738907},"geometry":{"type":"Polygon","coordinates":[[[-73.04550580414474,-13.41932897232066],[-73.04551311536378,-13.418425259415788],[-73.04643630435461,-13.418432414444775],[-73.04642899658363,-13.419336127848931],[-73.04550580414474,-13.41932897232066]]]}},{"type":"Feature","properties":{"Cell_ID":27,"Area_ha":1.0,"LC":"7:0.277065,9:0.722935","XMIN":711523.4004461599,"YMIN":8515553.59738907,"XMAX":711623.4004461599,"YMAX":8515653.59738907},"geometry":{"type":"Polygon","coordinates":[[[-73.04549849238768,-13.420232685156973],[-73.04550580414474,-13.41932897232066],[-73.04642899658363,-13.419336127848931],[-73.04642168827486,-13.420239841184529],[-73.04549849238768,-13.420232685156973]]]}},{"type":"Feature","properties":{"Cell_ID":28,"Area_ha":1.0,"LC":"5:0.093733,9:0.906267","XMIN":711523.4004461599,"YMIN":8515453.59738907,"XMAX":711623.4004461599,"YMAX":8515553.59738907},"geometry":{"type":"Polygon","coordinates":[[[-73.04549118009258,-13.421136397924728],[-73.04549849238768,-13.420232685156973],[-73.04642168827486,-13.420239841184529],[-73.04641437942833,-13.421143554451575],[-73.04549118009258,-13.421136397924728]]]}},{"type":"Feature","properties":{"Cell_ID":29,"Area_ha":1.0,"LC":"5:0.116348,9:0.883652","XMIN":711523.4004461599,"YMIN":8515353.59738907,"XMAX":711623.4004461599,"YMAX":8515453.59738907},"geometry":{"type":"Polygon","coordinates":[[[-73.04548386725942,-13.422040110623918],[-73.04549118009258,-13.421136397924728],[-73.04641437942833,-13.421143554451575],[-73.04640707004398,-13.422047267650054],[-73.04548386725942,-13.422040110623918]]]}},{"type":"Feature","properties":{"Cell_ID":30,"Area_ha":1.0,"LC":"5:0.900855,9:0.099145","XMIN":711523.4004461599,"YMIN":8515253.59738907,"XMAX":711623.4004461599,"YMAX":8515353.59738907},"geometry":{"type":"Polygon","coordinates":[[[-73.04547655388821,-13.422943823254538],[-73.04548386725942,-13.422040110623918],[-73.04640707004398,-13.422047267650054],[-73.04639976012184,-13.422950980779973],[-73.04547655388821,-13.422943823254538]]]}},{"type":"Feature","properties":{"Cell_ID":31,"Area_ha":1.0,"LC":"5:0.770517,6:0.083470,9:0.146013","XMIN":711523.4004461599,"YMIN":8515153.59738907,"XMAX":711623.4004461599,"YMAX":8515253.59738907},"geometry":{"type":"Polygon","coordinates":[[[-73.04546923997894,-13.423847535816583],[-73.04547655388821,-13.422943823254538],[-73.04639976012184,-13.422950980779973],[-73.04639244966188,-13.42385469384132],[-73.04546923997894,-13.423847535816583]]]}},{"type":"Feature","properties":{"Cell_ID":32,"Area_ha":1.0,"LC":"5:0.711907,6:0.266294,14:0.021799","XMIN":711523.4004461599,"YMIN":8515053.59738907,"XMAX":711623.4004461599,"YMAX":8515153.59738907},"geometry":{"type":"Polygon","coordinates":[[[-73.04546192553158,-13.424751248310052],[-73.04546923997894,-13.423847535816583],[-73.04639244966188,-13.42385469384132],[-73.04638513866408,-13.424758406834092],[-73.04546192553158,-13.424751248310052]]]}},{"type":"Feature","properties":{"Cell_ID":33,"Area_ha":1.0,"LC":"5:0.716502,9:0.079438,14:0.204060","XMIN":711523.4004461599,"YMIN":8514953.59738907,"XMAX":711623.4004461599,"YMAX":8515053.59738907},"geometry":{"type":"Polygon","coordinates":[[[-73.04545461054613,-13.425654960734937],[-73.04546192553158,-13.424751248310052],[-73.04638513866408,-13.424758406834092],[-73.04637782712847,-13.425662119758286],[-73.04545461054613,-13.425654960734937]]]}},{"type":"Feature","properties":{"Cell_ID":34,"Area_ha":1.0,"LC":"5:0.240844,9:0.323624,13:0.435532","XMIN":711523.4004461599,"YMIN":8514853.59738907,"XMAX":711623.4004461599,"YMAX":8514953.59738907},"geometry":{"type":"Polygon","coordinates":[[[-73.04544729502258,-13.426558673091238],[-73.04545461054613,-13.425654960734937],[-73.04637782712847,-13.425662119758286],[-73.046370515055,-13.426565832613898],[-73.04544729502258,-13.426558673091238]]]}},{"type":"Feature","properties":{"Cell_ID":35,"Area_ha":1.0,"LC":"9:0.283906,13:0.716094","XMIN":711523.4004461599,"YMIN":8514753.59738907,"XMAX":711623.4004461599,"YMAX":8514853.59738907},"geometry":{"type":"Polygon","coordinates":[[[-73.04543997896094,-13.427462385378945],[-73.04544729502258,-13.426558673091238],[-73.046370515055,-13.426565832613898],[-73.04636320244369,-13.427469545400925],[-73.04543997896094,-13.427462385378945]]]}},{"type":"Feature","properties":{"Cell_ID":36,"Area_ha":1.0,"LC":"5:0.175393,7:0.109177,9:0.119719,14:0.595124","XMIN":711623.4004461599,"YMIN":8516153.59738907,"XMAX":711723.4004461599,"YMAX":8516253.59738907},"geometry":{"type":"Polygon","coordinates":[[[-73.0446191801966,-13.414803250704479],[-73.04462649217241,-13.413899537956391],[-73.04554966338881,-13.413906693863238],[-73.04554235485979,-13.414810407110824],[-73.0446191801966,-13.414803250704479]]]}},{"type":"Feature","properties":{"Cell_ID":37,"Area_ha":1.0,"LC":"7:0.044060,9:0.777920,14:0.178020","XMIN":711623.4004461599,"YMIN":8516053.59738907,"XMAX":711723.4004461599,"YMAX":8516153.59738907},"geometry":{"type":"Polygon","coordinates":[[[-73.04461186768258,-13.41570696338403],[-73.0446191801966,-13.414803250704479],[-73.04554235485979,-13.414810407110824],[-73.04553504579279,-13.415714120289879],[-73.04461186768258,-13.41570696338403]]]}},{"type":"Feature","properties":{"Cell_ID":38,"Area_ha":1.0,"LC":"7:0.021799,9:0.559283,14:0.418918","XMIN":711623.4004461599,"YMIN":8515953.59738907,"XMAX":711723.4004461599,"YMAX":8516053.59738907},"geometry":{"type":"Polygon","coordinates":[[[-73.0446045546303,-13.416610675995036],[-73.04461186768258,-13.41570696338403],[-73.04553504579279,-13.415714120289879],[-73.04552773618778,-13.416617833400393],[-73.0446045546303,-13.416610675995036]]]}},{"type":"Feature","properties":{"Cell_ID":39,"Area_ha":1.0,"LC":"7:0.229202,9:0.730953,14:0.000127,18:0.039719","XMIN":711623.4004461599,"YMIN":8515853.59738907,"XMAX":711723.4004461599,"YMAX":8515953.59738907},"geometry":{"type":"Polygon","coordinates":[[[-73.04459724103977,-13.417514388537494],[-73.0446045546303,-13.416610675995036],[-73.04552773618778,-13.416617833400393],[-73.04552042604479,-13.417521546442366],[-73.04459724103977,-13.417514388537494]]]}},{"type":"Feature","properties":{"Cell_ID":40,"Area_ha":1.0,"LC":"7:0.363779,9:0.346112,18:0.290109","XMIN":711623.4004461599,"YMIN":8515753.59738907,"XMAX":711723.4004461599,"YMAX":8515853.59738907},"geometry":{"type":"Polygon","coordinates":[[[-73.04458992691096,-13.418418101011406],[-73.04459724103977,-13.417514388537494],[-73.04552042604479,-13.417521546442366],[-73.04551311536378,-13.418425259415788],[-73.04458992691096,-13.418418101011406]]]}},{"type":"Feature","properties":{"Cell_ID":41,"Area_ha":1.0,"LC":"7:0.577485,9:0.287966,13:0.054141,18:0.080408","XMIN":711623.4004461599,"YMIN":8515653.59738907,"XMAX":711723.4004461599,"YMAX":8515753.59738907},"geometry":{"type":"Polygon","coordinates":[[[-73.04458261224389,-13.419321813416758],[-73.04458992691096,-13.418418101011406],[-73.04551311536378,-13.418425259415788],[-73.04550580414474,-13.41932897232066],[-73.04458261224389,-13.419321813416758]]]}},{"type":"Feature","properties":{"Cell_ID":42,"Area_ha":1.0,"LC":"5:0.199438,7:0.695139,9:0.105423","XMIN":711623.4004461599,"YMIN":8515553.59738907,"XMAX":711723.4004461599,"YMAX":8515653.59738907},"geometry":{"type":"Polygon","coordinates":[[[-73.04457529703853,-13.420225525753551],[-73.04458261224389,-13.419321813416758],[-73.04550580414474,-13.41932897232066],[-73.04549849238768,-13.420232685156973],[-73.04457529703853,-13.420225525753551]]]}},{"type":"Feature","properties":{"Cell_ID":43,"Area_ha":1.0,"LC":"5:0.345985,7:0.018455,9:0.635559","XMIN":711623.4004461599,"YMIN":8515453.59738907,"XMAX":711723.4004461599,"YMAX":8515553.59738907},"geometry":{"type":"Polygon","coordinates":[[[-73.04456798129489,-13.421129238021779],[-73.04457529703853,-13.420225525753551],[-73.04549849238768,-13.420232685156973],[-73.04549118009258,-13.421136397924728],[-73.04456798129489,-13.421129238021779]]]}},{"type":"Feature","properties":{"Cell_ID":44,"Area_ha":1.0,"LC":"5:0.266294,9:0.733706","XMIN":711623.4004461599,"YMIN":8515353.59738907,"XMAX":711723.4004461599,"YMAX":8515453.59738907},"geometry":{"type":"Polygon","coordinates":[[[-73.04456066501294,-13.42203295022144],[-73.04456798129489,-13.421129238021779],[-73.04549118009258,-13.421136397924728],[-73.04548386725942,-13.422040110623918],[-73.04456066501294,-13.42203295022144]]]}},{"type":"Feature","properties":{"Cell_ID":45,"Area_ha":1.0,"LC":"5:0.304579,6:0.017920,7:0.054141,9:0.623359","XMIN":711623.4004461599,"YMIN":8515253.59738907,"XMAX":711723.4004461599,"YMAX":8515353.59738907},"geometry":{"type":"Polygon","coordinates":[[[-73.04455334819266,-13.422936662352527],[-73.04456066501294,-13.42203295022144],[-73.04548386725942,-13.422040110623918],[-73.04547655388821,-13.422943823254538],[-73.04455334819266,-13.422936662352527]]]}},{"type":"Feature","properties":{"Cell_ID":46,"Area_ha":1.0,"LC":"5:0.981826,6:0.018174","XMIN":711623.4004461599,"YMIN":8515153.59738907,"XMAX":711723.4004461599,"YMAX":8515253.59738907},"geometry":{"type":"Polygon","coordinates":[[[-73.04454603083407,-13.423840374415038],[-73.04455334819266,-13.422936662352527],[-73.04547655388821,-13.422943823254538],[-73.04546923997894,-13.423847535816583],[-73.04454603083407,-13.423840374415038]]]}},{"type":"Feature","properties":{"Cell_ID":47,"Area_ha":1.0,"LC":"5:1.000000","XMIN":711623.4004461599,"YMIN":8515053.59738907,"XMAX":711723.4004461599,"YMAX":8515153.59738907},"geometry":{"type":"Polygon","coordinates":[[[-73.04453871293717,-13.424744086408966],[-73.04454603083407,-13.423840374415038],[-73.04546923997894,-13.423847535816583],[-73.04546192553158,-13.424751248310052],[-73.04453871293717,-13.424744086408966]]]}},{"type":"Feature","properties":{"Cell_ID":48,"Area_ha":1.0,"LC":"5:0.938483,9:0.061517","XMIN":711623.4004461599,"YMIN":8514953.59738907,"XMAX":711723.4004461599,"YMAX":8515053.59738907},"geometry":{"type":"Polygon","coordinates":[[[-73.04453139450189,-13.425647798334307],[-73.04453871293717,-13.424744086408966],[-73.04546192553158,-13.424751248310052],[-73.04545461054613,-13.425654960734937],[-73.04453139450189,-13.425647798334307]]]}},{"type":"Feature","properties":{"Cell_ID":49,"Area_ha":1.0,"LC":"5:0.273159,9:0.682935,13:0.043906","XMIN":711623.4004461599,"YMIN":8514853.59738907,"XMAX":711723.4004461599,"YMAX":8514953.59738907},"geometry":{"type":"Polygon","coordinates":[[[-73.04452407552827,-13.426551510191059],[-73.04453139450189,-13.425647798334307],[-73.04545461054613,-13.425654960734937],[-73.04544729502258,-13.426558673091238],[-73.04452407552827,-13.426551510191059]]]}},{"type":"Feature","properties":{"Cell_ID":50,"Area_ha":1.0,"LC":"9:0.786267,13:0.043906,14:0.169828","XMIN":711623.4004461599,"YMIN":8514753.59738907,"XMAX":711723.4004461599,"YMAX":8514853.59738907},"geometry":{"type":"Polygon","coordinates":[[[-73.04451675601631,-13.42745522197922],[-73.04452407552827,-13.426551510191059],[-73.04544729502258,-13.426558673091238],[-73.04543997896094,-13.427462385378945],[-73.04451675601631,-13.42745522197922]]]}},{"type":"Feature","properties":{"Cell_ID":51,"Area_ha":1.0,"LC":"5:0.717092,9:0.159438,14:0.123470","XMIN":711723.4004461599,"YMIN":8516153.59738907,"XMAX":711823.4004461599,"YMAX":8516253.59738907},"geometry":{"type":"Polygon","coordinates":[[[-73.04369600607166,-13.414796090923684],[-73.04370332149423,-13.413892378675335],[-73.04462649217241,-13.413899537956391],[-73.0446191801966,-13.414803250704479],[-73.04369600607166,-13.414796090923684]]]}},{"type":"Feature","properties":{"Cell_ID":52,"Area_ha":1.0,"LC":"5:0.369955,9:0.505704,14:0.124341","XMIN":711723.4004461599,"YMIN":8516053.59738907,"XMAX":711823.4004461599,"YMAX":8516153.59738907},"geometry":{"type":"Polygon","coordinates":[[[-73.04368869011061,-13.415699803103497],[-73.04369600607166,-13.414796090923684],[-73.0446191801966,-13.414803250704479],[-73.04461186768258,-13.41570696338403],[-73.04368869011061,-13.415699803103497]]]}},{"type":"Feature","properties":{"Cell_ID":53,"Area_ha":1.0,"LC":"5:0.160689,7:0.054141,9:0.741418,14:0.043751","XMIN":711723.4004461599,"YMIN":8515953.59738907,"XMAX":711823.4004461599,"YMAX":8516053.59738907},"geometry":{"type":"Polygon","coordinates":[[[-73.04368137361107,-13.416603515214762],[-73.04368869011061,-13.415699803103497],[-73.04461186768258,-13.41570696338403],[-73.0446045546303,-13.416610675995036],[-73.04368137361107,-13.416603515214762]]]}},{"type":"Feature","properties":{"Cell_ID":54,"Area_ha":1.0,"LC":"9:0.999846,14:0.000154","XMIN":711723.4004461599,"YMIN":8515853.59738907,"XMAX":711823.4004461599,"YMAX":8515953.59738907},"geometry":{"type":"Polygon","coordinates":[[[-73.04367405657301,-13.417507227257474],[-73.04368137361107,-13.416603515214762],[-73.0446045546303,-13.416610675995036],[-73.04459724103977,-13.417514388537494],[-73.04367405657301,-13.417507227257474]]]}},{"type":"Feature","properties":{"Cell_ID":55,"Area_ha":1.0,"LC":"5:0.177766,7:0.017920,9:0.135548,18:0.668766","XMIN":711723.4004461599,"YMIN":8515753.59738907,"XMAX":711823.4004461599,"YMAX":8515853.59738907},"geometry":{"type":"Polygon","coordinates":[[[-73.04366673899642,-13.418410939231633],[-73.04367405657301,-13.417507227257474],[-73.04459724103977,-13.417514388537494],[-73.04458992691096,-13.418418101011406],[-73.04366673899642,-13.418410939231633]]]}},{"type":"Feature","properties":{"Cell_ID":56,"Area_ha":1.0,"LC":"5:0.000281,7:0.220801,9:0.232062,13:0.545859,18:0.000998","XMIN":711723.4004461599,"YMIN":8515653.59738907,"XMAX":711823.4004461599,"YMAX":8515753.59738907},"geometry":{"type":"Polygon","coordinates":[[[-73.04365942088133,-13.419314651137233],[-73.04366673899642,-13.418410939231633],[-73.04458992691096,-13.418418101011406],[-73.04458261224389,-13.419321813416758],[-73.04365942088133,-13.419314651137233]]]}},{"type":"Feature","properties":{"Cell_ID":57,"Area_ha":1.0,"LC":"7:0.999873,9:0.000127","XMIN":711723.4004461599,"YMIN":8515553.59738907,"XMAX":711823.4004461599,"YMAX":8515653.59738907},"geometry":{"type":"Polygon","coordinates":[[[-73.04365210222768,-13.420218362974268],[-73.04365942088133,-13.419314651137233],[-73.04458261224389,-13.419321813416758],[-73.04457529703853,-13.420225525753551],[-73.04365210222768,-13.420218362974268]]]}},{"type":"Feature","properties":{"Cell_ID":58,"Area_ha":1.0,"LC":"7:0.161406,9:0.838594","XMIN":711723.4004461599,"YMIN":8515453.59738907,"XMAX":711823.4004461599,"YMAX":8515553.59738907},"geometry":{"type":"Polygon","coordinates":[[[-73.04364478303549,-13.421122074742735],[-73.04365210222768,-13.420218362974268],[-73.04457529703853,-13.420225525753551],[-73.04456798129489,-13.421129238021779],[-73.04364478303549,-13.421122074742735]]]}},{"type":"Feature","properties":{"Cell_ID":59,"Area_ha":1.0,"LC":"9:1.000000","XMIN":711723.4004461599,"YMIN":8515353.59738907,"XMAX":711823.4004461599,"YMAX":8515453.59738907},"geometry":{"type":"Polygon","coordinates":[[[-73.04363746330475,-13.422025786442632],[-73.04364478303549,-13.421122074742735],[-73.04456798129489,-13.421129238021779],[-73.04456066501294,-13.42203295022144],[-73.04363746330475,-13.422025786442632]]]}},{"type":"Feature","properties":{"Cell_ID":60,"Area_ha":1.0,"LC":"6:0.141236,7:0.465577,9:0.375266,14:0.017920","XMIN":711723.4004461599,"YMIN":8515253.59738907,"XMAX":711823.4004461599,"YMAX":8515353.59738907},"geometry":{"type":"Polygon","coordinates":[[[-73.04363014303543,-13.422929498073952],[-73.04363746330475,-13.422025786442632],[-73.04456066501294,-13.42203295022144],[-73.04455334819266,-13.422936662352527],[-73.04363014303543,-13.422929498073952]]]}},{"type":"Feature","properties":{"Cell_ID":61,"Area_ha":1.0,"LC":"5:0.247376,6:0.421826,7:0.214296,9:0.080281,14:0.036221","XMIN":711723.4004461599,"YMIN":8515153.59738907,"XMAX":711823.4004461599,"YMAX":8515253.59738907},"geometry":{"type":"Polygon","coordinates":[[[-73.04362282222755,-13.42383320963669],[-73.04363014303543,-13.422929498073952],[-73.04455334819266,-13.422936662352527],[-73.04454603083407,-13.423840374415038],[-73.04362282222755,-13.42383320963669]]]}},{"type":"Feature","properties":{"Cell_ID":62,"Area_ha":1.0,"LC":"5:0.940982,6:0.058891,7:0.000127","XMIN":711723.4004461599,"YMIN":8515053.59738907,"XMAX":711823.4004461599,"YMAX":8515153.59738907},"geometry":{"type":"Polygon","coordinates":[[[-73.04361550088107,-13.424736921130842],[-73.04362282222755,-13.42383320963669],[-73.04454603083407,-13.423840374415038],[-73.04453871293717,-13.424744086408966],[-73.04361550088107,-13.424736921130842]]]}},{"type":"Feature","properties":{"Cell_ID":63,"Area_ha":1.0,"LC":"5:1.000000","XMIN":711723.4004461599,"YMIN":8514953.59738907,"XMAX":711823.4004461599,"YMAX":8515053.59738907},"geometry":{"type":"Polygon","coordinates":[[[-73.04360817899601,-13.425640632556405],[-73.04361550088107,-13.424736921130842],[-73.04453871293717,-13.424744086408966],[-73.04453139450189,-13.425647798334307],[-73.04360817899601,-13.425640632556405]]]}},{"type":"Feature","properties":{"Cell_ID":64,"Area_ha":1.0,"LC":"5:0.826013,9:0.173987","XMIN":711723.4004461599,"YMIN":8514853.59738907,"XMAX":711823.4004461599,"YMAX":8514953.59738907},"geometry":{"type":"Polygon","coordinates":[[[-73.04360085657233,-13.426544343913374],[-73.04360817899601,-13.425640632556405],[-73.04453139450189,-13.425647798334307],[-73.04452407552827,-13.426551510191059],[-73.04360085657233,-13.426544343913374]]]}},{"type":"Feature","properties":{"Cell_ID":65,"Area_ha":1.0,"LC":"5:0.454831,9:0.000154,13:0.155967,14:0.389047","XMIN":711723.4004461599,"YMIN":8514753.59738907,"XMAX":711823.4004461599,"YMAX":8514853.59738907},"geometry":{"type":"Polygon","coordinates":[[[-73.04359353361004,-13.427448055201749],[-73.04360085657233,-13.426544343913374],[-73.04452407552827,-13.426551510191059],[-73.04451675601631,-13.42745522197922],[-73.04359353361004,-13.427448055201749]]]}},{"type":"Feature","properties":{"Cell_ID":66,"Area_ha":1.0,"LC":"5:0.290390,7:0.626140,9:0.083470","XMIN":711823.4004461599,"YMIN":8515953.59738907,"XMAX":711923.4004461599,"YMAX":8516053.59738907},"geometry":{"type":"Polygon","coordinates":[[[-73.04275819313034,-13.416596351059578],[-73.04276551307714,-13.415692639448293],[-73.04368869011061,-13.415699803103497],[-73.04368137361107,-13.416603515214762],[-73.04275819313034,-13.416596351059578]]]}},{"type":"Feature","properties":{"Cell_ID":67,"Area_ha":1.0,"LC":"5:0.574831,7:0.198594,9:0.226575","XMIN":711823.4004461599,"YMIN":8515753.59738907,"XMAX":711923.4004461599,"YMAX":8515853.59738907},"geometry":{"type":"Polygon","coordinates":[[[-73.04274355162042,-13.418403774076483],[-73.04275087264476,-13.417500062602311],[-73.04367405657301,-13.417507227257474],[-73.04366673899642,-13.418410939231633],[-73.04274355162042,-13.418403774076483]]]}},{"type":"Feature","properties":{"Cell_ID":68,"Area_ha":1.0,"LC":"7:0.415548,9:0.584452","XMIN":711823.4004461599,"YMIN":8515653.59738907,"XMAX":711923.4004461599,"YMAX":8515753.59738907},"geometry":{"type":"Polygon","coordinates":[[[-73.0427362300573,-13.419307485482095],[-73.04274355162042,-13.418403774076483],[-73.04366673899642,-13.418410939231633],[-73.04365942088133,-13.419314651137233],[-73.0427362300573,-13.419307485482095]]]}},{"type":"Feature","properties":{"Cell_ID":69,"Area_ha":1.0,"LC":"7:0.998594,9:0.001406","XMIN":711823.4004461599,"YMIN":8515553.59738907,"XMAX":711923.4004461599,"YMAX":8515653.59738907},"geometry":{"type":"Polygon","coordinates":[[[-73.04272890795538,-13.420211196819135],[-73.0427362300573,-13.419307485482095],[-73.04365942088133,-13.419314651137233],[-73.04365210222768,-13.420218362974268],[-73.04272890795538,-13.420211196819135]]]}},{"type":"Feature","properties":{"Cell_ID":70,"Area_ha":1.0,"LC":"7:0.535548,9:0.464452","XMIN":711823.4004461599,"YMIN":8515453.59738907,"XMAX":711923.4004461599,"YMAX":8515553.59738907},"geometry":{"type":"Polygon","coordinates":[[[-73.04272158531467,-13.421114908087608],[-73.04272890795538,-13.420211196819135],[-73.04365210222768,-13.420218362974268],[-73.04364478303549,-13.421122074742735],[-73.04272158531467,-13.421114908087608]]]}},{"type":"Feature","properties":{"Cell_ID":71,"Area_ha":1.0,"LC":"7:0.158875,9:0.841125","XMIN":711823.4004461599,"YMIN":8515353.59738907,"XMAX":711923.4004461599,"YMAX":8515453.59738907},"geometry":{"type":"Polygon","coordinates":[[[-73.04271426213514,-13.422018619287503],[-73.04272158531467,-13.421114908087608],[-73.04364478303549,-13.421122074742735],[-73.04363746330475,-13.422025786442632],[-73.04271426213514,-13.422018619287503]]]}},{"type":"Feature","properties":{"Cell_ID":72,"Area_ha":1.0,"LC":"7:0.357092,9:0.501953,14:0.140955","XMIN":711823.4004461599,"YMIN":8515253.59738907,"XMAX":711923.4004461599,"YMAX":8515353.59738907},"geometry":{"type":"Polygon","coordinates":[[[-73.04270693841679,-13.42292233041882],[-73.04271426213514,-13.422018619287503],[-73.04363746330475,-13.422025786442632],[-73.04363014303543,-13.422929498073952],[-73.04270693841679,-13.42292233041882]]]}},{"type":"Feature","properties":{"Cell_ID":73,"Area_ha":1.0,"LC":"7:0.184987,9:0.134423,14:0.680590","XMIN":711823.4004461599,"YMIN":8515153.59738907,"XMAX":711923.4004461599,"YMAX":8515253.59738907},"geometry":{"type":"Polygon","coordinates":[[[-73.04269961415962,-13.423826041481549],[-73.04270693841679,-13.42292233041882],[-73.04363014303543,-13.422929498073952],[-73.04362282222755,-13.42383320963669],[-73.04269961415962,-13.423826041481549]]]}},{"type":"Feature","properties":{"Cell_ID":74,"Area_ha":1.0,"LC":"5:0.327095,6:0.021953,7:0.560436,14:0.090517","XMIN":711823.4004461599,"YMIN":8515053.59738907,"XMAX":711923.4004461599,"YMAX":8515153.59738907},"geometry":{"type":"Polygon","coordinates":[[[-73.04269228936359,-13.424729752475693],[-73.04269961415962,-13.423826041481549],[-73.04362282222755,-13.42383320963669],[-73.04361550088107,-13.424736921130842],[-73.04269228936359,-13.424729752475693]]]}},{"type":"Feature","properties":{"Cell_ID":75,"Area_ha":1.0,"LC":"5:0.745732,7:0.000562,9:0.253579,14:0.000127","XMIN":711823.4004461599,"YMIN":8514953.59738907,"XMAX":711923.4004461599,"YMAX":8515053.59738907},"geometry":{"type":"Polygon","coordinates":[[[-73.04268496402872,-13.42563346340124],[-73.04269228936359,-13.424729752475693],[-73.04361550088107,-13.424736921130842],[-73.04360817899601,-13.425640632556405],[-73.04268496402872,-13.42563346340124]]]}},{"type":"Feature","properties":{"Cell_ID":76,"Area_ha":1.0,"LC":"5:0.156502,9:0.843498","XMIN":711823.4004461599,"YMIN":8514853.59738907,"XMAX":711923.4004461599,"YMAX":8514953.59738907},"geometry":{"type":"Polygon","coordinates":[[[-73.042677638155,-13.426537174258193],[-73.04268496402872,-13.42563346340124],[-73.04360817899601,-13.425640632556405],[-73.04360085657233,-13.426544343913374],[-73.042677638155,-13.426537174258193]]]}},{"type":"Feature","properties":{"Cell_ID":77,"Area_ha":1.0,"LC":"5:0.226294,9:0.451079,13:0.322626","XMIN":711823.4004461599,"YMIN":8514753.59738907,"XMAX":711923.4004461599,"YMAX":8514853.59738907},"geometry":{"type":"Polygon","coordinates":[[[-73.04267031174241,-13.427440885046542],[-73.042677638155,-13.426537174258193],[-73.04360085657233,-13.426544343913374],[-73.04359353361004,-13.427448055201749],[-73.04267031174241,-13.427440885046542]]]}},{"type":"Feature","properties":{"Cell_ID":78,"Area_ha":1.0,"LC":"5:0.203906,9:0.173298,13:0.477374,14:0.145423","XMIN":711823.4004461599,"YMIN":8514653.59738907,"XMAX":711923.4004461599,"YMAX":8514753.59738907},"geometry":{"type":"Polygon","coordinates":[[[-73.04266298479094,-13.428344595766285],[-73.04267031174241,-13.427440885046542],[-73.04359353361004,-13.427448055201749],[-73.04358621010913,-13.428351766421514],[-73.04266298479094,-13.428344595766285]]]}},{"type":"Feature","properties":{"Cell_ID":79,"Area_ha":1.0,"LC":"5:0.215112,7:0.763089,9:0.021799","XMIN":711923.4004461599,"YMIN":8515453.59738907,"XMAX":712023.4004461599,"YMAX":8515553.59738907},"geometry":{"type":"Polygon","coordinates":[[[-73.04179838813263,-13.421107738056405],[-73.04180571422187,-13.420204027288163],[-73.04272890795538,-13.420211196819135],[-73.04272158531467,-13.421114908087608],[-73.04179838813263,-13.421107738056405]]]}},{"type":"Feature","properties":{"Cell_ID":80,"Area_ha":1.0,"LC":"6:0.213733,7:0.277346,9:0.508921","XMIN":711923.4004461599,"YMIN":8515353.59738907,"XMAX":712023.4004461599,"YMAX":8515453.59738907},"geometry":{"type":"Polygon","coordinates":[[[-73.04179106150434,-13.422011448756063],[-73.04179838813263,-13.421107738056405],[-73.04272158531467,-13.421114908087608],[-73.04271426213514,-13.422018619287503],[-73.04179106150434,-13.422011448756063]]]}},{"type":"Feature","properties":{"Cell_ID":81,"Area_ha":1.0,"LC":"5:0.054015,6:0.076502,7:0.123470,9:0.746013","XMIN":711923.4004461599,"YMIN":8515253.59738907,"XMAX":712023.4004461599,"YMAX":8515353.59738907},"geometry":{"type":"Polygon","coordinates":[[[-73.04178373433696,-13.422915159387141],[-73.04179106150434,-13.422011448756063],[-73.04271426213514,-13.422018619287503],[-73.04270693841679,-13.42292233041882],[-73.04178373433696,-13.422915159387141]]]}},{"type":"Feature","properties":{"Cell_ID":82,"Area_ha":1.0,"LC":"5:0.036221,7:0.000436,9:0.919592,14:0.043751","XMIN":711923.4004461599,"YMIN":8515153.59738907,"XMAX":712023.4004461599,"YMAX":8515253.59738907},"geometry":{"type":"Polygon","coordinates":[[[-73.0417764066305,-13.42381886994963],[-73.04178373433696,-13.422915159387141],[-73.04270693841679,-13.42292233041882],[-73.04269961415962,-13.423826041481549],[-73.0417764066305,-13.42381886994963]]]}},{"type":"Feature","properties":{"Cell_ID":83,"Area_ha":1.0,"LC":"5:0.115405,9:0.575112,14:0.309483","XMIN":711923.4004461599,"YMIN":8515053.59738907,"XMAX":712023.4004461599,"YMAX":8515153.59738907},"geometry":{"type":"Polygon","coordinates":[[[-73.04176907838496,-13.424722580443525],[-73.0417764066305,-13.42381886994963],[-73.04269961415962,-13.423826041481549],[-73.04269228936359,-13.424729752475693],[-73.04176907838496,-13.424722580443525]]]}},{"type":"Feature","properties":{"Cell_ID":84,"Area_ha":1.0,"LC":"5:0.360535,9:0.265577,13:0.373452,14:0.000436","XMIN":711923.4004461599,"YMIN":8514953.59738907,"XMAX":712023.4004461599,"YMAX":8515053.59738907},"geometry":{"type":"Polygon","coordinates":[[[-73.0417617496003,-13.425626290868824],[-73.04176907838496,-13.424722580443525],[-73.04269228936359,-13.424729752475693],[-73.04268496402872,-13.42563346340124],[-73.0417617496003,-13.425626290868824]]]}},{"type":"Feature","properties":{"Cell_ID":85,"Area_ha":1.0,"LC":"5:0.385450,9:0.403751,13:0.210798","XMIN":711923.4004461599,"YMIN":8514853.59738907,"XMAX":712023.4004461599,"YMAX":8514953.59738907},"geometry":{"type":"Polygon","coordinates":[[[-73.04175442027653,-13.426530001225522],[-73.0417617496003,-13.425626290868824],[-73.04268496402872,-13.42563346340124],[-73.042677638155,-13.426537174258193],[-73.04175442027653,-13.426530001225522]]]}},{"type":"Feature","properties":{"Cell_ID":86,"Area_ha":1.0,"LC":"5:0.000562,9:0.684060,13:0.315378","XMIN":711923.4004461599,"YMIN":8514753.59738907,"XMAX":712023.4004461599,"YMAX":8514853.59738907},"geometry":{"type":"Polygon","coordinates":[[[-73.04174709041364,-13.427433711513615],[-73.04175442027653,-13.426530001225522],[-73.042677638155,-13.426537174258193],[-73.04267031174241,-13.427440885046542],[-73.04174709041364,-13.427433711513615]]]}},{"type":"Feature","properties":{"Cell_ID":87,"Area_ha":1.0,"LC":"9:0.563470,13:0.320436,14:0.116094","XMIN":711923.4004461599,"YMIN":8514653.59738907,"XMAX":712023.4004461599,"YMAX":8514753.59738907},"geometry":{"type":"Polygon","coordinates":[[[-73.04173976001162,-13.428337421733099],[-73.04174709041364,-13.427433711513615],[-73.04267031174241,-13.427440885046542],[-73.04266298479094,-13.428344595766285],[-73.04173976001162,-13.428337421733099]]]}},{"type":"Feature","properties":{"Cell_ID":88,"Area_ha":1.0,"LC":"6:0.185423,9:0.564060,13:0.250517","XMIN":711923.4004461599,"YMIN":8514553.59738907,"XMAX":712023.4004461599,"YMAX":8514653.59738907},"geometry":{"type":"Polygon","coordinates":[[[-73.04173242907046,-13.429241131883968],[-73.04173976001162,-13.428337421733099],[-73.04266298479094,-13.428344595766285],[-73.04265565730057,-13.429248306417419],[-73.04173242907046,-13.429241131883968]]]}},{"type":"Feature","properties":{"Cell_ID":89,"Area_ha":1.0,"LC":"5:0.690517,6:0.185423,7:0.124060","XMIN":712023.4004461599,"YMIN":8515353.59738907,"XMAX":712123.4004461599,"YMAX":8515453.59738907},"geometry":{"type":"Polygon","coordinates":[[[-73.04086786141262,-13.422004274848323],[-73.04087519148968,-13.421100564649134],[-73.04179838813263,-13.421107738056405],[-73.04179106150434,-13.422011448756063],[-73.04086786141262,-13.422004274848323]]]}},{"type":"Feature","properties":{"Cell_ID":90,"Area_ha":1.0,"LC":"5:0.875659,6:0.124341","XMIN":712023.4004461599,"YMIN":8515253.59738907,"XMAX":712123.4004461599,"YMAX":8515353.59738907},"geometry":{"type":"Polygon","coordinates":[[[-73.04086053079622,-13.422907984978924],[-73.04086786141262,-13.422004274848323],[-73.04179106150434,-13.422011448756063],[-73.04178373433696,-13.422915159387141],[-73.04086053079622,-13.422907984978924]]]}},{"type":"Feature","properties":{"Cell_ID":91,"Area_ha":1.0,"LC":"5:0.934296,9:0.065704","XMIN":712023.4004461599,"YMIN":8515153.59738907,"XMAX":712123.4004461599,"YMAX":8515253.59738907},"geometry":{"type":"Polygon","coordinates":[[[-73.0408531996405,-13.423811695040934],[-73.04086053079622,-13.422907984978924],[-73.04178373433696,-13.422915159387141],[-73.0417764066305,-13.42381886994963],[-73.0408531996405,-13.423811695040934]]]}},{"type":"Feature","properties":{"Cell_ID":92,"Area_ha":1.0,"LC":"5:0.399973,9:0.600027","XMIN":712023.4004461599,"YMIN":8515053.59738907,"XMAX":712123.4004461599,"YMAX":8515153.59738907},"geometry":{"type":"Polygon","coordinates":[[[-73.04084586794542,-13.424715405034348],[-73.0408531996405,-13.423811695040934],[-73.0417764066305,-13.42381886994963],[-73.04176907838496,-13.424722580443525],[-73.04084586794542,-13.424715405034348]]]}},{"type":"Feature","properties":{"Cell_ID":93,"Area_ha":1.0,"LC":"5:0.481279,7:0.036094,9:0.217203,13:0.265423","XMIN":712023.4004461599,"YMIN":8514953.59738907,"XMAX":712123.4004461599,"YMAX":8515053.59738907},"geometry":{"type":"Polygon","coordinates":[[[-73.04083853571098,-13.425619114959161],[-73.04084586794542,-13.424715405034348],[-73.04176907838496,-13.424722580443525],[-73.0417617496003,-13.425626290868824],[-73.04083853571098,-13.425619114959161]]]}},{"type":"Feature","properties":{"Cell_ID":94,"Area_ha":1.0,"LC":"7:0.239438,9:0.411079,13:0.349483","XMIN":712023.4004461599,"YMIN":8514853.59738907,"XMAX":712123.4004461599,"YMAX":8514953.59738907},"geometry":{"type":"Polygon","coordinates":[[[-73.04083120293718,-13.42652282481537],[-73.04083853571098,-13.425619114959161],[-73.0417617496003,-13.425626290868824],[-73.04175442027653,-13.426530001225522],[-73.04083120293718,-13.42652282481537]]]}},{"type":"Feature","properties":{"Cell_ID":95,"Area_ha":1.0,"LC":"7:0.352343,9:0.323035,13:0.324622","XMIN":712023.4004461599,"YMIN":8514753.59738907,"XMAX":712123.4004461599,"YMAX":8514853.59738907},"geometry":{"type":"Polygon","coordinates":[[[-73.040823869624,-13.42742653460297],[-73.04083120293718,-13.42652282481537],[-73.04175442027653,-13.426530001225522],[-73.04174709041364,-13.427433711513615],[-73.040823869624,-13.42742653460297]]]}},{"type":"Feature","properties":{"Cell_ID":96,"Area_ha":1.0,"LC":"7:0.170517,9:0.142951,13:0.123470,14:0.563062","XMIN":712023.4004461599,"YMIN":8514653.59738907,"XMAX":712123.4004461599,"YMAX":8514753.59738907},"geometry":{"type":"Polygon","coordinates":[[[-73.04081653577146,-13.428330244321955],[-73.040823869624,-13.42742653460297],[-73.04174709041364,-13.427433711513615],[-73.04173976001162,-13.428337421733099],[-73.04081653577146,-13.428330244321955]]]}},{"type":"Feature","properties":{"Cell_ID":97,"Area_ha":1.0,"LC":"7:0.000127,9:0.409265,13:0.589764,14:0.000844","XMIN":712023.4004461599,"YMIN":8514553.59738907,"XMAX":712123.4004461599,"YMAX":8514653.59738907},"geometry":{"type":"Polygon","coordinates":[[[-73.04080920137949,-13.429233953972329],[-73.04081653577146,-13.428330244321955],[-73.04173976001162,-13.428337421733099],[-73.04173242907046,-13.429241131883968],[-73.04080920137949,-13.429233953972329]]]}},{"type":"Feature","properties":{"Cell_ID":98,"Area_ha":1.0,"LC":"5:0.017920,9:0.981644,13:0.000436","XMIN":712023.4004461599,"YMIN":8514453.59738907,"XMAX":712123.4004461599,"YMAX":8514553.59738907},"geometry":{"type":"Polygon","coordinates":[[[-73.04080186644815,-13.430137663554074],[-73.04080920137949,-13.429233953972329],[-73.04173242907046,-13.429241131883968],[-73.04172509759015,-13.43014484196622],[-73.04080186644815,-13.430137663554074]]]}},{"type":"Feature","properties":{"Cell_ID":99,"Area_ha":1.0,"LC":"5:0.123906,7:0.402781,9:0.343205,13:0.130109","XMIN":712123.4004461599,"YMIN":8514953.59738907,"XMAX":712223.4004461599,"YMAX":8515053.59738907},"geometry":{"type":"Polygon","coordinates":[[[-73.03991532236104,-13.425611935672265],[-73.03992265804524,-13.424708226248173],[-73.04084586794542,-13.424715405034348],[-73.04083853571098,-13.425619114959161],[-73.03991532236104,-13.425611935672265]]]}},{"type":"Feature","properties":{"Cell_ID":100,"Area_ha":1.0,"LC":"7:0.197219,9:0.723216,13:0.079564","XMIN":712123.4004461599,"YMIN":8514853.59738907,"XMAX":712223.4004461599,"YMAX":8514953.59738907},"geometry":{"type":"Polygon","coordinates":[[[-73.03990798613721,-13.426515645027749],[-73.03991532236104,-13.425611935672265],[-73.04083853571098,-13.425619114959161],[-73.04083120293718,-13.42652282481537],[-73.03990798613721,-13.426515645027749]]]}},{"type":"Feature","properties":{"Cell_ID":101,"Area_ha":1.0,"LC":"7:0.287095,9:0.218891,13:0.494015","XMIN":712123.4004461599,"YMIN":8514753.59738907,"XMAX":712223.4004461599,"YMAX":8514853.59738907},"geometry":{"type":"Polygon","coordinates":[[[-73.03990064937378,-13.42741935431462],[-73.03990798613721,-13.426515645027749],[-73.04083120293718,-13.42652282481537],[-73.040823869624,-13.42742653460297],[-73.03990064937378,-13.42741935431462]]]}},{"type":"Feature","properties":{"Cell_ID":102,"Area_ha":1.0,"LC":"5:0.329546,7:0.470045,9:0.199719,13:0.000689","XMIN":712123.4004461599,"YMIN":8514653.59738907,"XMAX":712223.4004461599,"YMAX":8514753.59738907},"geometry":{"type":"Polygon","coordinates":[[[-73.03989331207067,-13.428323063532876],[-73.03990064937378,-13.42741935431462],[-73.040823869624,-13.42742653460297],[-73.04081653577146,-13.428330244321955],[-73.03989331207067,-13.428323063532876]]]}},{"type":"Feature","properties":{"Cell_ID":103,"Area_ha":1.0,"LC":"5:0.609955,7:0.040436,9:0.349610","XMIN":712123.4004461599,"YMIN":8514553.59738907,"XMAX":712223.4004461599,"YMAX":8514653.59738907},"geometry":{"type":"Polygon","coordinates":[[[-73.03988597422794,-13.429226772682512],[-73.03989331207067,-13.428323063532876],[-73.04081653577146,-13.428330244321955],[-73.04080920137949,-13.429233953972329],[-73.03988597422794,-13.429226772682512]]]}},{"type":"Feature","properties":{"Cell_ID":104,"Area_ha":1.0,"LC":"7:0.203906,9:0.322500,13:0.473595","XMIN":712223.4004461599,"YMIN":8514853.59738907,"XMAX":712323.4004461599,"YMAX":8514953.59738907},"geometry":{"type":"Polygon","coordinates":[[[-73.03898476987688,-13.426508461862666],[-73.03899210955072,-13.425604753008137],[-73.03991532236104,-13.425611935672265],[-73.03990798613721,-13.426515645027749],[-73.03898476987688,-13.426508461862666]]]}},{"type":"Feature","properties":{"Cell_ID":105,"Area_ha":1.0,"LC":"5:0.155124,9:0.659453,13:0.185423","XMIN":712223.4004461599,"YMIN":8514753.59738907,"XMAX":712323.4004461599,"YMAX":8514853.59738907},"geometry":{"type":"Polygon","coordinates":[[[-73.03897742966316,-13.427412170648573],[-73.03898476987688,-13.426508461862666],[-73.03990798613721,-13.426515645027749],[-73.03990064937378,-13.42741935431462],[-73.03897742966316,-13.427412170648573]]]}}]}