{"type":"FeatureCollection","features":[{"type":"Feature","properties":{"Cell_ID":1,"Area_ha":1.0,"LC":"13:0.644285,16:0.355715","XMIN":733554.86160847,"YMIN":8509333.59738907,"XMAX":733654.86160847,"YMAX":8509433.59738907},"geometry":{"type":"Polygon","coordinates":[[[-72.8416153201342,-13.474777425448536],[-72.8416234283223,-13.473873832677212],[-72.84254671092683,-13.473881765968745],[-72.84253860620056,-13.474785359291467],[-72.8416153201342,-13.474777425448536]]]}},{"type":"Feature","properties":{"Cell_ID":2,"Area_ha":1.0,"LC":"13:0.201132,16:0.798868","XMIN":733554.86160847,"YMIN":8509233.59738907,"XMAX":733654.86160847,"YMAX":8509333.59738907},"geometry":{"type":"Polygon","coordinates":[[[-72.84160721135152,-13.475681018150196],[-72.8416153201342,-13.474777425448536],[-72.84253860620056,-13.474785359291467],[-72.84253050087999,-13.475688952544532],[-72.84160721135152,-13.475681018150196]]]}},{"type":"Feature","properties":{"Cell_ID":3,"Area_ha":1.0,"LC":"16:1.000000","XMIN":733554.86160847,"YMIN":8509133.59738907,"XMAX":733654.86160847,"YMAX":8509233.59738907},"geometry":{"type":"Polygon","coordinates":[[[-72.84159910197424,-13.476584610782181],[-72.84160721135152,-13.475681018150196],[-72.84253050087999,-13.475688952544532],[-72.84252239496509,-13.47659254572793],[-72.84159910197424,-13.476584610782181]]]}},{"type":"Feature","properties":{"Cell_ID":4,"Area_ha":1.0,"LC":"13:0.781091,16:0.024761","XMIN":733654.86160847,"YMIN":8509333.59738907,"XMAX":733754.86160847,"YMAX":8509433.59738907},"geometry":{"type":"Polygon","coordinates":[[[-72.8406920346624,-13.474769488217198],[-72.84070014631236,-13.473865895997514],[-72.8416234283223,-13.473873832677212],[-72.8416153201342,-13.474777425448536],[-72.8406920346624,-13.474769488217198]]]}},{"type":"Feature","properties":{"Cell_ID":5,"Area_ha":1.0,"LC":"13:0.259955,16:0.265471","XMIN":733654.86160847,"YMIN":8509233.59738907,"XMAX":733754.86160847,"YMAX":8509333.59738907},"geometry":{"type":"Polygon","coordinates":[[[-72.84068392241761,-13.475673080367214],[-72.8406920346624,-13.474769488217198],[-72.8416153201342,-13.474777425448536],[-72.84160721135152,-13.475681018150196],[-72.84068392241761,-13.475673080367214]]]}}]}