{"type":"FeatureCollection","features":[{"type":"Feature","properties":{"Cell_ID":1,"Area_ha":1.0,"LC":"13:1.000000","XMIN":731544.86160847,"YMIN":8505943.59738907,"XMAX":731644.86160847,"YMAX":8506043.59738907},"geometry":{"type":"Polygon","coordinates":[[[-72.85990062645006,-13.50556837320089],[-72.85990868504176,-13.504664771752964],[-72.86083209704881,-13.50467265547451],[-72.8608240419278,-13.505576257469237],[-72.85990062645006,-13.50556837320089]]]}},{"type":"Feature","properties":{"Cell_ID":2,"Area_ha":1.0,"LC":"13:0.183203,14:0.816797","XMIN":731644.86160847,"YMIN":8506243.59738907,"XMAX":731744.86160847,"YMAX":8506343.59738907},"geometry":{"type":"Polygon","coordinates":[[[-72.85900139597904,-13.502849682624095],[-72.85900945627121,-13.501946081514022],[-72.85993285727798,-13.501953966990824],[-72.85992480045572,-13.502857568647926],[-72.85900139597904,-13.502849682624095]]]}},{"type":"Feature","properties":{"Cell_ID":3,"Area_ha":1.0,"LC":"9:0.112683,13:0.598749,14:0.288567","XMIN":731644.86160847,"YMIN":8506143.59738907,"XMAX":731744.86160847,"YMAX":8506243.59738907},"geometry":{"type":"Polygon","coordinates":[[[-72.8589933350968,-13.503753283664446],[-72.85900139597904,-13.502849682624095],[-72.85992480045572,-13.502857568647926],[-72.85991674304364,-13.503761170235306],[-72.8589933350968,-13.503753283664446]]]}},{"type":"Feature","properties":{"Cell_ID":4,"Area_ha":1.0,"LC":"5:0.553372,9:0.051195,13:0.395434","XMIN":731644.86160847,"YMIN":8506043.59738907,"XMAX":731744.86160847,"YMAX":8506143.59738907},"geometry":{"type":"Polygon","coordinates":[[[-72.85898527362451,-13.504656884635063],[-72.8589933350968,-13.503753283664446],[-72.85991674304364,-13.503761170235306],[-72.85990868504176,-13.504664771752964],[-72.85898527362451,-13.504656884635063]]]}},{"type":"Feature","properties":{"Cell_ID":5,"Area_ha":1.0,"LC":"5:0.172445,13:0.827555","XMIN":731644.86160847,"YMIN":8505943.59738907,"XMAX":731744.86160847,"YMAX":8506043.59738907},"geometry":{"type":"Polygon","coordinates":[[[-72.85897721156215,-13.505560485535952],[-72.85898527362451,-13.504656884635063],[-72.85990868504176,-13.504664771752964],[-72.85990062645006,-13.50556837320089],[-72.85897721156215,-13.505560485535952]]]}},{"type":"Feature","properties":{"Cell_ID":6,"Area_ha":1.0,"LC":"13:1.000000","XMIN":731644.86160847,"YMIN":8505843.59738907,"XMAX":731744.86160847,"YMAX":8505943.59738907},"geometry":{"type":"Polygon","coordinates":[[[-72.8589691489097,-13.5064640863671],[-72.85897721156215,-13.505560485535952],[-72.85990062645006,-13.50556837320089],[-72.85989256726852,-13.50647197457908],[-72.8589691489097,-13.5064640863671]]]}},{"type":"Feature","properties":{"Cell_ID":7,"Area_ha":1.0,"LC":"9:0.121939,13:0.878061","XMIN":731644.86160847,"YMIN":8505743.59738907,"XMAX":731744.86160847,"YMAX":8505843.59738907},"geometry":{"type":"Polygon","coordinates":[[[-72.85896108566716,-13.507367687128509],[-72.8589691489097,-13.5064640863671],[-72.85989256726852,-13.50647197457908],[-72.85988450749717,-13.507375575887536],[-72.85896108566716,-13.507367687128509]]]}},{"type":"Feature","properties":{"Cell_ID":8,"Area_ha":1.0,"LC":"13:0.885604","XMIN":731644.86160847,"YMIN":8505643.59738907,"XMAX":731744.86160847,"YMAX":8505743.59738907},"geometry":{"type":"Polygon","coordinates":[[[-72.85895302183451,-13.508271287820165],[-72.85896108566716,-13.507367687128509],[-72.85988450749717,-13.507375575887536],[-72.85987644713595,-13.508279177126246],[-72.85895302183451,-13.508271287820165]]]}},{"type":"Feature","properties":{"Cell_ID":9,"Area_ha":1.0,"LC":"9:0.294215,13:0.705785","XMIN":731744.86160847,"YMIN":8506343.59738907,"XMAX":731844.86160847,"YMAX":8506443.59738907},"geometry":{"type":"Polygon","coordinates":[[[-72.85808605585449,-13.50193819264158],[-72.85809411902626,-13.501034592009042],[-72.85901751597336,-13.501042480334226],[-72.85900945627121,-13.501946081514022],[-72.85808605585449,-13.50193819264158]]]}},{"type":"Feature","properties":{"Cell_ID":10,"Area_ha":1.0,"LC":"5:0.049775,9:0.534510,13:0.367584,14:0.048131","XMIN":731744.86160847,"YMIN":8506243.59738907,"XMAX":731844.86160847,"YMAX":8506343.59738907},"geometry":{"type":"Polygon","coordinates":[[[-72.8580779920924,-13.502841793204393],[-72.85808605585449,-13.50193819264158],[-72.85900945627121,-13.501946081514022],[-72.85900139597904,-13.502849682624095],[-72.8580779920924,-13.502841793204393]]]}},{"type":"Feature","properties":{"Cell_ID":11,"Area_ha":1.0,"LC":"5:0.644566,9:0.266473,13:0.019031,14:0.069930","XMIN":731744.86160847,"YMIN":8506143.59738907,"XMAX":731844.86160847,"YMAX":8506243.59738907},"geometry":{"type":"Polygon","coordinates":[[[-72.85806992774002,-13.503745393697475],[-72.8580779920924,-13.502841793204393],[-72.85900139597904,-13.502849682624095],[-72.8589933350968,-13.503753283664446],[-72.85806992774002,-13.503745393697475]]]}},{"type":"Feature","properties":{"Cell_ID":12,"Area_ha":1.0,"LC":"5:0.217386,9:0.782614","XMIN":731744.86160847,"YMIN":8506043.59738907,"XMAX":731844.86160847,"YMAX":8506143.59738907},"geometry":{"type":"Polygon","coordinates":[[[-72.85806186279734,-13.504648994120823],[-72.85806992774002,-13.503745393697475],[-72.8589933350968,-13.503753283664446],[-72.85898527362451,-13.504656884635063],[-72.85806186279734,-13.504648994120823]]]}},{"type":"Feature","properties":{"Cell_ID":13,"Area_ha":1.0,"LC":"5:0.229242,9:0.405129,13:0.365629","XMIN":731744.86160847,"YMIN":8505943.59738907,"XMAX":731844.86160847,"YMAX":8506043.59738907},"geometry":{"type":"Polygon","coordinates":[[[-72.85805379726432,-13.505552594474437],[-72.85806186279734,-13.504648994120823],[-72.85898527362451,-13.504656884635063],[-72.85897721156215,-13.505560485535952],[-72.85805379726432,-13.505552594474437]]]}},{"type":"Feature","properties":{"Cell_ID":14,"Area_ha":1.0,"LC":"9:0.105520,13:0.780261","XMIN":731744.86160847,"YMIN":8505843.59738907,"XMAX":731844.86160847,"YMAX":8505943.59738907},"geometry":{"type":"Polygon","coordinates":[[[-72.85804573114096,-13.506456194758306],[-72.85805379726432,-13.505552594474437],[-72.85897721156215,-13.505560485535952],[-72.8589691489097,-13.5064640863671],[-72.85804573114096,-13.506456194758306]]]}},{"type":"Feature","properties":{"Cell_ID":15,"Area_ha":1.0,"LC":"5:0.039438,9:0.484941,13:0.475621","XMIN":731844.86160847,"YMIN":8506343.59738907,"XMAX":731944.86160847,"YMAX":8506443.59738907},"geometry":{"type":"Polygon","coordinates":[[[-72.85716265602804,-13.501930300373512],[-72.85717072266944,-13.50102670028847],[-72.85809411902626,-13.501034592009042],[-72.85808605585449,-13.50193819264158],[-72.85716265602804,-13.501930300373512]]]}},{"type":"Feature","properties":{"Cell_ID":16,"Area_ha":1.0,"LC":"5:0.652009,9:0.286334,13:0.031602,14:0.030056","XMIN":731844.86160847,"YMIN":8506243.59738907,"XMAX":731944.86160847,"YMAX":8506343.59738907},"geometry":{"type":"Polygon","coordinates":[[[-72.85715458879608,-13.502833900388831],[-72.85716265602804,-13.501930300373512],[-72.85808605585449,-13.50193819264158],[-72.8580779920924,-13.502841793204393],[-72.85715458879608,-13.502833900388831]]]}},{"type":"Feature","properties":{"Cell_ID":17,"Area_ha":1.0,"LC":"5:0.876810,14:0.123190","XMIN":731844.86160847,"YMIN":8506143.59738907,"XMAX":731944.86160847,"YMAX":8506243.59738907},"geometry":{"type":"Polygon","coordinates":[[[-72.85714652097357,-13.503737500334408],[-72.85715458879608,-13.502833900388831],[-72.8580779920924,-13.502841793204393],[-72.85806992774002,-13.503745393697475],[-72.85714652097357,-13.503737500334408]]]}},{"type":"Feature","properties":{"Cell_ID":18,"Area_ha":1.0,"LC":"5:0.461608,6:0.046856,9:0.345911,14:0.031602","XMIN":731844.86160847,"YMIN":8506043.59738907,"XMAX":731944.86160847,"YMAX":8506143.59738907},"geometry":{"type":"Polygon","coordinates":[[[-72.85713845256048,-13.504641100210252],[-72.85714652097357,-13.503737500334408],[-72.85806992774002,-13.503745393697475],[-72.85806186279734,-13.504648994120823],[-72.85713845256048,-13.504641100210252]]]}},{"type":"Feature","properties":{"Cell_ID":19,"Area_ha":1.0,"LC":"13:0.568567,14:0.431433","XMIN":731944.86160847,"YMIN":8506343.59738907,"XMAX":732044.86160847,"YMAX":8506443.59738907},"geometry":{"type":"Polygon","coordinates":[[[-72.85623925679215,-13.50192240470983],[-72.85624732690316,-13.501018805172519],[-72.85717072266944,-13.50102670028847],[-72.85716265602804,-13.501930300373512],[-72.85623925679215,-13.50192240470983]]]}},{"type":"Feature","properties":{"Cell_ID":20,"Area_ha":1.0,"LC":"5:0.628243,13:0.290900,14:0.080857","XMIN":731944.86160847,"YMIN":8506243.59738907,"XMAX":732044.86160847,"YMAX":8506343.59738907},"geometry":{"type":"Polygon","coordinates":[[[-72.85623118609031,-13.502826004177413],[-72.85623925679215,-13.50192240470983],[-72.85716265602804,-13.501930300373512],[-72.85715458879608,-13.502833900388831],[-72.85623118609031,-13.502826004177413]]]}},{"type":"Feature","properties":{"Cell_ID":21,"Area_ha":1.0,"LC":"5:0.245859,14:0.452539","XMIN":731944.86160847,"YMIN":8506143.59738907,"XMAX":732044.86160847,"YMAX":8506243.59738907},"geometry":{"type":"Polygon","coordinates":[[[-72.85622311479769,-13.503729603575254],[-72.85623118609031,-13.502826004177413],[-72.85715458879608,-13.502833900388831],[-72.85714652097357,-13.503737500334408],[-72.85622311479769,-13.503729603575254]]]}},{"type":"Feature","properties":{"Cell_ID":22,"Area_ha":1.0,"LC":"9:0.122627,13:0.877373","XMIN":732044.86160847,"YMIN":8506443.59738907,"XMAX":732144.86160847,"YMAX":8506543.59738907},"geometry":{"type":"Polygon","coordinates":[[[-72.85532393172768,-13.501010906661199],[-72.85533200471727,-13.500107307602121],[-72.8562553964234,-13.500115205565482],[-72.85624732690316,-13.501018805172519],[-72.85532393172768,-13.501010906661199]]]}},{"type":"Feature","properties":{"Cell_ID":23,"Area_ha":1.0,"LC":"5:0.171714,9:0.152852,13:0.228554,14:0.446880","XMIN":732044.86160847,"YMIN":8506343.59738907,"XMAX":732144.86160847,"YMAX":8506443.59738907},"geometry":{"type":"Polygon","coordinates":[[[-72.85531585814705,-13.501914505650545],[-72.85532393172768,-13.501010906661199],[-72.85624732690316,-13.501018805172519],[-72.85623925679215,-13.50192240470983],[-72.85531585814705,-13.501914505650545]]]}},{"type":"Feature","properties":{"Cell_ID":24,"Area_ha":1.0,"LC":"5:0.445220,13:0.118061,14:0.050211","XMIN":732044.86160847,"YMIN":8506243.59738907,"XMAX":732144.86160847,"YMAX":8506343.59738907},"geometry":{"type":"Polygon","coordinates":[[[-72.85530778397538,-13.502818104570157],[-72.85531585814705,-13.501914505650545],[-72.85623925679215,-13.50192240470983],[-72.85623118609031,-13.502826004177413],[-72.85530778397538,-13.502818104570157]]]}},{"type":"Feature","properties":{"Cell_ID":25,"Area_ha":1.0,"LC":"6:0.051773,9:0.337780,13:0.450506,14:0.159438","XMIN":732144.86160847,"YMIN":8506443.59738907,"XMAX":732244.86160847,"YMAX":8506543.59738907},"geometry":{"type":"Polygon","coordinates":[[[-72.85440053714325,-13.501003004754514],[-72.85440861360217,-13.500099406243638],[-72.85533200471727,-13.500107307602121],[-72.85532393172768,-13.501010906661199],[-72.85440053714325,-13.501003004754514]]]}},{"type":"Feature","properties":{"Cell_ID":26,"Area_ha":1.0,"LC":"5:0.047012,6:0.003092,9:0.258089,14:0.210379","XMIN":732144.86160847,"YMIN":8506343.59738907,"XMAX":732244.86160847,"YMAX":8506443.59738907},"geometry":{"type":"Polygon","coordinates":[[[-72.85439246009302,-13.501906603195662],[-72.85440053714325,-13.501003004754514],[-72.85532393172768,-13.501010906661199],[-72.85531585814705,-13.501914505650545],[-72.85439246009302,-13.501906603195662]]]}},{"type":"Feature","properties":{"Cell_ID":27,"Area_ha":1.0,"LC":"13:0.537400","XMIN":732144.86160847,"YMIN":8504743.59738907,"XMAX":732244.86160847,"YMAX":8504843.59738907},"geometry":{"type":"Polygon","coordinates":[[[-72.85426314686401,-13.516364168766335],[-72.85427123337648,-13.515460571441563],[-72.85519468350493,-13.515468482119935],[-72.85518660046614,-13.516372079992971],[-72.85426314686401,-13.516364168766335]]]}},{"type":"Feature","properties":{"Cell_ID":28,"Area_ha":1.0,"LC":"13:0.584704","XMIN":732144.86160847,"YMIN":8504643.59738907,"XMAX":732244.86160847,"YMAX":8504743.59738907},"geometry":{"type":"Polygon","coordinates":[[[-72.85425505976008,-13.517267766021304],[-72.85426314686401,-13.516364168766335],[-72.85518660046614,-13.516372079992971],[-72.8551785168361,-13.517275677796206],[-72.85425505976008,-13.517267766021304]]]}},{"type":"Feature","properties":{"Cell_ID":29,"Area_ha":1.0,"LC":"13:0.583283","XMIN":732144.86160847,"YMIN":8504543.59738907,"XMAX":732244.86160847,"YMAX":8504643.59738907},"geometry":{"type":"Polygon","coordinates":[[[-72.85424697206466,-13.518171363206454],[-72.85425505976008,-13.517267766021304],[-72.8551785168361,-13.517275677796206],[-72.85517043261484,-13.518179275529633],[-72.85424697206466,-13.518171363206454]]]}},{"type":"Feature","properties":{"Cell_ID":30,"Area_ha":1.0,"LC":"9:0.398875,13:0.601125","XMIN":732244.86160847,"YMIN":8506843.59738907,"XMAX":732344.86160847,"YMAX":8506943.59738907},"geometry":{"type":"Polygon","coordinates":[[[-72.85350945931393,-13.497380707184295],[-72.85351753687608,-13.496477108942928],[-72.85444091352511,-13.49648501150284],[-72.85443283943127,-13.497388610292619],[-72.85350945931393,-13.497380707184295]]]}},{"type":"Feature","properties":{"Cell_ID":31,"Area_ha":1.0,"LC":"6:0.473372,9:0.346347,13:0.180281","XMIN":732244.86160847,"YMIN":8506743.59738907,"XMAX":732344.86160847,"YMAX":8506843.59738907},"geometry":{"type":"Polygon","coordinates":[[[-72.85350138116027,-13.498284305355936],[-72.85350945931393,-13.497380707184295],[-72.85443283943127,-13.497388610292619],[-72.85442476474618,-13.498292209012682],[-72.85350138116027,-13.498284305355936]]]}},{"type":"Feature","properties":{"Cell_ID":32,"Area_ha":1.0,"LC":"6:0.475354,9:0.436390,13:0.088257","XMIN":732244.86160847,"YMIN":8506643.59738907,"XMAX":732344.86160847,"YMAX":8506743.59738907},"geometry":{"type":"Polygon","coordinates":[[[-72.85349330241509,-13.499187903457852],[-72.85350138116027,-13.498284305355936],[-72.85442476474618,-13.498292209012682],[-72.85441668946982,-13.499195807663021],[-72.85349330241509,-13.499187903457852]]]}},{"type":"Feature","properties":{"Cell_ID":33,"Area_ha":1.0,"LC":"9:0.153541,13:0.837444","XMIN":732244.86160847,"YMIN":8506543.59738907,"XMAX":732344.86160847,"YMAX":8506643.59738907},"geometry":{"type":"Polygon","coordinates":[[[-72.85348522307837,-13.500091501490036],[-72.85349330241509,-13.499187903457852],[-72.85441668946982,-13.499195807663021],[-72.85440861360217,-13.500099406243638],[-72.85348522307837,-13.500091501490036]]]}},{"type":"Feature","properties":{"Cell_ID":34,"Area_ha":1.0,"LC":"6:0.091026,9:0.561671,13:0.347303","XMIN":732344.86160847,"YMIN":8506843.59738907,"XMAX":732444.86160847,"YMAX":8506943.59738907},"geometry":{"type":"Polygon","coordinates":[[[-72.8525860797881,-13.49737280068157],[-72.85259416081857,-13.496469202988855],[-72.85351753687608,-13.496477108942928],[-72.85350945931393,-13.497380707184295],[-72.8525860797881,-13.49737280068157]]]}},{"type":"Feature","properties":{"Cell_ID":35,"Area_ha":1.0,"LC":"6:0.908538,7:0.020969,9:0.070493","XMIN":732344.86160847,"YMIN":8506743.59738907,"XMAX":732444.86160847,"YMAX":8506843.59738907},"geometry":{"type":"Polygon","coordinates":[[[-72.85257799816587,-13.498276398304554],[-72.8525860797881,-13.49737280068157],[-72.85350945931393,-13.497380707184295],[-72.85350138116027,-13.498284305355936],[-72.85257799816587,-13.498276398304554]]]}},{"type":"Feature","properties":{"Cell_ID":36,"Area_ha":1.0,"LC":"6:0.923137,9:0.048819","XMIN":732344.86160847,"YMIN":8506643.59738907,"XMAX":732444.86160847,"YMAX":8506743.59738907},"geometry":{"type":"Polygon","coordinates":[[[-72.85256991595188,-13.499179995857812],[-72.85257799816587,-13.498276398304554],[-72.85350138116027,-13.498284305355936],[-72.85349330241509,-13.499187903457852],[-72.85256991595188,-13.499179995857812]]]}},{"type":"Feature","properties":{"Cell_ID":37,"Area_ha":1.0,"LC":"9:0.742346,13:0.257654","XMIN":732444.86160847,"YMIN":8506943.59738907,"XMAX":732544.86160847,"YMAX":8507043.59738907},"geometry":{"type":"Polygon","coordinates":[[[-72.8516707853528,-13.496461293640634],[-72.85167886925954,-13.495557696427083],[-72.85260224125727,-13.495565605226423],[-72.85259416081857,-13.496469202988855],[-72.8516707853528,-13.496461293640634]]]}},{"type":"Feature","properties":{"Cell_ID":38,"Area_ha":1.0,"LC":"6:0.359563,9:0.598498,13:0.041939","XMIN":732444.86160847,"YMIN":8506843.59738907,"XMAX":732544.86160847,"YMAX":8506943.59738907},"geometry":{"type":"Polygon","coordinates":[[[-72.85166270085405,-13.497364890784455],[-72.8516707853528,-13.496461293640634],[-72.85259416081857,-13.496469202988855],[-72.8525860797881,-13.49737280068157],[-72.85166270085405,-13.497364890784455]]]}},{"type":"Feature","properties":{"Cell_ID":39,"Area_ha":1.0,"LC":"6:0.822094,7:0.177906","XMIN":732444.86160847,"YMIN":8506743.59738907,"XMAX":732544.86160847,"YMAX":8506843.59738907},"geometry":{"type":"Polygon","coordinates":[[[-72.85165461576327,-13.49826848785855],[-72.85166270085405,-13.497364890784455],[-72.8525860797881,-13.49737280068157],[-72.85257799816587,-13.498276398304554],[-72.85165461576327,-13.49826848785855]]]}},{"type":"Feature","properties":{"Cell_ID":40,"Area_ha":1.0,"LC":"9:0.118061,13:0.881939","XMIN":732544.86160847,"YMIN":8507043.59738907,"XMAX":732644.86160847,"YMAX":8507143.59738907},"geometry":{"type":"Polygon","coordinates":[[[-72.85075549785381,-13.495549784233836],[-72.85076358463633,-13.494646187499677],[-72.8516869525743,-13.494654099143812],[-72.85167886925954,-13.495557696427083],[-72.85075549785381,-13.495549784233836]]]}},{"type":"Feature","properties":{"Cell_ID":41,"Area_ha":1.0,"LC":"9:0.125504,13:0.874496","XMIN":732544.86160847,"YMIN":8506943.59738907,"XMAX":732644.86160847,"YMAX":8507043.59738907},"geometry":{"type":"Polygon","coordinates":[[[-72.85074741047903,-13.496453380898265],[-72.85075549785381,-13.495549784233836],[-72.85167886925954,-13.495557696427083],[-72.8516707853528,-13.496461293640634],[-72.85074741047903,-13.496453380898265]]]}},{"type":"Feature","properties":{"Cell_ID":42,"Area_ha":1.0,"LC":"6:0.226599,9:0.009649,13:0.763752","XMIN":732544.86160847,"YMIN":8506843.59738907,"XMAX":732644.86160847,"YMAX":8506943.59738907},"geometry":{"type":"Polygon","coordinates":[[[-72.850739322512,-13.497356977492966],[-72.85074741047903,-13.496453380898265],[-72.8516707853528,-13.496461293640634],[-72.85166270085405,-13.497364890784455],[-72.850739322512,-13.497356977492966]]]}},{"type":"Feature","properties":{"Cell_ID":43,"Area_ha":1.0,"LC":"6:0.842258,13:0.152852","XMIN":732544.86160847,"YMIN":8506743.59738907,"XMAX":732644.86160847,"YMAX":8506843.59738907},"geometry":{"type":"Polygon","coordinates":[[[-72.85073123395269,-13.498260574017932],[-72.850739322512,-13.497356977492966],[-72.85166270085405,-13.497364890784455],[-72.85165461576327,-13.49826848785855],[-72.85073123395269,-13.498260574017932]]]}},{"type":"Feature","properties":{"Cell_ID":44,"Area_ha":1.0,"LC":"13:1.000000","XMIN":732644.86160847,"YMIN":8507143.59738907,"XMAX":732744.86160847,"YMAX":8507243.59738907},"geometry":{"type":"Polygon","coordinates":[[[-72.8498402172906,-13.494638272461886],[-72.8498483069484,-13.493734676207353],[-72.85077167082662,-13.4937425906958],[-72.85076358463633,-13.494646187499677],[-72.8498402172906,-13.494638272461886]]]}},{"type":"Feature","properties":{"Cell_ID":45,"Area_ha":1.0,"LC":"13:1.000000","XMIN":732644.86160847,"YMIN":8507043.59738907,"XMAX":732744.86160847,"YMAX":8507143.59738907},"geometry":{"type":"Polygon","coordinates":[[[-72.84983212704033,-13.495541868646692],[-72.8498402172906,-13.494638272461886],[-72.85076358463633,-13.494646187499677],[-72.85075549785381,-13.495549784233836],[-72.84983212704033,-13.495541868646692]]]}},{"type":"Feature","properties":{"Cell_ID":46,"Area_ha":1.0,"LC":"13:1.000000","XMIN":732644.86160847,"YMIN":8506943.59738907,"XMAX":732744.86160847,"YMAX":8507043.59738907},"geometry":{"type":"Polygon","coordinates":[[[-72.84982403619753,-13.496445464761766],[-72.84983212704033,-13.495541868646692],[-72.85075549785381,-13.495549784233836],[-72.85074741047903,-13.496453380898265],[-72.84982403619753,-13.496445464761766]]]}},{"type":"Feature","properties":{"Cell_ID":47,"Area_ha":1.0,"LC":"5:0.159438,13:0.840562","XMIN":732644.86160847,"YMIN":8506843.59738907,"XMAX":732744.86160847,"YMAX":8506943.59738907},"geometry":{"type":"Polygon","coordinates":[[[-72.84981594476223,-13.49734906080711],[-72.84982403619753,-13.496445464761766],[-72.85074741047903,-13.496453380898265],[-72.850739322512,-13.497356977492966],[-72.84981594476223,-13.49734906080711]]]}},{"type":"Feature","properties":{"Cell_ID":48,"Area_ha":1.0,"LC":"5:0.242501,6:0.376791,13:0.258905","XMIN":732644.86160847,"YMIN":8506743.59738907,"XMAX":732744.86160847,"YMAX":8506843.59738907},"geometry":{"type":"Polygon","coordinates":[[[-72.84980785273437,-13.498252656782716],[-72.84981594476223,-13.49734906080711],[-72.850739322512,-13.497356977492966],[-72.85073123395269,-13.498260574017932],[-72.84980785273437,-13.498252656782716]]]}},{"type":"Feature","properties":{"Cell_ID":49,"Area_ha":1.0,"LC":"5:0.019719,6:0.071995,9:0.272852,13:0.635434","XMIN":732744.86160847,"YMIN":8507243.59738907,"XMAX":732844.86160847,"YMAX":8507343.59738907},"geometry":{"type":"Polygon","coordinates":[[[-72.8489249436627,-13.49372675832549],[-72.84893303619525,-13.492823162550817],[-72.84985639601372,-13.492831079883102],[-72.8498483069484,-13.493734676207353],[-72.8489249436627,-13.49372675832549]]]}},{"type":"Feature","properties":{"Cell_ID":50,"Area_ha":1.0,"LC":"5:0.299719,6:0.404566,13:0.295715","XMIN":732744.86160847,"YMIN":8507143.59738907,"XMAX":732844.86160847,"YMAX":8507243.59738907},"geometry":{"type":"Polygon","coordinates":[[[-72.84891685053739,-13.494630354030441],[-72.8489249436627,-13.49372675832549],[-72.8498483069484,-13.493734676207353],[-72.8498402172906,-13.494638272461886],[-72.84891685053739,-13.494630354030441]]]}},{"type":"Feature","properties":{"Cell_ID":51,"Area_ha":1.0,"LC":"5:0.459719,6:0.305410,13:0.234871","XMIN":732744.86160847,"YMIN":8507043.59738907,"XMAX":732844.86160847,"YMAX":8507143.59738907},"geometry":{"type":"Polygon","coordinates":[[[-72.84890875681936,-13.495533949665658],[-72.84891685053739,-13.494630354030441],[-72.8498402172906,-13.494638272461886],[-72.84983212704033,-13.495541868646692],[-72.84890875681936,-13.495533949665658]]]}},{"type":"Feature","properties":{"Cell_ID":52,"Area_ha":1.0,"LC":"5:0.614089,6:0.031602,13:0.354309","XMIN":732744.86160847,"YMIN":8506943.59738907,"XMAX":732844.86160847,"YMAX":8507043.59738907},"geometry":{"type":"Polygon","coordinates":[[[-72.84890066250854,-13.496437545231146],[-72.84890875681936,-13.495533949665658],[-72.84983212704033,-13.495541868646692],[-72.84982403619753,-13.496445464761766],[-72.84890066250854,-13.496437545231146]]]}},{"type":"Feature","properties":{"Cell_ID":53,"Area_ha":1.0,"LC":"5:0.333259,6:0.051026,13:0.615715","XMIN":732744.86160847,"YMIN":8506843.59738907,"XMAX":732844.86160847,"YMAX":8506943.59738907},"geometry":{"type":"Polygon","coordinates":[[[-72.84889256760498,-13.497341140726894],[-72.84890066250854,-13.496437545231146],[-72.84982403619753,-13.496445464761766],[-72.84981594476223,-13.49734906080711],[-72.84889256760498,-13.497341140726894]]]}},{"type":"Feature","properties":{"Cell_ID":54,"Area_ha":1.0,"LC":"5:0.178342,6:0.385083,9:0.020969,13:0.130211","XMIN":732744.86160847,"YMIN":8506743.59738907,"XMAX":732844.86160847,"YMAX":8506843.59738907},"geometry":{"type":"Polygon","coordinates":[[[-72.84888447210862,-13.4982447361529],[-72.84889256760498,-13.497341140726894],[-72.84981594476223,-13.49734906080711],[-72.84980785273437,-13.498252656782716],[-72.84888447210862,-13.4982447361529]]]}},{"type":"Feature","properties":{"Cell_ID":55,"Area_ha":1.0,"LC":"9:0.172965,13:0.827035","XMIN":732844.86160847,"YMIN":8507543.59738907,"XMAX":732944.86160847,"YMAX":8507643.59738907},"geometry":{"type":"Polygon","coordinates":[[[-72.84802586719017,-13.491008051166476],[-72.84803396141105,-13.490104455732459],[-72.8489573102366,-13.490112374808493],[-72.8489492194822,-13.491015970792317],[-72.84802586719017,-13.491008051166476]]]}},{"type":"Feature","properties":{"Cell_ID":56,"Area_ha":1.0,"LC":"6:0.111995,9:0.192852,13:0.695153","XMIN":732844.86160847,"YMIN":8507443.59738907,"XMAX":732944.86160847,"YMAX":8507543.59738907},"geometry":{"type":"Polygon","coordinates":[[[-72.84801777237632,-13.491911646530781],[-72.84802586719017,-13.491008051166476],[-72.8489492194822,-13.491015970792317],[-72.84894112813508,-13.491919566706427],[-72.84801777237632,-13.491911646530781]]]}},{"type":"Feature","properties":{"Cell_ID":57,"Area_ha":1.0,"LC":"6:0.304847,9:0.226599,13:0.468554","XMIN":732844.86160847,"YMIN":8507343.59738907,"XMAX":732944.86160847,"YMAX":8507443.59738907},"geometry":{"type":"Polygon","coordinates":[[[-72.84800967696951,-13.492815241825362],[-72.84801777237632,-13.491911646530781],[-72.84894112813508,-13.491919566706427],[-72.84893303619525,-13.492823162550817],[-72.84800967696951,-13.492815241825362]]]}},{"type":"Feature","properties":{"Cell_ID":58,"Area_ha":1.0,"LC":"6:0.611446,9:0.388554","XMIN":732844.86160847,"YMIN":8507243.59738907,"XMAX":732944.86160847,"YMAX":8507343.59738907},"geometry":{"type":"Polygon","coordinates":[[[-72.84800158096971,-13.49371883705022],[-72.84800967696951,-13.492815241825362],[-72.84893303619525,-13.492823162550817],[-72.8489249436627,-13.49372675832549],[-72.84800158096971,-13.49371883705022]]]}},{"type":"Feature","properties":{"Cell_ID":59,"Area_ha":1.0,"LC":"6:1.000000","XMIN":732844.86160847,"YMIN":8507143.59738907,"XMAX":732944.86160847,"YMAX":8507243.59738907},"geometry":{"type":"Polygon","coordinates":[[[-72.84799348437693,-13.494622432205356],[-72.84800158096971,-13.49371883705022],[-72.8489249436627,-13.49372675832549],[-72.84891685053739,-13.494630354030441],[-72.84799348437693,-13.494622432205356]]]}},{"type":"Feature","properties":{"Cell_ID":60,"Area_ha":1.0,"LC":"6:1.000000","XMIN":732844.86160847,"YMIN":8507043.59738907,"XMAX":732944.86160847,"YMAX":8507143.59738907},"geometry":{"type":"Polygon","coordinates":[[[-72.84798538719113,-13.495526027290751],[-72.84799348437693,-13.494622432205356],[-72.84891685053739,-13.494630354030441],[-72.84890875681936,-13.495533949665658],[-72.84798538719113,-13.495526027290751]]]}},{"type":"Feature","properties":{"Cell_ID":61,"Area_ha":1.0,"LC":"5:0.265911,6:0.734089","XMIN":732844.86160847,"YMIN":8506943.59738907,"XMAX":732944.86160847,"YMAX":8507043.59738907},"geometry":{"type":"Polygon","coordinates":[[[-72.84797728941234,-13.49642962230641],[-72.84798538719113,-13.495526027290751],[-72.84890875681936,-13.495533949665658],[-72.84890066250854,-13.496437545231146],[-72.84797728941234,-13.49642962230641]]]}},{"type":"Feature","properties":{"Cell_ID":62,"Area_ha":1.0,"LC":"5:0.267303,6:0.732697","XMIN":732844.86160847,"YMIN":8506843.59738907,"XMAX":732944.86160847,"YMAX":8506943.59738907},"geometry":{"type":"Polygon","coordinates":[[[-72.8479691910405,-13.497333217252333],[-72.84797728941234,-13.49642962230641],[-72.84890066250854,-13.496437545231146],[-72.84889256760498,-13.497341140726894],[-72.8479691910405,-13.497333217252333]]]}},{"type":"Feature","properties":{"Cell_ID":63,"Area_ha":1.0,"LC":"6:0.288063,9:0.210261","XMIN":732844.86160847,"YMIN":8506743.59738907,"XMAX":732944.86160847,"YMAX":8506843.59738907},"geometry":{"type":"Polygon","coordinates":[[[-72.84796109207565,-13.498236812128503],[-72.8479691910405,-13.497333217252333],[-72.84889256760498,-13.497341140726894],[-72.84888447210862,-13.4982447361529],[-72.84796109207565,-13.498236812128503]]]}},{"type":"Feature","properties":{"Cell_ID":64,"Area_ha":1.0,"LC":"9:0.455967,13:0.544033","XMIN":732944.86160847,"YMIN":8507743.59738907,"XMAX":733044.86160847,"YMAX":8507843.59738907},"geometry":{"type":"Polygon","coordinates":[[[-72.84711871027258,-13.48919293831027],[-72.84712680677355,-13.488289343286864],[-72.84805014807398,-13.488297264655293],[-72.84804205503897,-13.48920086022873],[-72.84711871027258,-13.48919293831027]]]}},{"type":"Feature","properties":{"Cell_ID":65,"Area_ha":1.0,"LC":"6:0.069494,9:0.342094,13:0.588412","XMIN":732944.86160847,"YMIN":8507643.59738907,"XMAX":733044.86160847,"YMAX":8507743.59738907},"geometry":{"type":"Polygon","coordinates":[[[-72.84711061317844,-13.490096533263966],[-72.84711871027258,-13.48919293831027],[-72.84804205503897,-13.48920086022873],[-72.84803396141105,-13.490104455732459],[-72.84711061317844,-13.490096533263966]]]}},{"type":"Feature","properties":{"Cell_ID":66,"Area_ha":1.0,"LC":"6:0.723878,9:0.187161,13:0.088961","XMIN":732944.86160847,"YMIN":8507543.59738907,"XMAX":733044.86160847,"YMAX":8507643.59738907},"geometry":{"type":"Polygon","coordinates":[[[-72.84710251549109,-13.491000128147949],[-72.84711061317844,-13.490096533263966],[-72.84803396141105,-13.490104455732459],[-72.84802586719017,-13.491008051166476],[-72.84710251549109,-13.491000128147949]]]}},{"type":"Feature","properties":{"Cell_ID":67,"Area_ha":1.0,"LC":"3:0.270182,6:0.621827,9:0.107991","XMIN":732944.86160847,"YMIN":8507443.59738907,"XMAX":733044.86160847,"YMAX":8507543.59738907},"geometry":{"type":"Polygon","coordinates":[[[-72.84709441721053,-13.491903722962212],[-72.84710251549109,-13.491000128147949],[-72.84802586719017,-13.491008051166476],[-72.84801777237632,-13.491911646530781],[-72.84709441721053,-13.491903722962212]]]}},{"type":"Feature","properties":{"Cell_ID":68,"Area_ha":1.0,"LC":"3:0.211757,6:0.788243","XMIN":732944.86160847,"YMIN":8507343.59738907,"XMAX":733044.86160847,"YMAX":8507443.59738907},"geometry":{"type":"Polygon","coordinates":[[[-72.84708631833675,-13.492807317706749],[-72.84709441721053,-13.491903722962212],[-72.84801777237632,-13.491911646530781],[-72.84800967696951,-13.492815241825362],[-72.84708631833675,-13.492807317706749]]]}},{"type":"Feature","properties":{"Cell_ID":69,"Area_ha":1.0,"LC":"5:0.153934,6:0.846066","XMIN":732944.86160847,"YMIN":8507243.59738907,"XMAX":733044.86160847,"YMAX":8507343.59738907},"geometry":{"type":"Polygon","coordinates":[[[-72.84707821886973,-13.493710912381557],[-72.84708631833675,-13.492807317706749],[-72.84800967696951,-13.492815241825362],[-72.84800158096971,-13.49371883705022],[-72.84707821886973,-13.493710912381557]]]}},{"type":"Feature","properties":{"Cell_ID":70,"Area_ha":1.0,"LC":"5:0.165129,6:0.834871","XMIN":732944.86160847,"YMIN":8507143.59738907,"XMAX":733044.86160847,"YMAX":8507243.59738907},"geometry":{"type":"Polygon","coordinates":[[[-72.84707011880946,-13.494614506986638],[-72.84707821886973,-13.493710912381557],[-72.84800158096971,-13.49371883705022],[-72.84799348437693,-13.494622432205356],[-72.84707011880946,-13.494614506986638]]]}},{"type":"Feature","properties":{"Cell_ID":71,"Area_ha":1.0,"LC":"5:0.031602,6:0.968398","XMIN":732944.86160847,"YMIN":8507043.59738907,"XMAX":733044.86160847,"YMAX":8507143.59738907},"geometry":{"type":"Polygon","coordinates":[[[-72.84706201815592,-13.495518101521975],[-72.84707011880946,-13.494614506986638],[-72.84799348437693,-13.494622432205356],[-72.84798538719113,-13.495526027290751],[-72.84706201815592,-13.495518101521975]]]}},{"type":"Feature","properties":{"Cell_ID":72,"Area_ha":1.0,"LC":"5:0.131714,6:0.868286","XMIN":732944.86160847,"YMIN":8506943.59738907,"XMAX":733044.86160847,"YMAX":8507043.59738907},"geometry":{"type":"Polygon","coordinates":[[[-72.84705391690915,-13.496421695987575],[-72.84706201815592,-13.495518101521975],[-72.84798538719113,-13.495526027290751],[-72.84797728941234,-13.49642962230641],[-72.84705391690915,-13.496421695987575]]]}},{"type":"Feature","properties":{"Cell_ID":73,"Area_ha":1.0,"LC":"5:0.171146,6:0.671190,9:0.075698","XMIN":732944.86160847,"YMIN":8506843.59738907,"XMAX":733044.86160847,"YMAX":8506943.59738907},"geometry":{"type":"Polygon","coordinates":[[[-72.84704581506908,-13.49732529038343],[-72.84705391690915,-13.496421695987575],[-72.84797728941234,-13.49642962230641],[-72.8479691910405,-13.497333217252333],[-72.84704581506908,-13.49732529038343]]]}},{"type":"Feature","properties":{"Cell_ID":74,"Area_ha":1.0,"LC":"6:0.009381,9:0.078749,13:0.559946","XMIN":733044.86160847,"YMIN":8507643.59738907,"XMAX":733144.86160847,"YMAX":8507743.59738907},"geometry":{"type":"Polygon","coordinates":[[[-72.84618726553904,-13.490088607403033],[-72.84619536609938,-13.489185012999606],[-72.84711871027258,-13.48919293831027],[-72.84711061317844,-13.490096533263966],[-72.84618726553904,-13.490088607403033]]]}},{"type":"Feature","properties":{"Cell_ID":75,"Area_ha":1.0,"LC":"5:0.059719,6:0.076122,9:0.481738,13:0.204859","XMIN":733044.86160847,"YMIN":8507543.59738907,"XMAX":733144.86160847,"YMAX":8507643.59738907},"geometry":{"type":"Polygon","coordinates":[[[-72.84617916438523,-13.490992201736741],[-72.84618726553904,-13.490088607403033],[-72.84711061317844,-13.490096533263966],[-72.84710251549109,-13.491000128147949],[-72.84617916438523,-13.490992201736741]]]}},{"type":"Feature","properties":{"Cell_ID":76,"Area_ha":1.0,"LC":"3:0.028412,5:0.259719,6:0.126459,9:0.553743","XMIN":733044.86160847,"YMIN":8507443.59738907,"XMAX":733144.86160847,"YMAX":8507543.59738907},"geometry":{"type":"Polygon","coordinates":[[[-72.84617106263795,-13.491895796000728],[-72.84617916438523,-13.490992201736741],[-72.84710251549109,-13.491000128147949],[-72.84709441721053,-13.491903722962212],[-72.84617106263795,-13.491895796000728]]]}},{"type":"Feature","properties":{"Cell_ID":77,"Area_ha":1.0,"LC":"3:0.009649,5:0.240562,6:0.405504,9:0.271039,13:0.073246","XMIN":733044.86160847,"YMIN":8507343.59738907,"XMAX":733144.86160847,"YMAX":8507443.59738907},"geometry":{"type":"Polygon","coordinates":[[[-72.84616296029722,-13.492799390194982],[-72.84617106263795,-13.491895796000728],[-72.84709441721053,-13.491903722962212],[-72.84708631833675,-13.492807317706749],[-72.84616296029722,-13.492799390194982]]]}},{"type":"Feature","properties":{"Cell_ID":78,"Area_ha":1.0,"LC":"5:0.655278,6:0.069368,9:0.180844,13:0.094510","XMIN":733044.86160847,"YMIN":8507243.59738907,"XMAX":733144.86160847,"YMAX":8507343.59738907},"geometry":{"type":"Polygon","coordinates":[[[-72.84615485736298,-13.493702984319508],[-72.84616296029722,-13.492799390194982],[-72.84708631833675,-13.492807317706749],[-72.84707821886973,-13.493710912381557],[-72.84615485736298,-13.493702984319508]]]}},{"type":"Feature","properties":{"Cell_ID":79,"Area_ha":1.0,"LC":"5:0.605504,6:0.394496","XMIN":733044.86160847,"YMIN":8507143.59738907,"XMAX":733144.86160847,"YMAX":8507243.59738907},"geometry":{"type":"Polygon","coordinates":[[[-72.84614675383524,-13.494606578374297],[-72.84615485736298,-13.493702984319508],[-72.84707821886973,-13.493710912381557],[-72.84707011880946,-13.494614506986638],[-72.84614675383524,-13.494606578374297]]]}},{"type":"Feature","properties":{"Cell_ID":80,"Area_ha":1.0,"LC":"5:0.392342,6:0.537162","XMIN":733044.86160847,"YMIN":8507043.59738907,"XMAX":733144.86160847,"YMAX":8507143.59738907},"geometry":{"type":"Polygon","coordinates":[[[-72.84613864971399,-13.495510172359346],[-72.84614675383524,-13.494606578374297],[-72.84707011880946,-13.494614506986638],[-72.84706201815592,-13.495518101521975],[-72.84613864971399,-13.495510172359346]]]}},{"type":"Feature","properties":{"Cell_ID":81,"Area_ha":1.0,"LC":"5:0.483026,6:0.090289","XMIN":733044.86160847,"YMIN":8506943.59738907,"XMAX":733144.86160847,"YMAX":8507043.59738907},"geometry":{"type":"Polygon","coordinates":[[[-72.84613054499923,-13.496413766274648],[-72.84613864971399,-13.495510172359346],[-72.84706201815592,-13.495518101521975],[-72.84705391690915,-13.496421695987575],[-72.84613054499923,-13.496413766274648]]]}},{"type":"Feature","properties":{"Cell_ID":82,"Area_ha":1.0,"LC":"13:0.998698","XMIN":733144.86160847,"YMIN":8508343.59738907,"XMAX":733244.86160847,"YMAX":8508443.59738907},"geometry":{"type":"Polygon","coordinates":[[[-72.8453206342115,-13.483755519715269],[-72.84532873408236,-13.482851925374408],[-72.8462520534059,-13.48285985022385],[-72.84624395699946,-13.483763445115187],[-72.8453206342115,-13.483755519715269]]]}},{"type":"Feature","properties":{"Cell_ID":83,"Area_ha":1.0,"LC":"13:0.678035,16:0.028412","XMIN":733144.86160847,"YMIN":8508243.59738907,"XMAX":733244.86160847,"YMAX":8508343.59738907},"geometry":{"type":"Polygon","coordinates":[[[-72.845312533747,-13.484659113986435],[-72.8453206342115,-13.483755519715269],[-72.84624395699946,-13.483763445115187],[-72.84623585999962,-13.484667039936834],[-72.845312533747,-13.484659113986435]]]}},{"type":"Feature","properties":{"Cell_ID":84,"Area_ha":1.0,"LC":"13:1.000000","XMIN":733244.86160847,"YMIN":8508743.59738907,"XMAX":733344.86160847,"YMAX":8508843.59738907},"geometry":{"type":"Polygon","coordinates":[[[-72.84442972179498,-13.480133215345845],[-72.8444378227548,-13.479229621276954],[-72.84536112762964,-13.479237547314128],[-72.84535303013323,-13.480141141933714],[-72.84442972179498,-13.480133215345845]]]}},{"type":"Feature","properties":{"Cell_ID":85,"Area_ha":1.0,"LC":"13:1.000000","XMIN":733244.86160847,"YMIN":8508643.59738907,"XMAX":733344.86160847,"YMAX":8508743.59738907},"geometry":{"type":"Polygon","coordinates":[[[-72.84442162024133,-13.481036809345058],[-72.84442972179498,-13.480133215345845],[-72.84535303013323,-13.480141141933714],[-72.84534493204322,-13.481044736483627],[-72.84442162024133,-13.481036809345058]]]}},{"type":"Feature","properties":{"Cell_ID":86,"Area_ha":1.0,"LC":"13:0.903500","XMIN":733244.86160847,"YMIN":8508543.59738907,"XMAX":733344.86160847,"YMAX":8508643.59738907},"geometry":{"type":"Polygon","coordinates":[[[-72.84441351809383,-13.481940403274583],[-72.84442162024133,-13.481036809345058],[-72.84534493204322,-13.481044736483627],[-72.8453368333596,-13.481948330963856],[-72.84441351809383,-13.481940403274583]]]}},{"type":"Feature","properties":{"Cell_ID":87,"Area_ha":1.0,"LC":"13:0.683300","XMIN":733244.86160847,"YMIN":8508443.59738907,"XMAX":733344.86160847,"YMAX":8508543.59738907},"geometry":{"type":"Polygon","coordinates":[[[-72.84440541535244,-13.482843997134422],[-72.84441351809383,-13.481940403274583],[-72.8453368333596,-13.481948330963856],[-72.84532873408236,-13.482851925374408],[-72.84440541535244,-13.482843997134422]]]}},{"type":"Feature","properties":{"Cell_ID":88,"Area_ha":1.0,"LC":"13:0.644004,16:0.355996","XMIN":733344.86160847,"YMIN":8508943.59738907,"XMAX":733444.86160847,"YMAX":8509043.59738907},"geometry":{"type":"Polygon","coordinates":[[[-72.84352262230287,-13.478318098262555],[-72.84353072553787,-13.477414504605242],[-72.8444540228929,-13.477422432930153],[-72.84444592312076,-13.478326027138388],[-72.84352262230287,-13.478318098262555]]]}},{"type":"Feature","properties":{"Cell_ID":89,"Area_ha":1.0,"LC":"13:0.990351,16:0.009649","XMIN":733344.86160847,"YMIN":8508843.59738907,"XMAX":733444.86160847,"YMAX":8508943.59738907},"geometry":{"type":"Polygon","coordinates":[[[-72.84351451847378,-13.479221691850192],[-72.84352262230287,-13.478318098262555],[-72.84444592312076,-13.478326027138388],[-72.8444378227548,-13.479229621276954],[-72.84351451847378,-13.479221691850192]]]}},{"type":"Feature","properties":{"Cell_ID":90,"Area_ha":1.0,"LC":"13:0.875253","XMIN":733344.86160847,"YMIN":8508743.59738907,"XMAX":733444.86160847,"YMAX":8508843.59738907},"geometry":{"type":"Polygon","coordinates":[[[-72.8435064140506,-13.48012528536815],[-72.84351451847378,-13.479221691850192],[-72.8444378227548,-13.479229621276954],[-72.84442972179498,-13.480133215345845],[-72.8435064140506,-13.48012528536815]]]}},{"type":"Feature","properties":{"Cell_ID":91,"Area_ha":1.0,"LC":"13:0.890758,16:0.109242","XMIN":733444.86160847,"YMIN":8509043.59738907,"XMAX":733544.86160847,"YMAX":8509143.59738907},"geometry":{"type":"Polygon","coordinates":[[[-72.84260742877693,-13.477406572891226],[-72.84261553488048,-13.4765029797154],[-72.84353882817882,-13.476510910878265],[-72.84353072553787,-13.477414504605242],[-72.84260742877693,-13.477406572891226]]]}},{"type":"Feature","properties":{"Cell_ID":92,"Area_ha":1.0,"LC":"13:0.992417","XMIN":733444.86160847,"YMIN":8508943.59738907,"XMAX":733544.86160847,"YMAX":8509043.59738907},"geometry":{"type":"Polygon","coordinates":[[[-72.84259932207905,-13.478310165997378],[-72.84260742877693,-13.477406572891226],[-72.84353072553787,-13.477414504605242],[-72.84352262230287,-13.478318098262555],[-72.84259932207905,-13.478310165997378]]]}},{"type":"Feature","properties":{"Cell_ID":93,"Area_ha":1.0,"LC":"13:0.541189","XMIN":733444.86160847,"YMIN":8508843.59738907,"XMAX":733544.86160847,"YMAX":8508943.59738907},"geometry":{"type":"Polygon","coordinates":[[[-72.84259121478685,-13.47921375903385],[-72.84259932207905,-13.478310165997378],[-72.84352262230287,-13.478318098262555],[-72.84351451847378,-13.479221691850192],[-72.84259121478685,-13.47921375903385]]]}},{"type":"Feature","properties":{"Cell_ID":94,"Area_ha":1.0,"LC":"13:0.847273,16:0.152727","XMIN":733544.86160847,"YMIN":8509043.59738907,"XMAX":733644.86160847,"YMAX":8509143.59738907},"geometry":{"type":"Polygon","coordinates":[[[-72.8416841326103,-13.477398637788111],[-72.84169224217644,-13.476495045163677],[-72.84261553488048,-13.4765029797154],[-72.84260742877693,-13.477406572891226],[-72.8416841326103,-13.477398637788111]]]}},{"type":"Feature","properties":{"Cell_ID":95,"Area_ha":1.0,"LC":"13:0.586113","XMIN":733544.86160847,"YMIN":8508943.59738907,"XMAX":733644.86160847,"YMAX":8509043.59738907},"geometry":{"type":"Polygon","coordinates":[[[-72.84167602244958,-13.478302230342871],[-72.8416841326103,-13.477398637788111],[-72.84260742877693,-13.477406572891226],[-72.84259932207905,-13.478310165997378],[-72.84167602244958,-13.478302230342871]]]}}]}