{"type":"FeatureCollection","features":[{"type":"Feature","properties":{"Cell_ID":1,"Area_ha":1.0,"LC":"13:0.697436","XMIN":730134.86160847,"YMIN":8502163.59738907,"XMAX":730234.86160847,"YMAX":8502263.59738907},"geometry":{"type":"Polygon","coordinates":[[[-72.87261764411096,-13.539835601896922],[-72.87262567593265,-13.538931995397698],[-72.87354922760295,-13.538939851775988],[-72.87354119926168,-13.539843458818837],[-72.87261764411096,-13.539835601896922]]]}},{"type":"Feature","properties":{"Cell_ID":2,"Area_ha":1.0,"LC":"13:0.543238","XMIN":730334.86160847,"YMIN":8502363.59738907,"XMAX":730434.86160847,"YMAX":8502463.59738907},"geometry":{"type":"Polygon","coordinates":[[[-72.8707866125476,-13.53801266694384],[-72.87079465015584,-13.537109061392902],[-72.87171819369256,-13.537116923493784],[-72.87171015956422,-13.538020529588817],[-72.8707866125476,-13.53801266694384]]]}},{"type":"Feature","properties":{"Cell_ID":3,"Area_ha":1.0,"LC":"13:0.519614","XMIN":730634.86160847,"YMIN":8502563.59738907,"XMAX":730734.86160847,"YMAX":8502663.59738907},"geometry":{"type":"Polygon","coordinates":[[[-72.86803207052942,-13.536181850673767],[-72.86804011740153,-13.535278246616826],[-72.86896365221716,-13.535286117842807],[-72.8689556088244,-13.53618972244454],[-72.86803207052942,-13.536181850673767]]]}},{"type":"Feature","properties":{"Cell_ID":4,"Area_ha":1.0,"LC":"5:0.100238,9:0.002937,13:0.506670","XMIN":731434.86160847,"YMIN":8503263.59738907,"XMAX":731534.86160847,"YMAX":8503363.59738907},"geometry":{"type":"Polygon","coordinates":[[[-72.86070029591313,-13.529793554643385],[-72.86070836649068,-13.528889954464258],[-72.86163187224847,-13.528897849098565],[-72.86162380514843,-13.529801449824344],[-72.86070029591313,-13.529793554643385]]]}},{"type":"Feature","properties":{"Cell_ID":5,"Area_ha":1.0,"LC":"13:0.628188","XMIN":731834.86160847,"YMIN":8503663.59738907,"XMAX":731934.86160847,"YMAX":8503763.59738907},"geometry":{"type":"Polygon","coordinates":[[[-72.8570385992775,-13.526147547510721],[-72.85704668140164,-13.525243949241142],[-72.85797017089133,-13.525251855295764],[-72.85796209224365,-13.526155454112915],[-72.8570385992775,-13.526147547510721]]]}},{"type":"Feature","properties":{"Cell_ID":6,"Area_ha":1.0,"LC":"9:0.055628,13:0.517664","XMIN":731934.86160847,"YMIN":8503763.59738907,"XMAX":732034.86160847,"YMAX":8503863.59738907},"geometry":{"type":"Polygon","coordinates":[[[-72.85612319250271,-13.525236039784827],[-72.85613127751222,-13.524332441993218],[-72.85705476293496,-13.524340350901722],[-72.85704668140164,-13.525243949241142],[-72.85612319250271,-13.525236039784827]]]}},{"type":"Feature","properties":{"Cell_ID":7,"Area_ha":1.0,"LC":"9:0.118118,13:0.322612,16:0.397130","XMIN":732034.86160847,"YMIN":8503963.59738907,"XMAX":732134.86160847,"YMAX":8504063.59738907},"geometry":{"type":"Polygon","coordinates":[[[-72.85521588057486,-13.523420932369852],[-72.85522396787795,-13.522517334986599],[-72.85614744575808,-13.522525246200479],[-72.85613936193067,-13.523428844131764],[-72.85521588057486,-13.523420932369852]]]}}]}