{"type":"FeatureCollection","features":[{"type":"Feature","properties":{"Cell_ID":1,"Area_ha":1.0,"LC":"16:0.556971","XMIN":726688.0903959561,"YMIN":8500323.59738907,"XMAX":726788.0903959561,"YMAX":8500423.59738907},"geometry":{"type":"Polygon","coordinates":[[[-72.90430513255707,-13.55673113707158],[-72.90431305504511,-13.555827513253872],[-72.90523669086726,-13.555835262103821],[-72.90522877186467,-13.556738886457108],[-72.90430513255707,-13.55673113707158]]]}},{"type":"Feature","properties":{"Cell_ID":2,"Area_ha":1.0,"LC":"9:0.427042,13:0.218385,16:0.353386","XMIN":727388.0903959561,"YMIN":8500923.59738907,"XMAX":727488.0903959561,"YMAX":8501023.59738907},"geometry":{"type":"Polygon","coordinates":[[[-72.89788734622284,-13.551255074465391],[-72.89789528962993,-13.550351453984547],[-72.89881890049324,-13.550359223481511],[-72.89881096057002,-13.551262844499565],[-72.89788734622284,-13.551255074465391]]]}},{"type":"Feature","properties":{"Cell_ID":3,"Area_ha":1.0,"LC":"13:0.040562,16:0.671904","XMIN":727388.0903959561,"YMIN":8500823.59738907,"XMAX":727488.0903959561,"YMAX":8500923.59738907},"geometry":{"type":"Polygon","coordinates":[[[-72.89787940223596,-13.552158694876448],[-72.89788734622284,-13.551255074465391],[-72.89881096057002,-13.551262844499565],[-72.89880302006726,-13.552166465447831],[-72.89787940223596,-13.552158694876448]]]}},{"type":"Feature","properties":{"Cell_ID":4,"Area_ha":1.0,"LC":"9:0.078490,13:0.088470,16:0.578034","XMIN":727488.0903959561,"YMIN":8501023.59738907,"XMAX":727588.0903959561,"YMAX":8501123.59738907},"geometry":{"type":"Polygon","coordinates":[[[-72.8969716793464,-13.550343681078992],[-72.8969796256573,-13.5494400610658],[-72.89790323245722,-13.549447833433916],[-72.89789528962993,-13.550351453984547],[-72.8969716793464,-13.550343681078992]]]}},{"type":"Feature","properties":{"Cell_ID":5,"Area_ha":1.0,"LC":"13:0.502882,16:0.074574","XMIN":727588.0903959561,"YMIN":8501123.59738907,"XMAX":727688.0903959561,"YMAX":8501223.59738907},"geometry":{"type":"Polygon","coordinates":[[[-72.89605601943741,-13.549432285289337],[-72.89606396865163,-13.548528665744032],[-72.89698757138818,-13.548536440982822],[-72.8969796256573,-13.5494400610658],[-72.89605601943741,-13.549432285289337]]]}}]}