{"type":"FeatureCollection","features":[{"type":"Feature","properties":{"Cell_ID":1,"Area_ha":1.0,"LC":"16:1.000000","XMIN":728784.86160847,"YMIN":8501253.59738907,"XMAX":728884.86160847,"YMAX":8501353.59738907},"geometry":{"type":"Polygon","coordinates":[[[-72.88501299923853,-13.54816426552777],[-72.8850209893812,-13.547260652344665],[-72.88594458062876,-13.547268467667353],[-72.88593659396895,-13.548172081390943],[-72.88501299923853,-13.54816426552777]]]}},{"type":"Feature","properties":{"Cell_ID":2,"Area_ha":1.0,"LC":"13:0.063618,16:0.934560","XMIN":728884.86160847,"YMIN":8501253.59738907,"XMAX":728984.86160847,"YMAX":8501353.59738907},"geometry":{"type":"Polygon","coordinates":[[[-72.88408940509139,-13.548156446256685],[-72.88409739871696,-13.547252833614303],[-72.8850209893812,-13.547260652344665],[-72.88501299923853,-13.54816426552777],[-72.88408940509139,-13.548156446256685]]]}},{"type":"Feature","properties":{"Cell_ID":3,"Area_ha":1.0,"LC":"13:0.695032","XMIN":729284.86160847,"YMIN":8501353.59738907,"XMAX":729384.86160847,"YMAX":8501453.59738907},"geometry":{"type":"Polygon","coordinates":[[[-72.88040304189805,-13.547221524616283],[-72.88041104887041,-13.546317914069295],[-72.88133463371634,-13.546325745888605],[-72.88132663022655,-13.547229356977255],[-72.88040304189805,-13.547221524616283]]]}}]}