{"type":"FeatureCollection","features":[{"type":"Feature","properties":{"Cell_ID":1,"Area_ha":1.0,"LC":"16:0.886906","XMIN":708264.86160847,"YMIN":8504893.59738907,"XMAX":708364.86160847,"YMAX":8504993.59738907},"geometry":{"type":"Polygon","coordinates":[[[-73.07481096939402,-13.516801246129615],[-73.07481822530902,-13.515897524465553],[-73.07574180419219,-13.515904622418335],[-73.07573455175289,-13.516808344574391],[-73.07481096939402,-13.516801246129615]]]}},{"type":"Feature","properties":{"Cell_ID":2,"Area_ha":1.0,"LC":"7:0.304181,16:0.117646,17:0.578173","XMIN":708364.86160847,"YMIN":8505293.59738907,"XMAX":708464.86160847,"YMAX":8505393.59738907},"geometry":{"type":"Polygon","coordinates":[[[-73.07391642194249,-13.5131792591828],[-73.0739236792091,-13.512275537735372],[-73.07484724366134,-13.51228263712033],[-73.0748399898694,-13.513186359059972],[-73.07391642194249,-13.5131792591828]]]}},{"type":"Feature","properties":{"Cell_ID":3,"Area_ha":1.0,"LC":"16:0.658454,17:0.341546","XMIN":708364.86160847,"YMIN":8505193.59738907,"XMAX":708464.86160847,"YMAX":8505293.59738907},"geometry":{"type":"Polygon","coordinates":[[[-73.07390916414488,-13.514082980561335],[-73.07391642194249,-13.5131792591828],[-73.0748399898694,-13.513186359059972],[-73.07483273554669,-13.514090080930725],[-73.07390916414488,-13.514082980561335]]]}},{"type":"Feature","properties":{"Cell_ID":4,"Area_ha":1.0,"LC":"16:0.940554,17:0.059446","XMIN":708364.86160847,"YMIN":8505093.59738907,"XMAX":708464.86160847,"YMAX":8505193.59738907},"geometry":{"type":"Polygon","coordinates":[[[-73.07390190581626,-13.514986701870981],[-73.07390916414488,-13.514082980561335],[-73.07483273554669,-13.514090080930725],[-73.07482548069324,-13.514993802732587],[-73.07390190581626,-13.514986701870981]]]}},{"type":"Feature","properties":{"Cell_ID":5,"Area_ha":1.0,"LC":"9:0.020822,16:0.596551,17:0.382627","XMIN":708364.86160847,"YMIN":8504993.59738907,"XMAX":708464.86160847,"YMAX":8505093.59738907},"geometry":{"type":"Polygon","coordinates":[[[-73.07389464695662,-13.515890423111724],[-73.07390190581626,-13.514986701870981],[-73.07482548069324,-13.514993802732587],[-73.07481822530902,-13.515897524465553],[-73.07389464695662,-13.515890423111724]]]}},{"type":"Feature","properties":{"Cell_ID":6,"Area_ha":1.0,"LC":"5:0.043443,9:0.042086,16:0.657785,17:0.000281","XMIN":708364.86160847,"YMIN":8504893.59738907,"XMAX":708464.86160847,"YMAX":8504993.59738907},"geometry":{"type":"Polygon","coordinates":[[[-73.07388738756593,-13.516794144283566],[-73.07389464695662,-13.515890423111724],[-73.07481822530902,-13.515897524465553],[-73.07481096939402,-13.516801246129615],[-73.07388738756593,-13.516794144283566]]]}},{"type":"Feature","properties":{"Cell_ID":7,"Area_ha":1.0,"LC":"6:0.020822,7:0.336382,9:0.342242,13:0.222908,17:0.077646","XMIN":708464.86160847,"YMIN":8505293.59738907,"XMAX":708564.86160847,"YMAX":8505393.59738907},"geometry":{"type":"Polygon","coordinates":[[[-73.07299285454658,-13.513172155905304],[-73.07300011528784,-13.512268434950318],[-73.0739236792091,-13.512275537735372],[-73.07391642194249,-13.5131792591828],[-73.07299285454658,-13.513172155905304]]]}},{"type":"Feature","properties":{"Cell_ID":8,"Area_ha":1.0,"LC":"6:0.021117,7:0.162783,16:0.197084,17:0.619017","XMIN":708464.86160847,"YMIN":8505193.59738907,"XMAX":708564.86160847,"YMAX":8505293.59738907},"geometry":{"type":"Polygon","coordinates":[[[-73.07298559327407,-13.514075876791388],[-73.07299285454658,-13.513172155905304],[-73.07391642194249,-13.5131792591828],[-73.07390916414488,-13.514082980561335],[-73.07298559327407,-13.514075876791388]]]}},{"type":"Feature","properties":{"Cell_ID":9,"Area_ha":1.0,"LC":"9:0.163449,16:0.836122,17:0.000429","XMIN":708464.86160847,"YMIN":8505093.59738907,"XMAX":708564.86160847,"YMAX":8505193.59738907},"geometry":{"type":"Polygon","coordinates":[[[-73.07297833147028,-13.51497959760858],[-73.07298559327407,-13.514075876791388],[-73.07390916414488,-13.514082980561335],[-73.07390190581626,-13.514986701870981],[-73.07297833147028,-13.51497959760858]]]}},{"type":"Feature","properties":{"Cell_ID":10,"Area_ha":1.0,"LC":"9:0.761109,13:0.020822,16:0.120977,17:0.097092","XMIN":708464.86160847,"YMIN":8504993.59738907,"XMAX":708564.86160847,"YMAX":8505093.59738907},"geometry":{"type":"Polygon","coordinates":[[[-73.07297106913524,-13.515883318356867],[-73.07297833147028,-13.51497959760858],[-73.07390190581626,-13.514986701870981],[-73.07389464695662,-13.515890423111724],[-73.07297106913524,-13.515883318356867]]]}},{"type":"Feature","properties":{"Cell_ID":11,"Area_ha":1.0,"LC":"6:0.138053,9:0.424033,13:0.437914","XMIN":708564.86160847,"YMIN":8505293.59738907,"XMAX":708664.86160847,"YMAX":8505393.59738907},"geometry":{"type":"Polygon","coordinates":[[[-73.07206928768193,-13.513165049227485],[-73.07207655189784,-13.512261328765183],[-73.07300011528784,-13.512268434950318],[-73.07299285454658,-13.513172155905304],[-73.07206928768193,-13.513165049227485]]]}},{"type":"Feature","properties":{"Cell_ID":12,"Area_ha":1.0,"LC":"6:0.500008,7:0.038061,9:0.264981,13:0.000147,17:0.196802","XMIN":708564.86160847,"YMIN":8505193.59738907,"XMAX":708664.86160847,"YMAX":8505293.59738907},"geometry":{"type":"Polygon","coordinates":[[[-73.07206202293453,-13.514068769620883],[-73.07206928768193,-13.513165049227485],[-73.07299285454658,-13.513172155905304],[-73.07298559327407,-13.514075876791388],[-73.07206202293453,-13.514068769620883]]]}},{"type":"Feature","properties":{"Cell_ID":13,"Area_ha":1.0,"LC":"9:0.137105,16:0.478728,17:0.384167","XMIN":708564.86160847,"YMIN":8505093.59738907,"XMAX":708664.86160847,"YMAX":8505193.59738907},"geometry":{"type":"Polygon","coordinates":[[[-73.0720547576556,-13.514972489945384],[-73.07206202293453,-13.514068769620883],[-73.07298559327407,-13.514075876791388],[-73.07297833147028,-13.51497959760858],[-73.0720547576556,-13.514972489945384]]]}},{"type":"Feature","properties":{"Cell_ID":14,"Area_ha":1.0,"LC":"9:0.417225,13:0.138334,16:0.444440","XMIN":708564.86160847,"YMIN":8504993.59738907,"XMAX":708664.86160847,"YMAX":8505093.59738907},"geometry":{"type":"Polygon","coordinates":[[[-73.07204749184514,-13.515876210200975],[-73.0720547576556,-13.514972489945384],[-73.07297833147028,-13.51497959760858],[-73.07297106913524,-13.515883318356867],[-73.07204749184514,-13.515876210200975]]]}},{"type":"Feature","properties":{"Cell_ID":15,"Area_ha":1.0,"LC":"9:0.836551,13:0.163449","XMIN":708664.86160847,"YMIN":8505493.59738907,"XMAX":708764.86160847,"YMAX":8505593.59738907},"geometry":{"type":"Polygon","coordinates":[[[-73.07116025619811,-13.511350499141695],[-73.07116752282515,-13.51044677903453],[-73.07209107873514,-13.51045388763391],[-73.07208381558223,-13.51135760823399],[-73.07116025619811,-13.511350499141695]]]}},{"type":"Feature","properties":{"Cell_ID":16,"Area_ha":1.0,"LC":"5:0.038061,9:0.759571,13:0.202368","XMIN":708664.86160847,"YMIN":8505393.59738907,"XMAX":708764.86160847,"YMAX":8505493.59738907},"geometry":{"type":"Polygon","coordinates":[[[-73.07115298903932,-13.512254219179976],[-73.07116025619811,-13.511350499141695],[-73.07208381558223,-13.51135760823399],[-73.07207655189784,-13.512261328765183],[-73.07115298903932,-13.512254219179976]]]}},{"type":"Feature","properties":{"Cell_ID":17,"Area_ha":1.0,"LC":"9:0.721406,13:0.278594","XMIN":708664.86160847,"YMIN":8505293.59738907,"XMAX":708764.86160847,"YMAX":8505393.59738907},"geometry":{"type":"Polygon","coordinates":[[[-73.07114572134878,-13.51315793914936],[-73.07115298903932,-13.512254219179976],[-73.07207655189784,-13.512261328765183],[-73.07206928768193,-13.513165049227485],[-73.07114572134878,-13.51315793914936]]]}},{"type":"Feature","properties":{"Cell_ID":18,"Area_ha":1.0,"LC":"9:0.534175,13:0.465825","XMIN":708664.86160847,"YMIN":8505193.59738907,"XMAX":708764.86160847,"YMAX":8505293.59738907},"geometry":{"type":"Polygon","coordinates":[[[-73.07113845312651,-13.514061659049835],[-73.07114572134878,-13.51315793914936],[-73.07206928768193,-13.513165049227485],[-73.07206202293453,-13.514068769620883],[-73.07113845312651,-13.514061659049835]]]}},{"type":"Feature","properties":{"Cell_ID":19,"Area_ha":1.0,"LC":"5:0.462908,7:0.020969,9:0.020008,13:0.000429,16:0.058616,17:0.437070","XMIN":708664.86160847,"YMIN":8505093.59738907,"XMAX":708764.86160847,"YMAX":8505193.59738907},"geometry":{"type":"Polygon","coordinates":[[[-73.07113118437243,-13.514965378881408],[-73.07113845312651,-13.514061659049835],[-73.07206202293453,-13.514068769620883],[-73.0720547576556,-13.514972489945384],[-73.07113118437243,-13.514965378881408]]]}},{"type":"Feature","properties":{"Cell_ID":20,"Area_ha":1.0,"LC":"16:0.999009,17:0.000991","XMIN":708664.86160847,"YMIN":8504993.59738907,"XMAX":708764.86160847,"YMAX":8505093.59738907},"geometry":{"type":"Polygon","coordinates":[[[-73.07112391508659,-13.515869098644071],[-73.07113118437243,-13.514965378881408],[-73.0720547576556,-13.514972489945384],[-73.07204749184514,-13.515876210200975],[-73.07112391508659,-13.515869098644071]]]}},{"type":"Feature","properties":{"Cell_ID":21,"Area_ha":1.0,"LC":"16:0.587772","XMIN":708664.86160847,"YMIN":8504893.59738907,"XMAX":708764.86160847,"YMAX":8504993.59738907},"geometry":{"type":"Polygon","coordinates":[[[-73.07111664526893,-13.516772818337822],[-73.07112391508659,-13.515869098644071],[-73.07204749184514,-13.515876210200975],[-73.07204022550314,-13.516779930387656],[-73.07111664526893,-13.516772818337822]]]}},{"type":"Feature","properties":{"Cell_ID":22,"Area_ha":1.0,"LC":"7:0.037927,9:0.962073","XMIN":708764.86160847,"YMIN":8505693.59738907,"XMAX":708864.86160847,"YMAX":8505793.59738907},"geometry":{"type":"Polygon","coordinates":[[[-73.07025123701602,-13.509535947352635],[-73.0702585060532,-13.508632227600831],[-73.07118205448401,-13.508639338613525],[-73.07117478892044,-13.50954305885847],[-73.07025123701602,-13.509535947352635]]]}},{"type":"Feature","properties":{"Cell_ID":23,"Area_ha":1.0,"LC":"5:0.020822,7:0.000134,9:0.817105,13:0.161939","XMIN":708764.86160847,"YMIN":8505593.59738907,"XMAX":708864.86160847,"YMAX":8505693.59738907},"geometry":{"type":"Polygon","coordinates":[[[-73.07024396744687,-13.510439667035552],[-73.07025123701602,-13.509535947352635],[-73.07117478892044,-13.50954305885847],[-73.07116752282515,-13.51044677903453],[-73.07024396744687,-13.510439667035552]]]}},{"type":"Feature","properties":{"Cell_ID":24,"Area_ha":1.0,"LC":"5:0.021117,9:0.743176,13:0.235707","XMIN":708764.86160847,"YMIN":8505493.59738907,"XMAX":708864.86160847,"YMAX":8505593.59738907},"geometry":{"type":"Polygon","coordinates":[[[-73.07023669734572,-13.511343386649576],[-73.07024396744687,-13.510439667035552],[-73.07116752282515,-13.51044677903453],[-73.07116025619811,-13.511350499141695],[-73.07023669734572,-13.511343386649576]]]}},{"type":"Feature","properties":{"Cell_ID":25,"Area_ha":1.0,"LC":"9:0.801524,13:0.198476","XMIN":708764.86160847,"YMIN":8505393.59738907,"XMAX":708864.86160847,"YMAX":8505493.59738907},"geometry":{"type":"Polygon","coordinates":[[[-73.07022942671257,-13.512247106194701],[-73.07023669734572,-13.511343386649576],[-73.07116025619811,-13.511350499141695],[-73.07115298903932,-13.512254219179976],[-73.07022942671257,-13.512247106194701]]]}},{"type":"Feature","properties":{"Cell_ID":26,"Area_ha":1.0,"LC":"9:0.800844,13:0.018897,16:0.180260","XMIN":708764.86160847,"YMIN":8505293.59738907,"XMAX":708864.86160847,"YMAX":8505393.59738907},"geometry":{"type":"Polygon","coordinates":[[[-73.07022215554743,-13.51315082567093],[-73.07022942671257,-13.512247106194701],[-73.07115298903932,-13.512254219179976],[-73.07114572134878,-13.51315793914936],[-73.07022215554743,-13.51315082567093]]]}},{"type":"Feature","properties":{"Cell_ID":27,"Area_ha":1.0,"LC":"6:0.161510,9:0.280562,13:0.374309,16:0.183618","XMIN":708764.86160847,"YMIN":8505193.59738907,"XMAX":708864.86160847,"YMAX":8505293.59738907},"geometry":{"type":"Polygon","coordinates":[[[-73.07021488385024,-13.51405454507825],[-73.07022215554743,-13.51315082567093],[-73.07114572134878,-13.51315793914936],[-73.07113845312651,-13.514061659049835],[-73.07021488385024,-13.51405454507825]]]}},{"type":"Feature","properties":{"Cell_ID":28,"Area_ha":1.0,"LC":"5:0.417092,6:0.183337,7:0.200000,13:0.000977,17:0.198594","XMIN":708764.86160847,"YMIN":8505093.59738907,"XMAX":708864.86160847,"YMAX":8505193.59738907},"geometry":{"type":"Polygon","coordinates":[[[-73.07020761162104,-13.514958264416665],[-73.07021488385024,-13.51405454507825],[-73.07113845312651,-13.514061659049835],[-73.07113118437243,-13.514965378881408],[-73.07020761162104,-13.514958264416665]]]}},{"type":"Feature","properties":{"Cell_ID":29,"Area_ha":1.0,"LC":"16:0.878594,17:0.121406","XMIN":708764.86160847,"YMIN":8504993.59738907,"XMAX":708864.86160847,"YMAX":8505093.59738907},"geometry":{"type":"Polygon","coordinates":[[[-73.07020033885982,-13.515861983686165],[-73.07020761162104,-13.514958264416665],[-73.07113118437243,-13.514965378881408],[-73.07112391508659,-13.515869098644071],[-73.07020033885982,-13.515861983686165]]]}},{"type":"Feature","properties":{"Cell_ID":30,"Area_ha":1.0,"LC":"9:0.940273,13:0.059727","XMIN":708864.86160847,"YMIN":8505793.59738907,"XMAX":708964.86160847,"YMAX":8505893.59738907},"geometry":{"type":"Polygon","coordinates":[[[-73.06933495815436,-13.508625113189025],[-73.0693422301329,-13.507721393861711],[-73.07026577455841,-13.507728507780142],[-73.0702585060532,-13.508632227600831],[-73.06933495815436,-13.508625113189025]]]}},{"type":"Feature","properties":{"Cell_ID":31,"Area_ha":1.0,"LC":"9:0.660022,13:0.319156,16:0.020822","XMIN":708864.86160847,"YMIN":8505693.59738907,"XMAX":708964.86160847,"YMAX":8505793.59738907},"geometry":{"type":"Polygon","coordinates":[[[-73.06932768564359,-13.509528832447456],[-73.06933495815436,-13.508625113189025],[-73.0702585060532,-13.508632227600831],[-73.07025123701602,-13.509535947352635],[-73.06932768564359,-13.509528832447456]]]}},{"type":"Feature","properties":{"Cell_ID":32,"Area_ha":1.0,"LC":"5:0.058616,9:0.740393,13:0.158905,16:0.042086","XMIN":708864.86160847,"YMIN":8505593.59738907,"XMAX":708964.86160847,"YMAX":8505693.59738907},"geometry":{"type":"Polygon","coordinates":[[[-73.06932041260058,-13.510432551636992],[-73.06932768564359,-13.509528832447456],[-73.07025123701602,-13.509535947352635],[-73.07024396744687,-13.510439667035552],[-73.06932041260058,-13.510432551636992]]]}},{"type":"Feature","properties":{"Cell_ID":33,"Area_ha":1.0,"LC":"5:0.338883,9:0.661117","XMIN":708864.86160847,"YMIN":8505493.59738907,"XMAX":708964.86160847,"YMAX":8505593.59738907},"geometry":{"type":"Polygon","coordinates":[[[-73.06931313902533,-13.511336270757633],[-73.06932041260058,-13.510432551636992],[-73.07024396744687,-13.510439667035552],[-73.07023669734572,-13.511343386649576],[-73.06931313902533,-13.511336270757633]]]}},{"type":"Feature","properties":{"Cell_ID":34,"Area_ha":1.0,"LC":"5:0.080562,9:0.919438","XMIN":708864.86160847,"YMIN":8505393.59738907,"XMAX":708964.86160847,"YMAX":8505493.59738907},"geometry":{"type":"Polygon","coordinates":[[[-73.06930586491784,-13.512239989809373],[-73.06931313902533,-13.511336270757633],[-73.07023669734572,-13.511343386649576],[-73.07022942671257,-13.512247106194701],[-73.06930586491784,-13.512239989809373]]]}},{"type":"Feature","properties":{"Cell_ID":35,"Area_ha":1.0,"LC":"9:0.861666,16:0.138334","XMIN":708864.86160847,"YMIN":8505293.59738907,"XMAX":708964.86160847,"YMAX":8505393.59738907},"geometry":{"type":"Polygon","coordinates":[[[-73.06929859027807,-13.513143708792212],[-73.06930586491784,-13.512239989809373],[-73.07022942671257,-13.512247106194701],[-73.07022215554743,-13.51315082567093],[-73.06929859027807,-13.513143708792212]]]}},{"type":"Feature","properties":{"Cell_ID":36,"Area_ha":1.0,"LC":"6:0.077646,7:0.020822,9:0.423337,16:0.478195","XMIN":708864.86160847,"YMIN":8505193.59738907,"XMAX":708964.86160847,"YMAX":8505293.59738907},"geometry":{"type":"Polygon","coordinates":[[[-73.06929131510603,-13.51404742770614],[-73.06929859027807,-13.513143708792212],[-73.07022215554743,-13.51315082567093],[-73.07021488385024,-13.51405454507825],[-73.06929131510603,-13.51404742770614]]]}},{"type":"Feature","properties":{"Cell_ID":37,"Area_ha":1.0,"LC":"6:0.257507,7:0.343056,9:0.000281,16:0.200562,17:0.198594","XMIN":708864.86160847,"YMIN":8505093.59738907,"XMAX":708964.86160847,"YMAX":8505193.59738907},"geometry":{"type":"Polygon","coordinates":[[[-73.06928403940171,-13.514951146551155],[-73.06929131510603,-13.51404742770614],[-73.07021488385024,-13.51405454507825],[-73.07020761162104,-13.514958264416665],[-73.06928403940171,-13.514951146551155]]]}},{"type":"Feature","properties":{"Cell_ID":38,"Area_ha":1.0,"LC":"9:0.999853,13:0.000147","XMIN":708964.86160847,"YMIN":8505793.59738907,"XMAX":709064.86160847,"YMAX":8505893.59738907},"geometry":{"type":"Polygon","coordinates":[[[-73.06841141078775,-13.508617995378117],[-73.06841868623962,-13.50771427654441],[-73.0693422301329,-13.507721393861711],[-73.06933495815436,-13.508625113189025],[-73.06841141078775,-13.508617995378117]]]}},{"type":"Feature","properties":{"Cell_ID":39,"Area_ha":1.0,"LC":"9:0.761125,13:0.140260,16:0.098616","XMIN":708964.86160847,"YMIN":8505693.59738907,"XMAX":709064.86160847,"YMAX":8505793.59738907},"geometry":{"type":"Polygon","coordinates":[[[-73.06840413480339,-13.509521714142936],[-73.06841141078775,-13.508617995378117],[-73.06933495815436,-13.508625113189025],[-73.06932768564359,-13.509528832447456],[-73.06840413480339,-13.509521714142936]]]}},{"type":"Feature","properties":{"Cell_ID":40,"Area_ha":1.0,"LC":"9:0.057239,13:0.465129,16:0.477632","XMIN":708964.86160847,"YMIN":8505593.59738907,"XMAX":709064.86160847,"YMAX":8505693.59738907},"geometry":{"type":"Polygon","coordinates":[[[-73.06839685828653,-13.510425432838858],[-73.06840413480339,-13.509521714142936],[-73.06932768564359,-13.509528832447456],[-73.06932041260058,-13.510432551636992],[-73.06839685828653,-13.510425432838858]]]}},{"type":"Feature","properties":{"Cell_ID":41,"Area_ha":1.0,"LC":"9:0.095153,13:0.464566,16:0.440281","XMIN":708964.86160847,"YMIN":8505493.59738907,"XMAX":709064.86160847,"YMAX":8505593.59738907},"geometry":{"type":"Polygon","coordinates":[[[-73.0683895812372,-13.511329151465883],[-73.06839685828653,-13.510425432838858],[-73.06932041260058,-13.510432551636992],[-73.06931313902533,-13.511336270757633],[-73.0683895812372,-13.511329151465883]]]}},{"type":"Feature","properties":{"Cell_ID":42,"Area_ha":1.0,"LC":"9:0.174590,13:0.504847,16:0.320562","XMIN":708964.86160847,"YMIN":8505393.59738907,"XMAX":709064.86160847,"YMAX":8505493.59738907},"geometry":{"type":"Polygon","coordinates":[[[-73.06838230365535,-13.512232870024],[-73.0683895812372,-13.511329151465883],[-73.06931313902533,-13.511336270757633],[-73.06930586491784,-13.512239989809373],[-73.06838230365535,-13.512232870024]]]}},{"type":"Feature","properties":{"Cell_ID":43,"Area_ha":1.0,"LC":"9:0.755412,13:0.244588","XMIN":708964.86160847,"YMIN":8505293.59738907,"XMAX":709064.86160847,"YMAX":8505393.59738907},"geometry":{"type":"Polygon","coordinates":[[[-73.06837502554099,-13.513136588513213],[-73.06838230365535,-13.512232870024],[-73.06930586491784,-13.512239989809373],[-73.06929859027807,-13.513143708792212],[-73.06837502554099,-13.513136588513213]]]}},{"type":"Feature","properties":{"Cell_ID":44,"Area_ha":1.0,"LC":"7:0.138053,9:0.563198,16:0.298749","XMIN":708964.86160847,"YMIN":8505193.59738907,"XMAX":709064.86160847,"YMAX":8505293.59738907},"geometry":{"type":"Polygon","coordinates":[[[-73.06836774689408,-13.51404030693351],[-73.06837502554099,-13.513136588513213],[-73.06929859027807,-13.513143708792212],[-73.06929131510603,-13.51404742770614],[-73.06836774689408,-13.51404030693351]]]}},{"type":"Feature","properties":{"Cell_ID":45,"Area_ha":1.0,"LC":"9:0.162769,13:0.837231","XMIN":709064.86160847,"YMIN":8505893.59738907,"XMAX":709164.86160847,"YMAX":8505993.59738907},"geometry":{"type":"Polygon","coordinates":[[[-73.0674951428788,-13.507707155828252],[-73.06750242127129,-13.506803437419496],[-73.06842596115902,-13.506810557641815],[-73.06841868623962,-13.50771427654441],[-73.0674951428788,-13.507707155828252]]]}},{"type":"Feature","properties":{"Cell_ID":46,"Area_ha":1.0,"LC":"9:0.878741,13:0.121259","XMIN":709064.86160847,"YMIN":8505793.59738907,"XMAX":709164.86160847,"YMAX":8505893.59738907},"geometry":{"type":"Polygon","coordinates":[[[-73.0674878639536,-13.508610874168117],[-73.0674951428788,-13.507707155828252],[-73.06841868623962,-13.50771427654441],[-73.06841141078775,-13.508617995378117],[-73.0674878639536,-13.508610874168117]]]}},{"type":"Feature","properties":{"Cell_ID":47,"Area_ha":1.0,"LC":"5:0.340969,9:0.640134,13:0.018897","XMIN":709064.86160847,"YMIN":8505693.59738907,"XMAX":709164.86160847,"YMAX":8505793.59738907},"geometry":{"type":"Polygon","coordinates":[[[-73.06748058449567,-13.50951459243909],[-73.0674878639536,-13.508610874168117],[-73.06841141078775,-13.508617995378117],[-73.06840413480339,-13.509521714142936],[-73.06748058449567,-13.50951459243909]]]}},{"type":"Feature","properties":{"Cell_ID":48,"Area_ha":1.0,"LC":"5:0.119438,9:0.705410,13:0.175153","XMIN":709064.86160847,"YMIN":8505593.59738907,"XMAX":709164.86160847,"YMAX":8505693.59738907},"geometry":{"type":"Polygon","coordinates":[[[-73.067473304505,-13.510418310641157],[-73.06748058449567,-13.50951459243909],[-73.06840413480339,-13.509521714142936],[-73.06839685828653,-13.510425432838858],[-73.067473304505,-13.510418310641157]]]}},{"type":"Feature","properties":{"Cell_ID":49,"Area_ha":1.0,"LC":"5:0.803168,9:0.101679,13:0.095153","XMIN":709064.86160847,"YMIN":8505493.59738907,"XMAX":709164.86160847,"YMAX":8505593.59738907},"geometry":{"type":"Polygon","coordinates":[[[-73.06746602398158,-13.511322028774325],[-73.067473304505,-13.510418310641157],[-73.06839685828653,-13.510425432838858],[-73.0683895812372,-13.511329151465883],[-73.06746602398158,-13.511322028774325]]]}},{"type":"Feature","properties":{"Cell_ID":50,"Area_ha":1.0,"LC":"5:0.343752,6:0.519156,9:0.041939,13:0.095153","XMIN":709064.86160847,"YMIN":8505393.59738907,"XMAX":709164.86160847,"YMAX":8505493.59738907},"geometry":{"type":"Polygon","coordinates":[[[-73.06745874292538,-13.512225746838588],[-73.06746602398158,-13.511322028774325],[-73.0683895812372,-13.511329151465883],[-73.06838230365535,-13.512232870024],[-73.06745874292538,-13.512225746838588]]]}},{"type":"Feature","properties":{"Cell_ID":51,"Area_ha":1.0,"LC":"5:0.301398,6:0.000844,7:0.083730,9:0.418053,13:0.195975","XMIN":709064.86160847,"YMIN":8505293.59738907,"XMAX":709164.86160847,"YMAX":8505393.59738907},"geometry":{"type":"Polygon","coordinates":[[[-73.06745146133642,-13.51312946483394],[-73.06745874292538,-13.512225746838588],[-73.06838230365535,-13.512232870024],[-73.06837502554099,-13.513136588513213],[-73.06745146133642,-13.51312946483394]]]}}]}