{"type":"FeatureCollection","features":[{"type":"Feature","properties":{"Cell_ID":1,"Area_ha":1.0,"LC":"5:0.065018,6:0.033567,16:0.780703","XMIN":708743.462171385,"YMIN":8504863.59738907,"XMAX":708843.462171385,"YMAX":8504963.59738907},"geometry":{"type":"Polygon","coordinates":[[[-73.07038852451055,-13.517038341617665],[-73.07039579721966,-13.516134622332208],[-73.07131937460291,-13.51614173671026],[-73.07131210536951,-13.517045456488836],[-73.07038852451055,-13.517038341617665]]]}},{"type":"Feature","properties":{"Cell_ID":2,"Area_ha":1.0,"LC":"5:0.059719,7:0.107946,16:0.792898,17:0.039438","XMIN":708843.462171385,"YMIN":8504963.59738907,"XMAX":708943.462171385,"YMAX":8505063.59738907},"geometry":{"type":"Polygon","coordinates":[[[-73.0694722203684,-13.516127504553086],[-73.06947949602099,-13.51522378569206],[-73.07040306939679,-13.51523090297783],[-73.07039579721966,-13.516134622332208],[-73.0694722203684,-13.516127504553086]]]}},{"type":"Feature","properties":{"Cell_ID":3,"Area_ha":1.0,"LC":"5:0.254420,16:0.189239,17:0.556341","XMIN":708843.462171385,"YMIN":8504863.59738907,"XMAX":708943.462171385,"YMAX":8504963.59738907},"geometry":{"type":"Polygon","coordinates":[[[-73.0694649441836,-13.517031223345189],[-73.0694722203684,-13.516127504553086],[-73.07039579721966,-13.516134622332208],[-73.07038852451055,-13.517038341617665],[-73.0694649441836,-13.517031223345189]]]}},{"type":"Feature","properties":{"Cell_ID":4,"Area_ha":1.0,"LC":"5:0.053179,16:0.895498,17:0.051324","XMIN":708843.462171385,"YMIN":8504763.59738907,"XMAX":708943.462171385,"YMAX":8504863.59738907},"geometry":{"type":"Polygon","coordinates":[[[-73.0694576674665,-13.517934942068369],[-73.0694649441836,-13.517031223345189],[-73.07038852451055,-13.517038341617665],[-73.07038125126944,-13.517942060834205],[-73.0694576674665,-13.517934942068369]]]}}]}