{"type":"FeatureCollection","features":[{"type":"Feature","properties":{"Cell_ID":1,"Area_ha":1.0,"LC":"5:1.000000","XMIN":727044.86160847,"YMIN":8517398.468999183,"XMAX":727144.86160847,"YMAX":8517498.468999183},"geometry":{"type":"Polygon","coordinates":[[[-72.90235635391332,-13.402410173612976],[-72.90236419012778,-13.401506539853228],[-72.9032872324781,-13.401514209332724],[-72.90327939970574,-13.402417843628234],[-72.90235635391332,-13.402410173612976]]]}},{"type":"Feature","properties":{"Cell_ID":2,"Area_ha":1.0,"LC":"5:0.837702,13:0.162298","XMIN":727044.86160847,"YMIN":8517298.468999183,"XMAX":727144.86160847,"YMAX":8517398.468999183},"geometry":{"type":"Polygon","coordinates":[[[-72.90234851712164,-13.403313807303666],[-72.90235635391332,-13.402410173612976],[-72.90327939970574,-13.402417843628234],[-72.90327156635638,-13.40332147785469],[-72.90234851712164,-13.403313807303666]]]}},{"type":"Feature","properties":{"Cell_ID":3,"Area_ha":1.0,"LC":"5:0.862474,9:0.075665,13:0.061861","XMIN":727144.86160847,"YMIN":8517698.468999183,"XMAX":727244.86160847,"YMAX":8517798.468999183},"geometry":{"type":"Polygon","coordinates":[[[-72.90145682593536,-13.39969160034924],[-72.90146466385956,-13.39878796691833],[-72.90238769530798,-13.398795638159683],[-72.9023798608251,-13.399699272126579],[-72.90145682593536,-13.39969160034924]]]}},{"type":"Feature","properties":{"Cell_ID":4,"Area_ha":1.0,"LC":"5:0.545177,9:0.278188,13:0.176635","XMIN":727144.86160847,"YMIN":8517598.468999183,"XMAX":727244.86160847,"YMAX":8517698.468999183},"geometry":{"type":"Polygon","coordinates":[[[-72.90144898743372,-13.400595233711103],[-72.90145682593536,-13.39969160034924],[-72.9023798608251,-13.399699272126579],[-72.90237202576503,-13.400602906024428],[-72.90144898743372,-13.400595233711103]]]}},{"type":"Feature","properties":{"Cell_ID":5,"Area_ha":1.0,"LC":"5:0.295153,9:0.456635,13:0.248212","XMIN":727144.86160847,"YMIN":8517498.468999183,"XMAX":727244.86160847,"YMAX":8517598.468999183},"geometry":{"type":"Polygon","coordinates":[[[-72.90144114835466,-13.401498867003909],[-72.90144898743372,-13.400595233711103],[-72.90237202576503,-13.400602906024428],[-72.90236419012778,-13.401506539853228],[-72.90144114835466,-13.401498867003909]]]}},{"type":"Feature","properties":{"Cell_ID":6,"Area_ha":1.0,"LC":"5:0.341763,9:0.658237","XMIN":727144.86160847,"YMIN":8517398.468999183,"XMAX":727244.86160847,"YMAX":8517498.468999183},"geometry":{"type":"Polygon","coordinates":[[[-72.90143330869812,-13.402402500227659],[-72.90144114835466,-13.401498867003909],[-72.90236419012778,-13.401506539853228],[-72.90235635391332,-13.402410173612976],[-72.90143330869812,-13.402402500227659]]]}},{"type":"Feature","properties":{"Cell_ID":7,"Area_ha":1.0,"LC":"5:1.000000","XMIN":727144.86160847,"YMIN":8517298.468999183,"XMAX":727244.86160847,"YMAX":8517398.468999183},"geometry":{"type":"Polygon","coordinates":[[[-72.90142546846414,-13.40330613338235],[-72.90143330869812,-13.402402500227659],[-72.90235635391332,-13.402410173612976],[-72.90234851712164,-13.403313807303666],[-72.90142546846414,-13.40330613338235]]]}},{"type":"Feature","properties":{"Cell_ID":8,"Area_ha":1.0,"LC":"5:0.641939,13:0.358061","XMIN":727144.86160847,"YMIN":8517198.468999183,"XMAX":727244.86160847,"YMAX":8517298.468999183},"geometry":{"type":"Polygon","coordinates":[[[-72.90141762765265,-13.40420976646797],[-72.90142546846414,-13.40330613338235],[-72.90234851712164,-13.403313807303666],[-72.90234067975275,-13.404217440925297],[-72.90141762765265,-13.40420976646797]]]}},{"type":"Feature","properties":{"Cell_ID":9,"Area_ha":1.0,"LC":"5:1.000000","XMIN":727244.86160847,"YMIN":8517798.468999183,"XMAX":727344.86160847,"YMAX":8517898.468999183},"geometry":{"type":"Polygon","coordinates":[[[-72.90054163298855,-13.398780292307867],[-72.90054947377635,-13.397876659344135],[-72.90147250120631,-13.397884333418384],[-72.90146466385956,-13.39878796691833],[-72.90054163298855,-13.398780292307867]]]}},{"type":"Feature","properties":{"Cell_ID":10,"Area_ha":1.0,"LC":"5:0.785836,9:0.214164","XMIN":727244.86160847,"YMIN":8517698.468999183,"XMAX":727344.86160847,"YMAX":8517798.468999183},"geometry":{"type":"Polygon","coordinates":[[[-72.90053379162306,-13.399683925202556],[-72.90054163298855,-13.398780292307867],[-72.90146466385956,-13.39878796691833],[-72.90145682593536,-13.39969160034924],[-72.90053379162306,-13.399683925202556]]]}},{"type":"Feature","properties":{"Cell_ID":11,"Area_ha":1.0,"LC":"5:0.106225,9:0.830508,13:0.063267","XMIN":727244.86160847,"YMIN":8517598.468999183,"XMAX":727344.86160847,"YMAX":8517698.468999183},"geometry":{"type":"Polygon","coordinates":[[[-72.90052594967989,-13.400587558028192],[-72.90053379162306,-13.399683925202556],[-72.90145682593536,-13.39969160034924],[-72.90144898743372,-13.400595233711103],[-72.90052594967989,-13.400587558028192]]]}},{"type":"Feature","properties":{"Cell_ID":12,"Area_ha":1.0,"LC":"5:0.201939,9:0.246176,13:0.551885","XMIN":727244.86160847,"YMIN":8517498.468999183,"XMAX":727344.86160847,"YMAX":8517598.468999183},"geometry":{"type":"Polygon","coordinates":[[[-72.900518107159,-13.401491190784768],[-72.90052594967989,-13.400587558028192],[-72.90144898743372,-13.400595233711103],[-72.90144114835466,-13.401498867003909],[-72.900518107159,-13.401491190784768]]]}},{"type":"Feature","properties":{"Cell_ID":13,"Area_ha":1.0,"LC":"5:0.732786,9:0.267214","XMIN":727244.86160847,"YMIN":8517398.468999183,"XMAX":727344.86160847,"YMAX":8517498.468999183},"geometry":{"type":"Polygon","coordinates":[[[-72.9005102640604,-13.402394823472287],[-72.900518107159,-13.401491190784768],[-72.90144114835466,-13.401498867003909],[-72.90143330869812,-13.402402500227659],[-72.9005102640604,-13.402394823472287]]]}},{"type":"Feature","properties":{"Cell_ID":14,"Area_ha":1.0,"LC":"5:1.000000","XMIN":727244.86160847,"YMIN":8517298.468999183,"XMAX":727344.86160847,"YMAX":8517398.468999183},"geometry":{"type":"Polygon","coordinates":[[[-72.90050242038409,-13.403298456090743],[-72.9005102640604,-13.402394823472287],[-72.90143330869812,-13.402402500227659],[-72.90142546846414,-13.40330613338235],[-72.90050242038409,-13.403298456090743]]]}},{"type":"Feature","properties":{"Cell_ID":15,"Area_ha":1.0,"LC":"5:0.878061,13:0.121939","XMIN":727244.86160847,"YMIN":8517198.468999183,"XMAX":727344.86160847,"YMAX":8517298.468999183},"geometry":{"type":"Polygon","coordinates":[[[-72.90049457613004,-13.404202088640123],[-72.90050242038409,-13.403298456090743],[-72.90142546846414,-13.40330613338235],[-72.90141762765265,-13.40420976646797],[-72.90049457613004,-13.404202088640123]]]}},{"type":"Feature","properties":{"Cell_ID":16,"Area_ha":1.0,"LC":"5:0.910867,13:0.089133","XMIN":727344.86160847,"YMIN":8517798.468999183,"XMAX":727444.86160847,"YMAX":8517898.468999183},"geometry":{"type":"Polygon","coordinates":[[[-72.89961860269524,-13.398772614328305],[-72.89962644692407,-13.397868981901023],[-72.90054947377635,-13.397876659344135],[-72.90054163298855,-13.398780292307867],[-72.89961860269524,-13.398772614328305]]]}},{"type":"Feature","properties":{"Cell_ID":17,"Area_ha":1.0,"LC":"5:1.000000","XMIN":727344.86160847,"YMIN":8517698.468999183,"XMAX":727444.86160847,"YMAX":8517798.468999183},"geometry":{"type":"Polygon","coordinates":[[[-72.89961075788845,-13.399676246686534],[-72.89961860269524,-13.398772614328305],[-72.90054163298855,-13.398780292307867],[-72.90053379162306,-13.399683925202556],[-72.89961075788845,-13.399676246686534]]]}},{"type":"Feature","properties":{"Cell_ID":18,"Area_ha":1.0,"LC":"5:0.557702,9:0.442298","XMIN":727344.86160847,"YMIN":8517598.468999183,"XMAX":727444.86160847,"YMAX":8517698.468999183},"geometry":{"type":"Polygon","coordinates":[[[-72.89960291250374,-13.40057987897571],[-72.89961075788845,-13.399676246686534],[-72.90053379162306,-13.399683925202556],[-72.90052594967989,-13.400587558028192],[-72.89960291250374,-13.40057987897571]]]}},{"type":"Feature","properties":{"Cell_ID":19,"Area_ha":1.0,"LC":"5:0.892884,9:0.107116","XMIN":727344.86160847,"YMIN":8517498.468999183,"XMAX":727444.86160847,"YMAX":8517598.468999183},"geometry":{"type":"Polygon","coordinates":[[[-72.89959506654104,-13.401483511195826],[-72.89960291250374,-13.40057987897571],[-72.90052594967989,-13.400587558028192],[-72.900518107159,-13.401491190784768],[-72.89959506654104,-13.401483511195826]]]}},{"type":"Feature","properties":{"Cell_ID":20,"Area_ha":1.0,"LC":"5:0.995231,9:0.004769","XMIN":727344.86160847,"YMIN":8517398.468999183,"XMAX":727444.86160847,"YMAX":8517498.468999183},"geometry":{"type":"Polygon","coordinates":[[[-72.89958722000041,-13.402387143346873],[-72.89959506654104,-13.401483511195826],[-72.900518107159,-13.401491190784768],[-72.9005102640604,-13.402394823472287],[-72.89958722000041,-13.402387143346873]]]}},{"type":"Feature","properties":{"Cell_ID":21,"Area_ha":1.0,"LC":"5:1.000000","XMIN":727344.86160847,"YMIN":8517298.468999183,"XMAX":727444.86160847,"YMAX":8517398.468999183},"geometry":{"type":"Polygon","coordinates":[[[-72.89957937288177,-13.403290775428855],[-72.89958722000041,-13.402387143346873],[-72.9005102640604,-13.402394823472287],[-72.90050242038409,-13.403298456090743],[-72.89957937288177,-13.403290775428855]]]}},{"type":"Feature","properties":{"Cell_ID":22,"Area_ha":1.0,"LC":"5:0.575280,9:0.066659,13:0.358061","XMIN":727344.86160847,"YMIN":8517198.468999183,"XMAX":727444.86160847,"YMAX":8517298.468999183},"geometry":{"type":"Polygon","coordinates":[[[-72.89957152518518,-13.404194407441764],[-72.89957937288177,-13.403290775428855],[-72.90050242038409,-13.403298456090743],[-72.90049457613004,-13.404202088640123],[-72.89957152518518,-13.404194407441764]]]}},{"type":"Feature","properties":{"Cell_ID":23,"Area_ha":1.0,"LC":"13:0.240359,16:0.759641","XMIN":727444.86160847,"YMIN":8518598.468999183,"XMAX":727544.86160847,"YMAX":8518698.468999183},"geometry":{"type":"Polygon","coordinates":[[[-72.89875833815043,-13.391535875921717],[-72.89876618119516,-13.390632243478835],[-72.89968917995041,-13.39063991999744],[-72.89968134034467,-13.391543552976977],[-72.89875833815043,-13.391535875921717]]]}},{"type":"Feature","properties":{"Cell_ID":24,"Area_ha":1.0,"LC":"13:0.665079,16:0.334921","XMIN":727444.86160847,"YMIN":8518498.468999183,"XMAX":727544.86160847,"YMAX":8518598.468999183},"geometry":{"type":"Polygon","coordinates":[[[-72.89875049452758,-13.392439508295576],[-72.89875833815043,-13.391535875921717],[-72.89968134034467,-13.391543552976977],[-72.89967350016109,-13.392447185887496],[-72.89875049452758,-13.392439508295576]]]}},{"type":"Feature","properties":{"Cell_ID":25,"Area_ha":1.0,"LC":"5:0.759902,13:0.234843,16:0.005255","XMIN":727444.86160847,"YMIN":8518398.468999183,"XMAX":727544.86160847,"YMAX":8518498.468999183},"geometry":{"type":"Polygon","coordinates":[[[-72.89874265032662,-13.39334314060041],[-72.89875049452758,-13.392439508295576],[-72.89967350016109,-13.392447185887496],[-72.89966565939964,-13.393350818728996],[-72.89874265032662,-13.39334314060041]]]}},{"type":"Feature","properties":{"Cell_ID":26,"Area_ha":1.0,"LC":"5:0.800000,13:0.200000","XMIN":727444.86160847,"YMIN":8518298.468999183,"XMAX":727544.86160847,"YMAX":8518398.468999183},"geometry":{"type":"Polygon","coordinates":[[[-72.89873480554753,-13.394246772836214],[-72.89874265032662,-13.39334314060041],[-72.89966565939964,-13.393350818728996],[-72.89965781806032,-13.394254451501467],[-72.89873480554753,-13.394246772836214]]]}},{"type":"Feature","properties":{"Cell_ID":27,"Area_ha":1.0,"LC":"5:0.421067,13:0.339951,16:0.238982","XMIN":727444.86160847,"YMIN":8518198.468999183,"XMAX":727544.86160847,"YMAX":8518298.468999183},"geometry":{"type":"Polygon","coordinates":[[[-72.8987269601903,-13.395150405002983],[-72.89873480554753,-13.394246772836214],[-72.89965781806032,-13.394254451501467],[-72.8996499761431,-13.395158084204912],[-72.8987269601903,-13.395150405002983]]]}},{"type":"Feature","properties":{"Cell_ID":28,"Area_ha":1.0,"LC":"13:0.150073,16:0.849927","XMIN":727444.86160847,"YMIN":8518098.468999183,"XMAX":727544.86160847,"YMAX":8518198.468999183},"geometry":{"type":"Polygon","coordinates":[[[-72.89871911425494,-13.396054037100718],[-72.8987269601903,-13.395150405002983],[-72.8996499761431,-13.395158084204912],[-72.899642133648,-13.39606171683932],[-72.89871911425494,-13.396054037100718]]]}},{"type":"Feature","properties":{"Cell_ID":29,"Area_ha":1.0,"LC":"5:0.316586,16:0.683414","XMIN":727444.86160847,"YMIN":8517998.468999183,"XMAX":727544.86160847,"YMAX":8518098.468999183},"geometry":{"type":"Polygon","coordinates":[[[-72.89871126774142,-13.39695766912941],[-72.89871911425494,-13.396054037100718],[-72.899642133648,-13.39606171683932],[-72.89963429057501,-13.396965349404692],[-72.89871126774142,-13.39695766912941]]]}},{"type":"Feature","properties":{"Cell_ID":30,"Area_ha":1.0,"LC":"5:0.402037,9:0.169927,13:0.423267,16:0.004769","XMIN":727444.86160847,"YMIN":8517898.468999183,"XMAX":727544.86160847,"YMAX":8517998.468999183},"geometry":{"type":"Polygon","coordinates":[[[-72.89870342064972,-13.397861301089057],[-72.89871126774142,-13.39695766912941],[-72.89963429057501,-13.396965349404692],[-72.89962644692407,-13.397868981901023],[-72.89870342064972,-13.397861301089057]]]}},{"type":"Feature","properties":{"Cell_ID":31,"Area_ha":1.0,"LC":"5:0.070461,9:0.592012,13:0.337526","XMIN":727444.86160847,"YMIN":8517798.468999183,"XMAX":727544.86160847,"YMAX":8517898.468999183},"geometry":{"type":"Polygon","coordinates":[[[-72.89869557297985,-13.398764932979647],[-72.89870342064972,-13.397861301089057],[-72.89962644692407,-13.397868981901023],[-72.89961860269524,-13.398772614328305],[-72.89869557297985,-13.398764932979647]]]}},{"type":"Feature","properties":{"Cell_ID":32,"Area_ha":1.0,"LC":"5:0.520794,13:0.479206","XMIN":727444.86160847,"YMIN":8517698.468999183,"XMAX":727544.86160847,"YMAX":8517798.468999183},"geometry":{"type":"Polygon","coordinates":[[[-72.8986877247318,-13.399668564801187],[-72.89869557297985,-13.398764932979647],[-72.89961860269524,-13.398772614328305],[-72.89961075788845,-13.399676246686534],[-72.8986877247318,-13.399668564801187]]]}},{"type":"Feature","properties":{"Cell_ID":33,"Area_ha":1.0,"LC":"5:0.671451,9:0.328549","XMIN":727444.86160847,"YMIN":8517598.468999183,"XMAX":727544.86160847,"YMAX":8517698.468999183},"geometry":{"type":"Polygon","coordinates":[[[-72.89867987590554,-13.400572196553668],[-72.8986877247318,-13.399668564801187],[-72.89961075788845,-13.399676246686534],[-72.89960291250374,-13.40057987897571],[-72.89867987590554,-13.400572196553668]]]}},{"type":"Feature","properties":{"Cell_ID":34,"Area_ha":1.0,"LC":"5:0.964672,9:0.035328","XMIN":727444.86160847,"YMIN":8517498.468999183,"XMAX":727544.86160847,"YMAX":8517598.468999183},"geometry":{"type":"Polygon","coordinates":[[[-72.89867202650106,-13.401475828237082],[-72.89867987590554,-13.400572196553668],[-72.89960291250374,-13.40057987897571],[-72.89959506654104,-13.401483511195826],[-72.89867202650106,-13.401475828237082]]]}},{"type":"Feature","properties":{"Cell_ID":35,"Area_ha":1.0,"LC":"5:1.000000","XMIN":727444.86160847,"YMIN":8517398.468999183,"XMAX":727544.86160847,"YMAX":8517498.468999183},"geometry":{"type":"Polygon","coordinates":[[[-72.89866417651837,-13.40237945985143],[-72.89867202650106,-13.401475828237082],[-72.89959506654104,-13.401483511195826],[-72.89958722000041,-13.402387143346873],[-72.89866417651837,-13.40237945985143]]]}},{"type":"Feature","properties":{"Cell_ID":36,"Area_ha":1.0,"LC":"5:1.000000","XMIN":727444.86160847,"YMIN":8517298.468999183,"XMAX":727544.86160847,"YMAX":8517398.468999183},"geometry":{"type":"Polygon","coordinates":[[[-72.89865632595745,-13.403283091396705],[-72.89866417651837,-13.40237945985143],[-72.89958722000041,-13.402387143346873],[-72.89957937288177,-13.403290775428855],[-72.89865632595745,-13.403283091396705]]]}},{"type":"Feature","properties":{"Cell_ID":37,"Area_ha":1.0,"LC":"5:0.751092,9:0.203218,13:0.045690","XMIN":727444.86160847,"YMIN":8517198.468999183,"XMAX":727544.86160847,"YMAX":8517298.468999183},"geometry":{"type":"Polygon","coordinates":[[[-72.8986484748183,-13.4041867228729],[-72.89865632595745,-13.403283091396705],[-72.89957937288177,-13.403290775428855],[-72.89957152518518,-13.404194407441764],[-72.8986484748183,-13.4041867228729]]]}},{"type":"Feature","properties":{"Cell_ID":38,"Area_ha":1.0,"LC":"16:0.549878,17:0.438519","XMIN":727544.86160847,"YMIN":8518898.468999183,"XMAX":727644.86160847,"YMAX":8518998.468999183},"geometry":{"type":"Polygon","coordinates":[[[-72.89785887425042,-13.388817299574242],[-72.89786671899911,-13.387913667461211],[-72.89878970686082,-13.387921345736125],[-72.89878186555035,-13.388824978386038],[-72.89785887425042,-13.388817299574242]]]}},{"type":"Feature","properties":{"Cell_ID":39,"Area_ha":1.0,"LC":"16:1.000000","XMIN":727544.86160847,"YMIN":8518798.468999183,"XMAX":727644.86160847,"YMAX":8518898.468999183},"geometry":{"type":"Polygon","coordinates":[[[-72.89785102892336,-13.389720931618266],[-72.89785887425042,-13.388817299574242],[-72.89878186555035,-13.388824978386038],[-72.8987740236618,-13.389728610966944],[-72.89785102892336,-13.389720931618266]]]}},{"type":"Feature","properties":{"Cell_ID":40,"Area_ha":1.0,"LC":"13:0.496073,16:0.503927","XMIN":727544.86160847,"YMIN":8518698.468999183,"XMAX":727644.86160847,"YMAX":8518798.468999183},"geometry":{"type":"Polygon","coordinates":[[[-72.89784318301798,-13.39062456359327],[-72.89785102892336,-13.389720931618266],[-72.8987740236618,-13.389728610966944],[-72.89876618119516,-13.390632243478835],[-72.89784318301798,-13.39062456359327]]]}},{"type":"Feature","properties":{"Cell_ID":41,"Area_ha":1.0,"LC":"5:0.081939,13:0.020049,16:0.898012","XMIN":727544.86160847,"YMIN":8518598.468999183,"XMAX":727644.86160847,"YMAX":8518698.468999183},"geometry":{"type":"Polygon","coordinates":[[[-72.89783533653427,-13.391528195499257],[-72.89784318301798,-13.39062456359327],[-72.89876618119516,-13.390632243478835],[-72.89875833815043,-13.391535875921717],[-72.89783533653427,-13.391528195499257]]]}},{"type":"Feature","properties":{"Cell_ID":42,"Area_ha":1.0,"LC":"16:1.000000","XMIN":727544.86160847,"YMIN":8518498.468999183,"XMAX":727644.86160847,"YMAX":8518598.468999183},"geometry":{"type":"Polygon","coordinates":[[[-72.89782748947218,-13.392431827336218],[-72.89783533653427,-13.391528195499257],[-72.89875833815043,-13.391535875921717],[-72.89875049452758,-13.392439508295576],[-72.89782748947218,-13.392431827336218]]]}},{"type":"Feature","properties":{"Cell_ID":43,"Area_ha":1.0,"LC":"5:0.090383,16:0.909617","XMIN":727544.86160847,"YMIN":8518398.468999183,"XMAX":727644.86160847,"YMAX":8518498.468999183},"geometry":{"type":"Polygon","coordinates":[[[-72.89781964183173,-13.393335459104152],[-72.89782748947218,-13.392431827336218],[-72.89875049452758,-13.392439508295576],[-72.89874265032662,-13.39334314060041],[-72.89781964183173,-13.393335459104152]]]}},{"type":"Feature","properties":{"Cell_ID":44,"Area_ha":1.0,"LC":"5:0.095153,16:0.904847","XMIN":727544.86160847,"YMIN":8518298.468999183,"XMAX":727644.86160847,"YMAX":8518398.468999183},"geometry":{"type":"Polygon","coordinates":[[[-72.8978117936129,-13.394239090803053],[-72.89781964183173,-13.393335459104152],[-72.89874265032662,-13.39334314060041],[-72.89873480554753,-13.394246772836214],[-72.8978117936129,-13.394239090803053]]]}},{"type":"Feature","properties":{"Cell_ID":45,"Area_ha":1.0,"LC":"5:0.061861,16:0.938139","XMIN":727544.86160847,"YMIN":8518198.468999183,"XMAX":727644.86160847,"YMAX":8518298.468999183},"geometry":{"type":"Polygon","coordinates":[[[-72.89780394481568,-13.395142722432915],[-72.8978117936129,-13.394239090803053],[-72.89873480554753,-13.394246772836214],[-72.8987269601903,-13.395150405002983],[-72.89780394481568,-13.395142722432915]]]}},{"type":"Feature","properties":{"Cell_ID":46,"Area_ha":1.0,"LC":"16:1.000000","XMIN":727544.86160847,"YMIN":8518098.468999183,"XMAX":727644.86160847,"YMAX":8518198.468999183},"geometry":{"type":"Polygon","coordinates":[[[-72.89779609544004,-13.396046353993738],[-72.89780394481568,-13.395142722432915],[-72.8987269601903,-13.395150405002983],[-72.89871911425494,-13.396054037100718],[-72.89779609544004,-13.396046353993738]]]}},{"type":"Feature","properties":{"Cell_ID":47,"Area_ha":1.0,"LC":"5:0.203218,13:0.057653,16:0.739128","XMIN":727544.86160847,"YMIN":8517998.468999183,"XMAX":727644.86160847,"YMAX":8518098.468999183},"geometry":{"type":"Polygon","coordinates":[[[-72.897788245486,-13.396949985485515],[-72.89779609544004,-13.396046353993738],[-72.89871911425494,-13.396054037100718],[-72.89871126774142,-13.39695766912941],[-72.897788245486,-13.396949985485515]]]}},{"type":"Feature","properties":{"Cell_ID":48,"Area_ha":1.0,"LC":"5:0.808085,9:0.176635,13:0.005255,16:0.010024","XMIN":727544.86160847,"YMIN":8517898.468999183,"XMAX":727644.86160847,"YMAX":8517998.468999183},"geometry":{"type":"Polygon","coordinates":[[[-72.89778039495354,-13.397853616908241],[-72.897788245486,-13.396949985485515],[-72.89871126774142,-13.39695766912941],[-72.89870342064972,-13.397861301089057],[-72.89778039495354,-13.397853616908241]]]}},{"type":"Feature","properties":{"Cell_ID":49,"Area_ha":1.0,"LC":"5:0.533775,9:0.432933,13:0.033292","XMIN":727544.86160847,"YMIN":8517798.468999183,"XMAX":727644.86160847,"YMAX":8517898.468999183},"geometry":{"type":"Polygon","coordinates":[[[-72.89777254384265,-13.398757248261909],[-72.89778039495354,-13.397853616908241],[-72.89870342064972,-13.397861301089057],[-72.89869557297985,-13.398764932979647],[-72.89777254384265,-13.398757248261909]]]}},{"type":"Feature","properties":{"Cell_ID":50,"Area_ha":1.0,"LC":"5:0.514310,9:0.404799,13:0.080891","XMIN":727544.86160847,"YMIN":8517698.468999183,"XMAX":727644.86160847,"YMAX":8517798.468999183},"geometry":{"type":"Polygon","coordinates":[[[-72.89776469215332,-13.399660879546524],[-72.89777254384265,-13.398757248261909],[-72.89869557297985,-13.398764932979647],[-72.8986877247318,-13.399668564801187],[-72.89776469215332,-13.399660879546524]]]}},{"type":"Feature","properties":{"Cell_ID":51,"Area_ha":1.0,"LC":"5:0.120435,9:0.858596,13:0.020969","XMIN":727544.86160847,"YMIN":8517598.468999183,"XMAX":727644.86160847,"YMAX":8517698.468999183},"geometry":{"type":"Polygon","coordinates":[[[-72.89775683988555,-13.400564510762072],[-72.89776469215332,-13.399660879546524],[-72.8986877247318,-13.399668564801187],[-72.89867987590554,-13.400572196553668],[-72.89775683988555,-13.400564510762072]]]}},{"type":"Feature","properties":{"Cell_ID":52,"Area_ha":1.0,"LC":"5:0.985206,9:0.014794","XMIN":727544.86160847,"YMIN":8517498.468999183,"XMAX":727644.86160847,"YMAX":8517598.468999183},"geometry":{"type":"Polygon","coordinates":[[[-72.89774898703931,-13.401468141908552],[-72.89775683988555,-13.400564510762072],[-72.89867987590554,-13.400572196553668],[-72.89867202650106,-13.401475828237082],[-72.89774898703931,-13.401468141908552]]]}},{"type":"Feature","properties":{"Cell_ID":53,"Area_ha":1.0,"LC":"5:1.000000","XMIN":727544.86160847,"YMIN":8517398.468999183,"XMAX":727644.86160847,"YMAX":8517498.468999183},"geometry":{"type":"Polygon","coordinates":[[[-72.89774113361457,-13.402371772985958],[-72.89774898703931,-13.401468141908552],[-72.89867202650106,-13.401475828237082],[-72.89866417651837,-13.40237945985143],[-72.89774113361457,-13.402371772985958]]]}},{"type":"Feature","properties":{"Cell_ID":54,"Area_ha":1.0,"LC":"5:1.000000","XMIN":727544.86160847,"YMIN":8517298.468999183,"XMAX":727644.86160847,"YMAX":8517398.468999183},"geometry":{"type":"Polygon","coordinates":[[[-72.89773327961137,-13.403275403994293],[-72.89774113361457,-13.402371772985958],[-72.89866417651837,-13.40237945985143],[-72.89865632595745,-13.403283091396705],[-72.89773327961137,-13.403275403994293]]]}},{"type":"Feature","properties":{"Cell_ID":55,"Area_ha":1.0,"LC":"5:0.850122,13:0.149878","XMIN":727544.86160847,"YMIN":8517198.468999183,"XMAX":727644.86160847,"YMAX":8517298.468999183},"geometry":{"type":"Polygon","coordinates":[[[-72.89772542502968,-13.404179034933543],[-72.89773327961137,-13.403275403994293],[-72.89865632595745,-13.403283091396705],[-72.8986484748183,-13.4041867228729],[-72.89772542502968,-13.404179034933543]]]}},{"type":"Feature","properties":{"Cell_ID":56,"Area_ha":1.0,"LC":"16:0.549878,17:0.234548","XMIN":727644.86160847,"YMIN":8518898.468999183,"XMAX":727744.86160847,"YMAX":8518998.468999183},"geometry":{"type":"Polygon","coordinates":[[[-72.8969358835288,-13.38880961739597],[-72.89694373171572,-13.38790598582005],[-72.89786671899911,-13.387913667461211],[-72.89785887425042,-13.388817299574242],[-72.8969358835288,-13.38880961739597]]]}},{"type":"Feature","properties":{"Cell_ID":57,"Area_ha":1.0,"LC":"16:1.000000","XMIN":727644.86160847,"YMIN":8518798.468999183,"XMAX":727744.86160847,"YMAX":8518898.468999183},"geometry":{"type":"Polygon","coordinates":[[[-72.89692803476328,-13.389713248902869],[-72.8969358835288,-13.38880961739597],[-72.89785887425042,-13.388817299574242],[-72.89785102892336,-13.389720931618266],[-72.89692803476328,-13.389713248902869]]]}},{"type":"Feature","properties":{"Cell_ID":58,"Area_ha":1.0,"LC":"5:0.029976,16:0.970024","XMIN":727644.86160847,"YMIN":8518698.468999183,"XMAX":727744.86160847,"YMAX":8518798.468999183},"geometry":{"type":"Polygon","coordinates":[[[-72.89692018541918,-13.390616880340751],[-72.89692803476328,-13.389713248902869],[-72.89785102892336,-13.389720931618266],[-72.89784318301798,-13.39062456359327],[-72.89692018541918,-13.390616880340751]]]}},{"type":"Feature","properties":{"Cell_ID":59,"Area_ha":1.0,"LC":"5:0.368085,16:0.631915","XMIN":727644.86160847,"YMIN":8518598.468999183,"XMAX":727744.86160847,"YMAX":8518698.468999183},"geometry":{"type":"Polygon","coordinates":[[[-72.89691233549647,-13.391520511709608],[-72.89692018541918,-13.390616880340751],[-72.89784318301798,-13.39062456359327],[-72.89783533653427,-13.391528195499257],[-72.89691233549647,-13.391520511709608]]]}},{"type":"Feature","properties":{"Cell_ID":60,"Area_ha":1.0,"LC":"13:0.045690,16:0.954310","XMIN":727644.86160847,"YMIN":8518498.468999183,"XMAX":727744.86160847,"YMAX":8518598.468999183},"geometry":{"type":"Polygon","coordinates":[[[-72.89690448499516,-13.392424143009439],[-72.89691233549647,-13.391520511709608],[-72.89783533653427,-13.391528195499257],[-72.89782748947218,-13.392431827336218],[-72.89690448499516,-13.392424143009439]]]}},{"type":"Feature","properties":{"Cell_ID":61,"Area_ha":1.0,"LC":"13:0.057219,16:0.942781","XMIN":727644.86160847,"YMIN":8518398.468999183,"XMAX":727744.86160847,"YMAX":8518498.468999183},"geometry":{"type":"Polygon","coordinates":[[[-72.89689663391522,-13.393327774240237],[-72.89690448499516,-13.392424143009439],[-72.89782748947218,-13.392431827336218],[-72.89781964183173,-13.393335459104152],[-72.89689663391522,-13.393327774240237]]]}},{"type":"Feature","properties":{"Cell_ID":62,"Area_ha":1.0,"LC":"16:1.000000","XMIN":727644.86160847,"YMIN":8518298.468999183,"XMAX":727744.86160847,"YMAX":8518398.468999183},"geometry":{"type":"Polygon","coordinates":[[[-72.89688878225664,-13.394231405401996],[-72.89689663391522,-13.393327774240237],[-72.89781964183173,-13.393335459104152],[-72.8978117936129,-13.394239090803053],[-72.89688878225664,-13.394231405401996]]]}},{"type":"Feature","properties":{"Cell_ID":63,"Area_ha":1.0,"LC":"16:1.000000","XMIN":727644.86160847,"YMIN":8518198.468999183,"XMAX":727744.86160847,"YMAX":8518298.468999183},"geometry":{"type":"Polygon","coordinates":[[[-72.89688093001944,-13.39513503649472],[-72.89688878225664,-13.394231405401996],[-72.8978117936129,-13.394239090803053],[-72.89780394481568,-13.395142722432915],[-72.89688093001944,-13.39513503649472]]]}},{"type":"Feature","properties":{"Cell_ID":64,"Area_ha":1.0,"LC":"16:1.000000","XMIN":727644.86160847,"YMIN":8518098.468999183,"XMAX":727744.86160847,"YMAX":8518198.468999183},"geometry":{"type":"Polygon","coordinates":[[[-72.89687307720355,-13.396038667518393],[-72.89688093001944,-13.39513503649472],[-72.89780394481568,-13.395142722432915],[-72.89779609544004,-13.396046353993738],[-72.89687307720355,-13.396038667518393]]]}},{"type":"Feature","properties":{"Cell_ID":65,"Area_ha":1.0,"LC":"13:0.372225,16:0.627775","XMIN":727644.86160847,"YMIN":8517998.468999183,"XMAX":727744.86160847,"YMAX":8518098.468999183},"geometry":{"type":"Polygon","coordinates":[[[-72.896865223809,-13.396942298473018],[-72.89687307720355,-13.396038667518393],[-72.89779609544004,-13.396046353993738],[-72.897788245486,-13.396949985485515],[-72.896865223809,-13.396942298473018]]]}},{"type":"Feature","properties":{"Cell_ID":66,"Area_ha":1.0,"LC":"5:0.057092,9:0.892786,13:0.044867,16:0.005255","XMIN":727644.86160847,"YMIN":8517898.468999183,"XMAX":727744.86160847,"YMAX":8517998.468999183},"geometry":{"type":"Polygon","coordinates":[[[-72.8968573698358,-13.397845929358592],[-72.896865223809,-13.396942298473018],[-72.897788245486,-13.396949985485515],[-72.89778039495354,-13.397853616908241],[-72.8968573698358,-13.397845929358592]]]}},{"type":"Feature","properties":{"Cell_ID":67,"Area_ha":1.0,"LC":"5:0.321939,9:0.678061","XMIN":727644.86160847,"YMIN":8517798.468999183,"XMAX":727744.86160847,"YMAX":8517898.468999183},"geometry":{"type":"Polygon","coordinates":[[[-72.8968495152839,-13.3987495601751],[-72.8968573698358,-13.397845929358592],[-72.89778039495354,-13.397853616908241],[-72.89777254384265,-13.398757248261909],[-72.8968495152839,-13.3987495601751]]]}},{"type":"Feature","properties":{"Cell_ID":68,"Area_ha":1.0,"LC":"5:0.135617,9:0.580506,13:0.283878","XMIN":727644.86160847,"YMIN":8517698.468999183,"XMAX":727744.86160847,"YMAX":8517798.468999183},"geometry":{"type":"Polygon","coordinates":[[[-72.89684166015331,-13.399653190922551],[-72.8968495152839,-13.3987495601751],[-72.89777254384265,-13.398757248261909],[-72.89776469215332,-13.399660879546524],[-72.89684166015331,-13.399653190922551]]]}},{"type":"Feature","properties":{"Cell_ID":69,"Area_ha":1.0,"LC":"5:0.597170,9:0.061861,13:0.240000,16:0.100969","XMIN":727644.86160847,"YMIN":8517598.468999183,"XMAX":727744.86160847,"YMAX":8517698.468999183},"geometry":{"type":"Polygon","coordinates":[[[-72.89683380444403,-13.400556821600935],[-72.89684166015331,-13.399653190922551],[-72.89776469215332,-13.399660879546524],[-72.89775683988555,-13.400564510762072],[-72.89683380444403,-13.400556821600935]]]}},{"type":"Feature","properties":{"Cell_ID":70,"Area_ha":1.0,"LC":"5:1.000000","XMIN":727644.86160847,"YMIN":8517498.468999183,"XMAX":727744.86160847,"YMAX":8517598.468999183},"geometry":{"type":"Polygon","coordinates":[[[-72.896825948156,-13.401460452210243],[-72.89683380444403,-13.400556821600935],[-72.89775683988555,-13.400564510762072],[-72.89774898703931,-13.401468141908552],[-72.896825948156,-13.401460452210243]]]}},{"type":"Feature","properties":{"Cell_ID":71,"Area_ha":1.0,"LC":"5:1.000000","XMIN":727644.86160847,"YMIN":8517398.468999183,"XMAX":727744.86160847,"YMAX":8517498.468999183},"geometry":{"type":"Polygon","coordinates":[[[-72.89681809128926,-13.402364082750477],[-72.896825948156,-13.401460452210243],[-72.89774898703931,-13.401468141908552],[-72.89774113361457,-13.402371772985958],[-72.89681809128926,-13.402364082750477]]]}},{"type":"Feature","properties":{"Cell_ID":72,"Area_ha":1.0,"LC":"5:1.000000","XMIN":727644.86160847,"YMIN":8517298.468999183,"XMAX":727744.86160847,"YMAX":8517398.468999183},"geometry":{"type":"Polygon","coordinates":[[[-72.89681023384378,-13.403267713221632],[-72.89681809128926,-13.402364082750477],[-72.89774113361457,-13.402371772985958],[-72.89773327961137,-13.403275403994293],[-72.89681023384378,-13.403267713221632]]]}},{"type":"Feature","properties":{"Cell_ID":73,"Area_ha":1.0,"LC":"5:0.850122,13:0.149878","XMIN":727644.86160847,"YMIN":8517198.468999183,"XMAX":727744.86160847,"YMAX":8517298.468999183},"geometry":{"type":"Polygon","coordinates":[[[-72.89680237581956,-13.404171343623702],[-72.89681023384378,-13.403267713221632],[-72.89773327961137,-13.403275403994293],[-72.89772542502968,-13.404179034933543],[-72.89680237581956,-13.404171343623702]]]}},{"type":"Feature","properties":{"Cell_ID":74,"Area_ha":1.0,"LC":"16:1.000000","XMIN":727744.86160847,"YMIN":8518798.468999183,"XMAX":727844.86160847,"YMAX":8518898.468999183},"geometry":{"type":"Polygon","coordinates":[[[-72.89600504118178,-13.389705562820764],[-72.89601289338576,-13.388801931851216],[-72.8969358835288,-13.38880961739597],[-72.89692803476328,-13.389713248902869],[-72.89600504118178,-13.389705562820764]]]}},{"type":"Feature","properties":{"Cell_ID":75,"Area_ha":1.0,"LC":"16:1.000000","XMIN":727744.86160847,"YMIN":8518698.468999183,"XMAX":727844.86160847,"YMAX":8518798.468999183},"geometry":{"type":"Polygon","coordinates":[[[-72.89599718839897,-13.390609193721284],[-72.89600504118178,-13.389705562820764],[-72.89692803476328,-13.389713248902869],[-72.89692018541918,-13.390616880340751],[-72.89599718839897,-13.390609193721284]]]}},{"type":"Feature","properties":{"Cell_ID":76,"Area_ha":1.0,"LC":"16:1.000000","XMIN":727744.86160847,"YMIN":8518598.468999183,"XMAX":727844.86160847,"YMAX":8518698.468999183},"geometry":{"type":"Polygon","coordinates":[[[-72.8959893350373,-13.391512824552782],[-72.89599718839897,-13.390609193721284],[-72.89692018541918,-13.390616880340751],[-72.89691233549647,-13.391520511709608],[-72.8959893350373,-13.391512824552782]]]}},{"type":"Feature","properties":{"Cell_ID":77,"Area_ha":1.0,"LC":"13:0.269878,16:0.730122","XMIN":727744.86160847,"YMIN":8518498.468999183,"XMAX":727844.86160847,"YMAX":8518598.468999183},"geometry":{"type":"Polygon","coordinates":[[[-72.89598148109675,-13.392416455315244],[-72.8959893350373,-13.391512824552782],[-72.89691233549647,-13.391520511709608],[-72.89690448499516,-13.392424143009439],[-72.89598148109675,-13.392416455315244]]]}},{"type":"Feature","properties":{"Cell_ID":78,"Area_ha":1.0,"LC":"5:0.069976,13:0.229153,16:0.700872","XMIN":727744.86160847,"YMIN":8518398.468999183,"XMAX":727844.86160847,"YMAX":8518498.468999183},"geometry":{"type":"Polygon","coordinates":[[[-72.89597362657734,-13.393320086008673],[-72.89598148109675,-13.392416455315244],[-72.89690448499516,-13.392424143009439],[-72.89689663391522,-13.393327774240237],[-72.89597362657734,-13.393320086008673]]]}},{"type":"Feature","properties":{"Cell_ID":79,"Area_ha":1.0,"LC":"5:0.389976,13:0.036684,16:0.573341","XMIN":727744.86160847,"YMIN":8518298.468999183,"XMAX":727844.86160847,"YMAX":8518398.468999183},"geometry":{"type":"Polygon","coordinates":[[[-72.89596577147904,-13.394223716633054],[-72.89597362657734,-13.393320086008673],[-72.89689663391522,-13.393327774240237],[-72.89688878225664,-13.394231405401996],[-72.89596577147904,-13.394223716633054]]]}},{"type":"Feature","properties":{"Cell_ID":80,"Area_ha":1.0,"LC":"5:0.020049,13:0.089133,16:0.890818","XMIN":727744.86160847,"YMIN":8518198.468999183,"XMAX":727844.86160847,"YMAX":8518298.468999183},"geometry":{"type":"Polygon","coordinates":[[[-72.89595791580183,-13.3951273471884],[-72.89596577147904,-13.394223716633054],[-72.89688878225664,-13.394231405401996],[-72.89688093001944,-13.39513503649472],[-72.89595791580183,-13.3951273471884]]]}},{"type":"Feature","properties":{"Cell_ID":81,"Area_ha":1.0,"LC":"16:1.000000","XMIN":727744.86160847,"YMIN":8518098.468999183,"XMAX":727844.86160847,"YMAX":8518198.468999183},"geometry":{"type":"Polygon","coordinates":[[[-72.89595005954573,-13.396030977674693],[-72.89595791580183,-13.3951273471884],[-72.89688093001944,-13.39513503649472],[-72.89687307720355,-13.396038667518393],[-72.89595005954573,-13.396030977674693]]]}},{"type":"Feature","properties":{"Cell_ID":82,"Area_ha":1.0,"LC":"16:1.000000","XMIN":727744.86160847,"YMIN":8517998.468999183,"XMAX":727844.86160847,"YMAX":8518098.468999183},"geometry":{"type":"Polygon","coordinates":[[[-72.8959422027107,-13.396934608091932],[-72.89595005954573,-13.396030977674693],[-72.89687307720355,-13.396038667518393],[-72.896865223809,-13.396942298473018],[-72.8959422027107,-13.396934608091932]]]}},{"type":"Feature","properties":{"Cell_ID":83,"Area_ha":1.0,"LC":"9:0.090383,16:0.909617","XMIN":727744.86160847,"YMIN":8517898.468999183,"XMAX":727844.86160847,"YMAX":8517998.468999183},"geometry":{"type":"Polygon","coordinates":[[[-72.89593434529674,-13.397838238440114],[-72.8959422027107,-13.396934608091932],[-72.896865223809,-13.396942298473018],[-72.8968573698358,-13.397845929358592],[-72.89593434529674,-13.397838238440114]]]}},{"type":"Feature","properties":{"Cell_ID":84,"Area_ha":1.0,"LC":"5:0.318061,9:0.427018,13:0.066659,16:0.188261","XMIN":727744.86160847,"YMIN":8517798.468999183,"XMAX":727844.86160847,"YMAX":8517898.468999183},"geometry":{"type":"Polygon","coordinates":[[[-72.89592648730385,-13.398741868719231],[-72.89593434529674,-13.397838238440114],[-72.8968573698358,-13.397845929358592],[-72.8968495152839,-13.3987495601751],[-72.89592648730385,-13.398741868719231]]]}},{"type":"Feature","properties":{"Cell_ID":85,"Area_ha":1.0,"LC":"5:0.436151,9:0.034843,13:0.432371,16:0.096635","XMIN":727744.86160847,"YMIN":8517698.468999183,"XMAX":727844.86160847,"YMAX":8517798.468999183},"geometry":{"type":"Polygon","coordinates":[[[-72.895918628732,-13.399645498929283],[-72.89592648730385,-13.398741868719231],[-72.8968495152839,-13.3987495601751],[-72.89684166015331,-13.399653190922551],[-72.895918628732,-13.399645498929283]]]}},{"type":"Feature","properties":{"Cell_ID":86,"Area_ha":1.0,"LC":"5:0.454696,13:0.340969,16:0.204335","XMIN":727744.86160847,"YMIN":8517598.468999183,"XMAX":727844.86160847,"YMAX":8517698.468999183},"geometry":{"type":"Polygon","coordinates":[[[-72.89591076958122,-13.400549129070264],[-72.895918628732,-13.399645498929283],[-72.89684166015331,-13.399653190922551],[-72.89683380444403,-13.400556821600935],[-72.89591076958122,-13.400549129070264]]]}},{"type":"Feature","properties":{"Cell_ID":87,"Area_ha":1.0,"LC":"5:0.984286,13:0.015714","XMIN":727744.86160847,"YMIN":8517498.468999183,"XMAX":727844.86160847,"YMAX":8517598.468999183},"geometry":{"type":"Polygon","coordinates":[[[-72.89590290985144,-13.401452759142167],[-72.89591076958122,-13.400549129070264],[-72.89683380444403,-13.400556821600935],[-72.896825948156,-13.401460452210243],[-72.89590290985144,-13.401452759142167]]]}},{"type":"Feature","properties":{"Cell_ID":88,"Area_ha":1.0,"LC":"5:0.973775,13:0.026225","XMIN":727744.86160847,"YMIN":8517398.468999183,"XMAX":727844.86160847,"YMAX":8517498.468999183},"geometry":{"type":"Polygon","coordinates":[[[-72.89589504954269,-13.402356389144993],[-72.89590290985144,-13.401452759142167],[-72.896825948156,-13.401460452210243],[-72.89681809128926,-13.402364082750477],[-72.89589504954269,-13.402356389144993]]]}},{"type":"Feature","properties":{"Cell_ID":89,"Area_ha":1.0,"LC":"5:1.000000","XMIN":727744.86160847,"YMIN":8517298.468999183,"XMAX":727844.86160847,"YMAX":8517398.468999183},"geometry":{"type":"Polygon","coordinates":[[[-72.89588718865495,-13.403260019078735],[-72.89589504954269,-13.402356389144993],[-72.89681809128926,-13.402364082750477],[-72.89681023384378,-13.403267713221632],[-72.89588718865495,-13.403260019078735]]]}},{"type":"Feature","properties":{"Cell_ID":90,"Area_ha":1.0,"LC":"5:0.709153,13:0.290847","XMIN":727744.86160847,"YMIN":8517198.468999183,"XMAX":727844.86160847,"YMAX":8517298.468999183},"geometry":{"type":"Polygon","coordinates":[[[-72.89587932718821,-13.404163648943383],[-72.89588718865495,-13.403260019078735],[-72.89681023384378,-13.403267713221632],[-72.89680237581956,-13.404171343623702],[-72.89587932718821,-13.404163648943383]]]}},{"type":"Feature","properties":{"Cell_ID":91,"Area_ha":1.0,"LC":"16:0.712846,17:0.058000,18:0.066659","XMIN":727844.86160847,"YMIN":8518798.468999183,"XMAX":727944.86160847,"YMAX":8518898.468999183},"geometry":{"type":"Polygon","coordinates":[[[-72.89508204817913,-13.389697873371958],[-72.89508990382156,-13.388794242940005],[-72.89601289338576,-13.388801931851216],[-72.89600504118178,-13.389705562820764],[-72.89508204817913,-13.389697873371958]]]}},{"type":"Feature","properties":{"Cell_ID":92,"Area_ha":1.0,"LC":"13:0.262908,16:0.360891,18:0.376200","XMIN":727844.86160847,"YMIN":8518698.468999183,"XMAX":727944.86160847,"YMAX":8518798.468999183},"geometry":{"type":"Polygon","coordinates":[[[-72.89507419195762,-13.390601503734885],[-72.89508204817913,-13.389697873371958],[-72.89600504118178,-13.389705562820764],[-72.89599718839897,-13.390609193721284],[-72.89507419195762,-13.390601503734885]]]}},{"type":"Feature","properties":{"Cell_ID":93,"Area_ha":1.0,"LC":"16:0.979951,18:0.020049","XMIN":727844.86160847,"YMIN":8518598.468999183,"XMAX":727944.86160847,"YMAX":8518698.468999183},"geometry":{"type":"Polygon","coordinates":[[[-72.89506633515698,-13.391505134028783],[-72.89507419195762,-13.390601503734885],[-72.89599718839897,-13.390609193721284],[-72.8959893350373,-13.391512824552782],[-72.89506633515698,-13.391505134028783]]]}},{"type":"Feature","properties":{"Cell_ID":94,"Area_ha":1.0,"LC":"13:0.044237,16:0.955763","XMIN":727844.86160847,"YMIN":8518498.468999183,"XMAX":727944.86160847,"YMAX":8518598.468999183},"geometry":{"type":"Polygon","coordinates":[[[-72.89505847777723,-13.392408764253645],[-72.89506633515698,-13.391505134028783],[-72.8959893350373,-13.391512824552782],[-72.89598148109675,-13.392416455315244],[-72.89505847777723,-13.392408764253645]]]}},{"type":"Feature","properties":{"Cell_ID":95,"Area_ha":1.0,"LC":"13:0.363751,16:0.636249","XMIN":727844.86160847,"YMIN":8518398.468999183,"XMAX":727944.86160847,"YMAX":8518498.468999183},"geometry":{"type":"Polygon","coordinates":[[[-72.89505061981835,-13.393312394409469],[-72.89505847777723,-13.392408764253645],[-72.89598148109675,-13.392416455315244],[-72.89597362657734,-13.393320086008673],[-72.89505061981835,-13.393312394409469]]]}},{"type":"Feature","properties":{"Cell_ID":96,"Area_ha":1.0,"LC":"13:0.718982,16:0.281018","XMIN":727844.86160847,"YMIN":8518298.468999183,"XMAX":727944.86160847,"YMAX":8518398.468999183},"geometry":{"type":"Polygon","coordinates":[[[-72.89504276128032,-13.39421602449624],[-72.89505061981835,-13.393312394409469],[-72.89597362657734,-13.393320086008673],[-72.89596577147904,-13.394223716633054],[-72.89504276128032,-13.39421602449624]]]}},{"type":"Feature","properties":{"Cell_ID":97,"Area_ha":1.0,"LC":"13:0.486244,16:0.513756","XMIN":727844.86160847,"YMIN":8518198.468999183,"XMAX":727944.86160847,"YMAX":8518298.468999183},"geometry":{"type":"Polygon","coordinates":[[[-72.89503490216316,-13.395119654513971],[-72.89504276128032,-13.39421602449624],[-72.89596577147904,-13.394223716633054],[-72.89595791580183,-13.3951273471884],[-72.89503490216316,-13.395119654513971]]]}},{"type":"Feature","properties":{"Cell_ID":98,"Area_ha":1.0,"LC":"13:0.228598,16:0.771402","XMIN":727844.86160847,"YMIN":8518098.468999183,"XMAX":727944.86160847,"YMAX":8518198.468999183},"geometry":{"type":"Polygon","coordinates":[[[-72.89502704246682,-13.396023284462645],[-72.89503490216316,-13.395119654513971],[-72.89595791580183,-13.3951273471884],[-72.89595005954573,-13.396030977674693],[-72.89502704246682,-13.396023284462645]]]}},{"type":"Feature","properties":{"Cell_ID":99,"Area_ha":1.0,"LC":"13:0.304847,16:0.695153","XMIN":727844.86160847,"YMIN":8517998.468999183,"XMAX":727944.86160847,"YMAX":8518098.468999183},"geometry":{"type":"Polygon","coordinates":[[[-72.89501918219132,-13.396926914342265],[-72.89502704246682,-13.396023284462645],[-72.89595005954573,-13.396030977674693],[-72.8959422027107,-13.396934608091932],[-72.89501918219132,-13.396926914342265]]]}},{"type":"Feature","properties":{"Cell_ID":100,"Area_ha":1.0,"LC":"13:0.171963,16:0.828037","XMIN":727844.86160847,"YMIN":8517898.468999183,"XMAX":727944.86160847,"YMAX":8517998.468999183},"geometry":{"type":"Polygon","coordinates":[[[-72.89501132133661,-13.39783054415282],[-72.89501918219132,-13.396926914342265],[-72.8959422027107,-13.396934608091932],[-72.89593434529674,-13.397838238440114],[-72.89501132133661,-13.39783054415282]]]}},{"type":"Feature","properties":{"Cell_ID":101,"Area_ha":1.0,"LC":"5:0.089927,13:0.528115,16:0.381959","XMIN":727844.86160847,"YMIN":8517798.468999183,"XMAX":727944.86160847,"YMAX":8517898.468999183},"geometry":{"type":"Polygon","coordinates":[[[-72.89500345990274,-13.398734173894304],[-72.89501132133661,-13.39783054415282],[-72.89593434529674,-13.397838238440114],[-72.89592648730385,-13.398741868719231],[-72.89500345990274,-13.398734173894304]]]}},{"type":"Feature","properties":{"Cell_ID":102,"Area_ha":1.0,"LC":"5:0.388134,13:0.498574,16:0.113292","XMIN":727844.86160847,"YMIN":8517698.468999183,"XMAX":727944.86160847,"YMAX":8517798.468999183},"geometry":{"type":"Polygon","coordinates":[[[-72.89499559788966,-13.399637803566728],[-72.89500345990274,-13.398734173894304],[-72.89592648730385,-13.398741868719231],[-72.895918628732,-13.399645498929283],[-72.89499559788966,-13.399637803566728]]]}},{"type":"Feature","properties":{"Cell_ID":103,"Area_ha":1.0,"LC":"5:0.052322,13:0.942908,16:0.004769","XMIN":727844.86160847,"YMIN":8517598.468999183,"XMAX":727944.86160847,"YMAX":8517698.468999183},"geometry":{"type":"Polygon","coordinates":[[[-72.89498773529736,-13.400541433170071],[-72.89499559788966,-13.399637803566728],[-72.895918628732,-13.399645498929283],[-72.89591076958122,-13.400549129070264],[-72.89498773529736,-13.400541433170071]]]}},{"type":"Feature","properties":{"Cell_ID":104,"Area_ha":1.0,"LC":"5:0.200891,13:0.799109","XMIN":727844.86160847,"YMIN":8517498.468999183,"XMAX":727944.86160847,"YMAX":8517598.468999183},"geometry":{"type":"Polygon","coordinates":[[[-72.89497987212586,-13.401445062704335],[-72.89498773529736,-13.400541433170071],[-72.89591076958122,-13.400549129070264],[-72.89590290985144,-13.401452759142167],[-72.89497987212586,-13.401445062704335]]]}},{"type":"Feature","properties":{"Cell_ID":105,"Area_ha":1.0,"LC":"5:0.629878,13:0.370122","XMIN":727844.86160847,"YMIN":8517398.468999183,"XMAX":727944.86160847,"YMAX":8517498.468999183},"geometry":{"type":"Polygon","coordinates":[[[-72.89497200837509,-13.402348692169511],[-72.89497987212586,-13.401445062704335],[-72.89590290985144,-13.401452759142167],[-72.89589504954269,-13.402356389144993],[-72.89497200837509,-13.402348692169511]]]}},{"type":"Feature","properties":{"Cell_ID":106,"Area_ha":1.0,"LC":"5:1.000000","XMIN":727844.86160847,"YMIN":8517298.468999183,"XMAX":727944.86160847,"YMAX":8517398.468999183},"geometry":{"type":"Polygon","coordinates":[[[-72.89496414404512,-13.403252321565606],[-72.89497200837509,-13.402348692169511],[-72.89589504954269,-13.402356389144993],[-72.89588718865495,-13.403260019078735],[-72.89496414404512,-13.403252321565606]]]}},{"type":"Feature","properties":{"Cell_ID":107,"Area_ha":1.0,"LC":"5:0.650122,13:0.349878","XMIN":727844.86160847,"YMIN":8517198.468999183,"XMAX":727944.86160847,"YMAX":8517298.468999183},"geometry":{"type":"Polygon","coordinates":[[[-72.89495627913585,-13.404155950892605],[-72.89496414404512,-13.403252321565606],[-72.89588718865495,-13.403260019078735],[-72.89587932718821,-13.404163648943383],[-72.89495627913585,-13.404155950892605]]]}},{"type":"Feature","properties":{"Cell_ID":108,"Area_ha":1.0,"LC":"13:0.197043,16:0.029976,17:0.123596,18:0.554745","XMIN":727944.86160847,"YMIN":8518698.468999183,"XMAX":728044.86160847,"YMAX":8518798.468999183},"geometry":{"type":"Polygon","coordinates":[[[-72.89415119609536,-13.39059381038156],[-72.89415905575558,-13.389690180556467],[-72.89508204817913,-13.389697873371958],[-72.89507419195762,-13.390601503734885],[-72.89415119609536,-13.39059381038156]]]}},{"type":"Feature","properties":{"Cell_ID":109,"Area_ha":1.0,"LC":"13:0.020049,16:0.879902,18:0.100049","XMIN":727944.86160847,"YMIN":8518598.468999183,"XMAX":728044.86160847,"YMAX":8518698.468999183},"geometry":{"type":"Polygon","coordinates":[[[-72.89414333585579,-13.391497440137625],[-72.89415119609536,-13.39059381038156],[-72.89507419195762,-13.390601503734885],[-72.89506633515698,-13.391505134028783],[-72.89414333585579,-13.391497440137625]]]}},{"type":"Feature","properties":{"Cell_ID":110,"Area_ha":1.0,"LC":"16:1.000000","XMIN":727944.86160847,"YMIN":8518498.468999183,"XMAX":728044.86160847,"YMAX":8518598.468999183},"geometry":{"type":"Polygon","coordinates":[[[-72.89413547503683,-13.392401069824652],[-72.89414333585579,-13.391497440137625],[-72.89506633515698,-13.391505134028783],[-72.89505847777723,-13.392408764253645],[-72.89413547503683,-13.392401069824652]]]}},{"type":"Feature","properties":{"Cell_ID":111,"Area_ha":1.0,"LC":"16:1.000000","XMIN":727944.86160847,"YMIN":8518398.468999183,"XMAX":728044.86160847,"YMAX":8518498.468999183},"geometry":{"type":"Polygon","coordinates":[[[-72.8941276136385,-13.393304699442629],[-72.89413547503683,-13.392401069824652],[-72.89505847777723,-13.392408764253645],[-72.89505061981835,-13.393312394409469],[-72.8941276136385,-13.393304699442629]]]}},{"type":"Feature","properties":{"Cell_ID":112,"Area_ha":1.0,"LC":"13:0.074212,16:0.925788","XMIN":727944.86160847,"YMIN":8518298.468999183,"XMAX":728044.86160847,"YMAX":8518398.468999183},"geometry":{"type":"Polygon","coordinates":[[[-72.89411975166077,-13.394208328991558],[-72.8941276136385,-13.393304699442629],[-72.89505061981835,-13.393312394409469],[-72.89504276128032,-13.39421602449624],[-72.89411975166077,-13.394208328991558]]]}},{"type":"Feature","properties":{"Cell_ID":113,"Area_ha":1.0,"LC":"13:0.602374,16:0.397626","XMIN":727944.86160847,"YMIN":8518198.468999183,"XMAX":728044.86160847,"YMAX":8518298.468999183},"geometry":{"type":"Polygon","coordinates":[[[-72.89411188910363,-13.395111958471437],[-72.89411975166077,-13.394208328991558],[-72.89504276128032,-13.39421602449624],[-72.89503490216316,-13.395119654513971],[-72.89411188910363,-13.395111958471437]]]}},{"type":"Feature","properties":{"Cell_ID":114,"Area_ha":1.0,"LC":"13:0.774261,16:0.225739","XMIN":727944.86160847,"YMIN":8518098.468999183,"XMAX":728044.86160847,"YMAX":8518198.468999183},"geometry":{"type":"Polygon","coordinates":[[[-72.89410402596708,-13.396015587882262],[-72.89411188910363,-13.395111958471437],[-72.89503490216316,-13.395119654513971],[-72.89502704246682,-13.396023284462645],[-72.89410402596708,-13.396015587882262]]]}},{"type":"Feature","properties":{"Cell_ID":115,"Area_ha":1.0,"LC":"13:0.680457,16:0.319543","XMIN":727944.86160847,"YMIN":8517998.468999183,"XMAX":728044.86160847,"YMAX":8518098.468999183},"geometry":{"type":"Polygon","coordinates":[[[-72.8940961622511,-13.396919217224022],[-72.89410402596708,-13.396015587882262],[-72.89502704246682,-13.396023284462645],[-72.89501918219132,-13.396926914342265],[-72.8940961622511,-13.396919217224022]]]}},{"type":"Feature","properties":{"Cell_ID":116,"Area_ha":1.0,"LC":"13:0.315665,16:0.684335","XMIN":727944.86160847,"YMIN":8517898.468999183,"XMAX":728044.86160847,"YMAX":8517998.468999183},"geometry":{"type":"Polygon","coordinates":[[[-72.89408829795569,-13.397822846496716],[-72.8940961622511,-13.396919217224022],[-72.89501918219132,-13.396926914342265],[-72.89501132133661,-13.39783054415282],[-72.89408829795569,-13.397822846496716]]]}},{"type":"Feature","properties":{"Cell_ID":117,"Area_ha":1.0,"LC":"9:0.277604,13:0.722396","XMIN":727944.86160847,"YMIN":8517798.468999183,"XMAX":728044.86160847,"YMAX":8517898.468999183},"geometry":{"type":"Polygon","coordinates":[[[-72.89408043308083,-13.398726475700341],[-72.89408829795569,-13.397822846496716],[-72.89501132133661,-13.39783054415282],[-72.89500345990274,-13.398734173894304],[-72.89408043308083,-13.398726475700341]]]}},{"type":"Feature","properties":{"Cell_ID":118,"Area_ha":1.0,"LC":"9:0.046274,13:0.953726","XMIN":727944.86160847,"YMIN":8517698.468999183,"XMAX":728044.86160847,"YMAX":8517798.468999183},"geometry":{"type":"Polygon","coordinates":[[[-72.89407256762652,-13.399630104834891],[-72.89408043308083,-13.398726475700341],[-72.89500345990274,-13.398734173894304],[-72.89499559788966,-13.399637803566728],[-72.89407256762652,-13.399630104834891]]]}},{"type":"Feature","properties":{"Cell_ID":119,"Area_ha":1.0,"LC":"13:1.000000","XMIN":727944.86160847,"YMIN":8517598.468999183,"XMAX":728044.86160847,"YMAX":8517698.468999183},"geometry":{"type":"Polygon","coordinates":[[[-72.89406470159275,-13.400533733900364],[-72.89407256762652,-13.399630104834891],[-72.89499559788966,-13.399637803566728],[-72.89498773529736,-13.400541433170071],[-72.89406470159275,-13.400533733900364]]]}},{"type":"Feature","properties":{"Cell_ID":120,"Area_ha":1.0,"LC":"5:0.368549,13:0.631451","XMIN":727944.86160847,"YMIN":8517498.468999183,"XMAX":728044.86160847,"YMAX":8517598.468999183},"geometry":{"type":"Polygon","coordinates":[[[-72.8940568349795,-13.40143736289675],[-72.89406470159275,-13.400533733900364],[-72.89498773529736,-13.400541433170071],[-72.89497987212586,-13.401445062704335],[-72.8940568349795,-13.40143736289675]]]}},{"type":"Feature","properties":{"Cell_ID":121,"Area_ha":1.0,"LC":"5:0.743267,13:0.256733","XMIN":727944.86160847,"YMIN":8517398.468999183,"XMAX":728044.86160847,"YMAX":8517498.468999183},"geometry":{"type":"Polygon","coordinates":[[[-72.89404896778676,-13.402340991824051],[-72.8940568349795,-13.40143736289675],[-72.89497987212586,-13.401445062704335],[-72.89497200837509,-13.402348692169511],[-72.89404896778676,-13.402340991824051]]]}},{"type":"Feature","properties":{"Cell_ID":122,"Area_ha":1.0,"LC":"5:0.621426,13:0.378574","XMIN":727944.86160847,"YMIN":8517298.468999183,"XMAX":728044.86160847,"YMAX":8517398.468999183},"geometry":{"type":"Polygon","coordinates":[[[-72.89404110001452,-13.40324462068226],[-72.89404896778676,-13.402340991824051],[-72.89497200837509,-13.402348692169511],[-72.89496414404512,-13.403252321565606],[-72.89404110001452,-13.40324462068226]]]}},{"type":"Feature","properties":{"Cell_ID":123,"Area_ha":1.0,"LC":"5:0.645788,13:0.354212","XMIN":727944.86160847,"YMIN":8517198.468999183,"XMAX":728044.86160847,"YMAX":8517298.468999183},"geometry":{"type":"Polygon","coordinates":[[[-72.89403323166277,-13.404148249471369],[-72.89404110001452,-13.40324462068226],[-72.89496414404512,-13.403252321565606],[-72.89495627913585,-13.404155950892605],[-72.89403323166277,-13.404148249471369]]]}},{"type":"Feature","properties":{"Cell_ID":124,"Area_ha":1.0,"LC":"16:0.481637,17:0.138699","XMIN":728044.86160847,"YMIN":8518598.468999183,"XMAX":728144.86160847,"YMAX":8518698.468999183},"geometry":{"type":"Polygon","coordinates":[[[-72.89322033713397,-13.391489742879319],[-72.89322820081249,-13.390586113661325],[-72.89415119609536,-13.39059381038156],[-72.89414333585579,-13.391497440137625],[-72.89322033713397,-13.391489742879319]]]}},{"type":"Feature","properties":{"Cell_ID":125,"Area_ha":1.0,"LC":"16:0.495153,17:0.427713","XMIN":728044.86160847,"YMIN":8518498.468999183,"XMAX":728144.86160847,"YMAX":8518598.468999183},"geometry":{"type":"Polygon","coordinates":[[[-72.89321247287582,-13.392393372028272],[-72.89322033713397,-13.391489742879319],[-72.89414333585579,-13.391497440137625],[-72.89413547503683,-13.392401069824652],[-72.89321247287582,-13.392393372028272]]]}},{"type":"Feature","properties":{"Cell_ID":126,"Area_ha":1.0,"LC":"16:0.305177,17:0.694823","XMIN":728044.86160847,"YMIN":8518398.468999183,"XMAX":728144.86160847,"YMAX":8518498.468999183},"geometry":{"type":"Polygon","coordinates":[[[-72.89320460803805,-13.393297001108175],[-72.89321247287582,-13.392393372028272],[-72.89413547503683,-13.392401069824652],[-72.8941276136385,-13.393304699442629],[-72.89320460803805,-13.393297001108175]]]}},{"type":"Feature","properties":{"Cell_ID":127,"Area_ha":1.0,"LC":"16:0.295153,17:0.704847","XMIN":728044.86160847,"YMIN":8518298.468999183,"XMAX":728144.86160847,"YMAX":8518398.468999183},"geometry":{"type":"Polygon","coordinates":[[[-72.89319674262062,-13.394200630119023],[-72.89320460803805,-13.393297001108175],[-72.8941276136385,-13.393304699442629],[-72.89411975166077,-13.394208328991558],[-72.89319674262062,-13.394200630119023]]]}},{"type":"Feature","properties":{"Cell_ID":128,"Area_ha":1.0,"LC":"13:0.052322,16:0.502781,17:0.444896","XMIN":728044.86160847,"YMIN":8518198.468999183,"XMAX":728144.86160847,"YMAX":8518298.468999183},"geometry":{"type":"Polygon","coordinates":[[[-72.89318887662353,-13.395104259060819],[-72.89319674262062,-13.394200630119023],[-72.89411975166077,-13.394208328991558],[-72.89411188910363,-13.395111958471437],[-72.89318887662353,-13.395104259060819]]]}},{"type":"Feature","properties":{"Cell_ID":129,"Area_ha":1.0,"LC":"13:0.057092,16:0.906659,17:0.036249","XMIN":728044.86160847,"YMIN":8518098.468999183,"XMAX":728144.86160847,"YMAX":8518198.468999183},"geometry":{"type":"Polygon","coordinates":[[[-72.89318101004676,-13.396007887933552],[-72.89318887662353,-13.395104259060819],[-72.89411188910363,-13.395111958471437],[-72.89410402596708,-13.396015587882262],[-72.89318101004676,-13.396007887933552]]]}},{"type":"Feature","properties":{"Cell_ID":130,"Area_ha":1.0,"LC":"13:0.041453,16:0.958547","XMIN":728044.86160847,"YMIN":8517998.468999183,"XMAX":728144.86160847,"YMAX":8518098.468999183},"geometry":{"type":"Polygon","coordinates":[[[-72.89317314289033,-13.396911516737218],[-72.89318101004676,-13.396007887933552],[-72.89410402596708,-13.396015587882262],[-72.8940961622511,-13.396919217224022],[-72.89317314289033,-13.396911516737218]]]}},{"type":"Feature","properties":{"Cell_ID":131,"Area_ha":1.0,"LC":"9:0.248549,13:0.588523,16:0.162928","XMIN":728044.86160847,"YMIN":8517898.468999183,"XMAX":728144.86160847,"YMAX":8517998.468999183},"geometry":{"type":"Polygon","coordinates":[[[-72.89316527515422,-13.397815145471819],[-72.89317314289033,-13.396911516737218],[-72.8940961622511,-13.396919217224022],[-72.89408829795569,-13.397822846496716],[-72.89316527515422,-13.397815145471819]]]}},{"type":"Feature","properties":{"Cell_ID":132,"Area_ha":1.0,"LC":"5:0.209927,9:0.428620,13:0.361453","XMIN":728044.86160847,"YMIN":8517798.468999183,"XMAX":728144.86160847,"YMAX":8517898.468999183},"geometry":{"type":"Polygon","coordinates":[[[-72.89315740683838,-13.398718774137341],[-72.89316527515422,-13.397815145471819],[-72.89408829795569,-13.397822846496716],[-72.89408043308083,-13.398726475700341],[-72.89315740683838,-13.398718774137341]]]}},{"type":"Feature","properties":{"Cell_ID":133,"Area_ha":1.0,"LC":"5:0.319641,9:0.023800,13:0.656559","XMIN":728044.86160847,"YMIN":8517698.468999183,"XMAX":728144.86160847,"YMAX":8517798.468999183},"geometry":{"type":"Polygon","coordinates":[[[-72.89314953794286,-13.39962240273379],[-72.89315740683838,-13.398718774137341],[-72.89408043308083,-13.398726475700341],[-72.89407256762652,-13.399630104834891],[-72.89314953794286,-13.39962240273379]]]}},{"type":"Feature","properties":{"Cell_ID":134,"Area_ha":1.0,"LC":"5:0.015280,13:0.984720","XMIN":728044.86160847,"YMIN":8517598.468999183,"XMAX":728144.86160847,"YMAX":8517698.468999183},"geometry":{"type":"Polygon","coordinates":[[[-72.8931416684676,-13.400526031261153],[-72.89314953794286,-13.39962240273379],[-72.89407256762652,-13.399630104834891],[-72.89406470159275,-13.400533733900364],[-72.8931416684676,-13.400526031261153]]]}},{"type":"Feature","properties":{"Cell_ID":135,"Area_ha":1.0,"LC":"5:0.684237,13:0.315763","XMIN":728044.86160847,"YMIN":8517498.468999183,"XMAX":728144.86160847,"YMAX":8517598.468999183},"geometry":{"type":"Polygon","coordinates":[[[-72.89313379841263,-13.401429659719431],[-72.8931416684676,-13.400526031261153],[-72.89406470159275,-13.400533733900364],[-72.8940568349795,-13.40143736289675],[-72.89313379841263,-13.401429659719431]]]}},{"type":"Feature","properties":{"Cell_ID":136,"Area_ha":1.0,"LC":"5:0.529006,13:0.470994","XMIN":728044.86160847,"YMIN":8517398.468999183,"XMAX":728144.86160847,"YMAX":8517498.468999183},"geometry":{"type":"Polygon","coordinates":[[[-72.89312592777792,-13.402333288108613],[-72.89313379841263,-13.401429659719431],[-72.8940568349795,-13.40143736289675],[-72.89404896778676,-13.402340991824051],[-72.89312592777792,-13.402333288108613]]]}},{"type":"Feature","properties":{"Cell_ID":137,"Area_ha":1.0,"LC":"5:0.123849,7:0.105641,13:0.770510","XMIN":728044.86160847,"YMIN":8517298.468999183,"XMAX":728144.86160847,"YMAX":8517398.468999183},"geometry":{"type":"Polygon","coordinates":[[[-72.89311805656344,-13.403236916428705],[-72.89312592777792,-13.402333288108613],[-72.89404896778676,-13.402340991824051],[-72.89404110001452,-13.40324462068226],[-72.89311805656344,-13.403236916428705]]]}},{"type":"Feature","properties":{"Cell_ID":138,"Area_ha":1.0,"LC":"5:0.553726,7:0.357267,13:0.089006","XMIN":728044.86160847,"YMIN":8517198.468999183,"XMAX":728144.86160847,"YMAX":8517298.468999183},"geometry":{"type":"Polygon","coordinates":[[[-72.89311018476921,-13.40414054467969],[-72.89311805656344,-13.403236916428705],[-72.89404110001452,-13.40324462068226],[-72.89403323166277,-13.404148249471369],[-72.89311018476921,-13.40414054467969]]]}},{"type":"Feature","properties":{"Cell_ID":139,"Area_ha":1.0,"LC":"9:0.104812,16:0.231173,17:0.202615","XMIN":728144.86160847,"YMIN":8518098.468999183,"XMAX":728244.86160847,"YMAX":8518198.468999183},"geometry":{"type":"Polygon","coordinates":[[[-72.89225799470614,-13.396000184616526],[-72.89226586472309,-13.395096556282114],[-72.89318887662353,-13.395104259060819],[-72.89318101004676,-13.396007887933552],[-72.89225799470614,-13.396000184616526]]]}},{"type":"Feature","properties":{"Cell_ID":140,"Area_ha":1.0,"LC":"9:0.355440,13:0.213243,16:0.141861,18:0.277604","XMIN":728144.86160847,"YMIN":8517998.468999183,"XMAX":728244.86160847,"YMAX":8518098.468999183},"geometry":{"type":"Polygon","coordinates":[[[-72.89225012410925,-13.396903812881865],[-72.89225799470614,-13.396000184616526],[-72.89318101004676,-13.396007887933552],[-72.89317314289033,-13.396911516737218],[-72.89225012410925,-13.396903812881865]]]}},{"type":"Feature","properties":{"Cell_ID":141,"Area_ha":1.0,"LC":"9:0.191353,13:0.362374,18:0.446274","XMIN":728144.86160847,"YMIN":8517898.468999183,"XMAX":728244.86160847,"YMAX":8517998.468999183},"geometry":{"type":"Polygon","coordinates":[[[-72.89224225293242,-13.397807441078134],[-72.89225012410925,-13.396903812881865],[-72.89317314289033,-13.396911516737218],[-72.89316527515422,-13.397815145471819],[-72.89224225293242,-13.397807441078134]]]}},{"type":"Feature","properties":{"Cell_ID":142,"Area_ha":1.0,"LC":"5:0.145641,9:0.023800,13:0.830559","XMIN":728144.86160847,"YMIN":8517798.468999183,"XMAX":728244.86160847,"YMAX":8517898.468999183},"geometry":{"type":"Polygon","coordinates":[[[-72.89223438117565,-13.398711069205321],[-72.89224225293242,-13.397807441078134],[-72.89316527515422,-13.397815145471819],[-72.89315740683838,-13.398718774137341],[-72.89223438117565,-13.398711069205321]]]}},{"type":"Feature","properties":{"Cell_ID":143,"Area_ha":1.0,"LC":"5:0.915231,13:0.084769","XMIN":728144.86160847,"YMIN":8517698.468999183,"XMAX":728244.86160847,"YMAX":8517798.468999183},"geometry":{"type":"Polygon","coordinates":[[[-72.8922265088389,-13.399614697263427],[-72.89223438117565,-13.398711069205321],[-72.89315740683838,-13.398718774137341],[-72.89314953794286,-13.39962240273379],[-72.8922265088389,-13.399614697263427]]]}},{"type":"Feature","properties":{"Cell_ID":144,"Area_ha":1.0,"LC":"5:0.296733,13:0.703267","XMIN":728144.86160847,"YMIN":8517598.468999183,"XMAX":728244.86160847,"YMAX":8517698.468999183},"geometry":{"type":"Polygon","coordinates":[[[-72.8922186359222,-13.400518325252449],[-72.8922265088389,-13.399614697263427],[-72.89314953794286,-13.39962240273379],[-72.8931416684676,-13.400526031261153],[-72.8922186359222,-13.400518325252449]]]}},{"type":"Feature","properties":{"Cell_ID":145,"Area_ha":1.0,"LC":"5:0.786225,13:0.213775","XMIN":728144.86160847,"YMIN":8517498.468999183,"XMAX":728244.86160847,"YMAX":8517598.468999183},"geometry":{"type":"Polygon","coordinates":[[[-72.8922107624255,-13.401421953172381],[-72.8922186359222,-13.400518325252449],[-72.8931416684676,-13.400526031261153],[-72.89313379841263,-13.401429659719431],[-72.8922107624255,-13.401421953172381]]]}},{"type":"Feature","properties":{"Cell_ID":146,"Area_ha":1.0,"LC":"5:0.039079,13:0.960921","XMIN":728144.86160847,"YMIN":8517398.468999183,"XMAX":728244.86160847,"YMAX":8517498.468999183},"geometry":{"type":"Polygon","coordinates":[[[-72.89220288834882,-13.40232558102321],[-72.8922107624255,-13.401421953172381],[-72.89313379841263,-13.401429659719431],[-72.89312592777792,-13.402333288108613],[-72.89220288834882,-13.40232558102321]]]}},{"type":"Feature","properties":{"Cell_ID":147,"Area_ha":1.0,"LC":"5:0.089927,7:0.044237,13:0.844867,16:0.020969","XMIN":728144.86160847,"YMIN":8517298.468999183,"XMAX":728244.86160847,"YMAX":8517398.468999183},"geometry":{"type":"Polygon","coordinates":[[[-72.89219501369212,-13.403229208804946],[-72.89220288834882,-13.40232558102321],[-72.89312592777792,-13.402333288108613],[-72.89311805656344,-13.403236916428705],[-72.89219501369212,-13.403229208804946]]]}},{"type":"Feature","properties":{"Cell_ID":148,"Area_ha":1.0,"LC":"5:0.534261,7:0.292855,13:0.005255,16:0.167629","XMIN":728144.86160847,"YMIN":8517198.468999183,"XMAX":728244.86160847,"YMAX":8517298.468999183},"geometry":{"type":"Polygon","coordinates":[[[-72.89218713845541,-13.404132836517576],[-72.89219501369212,-13.403229208804946],[-72.89311805656344,-13.403236916428705],[-72.89311018476921,-13.40414054467969],[-72.89218713845541,-13.404132836517576]]]}},{"type":"Feature","properties":{"Cell_ID":149,"Area_ha":1.0,"LC":"5:0.337751,16:0.662249","XMIN":728144.86160847,"YMIN":8517098.468999183,"XMAX":728244.86160847,"YMAX":8517198.468999183},"geometry":{"type":"Polygon","coordinates":[[[-72.89217926263869,-13.405036464161102],[-72.89218713845541,-13.404132836517576],[-72.89311018476921,-13.40414054467969],[-72.89310231239521,-13.40504417286158],[-72.89217926263869,-13.405036464161102]]]}},{"type":"Feature","properties":{"Cell_ID":150,"Area_ha":1.0,"LC":"9:0.569568,13:0.281280,16:0.004690,18:0.143898","XMIN":728244.86160847,"YMIN":8517898.468999183,"XMAX":728344.86160847,"YMAX":8517998.468999183},"geometry":{"type":"Polygon","coordinates":[[[-72.8913192312906,-13.39779973331567],[-72.8913271059081,-13.396896105657966],[-72.89225012410925,-13.396903812881865],[-72.89224225293242,-13.397807441078134],[-72.8913192312906,-13.39779973331567]]]}},{"type":"Feature","properties":{"Cell_ID":151,"Area_ha":1.0,"LC":"5:0.044237,9:0.076249,13:0.879514","XMIN":728244.86160847,"YMIN":8517798.468999183,"XMAX":728344.86160847,"YMAX":8517898.468999183},"geometry":{"type":"Polygon","coordinates":[[[-72.89131135609287,-13.398703360904285],[-72.8913192312906,-13.39779973331567],[-72.89224225293242,-13.397807441078134],[-72.89223438117565,-13.398711069205321],[-72.89131135609287,-13.398703360904285]]]}},{"type":"Feature","properties":{"Cell_ID":152,"Area_ha":1.0,"LC":"5:0.295153,13:0.704847","XMIN":728244.86160847,"YMIN":8517698.468999183,"XMAX":728344.86160847,"YMAX":8517798.468999183},"geometry":{"type":"Polygon","coordinates":[[[-72.89130348031493,-13.399606988423821],[-72.89131135609287,-13.398703360904285],[-72.89223438117565,-13.398711069205321],[-72.8922265088389,-13.399614697263427],[-72.89130348031493,-13.399606988423821]]]}},{"type":"Feature","properties":{"Cell_ID":153,"Area_ha":1.0,"LC":"5:0.228037,13:0.771963","XMIN":728244.86160847,"YMIN":8517598.468999183,"XMAX":728344.86160847,"YMAX":8517698.468999183},"geometry":{"type":"Polygon","coordinates":[[[-72.89129560395678,-13.400510615874262],[-72.89130348031493,-13.399606988423821],[-72.8922265088389,-13.399614697263427],[-72.8922186359222,-13.400518325252449],[-72.89129560395678,-13.400510615874262]]]}},{"type":"Feature","properties":{"Cell_ID":154,"Area_ha":1.0,"LC":"5:0.300940,13:0.683345,16:0.015714","XMIN":728244.86160847,"YMIN":8517498.468999183,"XMAX":728344.86160847,"YMAX":8517598.468999183},"geometry":{"type":"Polygon","coordinates":[[[-72.89128772701837,-13.40141424325561],[-72.89129560395678,-13.400510615874262],[-72.8922186359222,-13.400518325252449],[-72.8922107624255,-13.401421953172381],[-72.89128772701837,-13.40141424325561]]]}},{"type":"Feature","properties":{"Cell_ID":155,"Area_ha":1.0,"LC":"13:0.445226,16:0.554774","XMIN":728244.86160847,"YMIN":8517398.468999183,"XMAX":728344.86160847,"YMAX":8517498.468999183},"geometry":{"type":"Polygon","coordinates":[[[-72.89127984949972,-13.402317870567856],[-72.89128772701837,-13.40141424325561],[-72.8922107624255,-13.401421953172381],[-72.89220288834882,-13.40232558102321],[-72.89127984949972,-13.402317870567856]]]}},{"type":"Feature","properties":{"Cell_ID":156,"Area_ha":1.0,"LC":"13:0.126147,16:0.873853","XMIN":728244.86160847,"YMIN":8517298.468999183,"XMAX":728344.86160847,"YMAX":8517398.468999183},"geometry":{"type":"Polygon","coordinates":[[[-72.89127197140083,-13.403221497811003],[-72.89127984949972,-13.402317870567856],[-72.89220288834882,-13.40232558102321],[-72.89219501369212,-13.403229208804946],[-72.89127197140083,-13.403221497811003]]]}},{"type":"Feature","properties":{"Cell_ID":157,"Area_ha":1.0,"LC":"5:0.038061,13:0.004769,16:0.957170","XMIN":728244.86160847,"YMIN":8517198.468999183,"XMAX":728344.86160847,"YMAX":8517298.468999183},"geometry":{"type":"Polygon","coordinates":[[[-72.89126409272164,-13.404125124985038],[-72.89127197140083,-13.403221497811003],[-72.89219501369212,-13.403229208804946],[-72.89218713845541,-13.404132836517576],[-72.89126409272164,-13.404125124985038]]]}},{"type":"Feature","properties":{"Cell_ID":158,"Area_ha":1.0,"LC":"5:0.518061,9:0.097653,16:0.384286","XMIN":728244.86160847,"YMIN":8517098.468999183,"XMAX":728344.86160847,"YMAX":8517198.468999183},"geometry":{"type":"Polygon","coordinates":[[[-72.89125621346219,-13.405028752089963],[-72.89126409272164,-13.404125124985038],[-72.89218713845541,-13.404132836517576],[-72.89217926263869,-13.405036464161102],[-72.89125621346219,-13.405028752089963]]]}},{"type":"Feature","properties":{"Cell_ID":159,"Area_ha":1.0,"LC":"9:0.026225,16:0.973775","XMIN":728244.86160847,"YMIN":8516998.468999183,"XMAX":728344.86160847,"YMAX":8517098.468999183},"geometry":{"type":"Polygon","coordinates":[[[-72.89124833362246,-13.405932379125769],[-72.89125621346219,-13.405028752089963],[-72.89217926263869,-13.405036464161102],[-72.89217138624193,-13.405940091735507],[-72.89124833362246,-13.405932379125769]]]}},{"type":"Feature","properties":{"Cell_ID":160,"Area_ha":1.0,"LC":"16:0.648183,18:0.351817","XMIN":728244.86160847,"YMIN":8516798.468999183,"XMAX":728344.86160847,"YMAX":8516898.468999183},"geometry":{"type":"Polygon","coordinates":[[[-72.89123257220207,-13.407739632990017],[-72.89124045320241,-13.406836006092455],[-72.8921635092651,-13.4068437192408],[-72.89215563170823,-13.40774734667697],[-72.89123257220207,-13.407739632990017]]]}},{"type":"Feature","properties":{"Cell_ID":161,"Area_ha":1.0,"LC":"16:0.228957,18:0.771043","XMIN":728244.86160847,"YMIN":8516698.468999183,"XMAX":728344.86160847,"YMAX":8516798.468999183},"geometry":{"type":"Polygon","coordinates":[[[-72.89122469062141,-13.40864325981845],[-72.89123257220207,-13.407739632990017],[-72.89215563170823,-13.40774734667697],[-72.89214775357131,-13.408650974044017],[-72.89122469062141,-13.40864325981845]]]}},{"type":"Feature","properties":{"Cell_ID":162,"Area_ha":1.0,"LC":"16:0.832371,18:0.167629","XMIN":728244.86160847,"YMIN":8516598.468999183,"XMAX":728344.86160847,"YMAX":8516698.468999183},"geometry":{"type":"Polygon","coordinates":[[[-72.89121680846041,-13.409546886577745],[-72.89122469062141,-13.40864325981845],[-72.89214775357131,-13.408650974044017],[-72.89213987485431,-13.409554601341931],[-72.89121680846041,-13.409546886577745]]]}},{"type":"Feature","properties":{"Cell_ID":163,"Area_ha":1.0,"LC":"9:0.446558,16:0.078441","XMIN":728344.86160847,"YMIN":8517898.468999183,"XMAX":728444.86160847,"YMAX":8517998.468999183},"geometry":{"type":"Polygon","coordinates":[[[-72.89039621022896,-13.397792022184436],[-72.89040408828716,-13.396888395065538],[-72.8913271059081,-13.396896105657966],[-72.8913192312906,-13.39779973331567],[-72.89039621022896,-13.397792022184436]]]}},{"type":"Feature","properties":{"Cell_ID":164,"Area_ha":1.0,"LC":"9:0.673465,13:0.321280,16:0.005255","XMIN":728344.86160847,"YMIN":8517798.468999183,"XMAX":728444.86160847,"YMAX":8517898.468999183},"geometry":{"type":"Polygon","coordinates":[[[-72.8903883315903,-13.398695649234249],[-72.89039621022896,-13.397792022184436],[-72.8913192312906,-13.39779973331567],[-72.89131135609287,-13.398703360904285],[-72.8903883315903,-13.398695649234249]]]}},{"type":"Feature","properties":{"Cell_ID":165,"Area_ha":1.0,"LC":"5:0.081939,9:0.312933,13:0.605128","XMIN":728344.86160847,"YMIN":8517698.468999183,"XMAX":728444.86160847,"YMAX":8517798.468999183},"geometry":{"type":"Polygon","coordinates":[[[-72.89038045237118,-13.399599276214973],[-72.8903883315903,-13.398695649234249],[-72.89131135609287,-13.398703360904285],[-72.89130348031493,-13.399606988423821],[-72.89038045237118,-13.399599276214973]]]}},{"type":"Feature","properties":{"Cell_ID":166,"Area_ha":1.0,"LC":"9:0.047194,13:0.952806","XMIN":728344.86160847,"YMIN":8517598.468999183,"XMAX":728444.86160847,"YMAX":8517698.468999183},"geometry":{"type":"Polygon","coordinates":[[[-72.89037257257158,-13.4005029031266],[-72.89038045237118,-13.399599276214973],[-72.89130348031493,-13.399606988423821],[-72.89129560395678,-13.400510615874262],[-72.89037257257158,-13.4005029031266]]]}},{"type":"Feature","properties":{"Cell_ID":167,"Area_ha":1.0,"LC":"13:0.568183,16:0.431817","XMIN":728344.86160847,"YMIN":8517498.468999183,"XMAX":728444.86160847,"YMAX":8517598.468999183},"geometry":{"type":"Polygon","coordinates":[[[-72.89036469219148,-13.401406529969128],[-72.89037257257158,-13.4005029031266],[-72.89129560395678,-13.400510615874262],[-72.89128772701837,-13.40141424325561],[-72.89036469219148,-13.401406529969128]]]}},{"type":"Feature","properties":{"Cell_ID":168,"Area_ha":1.0,"LC":"9:0.216635,16:0.783365","XMIN":728344.86160847,"YMIN":8517398.468999183,"XMAX":728444.86160847,"YMAX":8517498.468999183},"geometry":{"type":"Polygon","coordinates":[[[-72.89035681123089,-13.402310156742555],[-72.89036469219148,-13.401406529969128],[-72.89128772701837,-13.40141424325561],[-72.89127984949972,-13.402317870567856],[-72.89035681123089,-13.402310156742555]]]}},{"type":"Feature","properties":{"Cell_ID":169,"Area_ha":1.0,"LC":"9:0.086274,16:0.913726","XMIN":728344.86160847,"YMIN":8517298.468999183,"XMAX":728444.86160847,"YMAX":8517398.468999183},"geometry":{"type":"Polygon","coordinates":[[[-72.89034892968978,-13.403213783446878],[-72.89035681123089,-13.402310156742555],[-72.89127984949972,-13.402317870567856],[-72.89127197140083,-13.403221497811003],[-72.89034892968978,-13.403213783446878]]]}},{"type":"Feature","properties":{"Cell_ID":170,"Area_ha":1.0,"LC":"16:1.000000","XMIN":728344.86160847,"YMIN":8517198.468999183,"XMAX":728444.86160847,"YMAX":8517298.468999183},"geometry":{"type":"Polygon","coordinates":[[[-72.89034104756816,-13.40411741008208],[-72.89034892968978,-13.403213783446878],[-72.89127197140083,-13.403221497811003],[-72.89126409272164,-13.404125124985038],[-72.89034104756816,-13.40411741008208]]]}},{"type":"Feature","properties":{"Cell_ID":171,"Area_ha":1.0,"LC":"5:0.059031,9:0.342249,16:0.598720","XMIN":728344.86160847,"YMIN":8517098.468999183,"XMAX":728444.86160847,"YMAX":8517198.468999183},"geometry":{"type":"Polygon","coordinates":[[[-72.890333164866,-13.405021036648176],[-72.89034104756816,-13.40411741008208],[-72.89126409272164,-13.404125124985038],[-72.89125621346219,-13.405028752089963],[-72.890333164866,-13.405021036648176]]]}},{"type":"Feature","properties":{"Cell_ID":172,"Area_ha":1.0,"LC":"9:0.133873,16:0.396608,17:0.469519","XMIN":728344.86160847,"YMIN":8516998.468999183,"XMAX":728444.86160847,"YMAX":8517098.468999183},"geometry":{"type":"Polygon","coordinates":[[[-72.89032528158329,-13.405924663145145],[-72.890333164866,-13.405021036648176],[-72.89125621346219,-13.405028752089963],[-72.89124833362246,-13.405932379125769],[-72.89032528158329,-13.405924663145145]]]}},{"type":"Feature","properties":{"Cell_ID":173,"Area_ha":1.0,"LC":"16:0.295153,17:0.704847","XMIN":728344.86160847,"YMIN":8516898.468999183,"XMAX":728444.86160847,"YMAX":8516998.468999183},"geometry":{"type":"Polygon","coordinates":[[[-72.89031739772004,-13.406828289572992],[-72.89032528158329,-13.405924663145145],[-72.89124833362246,-13.405932379125769],[-72.89124045320241,-13.406836006092455],[-72.89031739772004,-13.406828289572992]]]}},{"type":"Feature","properties":{"Cell_ID":174,"Area_ha":1.0,"LC":"16:0.432806,17:0.404896,18:0.162298","XMIN":728344.86160847,"YMIN":8516798.468999183,"XMAX":728444.86160847,"YMAX":8516898.468999183},"geometry":{"type":"Polygon","coordinates":[[[-72.89030951327624,-13.407731915931707],[-72.89031739772004,-13.406828289572992],[-72.89124045320241,-13.406836006092455],[-72.89123257220207,-13.407739632990017],[-72.89030951327624,-13.407731915931707]]]}},{"type":"Feature","properties":{"Cell_ID":175,"Area_ha":1.0,"LC":"16:0.201939,17:0.036249,18:0.761812","XMIN":728344.86160847,"YMIN":8516698.468999183,"XMAX":728444.86160847,"YMAX":8516798.468999183},"geometry":{"type":"Polygon","coordinates":[[[-72.89030162825183,-13.408635542221292],[-72.89030951327624,-13.407731915931707],[-72.89123257220207,-13.407739632990017],[-72.89122469062141,-13.40864325981845],[-72.89030162825183,-13.408635542221292]]]}},{"type":"Feature","properties":{"Cell_ID":176,"Area_ha":1.0,"LC":"16:0.310994,18:0.689006","XMIN":728344.86160847,"YMIN":8516598.468999183,"XMAX":728444.86160847,"YMAX":8516698.468999183},"geometry":{"type":"Polygon","coordinates":[[[-72.89029374264688,-13.409539168441734],[-72.89030162825183,-13.408635542221292],[-72.89122469062141,-13.40864325981845],[-72.89121680846041,-13.409546886577745],[-72.89029374264688,-13.409539168441734]]]}},{"type":"Feature","properties":{"Cell_ID":177,"Area_ha":1.0,"LC":"16:0.959902,18:0.040098","XMIN":728344.86160847,"YMIN":8516498.468999183,"XMAX":728444.86160847,"YMAX":8516598.468999183},"geometry":{"type":"Polygon","coordinates":[[[-72.89028585646129,-13.410442794593035],[-72.89029374264688,-13.409539168441734],[-72.89121680846041,-13.409546886577745],[-72.89120892571908,-13.410450513267904],[-72.89028585646129,-13.410442794593035]]]}},{"type":"Feature","properties":{"Cell_ID":178,"Area_ha":1.0,"LC":"5:0.029976,9:0.270334,16:0.076055,17:0.230962","XMIN":728444.86160847,"YMIN":8517798.468999183,"XMAX":728544.86160847,"YMAX":8517898.468999183},"geometry":{"type":"Polygon","coordinates":[[[-72.88946530766822,-13.398687934195218],[-72.88947318974779,-13.397784307684448],[-72.89039621022896,-13.397792022184436],[-72.8903883315903,-13.398695649234249],[-72.88946530766822,-13.398687934195218]]]}},{"type":"Feature","properties":{"Cell_ID":179,"Area_ha":1.0,"LC":"5:0.428037,9:0.392806,17:0.179158","XMIN":728444.86160847,"YMIN":8517698.468999183,"XMAX":728544.86160847,"YMAX":8517798.468999183},"geometry":{"type":"Polygon","coordinates":[[[-72.88945742500792,-13.399591560636896],[-72.88946530766822,-13.398687934195218],[-72.8903883315903,-13.398695649234249],[-72.89038045237118,-13.399599276214973],[-72.88945742500792,-13.399591560636896]]]}},{"type":"Feature","properties":{"Cell_ID":180,"Area_ha":1.0,"LC":"5:0.020049,9:0.847629,13:0.132322","XMIN":728444.86160847,"YMIN":8517598.468999183,"XMAX":728544.86160847,"YMAX":8517698.468999183},"geometry":{"type":"Polygon","coordinates":[[[-72.88944954176688,-13.400495187009476],[-72.88945742500792,-13.399591560636896],[-72.89038045237118,-13.399599276214973],[-72.89037257257158,-13.4005029031266],[-72.88944954176688,-13.400495187009476]]]}},{"type":"Feature","properties":{"Cell_ID":181,"Area_ha":1.0,"LC":"9:0.714872,13:0.042830,16:0.242298","XMIN":728444.86160847,"YMIN":8517498.468999183,"XMAX":728544.86160847,"YMAX":8517598.468999183},"geometry":{"type":"Polygon","coordinates":[[[-72.8894416579451,-13.401398813312952],[-72.88944954176688,-13.400495187009476],[-72.89037257257158,-13.4005029031266],[-72.89036469219148,-13.401406529969128],[-72.8894416579451,-13.401398813312952]]]}},{"type":"Feature","properties":{"Cell_ID":182,"Area_ha":1.0,"LC":"9:0.928115,16:0.071885","XMIN":728444.86160847,"YMIN":8517398.468999183,"XMAX":728544.86160847,"YMAX":8517498.468999183},"geometry":{"type":"Polygon","coordinates":[[[-72.88943377354256,-13.402302439547322],[-72.8894416579451,-13.401398813312952],[-72.89036469219148,-13.401406529969128],[-72.89035681123089,-13.402310156742555],[-72.88943377354256,-13.402302439547322]]]}},{"type":"Feature","properties":{"Cell_ID":183,"Area_ha":1.0,"LC":"9:0.330122,16:0.669878","XMIN":728444.86160847,"YMIN":8517298.468999183,"XMAX":728544.86160847,"YMAX":8517398.468999183},"geometry":{"type":"Polygon","coordinates":[[[-72.88942588855927,-13.40320606571258],[-72.88943377354256,-13.402302439547322],[-72.89035681123089,-13.402310156742555],[-72.89034892968978,-13.403213783446878],[-72.88942588855927,-13.40320606571258]]]}},{"type":"Feature","properties":{"Cell_ID":184,"Area_ha":1.0,"LC":"16:0.963316,17:0.036684","XMIN":728444.86160847,"YMIN":8517198.468999183,"XMAX":728544.86160847,"YMAX":8517298.468999183},"geometry":{"type":"Polygon","coordinates":[[[-72.88941800299519,-13.40410969180872],[-72.88942588855927,-13.40320606571258],[-72.89034892968978,-13.403213783446878],[-72.89034104756816,-13.40411741008208],[-72.88941800299519,-13.40410969180872]]]}},{"type":"Feature","properties":{"Cell_ID":185,"Area_ha":1.0,"LC":"16:0.411934,17:0.588066","XMIN":728444.86160847,"YMIN":8517098.468999183,"XMAX":728544.86160847,"YMAX":8517198.468999183},"geometry":{"type":"Polygon","coordinates":[[[-72.88941011685034,-13.405013317835746],[-72.88941800299519,-13.40410969180872],[-72.89034104756816,-13.40411741008208],[-72.890333164866,-13.405021036648176],[-72.88941011685034,-13.405013317835746]]]}},{"type":"Feature","properties":{"Cell_ID":186,"Area_ha":1.0,"LC":"7:0.558525,16:0.070994,17:0.370481","XMIN":728444.86160847,"YMIN":8516998.468999183,"XMAX":728544.86160847,"YMAX":8517098.468999183},"geometry":{"type":"Polygon","coordinates":[[[-72.88940223012467,-13.405916943793642],[-72.88941011685034,-13.405013317835746],[-72.890333164866,-13.405021036648176],[-72.89032528158329,-13.405924663145145],[-72.88940223012467,-13.405916943793642]]]}},{"type":"Feature","properties":{"Cell_ID":187,"Area_ha":1.0,"LC":"7:0.746599,17:0.095153","XMIN":728444.86160847,"YMIN":8516898.468999183,"XMAX":728544.86160847,"YMAX":8516998.468999183},"geometry":{"type":"Polygon","coordinates":[[[-72.88939434281822,-13.406820569682411],[-72.88940223012467,-13.405916943793642],[-72.89032528158329,-13.405924663145145],[-72.89031739772004,-13.406828289572992],[-72.88939434281822,-13.406820569682411]]]}},{"type":"Feature","properties":{"Cell_ID":188,"Area_ha":1.0,"LC":"7:0.194205,17:0.348423","XMIN":728444.86160847,"YMIN":8516798.468999183,"XMAX":728544.86160847,"YMAX":8516898.468999183},"geometry":{"type":"Polygon","coordinates":[[[-72.88938645493096,-13.40772419550205],[-72.88939434281822,-13.406820569682411],[-72.89031739772004,-13.406828289572992],[-72.89030951327624,-13.407731915931707],[-72.88938645493096,-13.40772419550205]]]}},{"type":"Feature","properties":{"Cell_ID":189,"Area_ha":1.0,"LC":"16:0.671956,18:0.133243","XMIN":728444.86160847,"YMIN":8516598.468999183,"XMAX":728544.86160847,"YMAX":8516698.468999183},"geometry":{"type":"Polygon","coordinates":[[[-72.88937067741391,-13.409531446933904],[-72.88937856646285,-13.408627821252548],[-72.89030162825183,-13.408635542221292],[-72.89029374264688,-13.409539168441734],[-72.88937067741391,-13.409531446933904]]]}},{"type":"Feature","properties":{"Cell_ID":190,"Area_ha":1.0,"LC":"16:0.728571,18:0.271429","XMIN":728444.86160847,"YMIN":8516498.468999183,"XMAX":728544.86160847,"YMAX":8516598.468999183},"geometry":{"type":"Polygon","coordinates":[[[-72.88936278778412,-13.410435072546116],[-72.88937067741391,-13.409531446933904],[-72.89029374264688,-13.409539168441734],[-72.89028585646129,-13.410442794593035],[-72.88936278778412,-13.410435072546116]]]}},{"type":"Feature","properties":{"Cell_ID":191,"Area_ha":1.0,"LC":"16:0.721812,18:0.278188","XMIN":728444.86160847,"YMIN":8516398.468999183,"XMAX":728544.86160847,"YMAX":8516498.468999183},"geometry":{"type":"Polygon","coordinates":[[[-72.88935489757348,-13.411338698089175],[-72.88936278778412,-13.410435072546116],[-72.89028585646129,-13.410442794593035],[-72.89027796969513,-13.41134642067519],[-72.88935489757348,-13.411338698089175]]]}},{"type":"Feature","properties":{"Cell_ID":192,"Area_ha":1.0,"LC":"16:0.899951,18:0.100049","XMIN":728444.86160847,"YMIN":8516298.468999183,"XMAX":728544.86160847,"YMAX":8516398.468999183},"geometry":{"type":"Polygon","coordinates":[[[-72.88934700678197,-13.412242323563078],[-72.88935489757348,-13.411338698089175],[-72.89027796969513,-13.41134642067519],[-72.89027008234835,-13.412250046688198],[-72.88934700678197,-13.412242323563078]]]}},{"type":"Feature","properties":{"Cell_ID":193,"Area_ha":1.0,"LC":"5:0.000494,9:0.125128,16:0.173489,17:0.560000","XMIN":728544.86160847,"YMIN":8517598.468999183,"XMAX":728644.86160847,"YMAX":8517698.468999183},"geometry":{"type":"Polygon","coordinates":[[[-72.88852651154292,-13.400487467522895],[-72.88853439822539,-13.3995838416896],[-72.88945742500792,-13.399591560636896],[-72.88944954176688,-13.400495187009476],[-72.88852651154292,-13.400487467522895]]]}},{"type":"Feature","properties":{"Cell_ID":194,"Area_ha":1.0,"LC":"9:0.405128,16:0.297154,17:0.290024","XMIN":728544.86160847,"YMIN":8517498.468999183,"XMAX":728644.86160847,"YMAX":8517598.468999183},"geometry":{"type":"Polygon","coordinates":[[[-72.88851862427947,-13.401391093287083],[-72.88852651154292,-13.400487467522895],[-72.88944954176688,-13.400495187009476],[-72.8894416579451,-13.401398813312952],[-72.88851862427947,-13.401391093287083]]]}},{"type":"Feature","properties":{"Cell_ID":195,"Area_ha":1.0,"LC":"9:0.495153,16:0.154872,17:0.349976","XMIN":728544.86160847,"YMIN":8517398.468999183,"XMAX":728644.86160847,"YMAX":8517498.468999183},"geometry":{"type":"Polygon","coordinates":[[[-72.888510736435,-13.40229471898216],[-72.88851862427947,-13.401391093287083],[-72.8894416579451,-13.401398813312952],[-72.88943377354256,-13.402302439547322],[-72.888510736435,-13.40229471898216]]]}},{"type":"Feature","properties":{"Cell_ID":196,"Area_ha":1.0,"LC":"9:0.203849,16:0.157559,17:0.586114","XMIN":728544.86160847,"YMIN":8517298.468999183,"XMAX":728644.86160847,"YMAX":8517398.468999183},"geometry":{"type":"Polygon","coordinates":[[[-72.88850284800952,-13.403198344608125],[-72.888510736435,-13.40229471898216],[-72.88943377354256,-13.402302439547322],[-72.88942588855927,-13.40320606571258],[-72.88850284800952,-13.403198344608125]]]}},{"type":"Feature","properties":{"Cell_ID":197,"Area_ha":1.0,"LC":"16:0.192585,17:0.552530","XMIN":728544.86160847,"YMIN":8517198.468999183,"XMAX":728644.86160847,"YMAX":8517298.468999183},"geometry":{"type":"Polygon","coordinates":[[[-72.88849495900301,-13.404101970164968],[-72.88850284800952,-13.403198344608125],[-72.88942588855927,-13.40320606571258],[-72.88941800299519,-13.40410969180872],[-72.88849495900301,-13.404101970164968]]]}},{"type":"Feature","properties":{"Cell_ID":198,"Area_ha":1.0,"LC":"16:0.133243,17:0.120416,18:0.531237","XMIN":728544.86160847,"YMIN":8516398.468999183,"XMAX":728644.86160847,"YMAX":8516498.468999183},"geometry":{"type":"Polygon","coordinates":[[[-72.88843182603271,-13.411330972130878],[-72.8884397196878,-13.41042734712715],[-72.88936278778412,-13.410435072546116],[-72.88935489757348,-13.411338698089175],[-72.88843182603271,-13.411330972130878]]]}},{"type":"Feature","properties":{"Cell_ID":199,"Area_ha":1.0,"LC":"16:0.631788,17:0.005255,18:0.362957","XMIN":728544.86160847,"YMIN":8516298.468999183,"XMAX":728644.86160847,"YMAX":8516398.468999183},"geometry":{"type":"Polygon","coordinates":[[[-72.88842393179648,-13.412234597065448],[-72.88843182603271,-13.411330972130878],[-72.88935489757348,-13.411338698089175],[-72.88934700678197,-13.412242323563078],[-72.88842393179648,-13.412234597065448]]]}}]}