{"type":"FeatureCollection","features":[{"type":"Feature","properties":{"Cell_ID":1,"Area_ha":1.0,"LC":"16:1.000000","XMIN":728244.86160847,"YMIN":8516013.59738907,"XMAX":728344.86160847,"YMAX":8516113.59738907},"geometry":{"type":"Polygon","coordinates":[[[-72.89117069631503,-13.414831941569398],[-72.89117858187043,-13.413928315214534],[-72.89210166496682,-13.413936032590376],[-72.8920937828569,-13.414839659483876],[-72.89117069631503,-13.414831941569398]]]}},{"type":"Feature","properties":{"Cell_ID":2,"Area_ha":1.0,"LC":"9:0.459031,13:0.342199,16:0.198771","XMIN":728244.86160847,"YMIN":8515913.59738907,"XMAX":728344.86160847,"YMAX":8516013.59738907},"geometry":{"type":"Polygon","coordinates":[[[-72.89116281017925,-13.415735567855098],[-72.89117069631503,-13.414831941569398],[-72.8920937828569,-13.414839659483876],[-72.89208590016685,-13.41574328630822],[-72.89116281017925,-13.415735567855098]]]}},{"type":"Feature","properties":{"Cell_ID":3,"Area_ha":1.0,"LC":"16:1.000000","XMIN":728344.86160847,"YMIN":8516113.59738907,"XMAX":728444.86160847,"YMAX":8516213.59738907},"geometry":{"type":"Polygon","coordinates":[[[-72.89025549935442,-13.413920594465727],[-72.89026338777462,-13.413016968580575],[-72.89118646684543,-13.413024688790514],[-72.89117858187043,-13.413928315214534],[-72.89025549935442,-13.413920594465727]]]}},{"type":"Feature","properties":{"Cell_ID":4,"Area_ha":1.0,"LC":"9:0.341917,16:0.658083","XMIN":728344.86160847,"YMIN":8516013.59738907,"XMAX":728444.86160847,"YMAX":8516113.59738907},"geometry":{"type":"Polygon","coordinates":[[[-72.89024761035357,-13.414824220281716],[-72.89025549935442,-13.413920594465727],[-72.89117858187043,-13.413928315214534],[-72.89117069631503,-13.414831941569398],[-72.89024761035357,-13.414824220281716]]]}},{"type":"Feature","properties":{"Cell_ID":5,"Area_ha":1.0,"LC":"9:0.380022,13:0.376114,16:0.243864","XMIN":728344.86160847,"YMIN":8515913.59738907,"XMAX":728444.86160847,"YMAX":8516013.59738907},"geometry":{"type":"Polygon","coordinates":[[[-72.89023972077207,-13.415727846028535],[-72.89024761035357,-13.414824220281716],[-72.89117069631503,-13.414831941569398],[-72.89116281017925,-13.415735567855098],[-72.89023972077207,-13.415727846028535]]]}},{"type":"Feature","properties":{"Cell_ID":6,"Area_ha":1.0,"LC":"9:0.020969,13:0.439038,16:0.539992","XMIN":728344.86160847,"YMIN":8515813.59738907,"XMAX":728444.86160847,"YMAX":8515913.59738907},"geometry":{"type":"Polygon","coordinates":[[[-72.89023183060992,-13.416631471706182],[-72.89023972077207,-13.415727846028535],[-72.89116281017925,-13.415735567855098],[-72.89115492346305,-13.416639194071626],[-72.89023183060992,-13.416631471706182]]]}},{"type":"Feature","properties":{"Cell_ID":7,"Area_ha":1.0,"LC":"13:0.857624,16:0.142376","XMIN":728344.86160847,"YMIN":8515713.59738907,"XMAX":728444.86160847,"YMAX":8515813.59738907},"geometry":{"type":"Polygon","coordinates":[[[-72.89022393986707,-13.417535097314651],[-72.89023183060992,-13.416631471706182],[-72.89115492346305,-13.416639194071626],[-72.89114703616643,-13.417542820218985],[-72.89022393986707,-13.417535097314651]]]}},{"type":"Feature","properties":{"Cell_ID":8,"Area_ha":1.0,"LC":"13:1.000000","XMIN":728344.86160847,"YMIN":8515613.59738907,"XMAX":728444.86160847,"YMAX":8515713.59738907},"geometry":{"type":"Polygon","coordinates":[[[-72.89021604854355,-13.41843872285394],[-72.89022393986707,-13.417535097314651],[-72.89114703616643,-13.417542820218985],[-72.89113914828938,-13.418446446297168],[-72.89021604854355,-13.41843872285394]]]}},{"type":"Feature","properties":{"Cell_ID":9,"Area_ha":1.0,"LC":"16:1.000000","XMIN":728444.86160847,"YMIN":8516213.59738907,"XMAX":728544.86160847,"YMAX":8516313.59738907},"geometry":{"type":"Polygon","coordinates":[[[-72.88934030928446,-13.413009244997912],[-72.88934820056897,-13.412105619582702],[-72.8902712756142,-13.412113342626263],[-72.89026338777462,-13.413016968580575],[-72.88934030928446,-13.413009244997912]]]}},{"type":"Feature","properties":{"Cell_ID":10,"Area_ha":1.0,"LC":"16:0.878771,18:0.121229","XMIN":728444.86160847,"YMIN":8516113.59738907,"XMAX":728544.86160847,"YMAX":8516213.59738907},"geometry":{"type":"Polygon","coordinates":[[[-72.88933241741907,-13.41391287034396],[-72.88934030928446,-13.413009244997912],[-72.89026338777462,-13.413016968580575],[-72.89025549935442,-13.413920594465727],[-72.88933241741907,-13.41391287034396]]]}},{"type":"Feature","properties":{"Cell_ID":11,"Area_ha":1.0,"LC":"9:0.579845,16:0.318476,18:0.101679","XMIN":728444.86160847,"YMIN":8516013.59738907,"XMAX":728544.86160847,"YMAX":8516113.59738907},"geometry":{"type":"Polygon","coordinates":[[[-72.88932452497276,-13.414816495620835],[-72.88933241741907,-13.41391287034396],[-72.89025549935442,-13.413920594465727],[-72.89024761035357,-13.414824220281716],[-72.88932452497276,-13.414816495620835]]]}},{"type":"Feature","properties":{"Cell_ID":12,"Area_ha":1.0,"LC":"9:0.280562,16:0.719438","XMIN":728444.86160847,"YMIN":8515913.59738907,"XMAX":728544.86160847,"YMAX":8516013.59738907},"geometry":{"type":"Polygon","coordinates":[[[-72.88931663194556,-13.415720120828544],[-72.88932452497276,-13.414816495620835],[-72.89024761035357,-13.414824220281716],[-72.89023972077207,-13.415727846028535],[-72.88931663194556,-13.415720120828544]]]}},{"type":"Feature","properties":{"Cell_ID":13,"Area_ha":1.0,"LC":"9:0.621532,16:0.378468","XMIN":728444.86160847,"YMIN":8515813.59738907,"XMAX":728544.86160847,"YMAX":8515913.59738907},"geometry":{"type":"Polygon","coordinates":[[[-72.88930873833745,-13.41662374596707],[-72.88931663194556,-13.415720120828544],[-72.89023972077207,-13.415727846028535],[-72.89023183060992,-13.416631471706182],[-72.88930873833745,-13.41662374596707]]]}},{"type":"Feature","properties":{"Cell_ID":14,"Area_ha":1.0,"LC":"13:0.798594,16:0.201406","XMIN":728444.86160847,"YMIN":8515713.59738907,"XMAX":728544.86160847,"YMAX":8515813.59738907},"geometry":{"type":"Polygon","coordinates":[[[-72.8893008441484,-13.417527371036417],[-72.88930873833745,-13.41662374596707],[-72.89023183060992,-13.416631471706182],[-72.89022393986707,-13.417535097314651],[-72.8893008441484,-13.417527371036417]]]}},{"type":"Feature","properties":{"Cell_ID":15,"Area_ha":1.0,"LC":"13:1.000000","XMIN":728444.86160847,"YMIN":8515613.59738907,"XMAX":728544.86160847,"YMAX":8515713.59738907},"geometry":{"type":"Polygon","coordinates":[[[-72.8892929493784,-13.418430996036584],[-72.8893008441484,-13.417527371036417],[-72.89022393986707,-13.417535097314651],[-72.89021604854355,-13.41843872285394],[-72.8892929493784,-13.418430996036584]]]}},{"type":"Feature","properties":{"Cell_ID":16,"Area_ha":1.0,"LC":"13:1.000000","XMIN":728444.86160847,"YMIN":8515513.59738907,"XMAX":728544.86160847,"YMAX":8515613.59738907},"geometry":{"type":"Polygon","coordinates":[[[-72.88928505402747,-13.41933462096756],[-72.8892929493784,-13.418430996036584],[-72.89021604854355,-13.41843872285394],[-72.89020815663932,-13.419342348324047],[-72.88928505402747,-13.41933462096756]]]}},{"type":"Feature","properties":{"Cell_ID":17,"Area_ha":1.0,"LC":"5:0.376395,13:0.623605","XMIN":728444.86160847,"YMIN":8515413.59738907,"XMAX":728544.86160847,"YMAX":8515513.59738907},"geometry":{"type":"Polygon","coordinates":[[[-72.88927715809558,-13.420238245829337],[-72.88928505402747,-13.41933462096756],[-72.89020815663932,-13.419342348324047],[-72.8902002641544,-13.42024597372496],[-72.88927715809558,-13.420238245829337]]]}},{"type":"Feature","properties":{"Cell_ID":18,"Area_ha":1.0,"LC":"5:0.375715,13:0.103618,16:0.520667","XMIN":728444.86160847,"YMIN":8515313.59738907,"XMAX":728544.86160847,"YMAX":8515413.59738907},"geometry":{"type":"Polygon","coordinates":[[[-72.8892692615827,-13.42114187062192],[-72.88927715809558,-13.420238245829337],[-72.8902002641544,-13.42024597372496],[-72.89019237108876,-13.421149599056681],[-72.8892692615827,-13.42114187062192]]]}},{"type":"Feature","properties":{"Cell_ID":19,"Area_ha":1.0,"LC":"5:0.255967,9:0.119853,16:0.624181","XMIN":728444.86160847,"YMIN":8515213.59738907,"XMAX":728544.86160847,"YMAX":8515313.59738907},"geometry":{"type":"Polygon","coordinates":[[[-72.88926136448886,-13.422045495345301],[-72.8892692615827,-13.42114187062192],[-72.89019237108876,-13.421149599056681],[-72.89018447744239,-13.422053224319203],[-72.88926136448886,-13.422045495345301]]]}},{"type":"Feature","properties":{"Cell_ID":20,"Area_ha":1.0,"LC":"9:0.201229,16:0.601406,18:0.197365","XMIN":728544.86160847,"YMIN":8516113.59738907,"XMAX":728644.86160847,"YMAX":8516213.59738907},"geometry":{"type":"Polygon","coordinates":[[[-72.8884093360646,-13.413905142849242],[-72.88841723137519,-13.413001518042536],[-72.88934030928446,-13.413009244997912],[-72.88933241741907,-13.41391287034396],[-72.8884093360646,-13.413905142849242]]]}},{"type":"Feature","properties":{"Cell_ID":21,"Area_ha":1.0,"LC":"9:0.621117,16:0.319156,18:0.059727","XMIN":728544.86160847,"YMIN":8516013.59738907,"XMAX":728644.86160847,"YMAX":8516113.59738907},"geometry":{"type":"Polygon","coordinates":[[[-72.88840144017286,-13.41480876758677],[-72.8884093360646,-13.413905142849242],[-72.88933241741907,-13.41391287034396],[-72.88932452497276,-13.414816495620835],[-72.88840144017286,-13.41480876758677]]]}},{"type":"Feature","properties":{"Cell_ID":22,"Area_ha":1.0,"LC":"9:0.180822,16:0.819178","XMIN":728544.86160847,"YMIN":8515913.59738907,"XMAX":728644.86160847,"YMAX":8516013.59738907},"geometry":{"type":"Polygon","coordinates":[[[-72.88839354369998,-13.41571239225513],[-72.88840144017286,-13.41480876758677],[-72.88932452497276,-13.414816495620835],[-72.88931663194556,-13.415720120828544],[-72.88839354369998,-13.41571239225513]]]}},{"type":"Feature","properties":{"Cell_ID":23,"Area_ha":1.0,"LC":"9:0.522649,16:0.477351","XMIN":728544.86160847,"YMIN":8515813.59738907,"XMAX":728644.86160847,"YMAX":8515913.59738907},"geometry":{"type":"Polygon","coordinates":[[[-72.8883856466459,-13.416616016854306],[-72.88839354369998,-13.41571239225513],[-72.88931663194556,-13.415720120828544],[-72.88930873833745,-13.41662374596707],[-72.8883856466459,-13.416616016854306]]]}},{"type":"Feature","properties":{"Cell_ID":24,"Area_ha":1.0,"LC":"13:0.716655,16:0.283345","XMIN":728544.86160847,"YMIN":8515713.59738907,"XMAX":728644.86160847,"YMAX":8515813.59738907},"geometry":{"type":"Polygon","coordinates":[[[-72.88837774901066,-13.417519641384292],[-72.8883856466459,-13.416616016854306],[-72.88930873833745,-13.41662374596707],[-72.8893008441484,-13.417527371036417],[-72.88837774901066,-13.417519641384292]]]}},{"type":"Feature","properties":{"Cell_ID":25,"Area_ha":1.0,"LC":"13:1.000000","XMIN":728544.86160847,"YMIN":8515613.59738907,"XMAX":728644.86160847,"YMAX":8515713.59738907},"geometry":{"type":"Polygon","coordinates":[[[-72.88836985079422,-13.418423265845098],[-72.88837774901066,-13.417519641384292],[-72.8893008441484,-13.417527371036417],[-72.8892929493784,-13.418430996036584],[-72.88836985079422,-13.418423265845098]]]}},{"type":"Feature","properties":{"Cell_ID":26,"Area_ha":1.0,"LC":"13:1.000000","XMIN":728544.86160847,"YMIN":8515513.59738907,"XMAX":728644.86160847,"YMAX":8515613.59738907},"geometry":{"type":"Polygon","coordinates":[[[-72.88836195199657,-13.419326890236707],[-72.88836985079422,-13.418423265845098],[-72.8892929493784,-13.418430996036584],[-72.88928505402747,-13.41933462096756],[-72.88836195199657,-13.419326890236707]]]}},{"type":"Feature","properties":{"Cell_ID":27,"Area_ha":1.0,"LC":"13:1.000000","XMIN":728544.86160847,"YMIN":8515413.59738907,"XMAX":728644.86160847,"YMAX":8515513.59738907},"geometry":{"type":"Polygon","coordinates":[[[-72.88835405261771,-13.420230514559119],[-72.88836195199657,-13.419326890236707],[-72.88928505402747,-13.41933462096756],[-72.88927715809558,-13.420238245829337],[-72.88835405261771,-13.420230514559119]]]}},{"type":"Feature","properties":{"Cell_ID":28,"Area_ha":1.0,"LC":"13:0.220437,16:0.779563","XMIN":728544.86160847,"YMIN":8515313.59738907,"XMAX":728644.86160847,"YMAX":8515413.59738907},"geometry":{"type":"Polygon","coordinates":[[[-72.88834615265763,-13.421134138812329],[-72.88835405261771,-13.420230514559119],[-72.88927715809558,-13.420238245829337],[-72.8892692615827,-13.42114187062192],[-72.88834615265763,-13.421134138812329]]]}},{"type":"Feature","properties":{"Cell_ID":29,"Area_ha":1.0,"LC":"9:0.117646,16:0.297225,17:0.275558","XMIN":728644.86160847,"YMIN":8516113.59738907,"XMAX":728744.86160847,"YMAX":8516213.59738907},"geometry":{"type":"Polygon","coordinates":[[[-72.88748625529128,-13.413897411981583],[-72.88749415404705,-13.412993787714457],[-72.88841723137519,-13.413001518042536],[-72.8884093360646,-13.413905142849242],[-72.88748625529128,-13.413897411981583]]]}},{"type":"Feature","properties":{"Cell_ID":30,"Area_ha":1.0,"LC":"9:0.908690,16:0.000281,17:0.026806","XMIN":728644.86160847,"YMIN":8516013.59738907,"XMAX":728744.86160847,"YMAX":8516113.59738907},"geometry":{"type":"Polygon","coordinates":[[[-72.88747835595412,-13.414801036179535],[-72.88748625529128,-13.413897411981583],[-72.8884093360646,-13.413905142849242],[-72.88840144017286,-13.41480876758677],[-72.88747835595412,-13.414801036179535]]]}},{"type":"Feature","properties":{"Cell_ID":31,"Area_ha":1.0,"LC":"9:0.542908,16:0.457092","XMIN":728644.86160847,"YMIN":8515913.59738907,"XMAX":728744.86160847,"YMAX":8516013.59738907},"geometry":{"type":"Polygon","coordinates":[[[-72.88747045603554,-13.415704660308306],[-72.88747835595412,-13.414801036179535],[-72.88840144017286,-13.41480876758677],[-72.88839354369998,-13.41571239225513],[-72.88747045603554,-13.415704660308306]]]}},{"type":"Feature","properties":{"Cell_ID":32,"Area_ha":1.0,"LC":"9:0.700437,16:0.299563","XMIN":728644.86160847,"YMIN":8515813.59738907,"XMAX":728744.86160847,"YMAX":8515913.59738907},"geometry":{"type":"Polygon","coordinates":[[[-72.88746255553555,-13.41660828436789],[-72.88747045603554,-13.415704660308306],[-72.88839354369998,-13.41571239225513],[-72.8883856466459,-13.416616016854306],[-72.88746255553555,-13.41660828436789]]]}},{"type":"Feature","properties":{"Cell_ID":33,"Area_ha":1.0,"LC":"13:0.077646,16:0.922354","XMIN":728644.86160847,"YMIN":8515713.59738907,"XMAX":728744.86160847,"YMAX":8515813.59738907},"geometry":{"type":"Polygon","coordinates":[[[-72.8874546544541,-13.41751190835829],[-72.88746255553555,-13.41660828436789],[-72.8883856466459,-13.416616016854306],[-72.88837774901066,-13.417519641384292],[-72.8874546544541,-13.41751190835829]]]}},{"type":"Feature","properties":{"Cell_ID":34,"Area_ha":1.0,"LC":"13:0.877070,16:0.122930","XMIN":728644.86160847,"YMIN":8515613.59738907,"XMAX":728744.86160847,"YMAX":8515713.59738907},"geometry":{"type":"Polygon","coordinates":[[[-72.88744675279122,-13.418415532279496],[-72.8874546544541,-13.41751190835829],[-72.88837774901066,-13.417519641384292],[-72.88836985079422,-13.418423265845098],[-72.88744675279122,-13.418415532279496]]]}},{"type":"Feature","properties":{"Cell_ID":35,"Area_ha":1.0,"LC":"13:1.000000","XMIN":728644.86160847,"YMIN":8515513.59738907,"XMAX":728744.86160847,"YMAX":8515613.59738907},"geometry":{"type":"Polygon","coordinates":[[[-72.88743885054689,-13.419319156131506],[-72.88744675279122,-13.418415532279496],[-72.88836985079422,-13.418423265845098],[-72.88836195199657,-13.419326890236707],[-72.88743885054689,-13.419319156131506]]]}},{"type":"Feature","properties":{"Cell_ID":36,"Area_ha":1.0,"LC":"13:1.000000","XMIN":728644.86160847,"YMIN":8515413.59738907,"XMAX":728744.86160847,"YMAX":8515513.59738907},"geometry":{"type":"Polygon","coordinates":[[[-72.88743094772109,-13.420222779914312],[-72.88743885054689,-13.419319156131506],[-72.88836195199657,-13.419326890236707],[-72.88835405261771,-13.420230514559119],[-72.88743094772109,-13.420222779914312]]]}},{"type":"Feature","properties":{"Cell_ID":37,"Area_ha":1.0,"LC":"9:0.619075","XMIN":728744.86160847,"YMIN":8515913.59738907,"XMAX":728844.86160847,"YMAX":8516013.59738907},"geometry":{"type":"Polygon","coordinates":[[[-72.88654736895255,-13.41569692498808],[-72.8865552723168,-13.41479330139913],[-72.88747835595412,-13.414801036179535],[-72.88747045603554,-13.415704660308306],[-72.88654736895255,-13.41569692498808]]]}},{"type":"Feature","properties":{"Cell_ID":38,"Area_ha":1.0,"LC":"7:0.041939,9:0.138498,13:0.060541,16:0.759023","XMIN":728744.86160847,"YMIN":8515813.59738907,"XMAX":728844.86160847,"YMAX":8515913.59738907},"geometry":{"type":"Polygon","coordinates":[[[-72.88653946500662,-13.416600548507843],[-72.88654736895255,-13.41569692498808],[-72.88747045603554,-13.415704660308306],[-72.88746255553555,-13.41660828436789],[-72.88653946500662,-13.416600548507843]]]}},{"type":"Feature","properties":{"Cell_ID":39,"Area_ha":1.0,"LC":"9:0.163168,13:0.301398,16:0.535434","XMIN":728744.86160847,"YMIN":8515713.59738907,"XMAX":728844.86160847,"YMAX":8515813.59738907},"geometry":{"type":"Polygon","coordinates":[[[-72.886531560479,-13.417504171958411],[-72.88653946500662,-13.416600548507843],[-72.88746255553555,-13.41660828436789],[-72.8874546544541,-13.41751190835829],[-72.886531560479,-13.417504171958411]]]}},{"type":"Feature","properties":{"Cell_ID":40,"Area_ha":1.0,"LC":"9:0.543618,13:0.056958,16:0.399424","XMIN":728744.86160847,"YMIN":8515613.59738907,"XMAX":728844.86160847,"YMAX":8515713.59738907},"geometry":{"type":"Polygon","coordinates":[[[-72.88652365536969,-13.418407795339787],[-72.886531560479,-13.417504171958411],[-72.8874546544541,-13.41751190835829],[-72.88744675279122,-13.418415532279496],[-72.88652365536969,-13.418407795339787]]]}},{"type":"Feature","properties":{"Cell_ID":41,"Area_ha":1.0,"LC":"13:0.617758,16:0.382242","XMIN":728744.86160847,"YMIN":8515513.59738907,"XMAX":728844.86160847,"YMAX":8515613.59738907},"geometry":{"type":"Polygon","coordinates":[[[-72.88651574967867,-13.419311418651958],[-72.88652365536969,-13.418407795339787],[-72.88744675279122,-13.418415532279496],[-72.88743885054689,-13.419319156131506],[-72.88651574967867,-13.419311418651958]]]}},{"type":"Feature","properties":{"Cell_ID":42,"Area_ha":1.0,"LC":"5:0.120651,7:0.219547,9:0.079807,13:0.218334,16:0.038061","XMIN":728844.86160847,"YMIN":8515813.59738907,"XMAX":728944.86160847,"YMAX":8515913.59738907},"geometry":{"type":"Polygon","coordinates":[[[-72.8856163750594,-13.416592809274169],[-72.88562428245123,-13.415689186294466],[-72.88654736895255,-13.41569692498808],[-72.88653946500662,-13.416600548507843],[-72.8856163750594,-13.416592809274169]]]}},{"type":"Feature","properties":{"Cell_ID":43,"Area_ha":1.0,"LC":"5:0.424566,9:0.475707,13:0.099727","XMIN":728844.86160847,"YMIN":8515713.59738907,"XMAX":728944.86160847,"YMAX":8515813.59738907},"geometry":{"type":"Polygon","coordinates":[[[-72.8856084670856,-13.417496432184677],[-72.8856163750594,-13.416592809274169],[-72.88653946500662,-13.416600548507843],[-72.886531560479,-13.417504171958411],[-72.8856084670856,-13.417496432184677]]]}},{"type":"Feature","properties":{"Cell_ID":44,"Area_ha":1.0,"LC":"5:0.000710,9:0.762207,13:0.039719,16:0.197365","XMIN":728844.86160847,"YMIN":8515613.59738907,"XMAX":728944.86160847,"YMAX":8515713.59738907},"geometry":{"type":"Polygon","coordinates":[[[-72.88560055852987,-13.41840005502598],[-72.8856084670856,-13.417496432184677],[-72.886531560479,-13.417504171958411],[-72.88652365536969,-13.418407795339787],[-72.88560055852987,-13.41840005502598]]]}},{"type":"Feature","properties":{"Cell_ID":45,"Area_ha":1.0,"LC":"5:0.239156,9:0.345129,13:0.395988,16:0.019727","XMIN":728844.86160847,"YMIN":8515513.59738907,"XMAX":728944.86160847,"YMAX":8515613.59738907},"geometry":{"type":"Polygon","coordinates":[[[-72.88559264939218,-13.419303677798085],[-72.88560055852987,-13.41840005502598],[-72.88652365536969,-13.418407795339787],[-72.88651574967867,-13.419311418651958],[-72.88559264939218,-13.419303677798085]]]}}]}