{"type":"FeatureCollection","features":[{"type":"Feature","properties":{"Cell_ID":1,"Area_ha":1.0,"LC":"16:0.993122","XMIN":729637.079801426,"YMIN":8515811.212708445,"XMAX":729737.079801426,"YMAX":8515911.212708445},"geometry":{"type":"Polygon","coordinates":[[[-72.87830331992333,-13.416552926847949],[-72.8783112546279,-13.415649308156668],[-72.87923433659427,-13.415657073587472],[-72.87922640533554,-13.41656069282068],[-72.87830331992333,-13.416552926847949]]]}},{"type":"Feature","properties":{"Cell_ID":2,"Area_ha":1.0,"LC":"16:0.947142,18:0.052858","XMIN":729637.079801426,"YMIN":8515711.212708445,"XMAX":729737.079801426,"YMAX":8515811.212708445},"geometry":{"type":"Polygon","coordinates":[[[-72.87829538463482,-13.417456545470005],[-72.87830331992333,-13.416552926847949],[-72.87922640533554,-13.41656069282068],[-72.87921847349313,-13.417464311984663],[-72.87829538463482,-13.417456545470005]]]}},{"type":"Feature","properties":{"Cell_ID":3,"Area_ha":1.0,"LC":"13:0.008976,16:0.930064","XMIN":729737.079801426,"YMIN":8515911.212708445,"XMAX":729837.079801426,"YMAX":8516011.212708445},"geometry":{"type":"Polygon","coordinates":[[[-72.87738817324548,-13.415641539352555],[-72.87739611081166,-13.414737921134204],[-72.87831918874852,-13.414745689396161],[-72.8783112546279,-13.415649308156668],[-72.87738817324548,-13.415641539352555]]]}},{"type":"Feature","properties":{"Cell_ID":4,"Area_ha":1.0,"LC":"13:0.356430,16:0.643570","XMIN":729737.079801426,"YMIN":8515811.212708445,"XMAX":729837.079801426,"YMAX":8515911.212708445},"geometry":{"type":"Polygon","coordinates":[[[-72.87738023509509,-13.416545157501677],[-72.87738817324548,-13.415641539352555],[-72.8783112546279,-13.415649308156668],[-72.87830331992333,-13.416552926847949],[-72.87738023509509,-13.416545157501677]]]}},{"type":"Feature","properties":{"Cell_ID":5,"Area_ha":1.0,"LC":"13:0.139477,16:0.860523","XMIN":729737.079801426,"YMIN":8515711.212708445,"XMAX":729837.079801426,"YMAX":8515811.212708445},"geometry":{"type":"Polygon","coordinates":[[[-72.87737229636049,-13.417448775581569],[-72.87738023509509,-13.416545157501677],[-72.87830331992333,-13.416552926847949],[-72.87829538463482,-13.417456545470005],[-72.87737229636049,-13.417448775581569]]]}},{"type":"Feature","properties":{"Cell_ID":6,"Area_ha":1.0,"LC":"13:0.088976,16:0.827812","XMIN":729837.079801426,"YMIN":8515911.212708445,"XMAX":729937.079801426,"YMAX":8516011.212708445},"geometry":{"type":"Polygon","coordinates":[[[-72.87646509244725,-13.415633767175146],[-72.87647303345899,-13.414730149499187],[-72.87739611081166,-13.414737921134204],[-72.87738817324548,-13.415641539352555],[-72.87646509244725,-13.415633767175146]]]}},{"type":"Feature","properties":{"Cell_ID":7,"Area_ha":1.0,"LC":"13:0.145618,16:0.854382","XMIN":729837.079801426,"YMIN":8515811.212708445,"XMAX":729937.079801426,"YMAX":8515911.212708445},"geometry":{"type":"Polygon","coordinates":[[[-72.87645715085104,-13.416537384781872],[-72.87646509244725,-13.415633767175146],[-72.87738817324548,-13.415641539352555],[-72.87738023509509,-13.416545157501677],[-72.87645715085104,-13.416537384781872]]]}},{"type":"Feature","properties":{"Cell_ID":8,"Area_ha":1.0,"LC":"5:0.099477,13:0.122964,16:0.777559","XMIN":729837.079801426,"YMIN":8515711.212708445,"XMAX":729937.079801426,"YMAX":8515811.212708445},"geometry":{"type":"Polygon","coordinates":[[[-72.87644920867038,-13.417441002319363],[-72.87645715085104,-13.416537384781872],[-72.87738023509509,-13.416545157501677],[-72.87737229636049,-13.417448775581569],[-72.87644920867038,-13.417441002319363]]]}},{"type":"Feature","properties":{"Cell_ID":9,"Area_ha":1.0,"LC":"5:0.447552,7:0.012858,9:0.358771,13:0.180819","XMIN":729837.079801426,"YMIN":8515611.212708445,"XMAX":729937.079801426,"YMAX":8515711.212708445},"geometry":{"type":"Polygon","coordinates":[[[-72.87644126590526,-13.418344619787614],[-72.87644920867038,-13.417441002319363],[-72.87737229636049,-13.417448775581569],[-72.8773643570417,-13.418352393592224],[-72.87644126590526,-13.418344619787614]]]}},{"type":"Feature","properties":{"Cell_ID":10,"Area_ha":1.0,"LC":"16:0.603320,17:0.000000","XMIN":729937.079801426,"YMIN":8515911.212708445,"XMAX":730037.079801426,"YMAX":8516011.212708445},"geometry":{"type":"Polygon","coordinates":[[[-72.87554201223347,-13.415625991624443],[-72.87554995669078,-13.414722374491113],[-72.87647303345899,-13.414730149499187],[-72.87646509244725,-13.415633767175146],[-72.87554201223347,-13.415625991624443]]]}},{"type":"Feature","properties":{"Cell_ID":11,"Area_ha":1.0,"LC":"16:1.000000","XMIN":729937.079801426,"YMIN":8515811.212708445,"XMAX":730037.079801426,"YMAX":8515911.212708445},"geometry":{"type":"Polygon","coordinates":[[[-72.87553406719145,-13.41652960868854],[-72.87554201223347,-13.415625991624443],[-72.87646509244725,-13.415633767175146],[-72.87645715085104,-13.416537384781872],[-72.87553406719145,-13.41652960868854]]]}},{"type":"Feature","properties":{"Cell_ID":12,"Area_ha":1.0,"LC":"5:0.222441,13:0.005406,16:0.772153","XMIN":729937.079801426,"YMIN":8515711.212708445,"XMAX":730037.079801426,"YMAX":8515811.212708445},"geometry":{"type":"Polygon","coordinates":[[[-72.87552612156473,-13.417433225683396],[-72.87553406719145,-13.41652960868854],[-72.87645715085104,-13.416537384781872],[-72.87644920867038,-13.417441002319363],[-72.87552612156473,-13.417433225683396]]]}},{"type":"Feature","properties":{"Cell_ID":13,"Area_ha":1.0,"LC":"5:0.732153,9:0.171940,13:0.095906","XMIN":729937.079801426,"YMIN":8515611.212708445,"XMAX":730037.079801426,"YMAX":8515711.212708445},"geometry":{"type":"Polygon","coordinates":[[[-72.87551817535329,-13.418336842609008],[-72.87552612156473,-13.417433225683396],[-72.87644920867038,-13.417441002319363],[-72.87644126590526,-13.418344619787614],[-72.87551817535329,-13.418336842609008]]]}},{"type":"Feature","properties":{"Cell_ID":14,"Area_ha":1.0,"LC":"16:1.000000","XMIN":730037.079801426,"YMIN":8515811.212708445,"XMAX":730137.079801426,"YMAX":8515911.212708445},"geometry":{"type":"Polygon","coordinates":[[[-72.87461098411659,-13.416521829221695],[-72.87461893260438,-13.415618212700464],[-72.87554201223347,-13.415625991624443],[-72.87553406719145,-13.41652960868854],[-72.87461098411659,-13.416521829221695]]]}},{"type":"Feature","properties":{"Cell_ID":15,"Area_ha":1.0,"LC":"5:0.082964,13:0.254071,16:0.662965","XMIN":730037.079801426,"YMIN":8515711.212708445,"XMAX":730137.079801426,"YMAX":8515811.212708445},"geometry":{"type":"Polygon","coordinates":[[[-72.87460303504382,-13.41742544567368],[-72.87461098411659,-13.416521829221695],[-72.87553406719145,-13.41652960868854],[-72.87552612156473,-13.417433225683396],[-72.87460303504382,-13.41742544567368]]]}},{"type":"Feature","properties":{"Cell_ID":16,"Area_ha":1.0,"LC":"5:0.731107,13:0.268893","XMIN":730037.079801426,"YMIN":8515611.212708445,"XMAX":730137.079801426,"YMAX":8515711.212708445},"geometry":{"type":"Polygon","coordinates":[[[-72.87459508538608,-13.418329062056422],[-72.87460303504382,-13.41742544567368],[-72.87552612156473,-13.417433225683396],[-72.87551817535329,-13.418336842609008],[-72.87459508538608,-13.418329062056422]]]}},{"type":"Feature","properties":{"Cell_ID":17,"Area_ha":1.0,"LC":"5:0.212958,7:0.003882,13:0.294184,16:0.488976","XMIN":730037.079801426,"YMIN":8515511.212708445,"XMAX":730137.079801426,"YMAX":8515611.212708445},"geometry":{"type":"Polygon","coordinates":[[[-72.87458713514334,-13.419232678369907],[-72.87459508538608,-13.418329062056422],[-72.87551817535329,-13.418336842609008],[-72.87551022855712,-13.419240459465374],[-72.87458713514334,-13.419232678369907]]]}},{"type":"Feature","properties":{"Cell_ID":18,"Area_ha":1.0,"LC":"16:0.949628,17:0.000916","XMIN":730137.079801426,"YMIN":8515811.212708445,"XMAX":730237.079801426,"YMAX":8515911.212708445},"geometry":{"type":"Polygon","coordinates":[[[-72.87368790162668,-13.416514046381344],[-72.87369585356026,-13.415610430403218],[-72.87461893260438,-13.415618212700464],[-72.87461098411659,-13.416521829221695],[-72.87368790162668,-13.416514046381344]]]}},{"type":"Feature","properties":{"Cell_ID":19,"Area_ha":1.0,"LC":"13:0.222441,16:0.777559","XMIN":730137.079801426,"YMIN":8515711.212708445,"XMAX":730237.079801426,"YMAX":8515811.212708445},"geometry":{"type":"Polygon","coordinates":[[[-72.87367994910787,-13.417417662290228],[-72.87368790162668,-13.416514046381344],[-72.87461098411659,-13.416521829221695],[-72.87460303504382,-13.41742544567368],[-72.87367994910787,-13.417417662290228]]]}},{"type":"Feature","properties":{"Cell_ID":20,"Area_ha":1.0,"LC":"5:0.606223,13:0.393777","XMIN":730137.079801426,"YMIN":8515611.212708445,"XMAX":730237.079801426,"YMAX":8515711.212708445},"geometry":{"type":"Polygon","coordinates":[[[-72.87367199600382,-13.418321278129858],[-72.87367994910787,-13.417417662290228],[-72.87460303504382,-13.41742544567368],[-72.87459508538608,-13.418329062056422],[-72.87367199600382,-13.418321278129858]]]}},{"type":"Feature","properties":{"Cell_ID":21,"Area_ha":1.0,"LC":"5:0.995512,13:0.004488","XMIN":730137.079801426,"YMIN":8515511.212708445,"XMAX":730237.079801426,"YMAX":8515611.212708445},"geometry":{"type":"Polygon","coordinates":[[[-72.87366404231454,-13.419224893900232],[-72.87367199600382,-13.418321278129858],[-72.87459508538608,-13.418329062056422],[-72.87458713514334,-13.419232678369907],[-72.87366404231454,-13.419224893900232]]]}},{"type":"Feature","properties":{"Cell_ID":22,"Area_ha":1.0,"LC":"5:0.142047,13:0.857953","XMIN":730137.079801426,"YMIN":8515411.212708445,"XMAX":730237.079801426,"YMAX":8515511.212708445},"geometry":{"type":"Polygon","coordinates":[[[-72.87365608804002,-13.42012850960135],[-72.87366404231454,-13.419224893900232],[-72.87458713514334,-13.419232678369907],[-72.8745791843156,-13.420136294614142],[-72.87365608804002,-13.42012850960135]]]}},{"type":"Feature","properties":{"Cell_ID":23,"Area_ha":1.0,"LC":"5:0.220395,7:0.077558,13:0.702047","XMIN":730137.079801426,"YMIN":8515311.212708445,"XMAX":730237.079801426,"YMAX":8515411.212708445},"geometry":{"type":"Polygon","coordinates":[[[-72.87364813318023,-13.4210321252332],[-72.87365608804002,-13.42012850960135],[-72.8745791843156,-13.420136294614142],[-72.87457123290287,-13.421039910789117],[-72.87364813318023,-13.4210321252332]]]}},{"type":"Feature","properties":{"Cell_ID":24,"Area_ha":1.0,"LC":"16:0.742560,17:0.002206","XMIN":730237.079801426,"YMIN":8515811.212708445,"XMAX":730337.079801426,"YMAX":8515911.212708445},"geometry":{"type":"Polygon","coordinates":[[[-72.87276481972198,-13.4165062601675],[-72.87277277510134,-13.41560264473271],[-72.87369585356026,-13.415610430403218],[-72.87368790162668,-13.416514046381344],[-72.87276481972198,-13.4165062601675]]]}},{"type":"Feature","properties":{"Cell_ID":25,"Area_ha":1.0,"LC":"13:0.217035,16:0.782965","XMIN":730237.079801426,"YMIN":8515711.212708445,"XMAX":730337.079801426,"YMAX":8515811.212708445},"geometry":{"type":"Polygon","coordinates":[[[-72.87275686375715,-13.417409875533043],[-72.87276481972198,-13.4165062601675],[-72.87368790162668,-13.416514046381344],[-72.87367994910787,-13.417417662290228],[-72.87275686375715,-13.417409875533043]]]}},{"type":"Feature","properties":{"Cell_ID":26,"Area_ha":1.0,"LC":"5:0.216428,13:0.783572","XMIN":730237.079801426,"YMIN":8515611.212708445,"XMAX":730337.079801426,"YMAX":8515711.212708445},"geometry":{"type":"Polygon","coordinates":[[[-72.87274890720683,-13.418313490829329],[-72.87275686375715,-13.417409875533043],[-72.87367994910787,-13.417417662290228],[-72.87367199600382,-13.418321278129858],[-72.87274890720683,-13.418313490829329]]]}},{"type":"Feature","properties":{"Cell_ID":27,"Area_ha":1.0,"LC":"5:0.955625,13:0.044375","XMIN":730237.079801426,"YMIN":8515511.212708445,"XMAX":730337.079801426,"YMAX":8515611.212708445},"geometry":{"type":"Polygon","coordinates":[[[-72.872740950071,-13.419217106056353],[-72.87274890720683,-13.418313490829329],[-72.87367199600382,-13.418321278129858],[-72.87366404231454,-13.419224893900232],[-72.872740950071,-13.419217106056353]]]}},{"type":"Feature","properties":{"Cell_ID":28,"Area_ha":1.0,"LC":"5:0.035512,13:0.964488","XMIN":730237.079801426,"YMIN":8515411.212708445,"XMAX":730337.079801426,"YMAX":8515511.212708445},"geometry":{"type":"Polygon","coordinates":[[[-72.87273299234968,-13.420120721214118],[-72.872740950071,-13.419217106056353],[-72.87366404231454,-13.419224893900232],[-72.87365608804002,-13.42012850960135],[-72.87273299234968,-13.420120721214118]]]}},{"type":"Feature","properties":{"Cell_ID":29,"Area_ha":1.0,"LC":"5:0.211629,13:0.788371","XMIN":730237.079801426,"YMIN":8515311.212708445,"XMAX":730337.079801426,"YMAX":8515411.212708445},"geometry":{"type":"Polygon","coordinates":[[[-72.87272503404286,-13.421024336302615],[-72.87273299234968,-13.420120721214118],[-72.87365608804002,-13.42012850960135],[-72.87364813318023,-13.4210321252332],[-72.87272503404286,-13.421024336302615]]]}},{"type":"Feature","properties":{"Cell_ID":30,"Area_ha":1.0,"LC":"5:0.610812,13:0.389188","XMIN":730237.079801426,"YMIN":8515211.212708445,"XMAX":730337.079801426,"YMAX":8515311.212708445},"geometry":{"type":"Polygon","coordinates":[[[-72.8727170751505,-13.421927951321837],[-72.87272503404286,-13.421024336302615],[-72.87364813318023,-13.4210321252332],[-72.87364017773517,-13.421935740795783],[-72.8727170751505,-13.421927951321837]]]}},{"type":"Feature","properties":{"Cell_ID":31,"Area_ha":1.0,"LC":"16:0.550639","XMIN":730337.079801426,"YMIN":8515811.212708445,"XMAX":730437.079801426,"YMAX":8515911.212708445},"geometry":{"type":"Polygon","coordinates":[[[-72.87184173840276,-13.416498470580175],[-72.8718496972279,-13.415594855688955],[-72.87277277510134,-13.41560264473271],[-72.87276481972198,-13.4165062601675],[-72.87184173840276,-13.416498470580175]]]}},{"type":"Feature","properties":{"Cell_ID":32,"Area_ha":1.0,"LC":"13:0.008370,16:0.991630","XMIN":730337.079801426,"YMIN":8515711.212708445,"XMAX":730437.079801426,"YMAX":8515811.212708445},"geometry":{"type":"Polygon","coordinates":[[[-72.8718337789919,-13.417402085402138],[-72.87184173840276,-13.416498470580175],[-72.87276481972198,-13.4165062601675],[-72.87275686375715,-13.417409875533043],[-72.8718337789919,-13.417402085402138]]]}},{"type":"Feature","properties":{"Cell_ID":33,"Area_ha":1.0,"LC":"13:0.837853,16:0.162147","XMIN":730337.079801426,"YMIN":8515611.212708445,"XMAX":730437.079801426,"YMAX":8515711.212708445},"geometry":{"type":"Polygon","coordinates":[[[-72.8718258189953,-13.418305700154844],[-72.8718337789919,-13.417402085402138],[-72.87275686375715,-13.417409875533043],[-72.87274890720683,-13.418313490829329],[-72.8718258189953,-13.418305700154844]]]}},{"type":"Feature","properties":{"Cell_ID":34,"Area_ha":1.0,"LC":"13:1.000000","XMIN":730337.079801426,"YMIN":8515511.212708445,"XMAX":730437.079801426,"YMAX":8515611.212708445},"geometry":{"type":"Polygon","coordinates":[[[-72.87181785841297,-13.419209314838287],[-72.8718258189953,-13.418305700154844],[-72.87274890720683,-13.418313490829329],[-72.872740950071,-13.419217106056353],[-72.87181785841297,-13.419209314838287]]]}},{"type":"Feature","properties":{"Cell_ID":35,"Area_ha":1.0,"LC":"13:1.000000","XMIN":730337.079801426,"YMIN":8515411.212708445,"XMAX":730437.079801426,"YMAX":8515511.212708445},"geometry":{"type":"Polygon","coordinates":[[[-72.87180989724487,-13.420112929452461],[-72.87181785841297,-13.419209314838287],[-72.872740950071,-13.419217106056353],[-72.87273299234968,-13.420120721214118],[-72.87180989724487,-13.420112929452461]]]}},{"type":"Feature","properties":{"Cell_ID":36,"Area_ha":1.0,"LC":"5:0.137346,13:0.862654","XMIN":730337.079801426,"YMIN":8515311.212708445,"XMAX":730437.079801426,"YMAX":8515411.212708445},"geometry":{"type":"Polygon","coordinates":[[[-72.871801935491,-13.421016543997368],[-72.87180989724487,-13.420112929452461],[-72.87273299234968,-13.420120721214118],[-72.87272503404286,-13.421024336302615],[-72.871801935491,-13.421016543997368]]]}},{"type":"Feature","properties":{"Cell_ID":37,"Area_ha":1.0,"LC":"5:0.954283,13:0.045717","XMIN":730337.079801426,"YMIN":8515211.212708445,"XMAX":730437.079801426,"YMAX":8515311.212708445},"geometry":{"type":"Polygon","coordinates":[[[-72.87179397315137,-13.421920158472997],[-72.871801935491,-13.421016543997368],[-72.87272503404286,-13.421024336302615],[-72.8727170751505,-13.421927951321837],[-72.87179397315137,-13.421920158472997]]]}},{"type":"Feature","properties":{"Cell_ID":38,"Area_ha":1.0,"LC":"3:0.003882,5:0.783572,7:0.133464,9:0.079082","XMIN":730337.079801426,"YMIN":8515111.212708445,"XMAX":730437.079801426,"YMAX":8515211.212708445},"geometry":{"type":"Polygon","coordinates":[[[-72.87178601022593,-13.42282377287934],[-72.87179397315137,-13.421920158472997],[-72.8727170751505,-13.421927951321837],[-72.8727091156726,-13.422831566271782],[-72.87178601022593,-13.42282377287934]]]}},{"type":"Feature","properties":{"Cell_ID":39,"Area_ha":1.0,"LC":"16:1.000000","XMIN":730437.079801426,"YMIN":8515711.212708445,"XMAX":730537.079801426,"YMAX":8515811.212708445},"geometry":{"type":"Polygon","coordinates":[[[-72.87091069481241,-13.417394291897523],[-72.87091865766926,-13.41649067761937],[-72.87184173840276,-13.416498470580175],[-72.8718337789919,-13.417402085402138],[-72.87091069481241,-13.417394291897523]]]}},{"type":"Feature","properties":{"Cell_ID":40,"Area_ha":1.0,"LC":"13:0.251629,16:0.748371","XMIN":730437.079801426,"YMIN":8515611.212708445,"XMAX":730537.079801426,"YMAX":8515711.212708445},"geometry":{"type":"Polygon","coordinates":[[[-72.87090273136955,-13.418297906106416],[-72.87091069481241,-13.417394291897523],[-72.8718337789919,-13.417402085402138],[-72.8718258189953,-13.418305700154844],[-72.87090273136955,-13.418297906106416]]]}},{"type":"Feature","properties":{"Cell_ID":41,"Area_ha":1.0,"LC":"13:1.000000","XMIN":730437.079801426,"YMIN":8515511.212708445,"XMAX":730537.079801426,"YMAX":8515611.212708445},"geometry":{"type":"Polygon","coordinates":[[[-72.87089476734069,-13.419201520246038],[-72.87090273136955,-13.418297906106416],[-72.8718258189953,-13.418305700154844],[-72.87181785841297,-13.419209314838287],[-72.87089476734069,-13.419201520246038]]]}},{"type":"Feature","properties":{"Cell_ID":42,"Area_ha":1.0,"LC":"13:1.000000","XMIN":730437.079801426,"YMIN":8515411.212708445,"XMAX":730537.079801426,"YMAX":8515511.212708445},"geometry":{"type":"Polygon","coordinates":[[[-72.87088680272583,-13.42010513431639],[-72.87089476734069,-13.419201520246038],[-72.87181785841297,-13.419209314838287],[-72.87180989724487,-13.420112929452461],[-72.87088680272583,-13.42010513431639]]]}},{"type":"Feature","properties":{"Cell_ID":43,"Area_ha":1.0,"LC":"13:1.000000","XMIN":730437.079801426,"YMIN":8515311.212708445,"XMAX":730537.079801426,"YMAX":8515411.212708445},"geometry":{"type":"Polygon","coordinates":[[[-72.87087883752494,-13.421008748317467],[-72.87088680272583,-13.42010513431639],[-72.87180989724487,-13.420112929452461],[-72.871801935491,-13.421016543997368],[-72.87087883752494,-13.421008748317467]]]}},{"type":"Feature","properties":{"Cell_ID":44,"Area_ha":1.0,"LC":"5:0.531629,13:0.468371","XMIN":730437.079801426,"YMIN":8515211.212708445,"XMAX":730537.079801426,"YMAX":8515311.212708445},"geometry":{"type":"Polygon","coordinates":[[[-72.87087087173802,-13.421912362249262],[-72.87087883752494,-13.421008748317467],[-72.871801935491,-13.421016543997368],[-72.87179397315137,-13.421920158472997],[-72.87087087173802,-13.421912362249262]]]}},{"type":"Feature","properties":{"Cell_ID":45,"Area_ha":1.0,"LC":"5:1.000000","XMIN":730437.079801426,"YMIN":8515111.212708445,"XMAX":730537.079801426,"YMAX":8515211.212708445},"geometry":{"type":"Polygon","coordinates":[[[-72.87086290536506,-13.422815976111778],[-72.87087087173802,-13.421912362249262],[-72.87179397315137,-13.421920158472997],[-72.87178601022593,-13.42282377287934],[-72.87086290536506,-13.422815976111778]]]}},{"type":"Feature","properties":{"Cell_ID":46,"Area_ha":1.0,"LC":"5:0.644277,6:0.003882,7:0.351841","XMIN":730437.079801426,"YMIN":8515011.212708445,"XMAX":730537.079801426,"YMAX":8515111.212708445},"geometry":{"type":"Polygon","coordinates":[[[-72.87085493840604,-13.423719589905],[-72.87086290536506,-13.422815976111778],[-72.87178601022593,-13.42282377287934],[-72.87177804671471,-13.423727387216402],[-72.87085493840604,-13.423719589905]]]}},{"type":"Feature","properties":{"Cell_ID":47,"Area_ha":1.0,"LC":"16:1.000000","XMIN":730537.079801426,"YMIN":8515711.212708445,"XMAX":730637.079801426,"YMAX":8515811.212708445},"geometry":{"type":"Polygon","coordinates":[[[-72.86998761121889,-13.41738649501921],[-72.86999557752175,-13.416482881285102],[-72.87091865766926,-13.41649067761937],[-72.87091069481241,-13.417394291897523],[-72.86998761121889,-13.41738649501921]]]}},{"type":"Feature","properties":{"Cell_ID":48,"Area_ha":1.0,"LC":"13:0.008370,16:0.991630","XMIN":730537.079801426,"YMIN":8515611.212708445,"XMAX":730637.079801426,"YMAX":8515711.212708445},"geometry":{"type":"Polygon","coordinates":[[[-72.86997964432979,-13.418290108684047],[-72.86998761121889,-13.41738649501921],[-72.87091069481241,-13.417394291897523],[-72.87090273136955,-13.418297906106416],[-72.86997964432979,-13.418290108684047]]]}},{"type":"Feature","properties":{"Cell_ID":49,"Area_ha":1.0,"LC":"13:0.888665,16:0.111335","XMIN":730537.079801426,"YMIN":8515511.212708445,"XMAX":730637.079801426,"YMAX":8515611.212708445},"geometry":{"type":"Polygon","coordinates":[[[-72.86997167685442,-13.41919372227962],[-72.86997964432979,-13.418290108684047],[-72.87090273136955,-13.418297906106416],[-72.87089476734069,-13.419201520246038],[-72.86997167685442,-13.41919372227962]]]}},{"type":"Feature","properties":{"Cell_ID":50,"Area_ha":1.0,"LC":"13:1.000000","XMIN":730537.079801426,"YMIN":8515411.212708445,"XMAX":730637.079801426,"YMAX":8515511.212708445},"geometry":{"type":"Polygon","coordinates":[[[-72.86996370879281,-13.420097335805911],[-72.86997167685442,-13.41919372227962],[-72.87089476734069,-13.419201520246038],[-72.87088680272583,-13.42010513431639],[-72.86996370879281,-13.420097335805911]]]}},{"type":"Feature","properties":{"Cell_ID":51,"Area_ha":1.0,"LC":"13:1.000000","XMIN":730537.079801426,"YMIN":8515311.212708445,"XMAX":730637.079801426,"YMAX":8515411.212708445},"geometry":{"type":"Polygon","coordinates":[[[-72.8699557401449,-13.421000949262929],[-72.86996370879281,-13.420097335805911],[-72.87088680272583,-13.42010513431639],[-72.87087883752494,-13.421008748317467],[-72.8699557401449,-13.421000949262929]]]}},{"type":"Feature","properties":{"Cell_ID":52,"Area_ha":1.0,"LC":"5:0.038476,13:0.961524","XMIN":730537.079801426,"YMIN":8515211.212708445,"XMAX":730637.079801426,"YMAX":8515311.212708445},"geometry":{"type":"Polygon","coordinates":[[[-72.86994777091073,-13.421904562650658],[-72.8699557401449,-13.421000949262929],[-72.87087883752494,-13.421008748317467],[-72.87087087173802,-13.421912362249262],[-72.86994777091073,-13.421904562650658]]]}},{"type":"Feature","properties":{"Cell_ID":53,"Area_ha":1.0,"LC":"5:0.642342,13:0.357658","XMIN":730537.079801426,"YMIN":8515111.212708445,"XMAX":730637.079801426,"YMAX":8515211.212708445},"geometry":{"type":"Polygon","coordinates":[[[-72.86993980109025,-13.422808175969099],[-72.86994777091073,-13.421904562650658],[-72.87087087173802,-13.421912362249262],[-72.87086290536506,-13.422815976111778],[-72.86993980109025,-13.422808175969099]]]}},{"type":"Feature","properties":{"Cell_ID":54,"Area_ha":1.0,"LC":"5:1.000000","XMIN":730537.079801426,"YMIN":8515011.212708445,"XMAX":730637.079801426,"YMAX":8515111.212708445},"geometry":{"type":"Polygon","coordinates":[[[-72.86993183068346,-13.423711789218247],[-72.86993980109025,-13.422808175969099],[-72.87086290536506,-13.422815976111778],[-72.87085493840604,-13.423719589905],[-72.86993183068346,-13.423711789218247]]]}},{"type":"Feature","properties":{"Cell_ID":55,"Area_ha":1.0,"LC":"5:0.718872,7:0.276640,9:0.004488","XMIN":730537.079801426,"YMIN":8514911.212708445,"XMAX":730637.079801426,"YMAX":8515011.212708445},"geometry":{"type":"Polygon","coordinates":[[[-72.86992385969036,-13.424615402398098],[-72.86993183068346,-13.423711789218247],[-72.87085493840604,-13.423719589905],[-72.87084697086097,-13.424623203628927],[-72.86992385969036,-13.424615402398098]]]}},{"type":"Feature","properties":{"Cell_ID":56,"Area_ha":1.0,"LC":"9:0.040311,16:0.959689","XMIN":730637.079801426,"YMIN":8515711.212708445,"XMAX":730737.079801426,"YMAX":8515811.212708445},"geometry":{"type":"Polygon","coordinates":[[[-72.86906452821162,-13.417378694767205],[-72.86907249796047,-13.41647508157738],[-72.86999557752175,-13.416482881285102],[-72.86998761121889,-13.41738649501921],[-72.86906452821162,-13.417378694767205]]]}},{"type":"Feature","properties":{"Cell_ID":57,"Area_ha":1.0,"LC":"16:1.000000","XMIN":730637.079801426,"YMIN":8515611.212708445,"XMAX":730737.079801426,"YMAX":8515711.212708445},"geometry":{"type":"Polygon","coordinates":[[[-72.86905655787628,-13.41828230788776],[-72.86906452821162,-13.417378694767205],[-72.86998761121889,-13.41738649501921],[-72.86997964432979,-13.418290108684047],[-72.86905655787628,-13.41828230788776]]]}},{"type":"Feature","properties":{"Cell_ID":58,"Area_ha":1.0,"LC":"13:0.542441,16:0.457559","XMIN":730637.079801426,"YMIN":8515511.212708445,"XMAX":730737.079801426,"YMAX":8515611.212708445},"geometry":{"type":"Polygon","coordinates":[[[-72.86904858695443,-13.41918592093904],[-72.86905655787628,-13.41828230788776],[-72.86997964432979,-13.418290108684047],[-72.86997167685442,-13.41919372227962],[-72.86904858695443,-13.41918592093904]]]}},{"type":"Feature","properties":{"Cell_ID":59,"Area_ha":1.0,"LC":"13:1.000000","XMIN":730637.079801426,"YMIN":8515411.212708445,"XMAX":730737.079801426,"YMAX":8515511.212708445},"geometry":{"type":"Polygon","coordinates":[[[-72.86904061544605,-13.420089533921038],[-72.86904858695443,-13.41918592093904],[-72.86997167685442,-13.41919372227962],[-72.86996370879281,-13.420097335805911],[-72.86904061544605,-13.420089533921038]]]}},{"type":"Feature","properties":{"Cell_ID":60,"Area_ha":1.0,"LC":"13:1.000000","XMIN":730637.079801426,"YMIN":8515311.212708445,"XMAX":730737.079801426,"YMAX":8515411.212708445},"geometry":{"type":"Polygon","coordinates":[[[-72.86903264335115,-13.420993146833755],[-72.86904061544605,-13.420089533921038],[-72.86996370879281,-13.420097335805911],[-72.8699557401449,-13.421000949262929],[-72.86903264335115,-13.420993146833755]]]}},{"type":"Feature","properties":{"Cell_ID":61,"Area_ha":1.0,"LC":"13:1.000000","XMIN":730637.079801426,"YMIN":8515211.212708445,"XMAX":730737.079801426,"YMAX":8515311.212708445},"geometry":{"type":"Polygon","coordinates":[[[-72.86902467066972,-13.421896759677184],[-72.86903264335115,-13.420993146833755],[-72.8699557401449,-13.421000949262929],[-72.86994777091073,-13.421904562650658],[-72.86902467066972,-13.421896759677184]]]}},{"type":"Feature","properties":{"Cell_ID":62,"Area_ha":1.0,"LC":"5:0.422441,13:0.577559","XMIN":730637.079801426,"YMIN":8515111.212708445,"XMAX":730737.079801426,"YMAX":8515211.212708445},"geometry":{"type":"Polygon","coordinates":[[[-72.86901669740172,-13.42280037245132],[-72.86902467066972,-13.421896759677184],[-72.86994777091073,-13.421904562650658],[-72.86993980109025,-13.422808175969099],[-72.86901669740172,-13.42280037245132]]]}},{"type":"Feature","properties":{"Cell_ID":63,"Area_ha":1.0,"LC":"5:1.000000","XMIN":730637.079801426,"YMIN":8515011.212708445,"XMAX":730737.079801426,"YMAX":8515111.212708445},"geometry":{"type":"Polygon","coordinates":[[[-72.86900872354718,-13.423703985156159],[-72.86901669740172,-13.42280037245132],[-72.86993980109025,-13.422808175969099],[-72.86993183068346,-13.423711789218247],[-72.86900872354718,-13.423703985156159]]]}},{"type":"Feature","properties":{"Cell_ID":64,"Area_ha":1.0,"LC":"9:0.147847,16:0.229188,17:0.149517","XMIN":730737.079801426,"YMIN":8515811.212708445,"XMAX":730837.079801426,"YMAX":8515911.212708445},"geometry":{"type":"Polygon","coordinates":[[[-72.86814941898568,-13.416467278496214],[-72.86815739159377,-13.415563665781638],[-72.86908046712283,-13.415571468318293],[-72.86907249796047,-13.41647508157738],[-72.86814941898568,-13.416467278496214]]]}},{"type":"Feature","properties":{"Cell_ID":65,"Area_ha":1.0,"LC":"9:0.177559,16:0.822441","XMIN":730737.079801426,"YMIN":8515711.212708445,"XMAX":730837.079801426,"YMAX":8515811.212708445},"geometry":{"type":"Polygon","coordinates":[[[-72.86814144579085,-13.417370891141518],[-72.86814941898568,-13.416467278496214],[-72.86907249796047,-13.41647508157738],[-72.86906452821162,-13.417378694767205],[-72.86814144579085,-13.417370891141518]]]}},{"type":"Feature","properties":{"Cell_ID":66,"Area_ha":1.0,"LC":"13:0.351206,16:0.648794","XMIN":730737.079801426,"YMIN":8515611.212708445,"XMAX":730837.079801426,"YMAX":8515711.212708445},"geometry":{"type":"Polygon","coordinates":[[[-72.86813347200928,-13.418274503717551],[-72.86814144579085,-13.417370891141518],[-72.86906452821162,-13.417378694767205],[-72.86905655787628,-13.41828230788776],[-72.86813347200928,-13.418274503717551]]]}},{"type":"Feature","properties":{"Cell_ID":67,"Area_ha":1.0,"LC":"13:0.898264,16:0.101736","XMIN":730737.079801426,"YMIN":8515511.212708445,"XMAX":730837.079801426,"YMAX":8515611.212708445},"geometry":{"type":"Polygon","coordinates":[[[-72.86812549764095,-13.419178116224307],[-72.86813347200928,-13.418274503717551],[-72.86905655787628,-13.41828230788776],[-72.86904858695443,-13.41918592093904],[-72.86812549764095,-13.419178116224307]]]}},{"type":"Feature","properties":{"Cell_ID":68,"Area_ha":1.0,"LC":"13:1.000000","XMIN":730737.079801426,"YMIN":8515411.212708445,"XMAX":730837.079801426,"YMAX":8515511.212708445},"geometry":{"type":"Polygon","coordinates":[[[-72.86811752268584,-13.420081728661776],[-72.86812549764095,-13.419178116224307],[-72.86904858695443,-13.41918592093904],[-72.86904061544605,-13.420089533921038],[-72.86811752268584,-13.420081728661776]]]}},{"type":"Feature","properties":{"Cell_ID":69,"Area_ha":1.0,"LC":"13:1.000000","XMIN":730737.079801426,"YMIN":8515311.212708445,"XMAX":730837.079801426,"YMAX":8515411.212708445},"geometry":{"type":"Polygon","coordinates":[[[-72.86810954714394,-13.42098534102996],[-72.86811752268584,-13.420081728661776],[-72.86904061544605,-13.420089533921038],[-72.86903264335115,-13.420993146833755],[-72.86810954714394,-13.42098534102996]]]}}]}