{"type":"FeatureCollection","features":[{"type":"Feature","properties":{"Cell_ID":1,"Area_ha":1.0,"LC":"5:0.166953,9:0.480323,13:0.159514","XMIN":732834.86160847,"YMIN":8511391.718609778,"XMAX":732934.86160847,"YMAX":8511491.718609778},"geometry":{"type":"Polygon","coordinates":[[[-72.84842923698447,-13.456237343285636],[-72.84843730804995,-13.455333745117239],[-72.8493605237334,-13.455341642700905],[-72.84935245612463,-13.456245241418927],[-72.84842923698447,-13.456237343285636]]]}},{"type":"Feature","properties":{"Cell_ID":2,"Area_ha":1.0,"LC":"5:0.480486,9:0.483876,13:0.035638","XMIN":732834.86160847,"YMIN":8511291.718609778,"XMAX":732934.86160847,"YMAX":8511391.718609778},"geometry":{"type":"Polygon","coordinates":[[[-72.84842116532647,-13.457140941384488],[-72.84842923698447,-13.456237343285636],[-72.84935245612463,-13.456245241418927],[-72.8493443879236,-13.45714884006741],[-72.84842116532647,-13.457140941384488]]]}},{"type":"Feature","properties":{"Cell_ID":3,"Area_ha":1.0,"LC":"5:0.037409,9:0.955723,13:0.006868","XMIN":732834.86160847,"YMIN":8511191.718609778,"XMAX":732934.86160847,"YMAX":8511291.718609778},"geometry":{"type":"Polygon","coordinates":[[[-72.84841309307592,-13.45804453941379],[-72.84842116532647,-13.457140941384488],[-72.8493443879236,-13.45714884006741],[-72.84933631913027,-13.458052438646344],[-72.84841309307592,-13.45804453941379]]]}},{"type":"Feature","properties":{"Cell_ID":4,"Area_ha":1.0,"LC":"5:0.642991,9:0.357009","XMIN":732934.86160847,"YMIN":8511291.718609778,"XMAX":733034.86160847,"YMAX":8511391.718609778},"geometry":{"type":"Polygon","coordinates":[[[-72.84749794332188,-13.4571330393177],[-72.84750601843685,-13.456229441768713],[-72.84842923698447,-13.456237343285636],[-72.84842116532647,-13.457140941384488],[-72.84749794332188,-13.4571330393177]]]}},{"type":"Feature","properties":{"Cell_ID":5,"Area_ha":1.0,"LC":"5:0.276692,9:0.360399,14:0.362908","XMIN":732934.86160847,"YMIN":8511191.718609778,"XMAX":733034.86160847,"YMAX":8511291.718609778},"geometry":{"type":"Polygon","coordinates":[[[-72.84748986761413,-13.458036636797132],[-72.84749794332188,-13.4571330393177],[-72.84842116532647,-13.457140941384488],[-72.84841309307592,-13.45804453941379],[-72.84748986761413,-13.458036636797132]]]}},{"type":"Feature","properties":{"Cell_ID":6,"Area_ha":1.0,"LC":"5:0.448723,9:0.549338,14:0.001939","XMIN":732934.86160847,"YMIN":8511091.718609778,"XMAX":733034.86160847,"YMAX":8511191.718609778},"geometry":{"type":"Polygon","coordinates":[[[-72.84748179131358,-13.458940234207002],[-72.84748986761413,-13.458036636797132],[-72.84841309307592,-13.45804453941379],[-72.84840502023283,-13.458948137373534],[-72.84748179131358,-13.458940234207002]]]}},{"type":"Feature","properties":{"Cell_ID":7,"Area_ha":1.0,"LC":"5:0.384240,9:0.601855,13:0.003561,14:0.010345","XMIN":732934.86160847,"YMIN":8510991.718609778,"XMAX":733034.86160847,"YMAX":8511091.718609778},"geometry":{"type":"Polygon","coordinates":[[[-72.84747371442023,-13.45984383154731],[-72.84748179131358,-13.458940234207002],[-72.84840502023283,-13.458948137373534],[-72.8483969467972,-13.459851735263719],[-72.84747371442023,-13.45984383154731]]]}},{"type":"Feature","properties":{"Cell_ID":8,"Area_ha":1.0,"LC":"5:0.442295,6:0.045836,9:0.362105","XMIN":733034.86160847,"YMIN":8511291.718609778,"XMAX":733134.86160847,"YMAX":8511391.718609778},"geometry":{"type":"Polygon","coordinates":[[[-72.84657472191009,-13.45712513386706],[-72.84658280048198,-13.456221536868169],[-72.84750601843685,-13.456229441768713],[-72.84749794332188,-13.4571330393177],[-72.84657472191009,-13.45712513386706]]]}},{"type":"Feature","properties":{"Cell_ID":9,"Area_ha":1.0,"LC":"5:0.533905,6:0.080317,9:0.148686,14:0.237092","XMIN":733034.86160847,"YMIN":8511191.718609778,"XMAX":733134.86160847,"YMAX":8511291.718609778},"geometry":{"type":"Polygon","coordinates":[[[-72.84656664274513,-13.458028730796384],[-72.84657472191009,-13.45712513386706],[-72.84749794332188,-13.4571330393177],[-72.84748986761413,-13.458036636797132],[-72.84656664274513,-13.458028730796384]]]}},{"type":"Feature","properties":{"Cell_ID":10,"Area_ha":1.0,"LC":"5:0.424557,9:0.003392,14:0.572051","XMIN":733034.86160847,"YMIN":8511091.718609778,"XMAX":733134.86160847,"YMAX":8511191.718609778},"geometry":{"type":"Polygon","coordinates":[[[-72.84655856298714,-13.458932327656148],[-72.84656664274513,-13.458028730796384],[-72.84748986761413,-13.458036636797132],[-72.84748179131358,-13.458940234207002],[-72.84655856298714,-13.458932327656148]]]}},{"type":"Feature","properties":{"Cell_ID":11,"Area_ha":1.0,"LC":"5:0.007037,9:0.318713,13:0.003392,14:0.670858","XMIN":733034.86160847,"YMIN":8510991.718609778,"XMAX":733134.86160847,"YMAX":8511091.718609778},"geometry":{"type":"Polygon","coordinates":[[[-72.84655048263608,-13.459835924446345],[-72.84655856298714,-13.458932327656148],[-72.84748179131358,-13.458940234207002],[-72.84747371442023,-13.45984383154731],[-72.84655048263608,-13.459835924446345]]]}},{"type":"Feature","properties":{"Cell_ID":12,"Area_ha":1.0,"LC":"5:0.154902,9:0.154986,13:0.690112","XMIN":733034.86160847,"YMIN":8510891.718609778,"XMAX":733134.86160847,"YMAX":8510991.718609778},"geometry":{"type":"Polygon","coordinates":[[[-72.84654240169193,-13.460739521166968],[-72.84655048263608,-13.459835924446345],[-72.84747371442023,-13.45984383154731],[-72.84746563693403,-13.460747428818054],[-72.84654240169193,-13.460739521166968]]]}},{"type":"Feature","properties":{"Cell_ID":13,"Area_ha":1.0,"LC":"5:0.046295,6:0.547318,9:0.274788,14:0.003375","XMIN":733134.86160847,"YMIN":8511191.718609778,"XMAX":733234.86160847,"YMAX":8511291.718609778},"geometry":{"type":"Polygon","coordinates":[[[-72.8456434184692,-13.458020821411557],[-72.84565150109133,-13.45711722503257],[-72.84657472191009,-13.45712513386706],[-72.84656664274513,-13.458028730796384],[-72.8456434184692,-13.458020821411557]]]}},{"type":"Feature","properties":{"Cell_ID":14,"Area_ha":1.0,"LC":"5:0.594753,6:0.353047,9:0.038378,14:0.013821","XMIN":733134.86160847,"YMIN":8511091.718609778,"XMAX":733234.86160847,"YMAX":8511191.718609778},"geometry":{"type":"Polygon","coordinates":[[[-72.84563533525376,-13.458924417720977],[-72.8456434184692,-13.458020821411557],[-72.84656664274513,-13.458028730796384],[-72.84655856298714,-13.458932327656148],[-72.84563533525376,-13.458924417720977]]]}},{"type":"Feature","properties":{"Cell_ID":15,"Area_ha":1.0,"LC":"5:0.338668,14:0.661332","XMIN":733134.86160847,"YMIN":8510991.718609778,"XMAX":733234.86160847,"YMAX":8511091.718609778},"geometry":{"type":"Polygon","coordinates":[[[-72.84562725144501,-13.459828013960825],[-72.84563533525376,-13.458924417720977],[-72.84655856298714,-13.458932327656148],[-72.84655048263608,-13.459835924446345],[-72.84562725144501,-13.459828013960825]]]}},{"type":"Feature","properties":{"Cell_ID":16,"Area_ha":1.0,"LC":"5:0.301649,9:0.612452,13:0.085899","XMIN":733134.86160847,"YMIN":8510891.718609778,"XMAX":733234.86160847,"YMAX":8510991.718609778},"geometry":{"type":"Polygon","coordinates":[[[-72.84561916704293,-13.460731610131099],[-72.84562725144501,-13.459828013960825],[-72.84655048263608,-13.459835924446345],[-72.84654240169193,-13.460739521166968],[-72.84561916704293,-13.460731610131099]]]}},{"type":"Feature","properties":{"Cell_ID":17,"Area_ha":1.0,"LC":"9:0.231426,13:0.685582,16:0.082993","XMIN":733134.86160847,"YMIN":8510791.718609778,"XMAX":733234.86160847,"YMAX":8510891.718609778},"geometry":{"type":"Polygon","coordinates":[[[-72.8456110820475,-13.461635206231792],[-72.84561916704293,-13.460731610131099],[-72.84654240169193,-13.460739521166968],[-72.84653432015472,-13.461643117818017],[-72.8456110820475,-13.461635206231792]]]}},{"type":"Feature","properties":{"Cell_ID":18,"Area_ha":1.0,"LC":"5:0.383607,9:0.494276","XMIN":733234.86160847,"YMIN":8511091.718609778,"XMAX":733334.86160847,"YMAX":8511191.718609778},"geometry":{"type":"Polygon","coordinates":[[[-72.8447121081137,-13.458916504401502],[-72.84472019478658,-13.45801290864266],[-72.8456434184692,-13.458020821411557],[-72.84563533525376,-13.458924417720977],[-72.8447121081137,-13.458916504401502]]]}},{"type":"Feature","properties":{"Cell_ID":19,"Area_ha":1.0,"LC":"5:0.402105,9:0.597895","XMIN":733234.86160847,"YMIN":8510991.718609778,"XMAX":733334.86160847,"YMAX":8511091.718609778},"geometry":{"type":"Polygon","coordinates":[[[-72.84470402084726,-13.459820100090766],[-72.8447121081137,-13.458916504401502],[-72.84563533525376,-13.458924417720977],[-72.84562725144501,-13.459828013960825],[-72.84470402084726,-13.459820100090766]]]}},{"type":"Feature","properties":{"Cell_ID":20,"Area_ha":1.0,"LC":"5:0.348686,9:0.648322,13:0.002993","XMIN":733234.86160847,"YMIN":8510891.718609778,"XMAX":733334.86160847,"YMAX":8510991.718609778},"geometry":{"type":"Polygon","coordinates":[[[-72.84469593298725,-13.460723695710453],[-72.84470402084726,-13.459820100090766],[-72.84562725144501,-13.459828013960825],[-72.84561916704293,-13.460731610131099],[-72.84469593298725,-13.460723695710453]]]}},{"type":"Feature","properties":{"Cell_ID":21,"Area_ha":1.0,"LC":"9:0.704240,13:0.003794,16:0.291966","XMIN":733234.86160847,"YMIN":8510791.718609778,"XMAX":733334.86160847,"YMAX":8510891.718609778},"geometry":{"type":"Polygon","coordinates":[[[-72.84468784453364,-13.461627291260555],[-72.84469593298725,-13.460723695710453],[-72.84561916704293,-13.460731610131099],[-72.8456110820475,-13.461635206231792],[-72.84468784453364,-13.461627291260555]]]}},{"type":"Feature","properties":{"Cell_ID":22,"Area_ha":1.0,"LC":"9:0.076524,16:0.923476","XMIN":733234.86160847,"YMIN":8510691.718609778,"XMAX":733334.86160847,"YMAX":8510791.718609778},"geometry":{"type":"Polygon","coordinates":[[[-72.84467975548641,-13.462530886741066],[-72.84468784453364,-13.461627291260555],[-72.8456110820475,-13.461635206231792],[-72.84560299645872,-13.462538802262898],[-72.84467975548641,-13.462530886741066]]]}},{"type":"Feature","properties":{"Cell_ID":23,"Area_ha":1.0,"LC":"5:0.243162,9:0.235153,13:0.331611","XMIN":733334.86160847,"YMIN":8510991.718609778,"XMAX":733434.86160847,"YMAX":8511091.718609778},"geometry":{"type":"Polygon","coordinates":[[[-72.84378079084311,-13.459812182836178],[-72.84378888156722,-13.458908587697731],[-72.8447121081137,-13.458916504401502],[-72.84470402084726,-13.459820100090766],[-72.84378079084311,-13.459812182836178]]]}},{"type":"Feature","properties":{"Cell_ID":24,"Area_ha":1.0,"LC":"9:0.074669,13:0.925331","XMIN":733334.86160847,"YMIN":8510891.718609778,"XMAX":733434.86160847,"YMAX":8510991.718609778},"geometry":{"type":"Polygon","coordinates":[[[-72.84377269952516,-13.460715777905039],[-72.84378079084311,-13.459812182836178],[-72.84470402084726,-13.459820100090766],[-72.84469593298725,-13.460723695710453],[-72.84377269952516,-13.460715777905039]]]}},{"type":"Feature","properties":{"Cell_ID":25,"Area_ha":1.0,"LC":"9:0.007037,13:0.950540,16:0.042423","XMIN":733334.86160847,"YMIN":8510791.718609778,"XMAX":733434.86160847,"YMAX":8510891.718609778},"geometry":{"type":"Polygon","coordinates":[[[-72.84376460761337,-13.461619372904314],[-72.84377269952516,-13.460715777905039],[-72.84469593298725,-13.460723695710453],[-72.84468784453364,-13.461627291260555],[-72.84376460761337,-13.461619372904314]]]}},{"type":"Feature","properties":{"Cell_ID":26,"Area_ha":1.0,"LC":"9:0.234902,13:0.358547,16:0.406551","XMIN":733334.86160847,"YMIN":8510691.718609778,"XMAX":733434.86160847,"YMAX":8510791.718609778},"geometry":{"type":"Polygon","coordinates":[[[-72.84375651510771,-13.462522967833998],[-72.84376460761337,-13.461619372904314],[-72.84468784453364,-13.461627291260555],[-72.84467975548641,-13.462530886741066],[-72.84375651510771,-13.462522967833998]]]}},{"type":"Feature","properties":{"Cell_ID":27,"Area_ha":1.0,"LC":"13:0.042908,16:0.957092","XMIN":733334.86160847,"YMIN":8510591.718609778,"XMAX":733434.86160847,"YMAX":8510691.718609778},"geometry":{"type":"Polygon","coordinates":[[[-72.84374842200819,-13.463426562694082],[-72.84375651510771,-13.462522967833998],[-72.84467975548641,-13.462530886741066],[-72.84467166584557,-13.463434482151989],[-72.84374842200819,-13.463426562694082]]]}},{"type":"Feature","properties":{"Cell_ID":28,"Area_ha":1.0,"LC":"5:0.006893,9:0.133821,13:0.817287","XMIN":733434.86160847,"YMIN":8510791.718609778,"XMAX":733534.86160847,"YMAX":8510891.718609778},"geometry":{"type":"Polygon","coordinates":[[[-72.84284137128697,-13.461611451163085],[-72.84284946665692,-13.460707856714869],[-72.84377269952516,-13.460715777905039],[-72.84376460761337,-13.461619372904314],[-72.84284137128697,-13.461611451163085]]]}},{"type":"Feature","properties":{"Cell_ID":29,"Area_ha":1.0,"LC":"9:0.184240,13:0.696730,16:0.119031","XMIN":733434.86160847,"YMIN":8510691.718609778,"XMAX":733534.86160847,"YMAX":8510791.718609778},"geometry":{"type":"Polygon","coordinates":[[[-72.84283327532287,-13.462515045541698],[-72.84284137128697,-13.461611451163085],[-72.84376460761337,-13.461619372904314],[-72.84375651510771,-13.462522967833998],[-72.84283327532287,-13.462515045541698]]]}},{"type":"Feature","properties":{"Cell_ID":30,"Area_ha":1.0,"LC":"13:0.841939,16:0.158061","XMIN":733434.86160847,"YMIN":8510591.718609778,"XMAX":733534.86160847,"YMAX":8510691.718609778},"geometry":{"type":"Polygon","coordinates":[[[-72.84282517876467,-13.463418639850714],[-72.84283327532287,-13.462515045541698],[-72.84375651510771,-13.462522967833998],[-72.84374842200819,-13.463426562694082],[-72.84282517876467,-13.463418639850714]]]}},{"type":"Feature","properties":{"Cell_ID":31,"Area_ha":1.0,"LC":"13:1.000000","XMIN":733434.86160847,"YMIN":8510491.718609778,"XMAX":733534.86160847,"YMAX":8510591.718609778},"geometry":{"type":"Polygon","coordinates":[[[-72.84281708161235,-13.464322234090123],[-72.84282517876467,-13.463418639850714],[-72.84374842200819,-13.463426562694082],[-72.84374032831478,-13.464330157484564],[-72.84281708161235,-13.464322234090123]]]}},{"type":"Feature","properties":{"Cell_ID":32,"Area_ha":1.0,"LC":"13:0.397977,16:0.602023","XMIN":733434.86160847,"YMIN":8510191.718609778,"XMAX":733534.86160847,"YMAX":8510291.718609778},"geometry":{"type":"Polygon","coordinates":[[[-72.84279278659045,-13.467033016390682],[-72.84280088552525,-13.466129422360112],[-72.8437241391463,-13.466137346856712],[-72.84371604367121,-13.467040941438368],[-72.84279278659045,-13.467033016390682]]]}},{"type":"Feature","properties":{"Cell_ID":33,"Area_ha":1.0,"LC":"13:0.637553","XMIN":733534.86160847,"YMIN":8510691.718609778,"XMAX":733634.86160847,"YMAX":8510791.718609778},"geometry":{"type":"Polygon","coordinates":[[[-72.84191003613218,-13.462507119864185],[-72.84191813555466,-13.46160352603687],[-72.84284137128697,-13.461611451163085],[-72.84283327532287,-13.462515045541698],[-72.84191003613218,-13.462507119864185]]]}},{"type":"Feature","properties":{"Cell_ID":34,"Area_ha":1.0,"LC":"13:0.981250","XMIN":733534.86160847,"YMIN":8510591.718609778,"XMAX":733634.86160847,"YMAX":8510691.718609778},"geometry":{"type":"Polygon","coordinates":[[[-72.84190193611532,-13.463410713621895],[-72.84191003613218,-13.462507119864185],[-72.84283327532287,-13.462515045541698],[-72.84282517876467,-13.463418639850714],[-72.84190193611532,-13.463410713621895]]]}},{"type":"Feature","properties":{"Cell_ID":35,"Area_ha":1.0,"LC":"13:1.000000","XMIN":733534.86160847,"YMIN":8510491.718609778,"XMAX":733634.86160847,"YMAX":8510591.718609778},"geometry":{"type":"Polygon","coordinates":[[[-72.84189383550405,-13.464314307309996],[-72.84190193611532,-13.463410713621895],[-72.84282517876467,-13.463418639850714],[-72.84281708161235,-13.464322234090123],[-72.84189383550405,-13.464314307309996]]]}},{"type":"Feature","properties":{"Cell_ID":36,"Area_ha":1.0,"LC":"13:1.000000","XMIN":733534.86160847,"YMIN":8510391.718609778,"XMAX":733634.86160847,"YMAX":8510491.718609778},"geometry":{"type":"Polygon","coordinates":[[[-72.84188573429842,-13.465217900928481],[-72.84189383550405,-13.464314307309996],[-72.84281708161235,-13.464322234090123],[-72.84280898386588,-13.465225828259927],[-72.84188573429842,-13.465217900928481]]]}},{"type":"Feature","properties":{"Cell_ID":37,"Area_ha":1.0,"LC":"13:1.000000","XMIN":733534.86160847,"YMIN":8510291.718609778,"XMAX":733634.86160847,"YMAX":8510391.718609778},"geometry":{"type":"Polygon","coordinates":[[[-72.84187763249837,-13.466121494477347],[-72.84188573429842,-13.465217900928481],[-72.84280898386588,-13.465225828259927],[-72.84280088552525,-13.466129422360112],[-72.84187763249837,-13.466121494477347]]]}},{"type":"Feature","properties":{"Cell_ID":38,"Area_ha":1.0,"LC":"13:0.835071,16:0.164929","XMIN":733534.86160847,"YMIN":8510191.718609778,"XMAX":733634.86160847,"YMAX":8510291.718609778},"geometry":{"type":"Polygon","coordinates":[[[-72.84186953010388,-13.467025087956598],[-72.84187763249837,-13.466121494477347],[-72.84280088552525,-13.466129422360112],[-72.84279278659045,-13.467033016390682],[-72.84186953010388,-13.467025087956598]]]}},{"type":"Feature","properties":{"Cell_ID":39,"Area_ha":1.0,"LC":"13:0.768324,16:0.231676","XMIN":733534.86160847,"YMIN":8510091.718609778,"XMAX":733634.86160847,"YMAX":8510191.718609778},"geometry":{"type":"Polygon","coordinates":[[[-72.84186142711499,-13.467928681366217],[-72.84186953010388,-13.467025087956598],[-72.84279278659045,-13.467033016390682],[-72.8427846870615,-13.467936610351625],[-72.84186142711499,-13.467928681366217]]]}},{"type":"Feature","properties":{"Cell_ID":40,"Area_ha":1.0,"LC":"13:0.526070","XMIN":733634.86160847,"YMIN":8510491.718609778,"XMAX":733734.86160847,"YMAX":8510591.718609778},"geometry":{"type":"Polygon","coordinates":[[[-72.84097058999018,-13.464306377144187],[-72.84097869406033,-13.463402784007632],[-72.84190193611532,-13.463410713621895],[-72.84189383550405,-13.464314307309996],[-72.84097058999018,-13.464306377144187]]]}},{"type":"Feature","properties":{"Cell_ID":41,"Area_ha":1.0,"LC":"13:0.924862","XMIN":733634.86160847,"YMIN":8510391.718609778,"XMAX":733734.86160847,"YMAX":8510491.718609778},"geometry":{"type":"Polygon","coordinates":[[[-72.84096248532536,-13.465209970211124],[-72.84097058999018,-13.464306377144187],[-72.84189383550405,-13.464314307309996],[-72.84188573429842,-13.465217900928481],[-72.84096248532536,-13.465209970211124]]]}},{"type":"Feature","properties":{"Cell_ID":42,"Area_ha":1.0,"LC":"13:1.000000","XMIN":733634.86160847,"YMIN":8510291.718609778,"XMAX":733734.86160847,"YMAX":8510391.718609778},"geometry":{"type":"Polygon","coordinates":[[[-72.8409543800659,-13.466113563208442],[-72.84096248532536,-13.465209970211124],[-72.84188573429842,-13.465217900928481],[-72.84187763249837,-13.466121494477347],[-72.8409543800659,-13.466113563208442]]]}},{"type":"Feature","properties":{"Cell_ID":43,"Area_ha":1.0,"LC":"13:0.796524,16:0.203476","XMIN":733634.86160847,"YMIN":8510191.718609778,"XMAX":733734.86160847,"YMAX":8510291.718609778},"geometry":{"type":"Polygon","coordinates":[[[-72.84094627421175,-13.467017156136132],[-72.8409543800659,-13.466113563208442],[-72.84187763249837,-13.466121494477347],[-72.84186953010388,-13.467025087956598],[-72.84094627421175,-13.467017156136132]]]}},{"type":"Feature","properties":{"Cell_ID":44,"Area_ha":1.0,"LC":"13:0.630055,16:0.369945","XMIN":733634.86160847,"YMIN":8510091.718609778,"XMAX":733734.86160847,"YMAX":8510191.718609778},"geometry":{"type":"Polygon","coordinates":[[[-72.84093816776291,-13.467920748994192],[-72.84094627421175,-13.467017156136132],[-72.84186953010388,-13.467025087956598],[-72.84186142711499,-13.467928681366217],[-72.84093816776291,-13.467920748994192]]]}},{"type":"Feature","properties":{"Cell_ID":45,"Area_ha":1.0,"LC":"13:0.767605,16:0.232395","XMIN":733634.86160847,"YMIN":8509991.718609778,"XMAX":733734.86160847,"YMAX":8510091.718609778},"geometry":{"type":"Polygon","coordinates":[[[-72.8409300607194,-13.468824341782614],[-72.84093816776291,-13.467920748994192],[-72.84186142711499,-13.467928681366217],[-72.84185332353164,-13.468832274706205],[-72.8409300607194,-13.468824341782614]]]}},{"type":"Feature","properties":{"Cell_ID":46,"Area_ha":1.0,"LC":"13:0.951994,16:0.048006","XMIN":733634.86160847,"YMIN":8509891.718609778,"XMAX":733734.86160847,"YMAX":8509991.718609778},"geometry":{"type":"Polygon","coordinates":[[[-72.84092195308118,-13.4697279345014],[-72.8409300607194,-13.468824341782614],[-72.84185332353164,-13.468832274706205],[-72.84184521935386,-13.469735867976562],[-72.84092195308118,-13.4697279345014]]]}},{"type":"Feature","properties":{"Cell_ID":47,"Area_ha":1.0,"LC":"13:0.630175,16:0.200603","XMIN":733734.86160847,"YMIN":8510191.718609778,"XMAX":733834.86160847,"YMAX":8510291.718609778},"geometry":{"type":"Polygon","coordinates":[[[-72.8400230189143,-13.467009220929295],[-72.84003112822809,-13.466105628553395],[-72.8409543800659,-13.466113563208442],[-72.84094627421175,-13.467017156136132],[-72.8400230189143,-13.467009220929295]]]}},{"type":"Feature","properties":{"Cell_ID":48,"Area_ha":1.0,"LC":"13:0.264240,16:0.735760","XMIN":733734.86160847,"YMIN":8510091.718609778,"XMAX":733834.86160847,"YMAX":8510191.718609778},"geometry":{"type":"Polygon","coordinates":[[[-72.84001490900555,-13.467912813235555],[-72.8400230189143,-13.467009220929295],[-72.84094627421175,-13.467017156136132],[-72.84093816776291,-13.467920748994192],[-72.84001490900555,-13.467912813235555]]]}},{"type":"Feature","properties":{"Cell_ID":49,"Area_ha":1.0,"LC":"13:0.251882,16:0.748118","XMIN":733734.86160847,"YMIN":8509991.718609778,"XMAX":733834.86160847,"YMAX":8510091.718609778},"geometry":{"type":"Polygon","coordinates":[[[-72.84000679850186,-13.46881640547218],[-72.84001490900555,-13.467912813235555],[-72.84093816776291,-13.467920748994192],[-72.8409300607194,-13.468824341782614],[-72.84000679850186,-13.46881640547218]]]}},{"type":"Feature","properties":{"Cell_ID":50,"Area_ha":1.0,"LC":"13:0.472246,16:0.527754","XMIN":733734.86160847,"YMIN":8509891.718609778,"XMAX":733834.86160847,"YMAX":8509991.718609778},"geometry":{"type":"Polygon","coordinates":[[[-72.83999868740322,-13.469719997639162],[-72.84000679850186,-13.46881640547218],[-72.8409300607194,-13.468824341782614],[-72.84092195308118,-13.4697279345014],[-72.83999868740322,-13.469719997639162]]]}},{"type":"Feature","properties":{"Cell_ID":51,"Area_ha":1.0,"LC":"13:0.114902,16:0.885098","XMIN":733734.86160847,"YMIN":8509791.718609778,"XMAX":733834.86160847,"YMAX":8509891.718609778},"geometry":{"type":"Polygon","coordinates":[[[-72.8399905757096,-13.470623589736492],[-72.83999868740322,-13.469719997639162],[-72.84092195308118,-13.4697279345014],[-72.84091384484825,-13.470631527150541],[-72.8399905757096,-13.470623589736492]]]}},{"type":"Feature","properties":{"Cell_ID":52,"Area_ha":1.0,"LC":"16:1.000000","XMIN":733734.86160847,"YMIN":8509691.718609778,"XMAX":733834.86160847,"YMAX":8509791.718609778},"geometry":{"type":"Polygon","coordinates":[[[-72.83998246342102,-13.471527181764172],[-72.8399905757096,-13.470623589736492],[-72.84091384484825,-13.470631527150541],[-72.84090573602057,-13.471535119730035],[-72.83998246342102,-13.471527181764172]]]}},{"type":"Feature","properties":{"Cell_ID":53,"Area_ha":1.0,"LC":"13:0.175496,16:0.496063","XMIN":733834.86160847,"YMIN":8509991.718609778,"XMAX":733934.86160847,"YMAX":8510091.718609778},"geometry":{"type":"Polygon","coordinates":[[[-72.83908353687929,-13.468808465774908],[-72.83909165084313,-13.467904874090319],[-72.84001490900555,-13.467912813235555],[-72.84000679850186,-13.46881640547218],[-72.83908353687929,-13.468808465774908]]]}},{"type":"Feature","properties":{"Cell_ID":54,"Area_ha":1.0,"LC":"13:0.480525,16:0.491560","XMIN":733834.86160847,"YMIN":8509891.718609778,"XMAX":733934.86160847,"YMAX":8509991.718609778},"geometry":{"type":"Polygon","coordinates":[[[-72.83907542232022,-13.469712057389849],[-72.83908353687929,-13.468808465774908],[-72.84000679850186,-13.46881640547218],[-72.83999868740322,-13.469719997639162],[-72.83907542232022,-13.469712057389849]]]}},{"type":"Feature","properties":{"Cell_ID":55,"Area_ha":1.0,"LC":"13:0.078145,16:0.921855","XMIN":733834.86160847,"YMIN":8509791.718609778,"XMAX":733934.86160847,"YMAX":8509891.718609778},"geometry":{"type":"Polygon","coordinates":[[[-72.83906730716595,-13.470615648935139],[-72.83907542232022,-13.469712057389849],[-72.83999868740322,-13.469719997639162],[-72.8399905757096,-13.470623589736492],[-72.83906730716595,-13.470615648935139]]]}},{"type":"Feature","properties":{"Cell_ID":56,"Area_ha":1.0,"LC":"13:0.339987,16:0.512652","XMIN":733834.86160847,"YMIN":8509691.718609778,"XMAX":733934.86160847,"YMAX":8509791.718609778},"geometry":{"type":"Polygon","coordinates":[[[-72.83905919141645,-13.471519240410771],[-72.83906730716595,-13.470615648935139],[-72.8399905757096,-13.470623589736492],[-72.83998246342102,-13.471527181764172],[-72.83905919141645,-13.471519240410771]]]}}]}