{"type":"FeatureCollection","features":[{"type":"Feature","properties":{"Cell_ID":1,"Area_ha":1.0,"LC":"3:0.041792,13:0.958208","XMIN":729964.86160847,"YMIN":8510733.59738907,"XMAX":730064.86160847,"YMAX":8510833.59738907},"geometry":{"type":"Polygon","coordinates":[[[-72.8748733817733,-13.462409547457712],[-72.87488135747881,-13.461505934065675],[-72.8758046128153,-13.461513738114487],[-72.87579664056847,-13.462417352049417],[-72.8748733817733,-13.462409547457712]]]}},{"type":"Feature","properties":{"Cell_ID":2,"Area_ha":1.0,"LC":"3:0.384285,9:0.357365,13:0.258350","XMIN":729964.86160847,"YMIN":8510633.59738907,"XMAX":730064.86160847,"YMAX":8510733.59738907},"geometry":{"type":"Polygon","coordinates":[[[-72.87486540548248,-13.46331316078029],[-72.8748733817733,-13.462409547457712],[-72.87579664056847,-13.462417352049417],[-72.87578866773659,-13.46332096591489],[-72.87486540548248,-13.46331316078029]]]}},{"type":"Feature","properties":{"Cell_ID":3,"Area_ha":1.0,"LC":"3:0.961243,9:0.038757","XMIN":729964.86160847,"YMIN":8510533.59738907,"XMAX":730064.86160847,"YMAX":8510633.59738907},"geometry":{"type":"Polygon","coordinates":[[[-72.87485742860632,-13.464216774033394],[-72.87486540548248,-13.46331316078029],[-72.87578866773659,-13.46332096591489],[-72.87578069431963,-13.464224579710901],[-72.87485742860632,-13.464216774033394]]]}},{"type":"Feature","properties":{"Cell_ID":4,"Area_ha":1.0,"LC":"2:0.000562,3:0.499312,5:0.224700,6:0.079719,13:0.195707","XMIN":730064.86160847,"YMIN":8510833.59738907,"XMAX":730164.86160847,"YMAX":8510933.59738907},"geometry":{"type":"Polygon","coordinates":[[[-72.87395810272761,-13.461498126631636],[-72.87396608130624,-13.46059451371327],[-72.87488933259901,-13.460602320604183],[-72.87488135747881,-13.461505934065675],[-72.87395810272761,-13.461498126631636]]]}},{"type":"Feature","properties":{"Cell_ID":5,"Area_ha":1.0,"LC":"3:0.378897,5:0.083878,6:0.399719,13:0.137507","XMIN":730064.86160847,"YMIN":8510733.59738907,"XMAX":730164.86160847,"YMAX":8510833.59738907},"geometry":{"type":"Polygon","coordinates":[[[-72.87395012356343,-13.462401739480542],[-72.87395810272761,-13.461498126631636],[-72.87488135747881,-13.461505934065675],[-72.8748733817733,-13.462409547457712],[-72.87395012356343,-13.462401739480542]]]}},{"type":"Feature","properties":{"Cell_ID":6,"Area_ha":1.0,"LC":"3:0.957351,5:0.042086,6:0.000562","XMIN":730064.86160847,"YMIN":8510633.59738907,"XMAX":730164.86160847,"YMAX":8510733.59738907},"geometry":{"type":"Polygon","coordinates":[[[-72.87394214381368,-13.463305352259983],[-72.87395012356343,-13.462401739480542],[-72.8748733817733,-13.462409547457712],[-72.87486540548248,-13.46331316078029],[-72.87394214381368,-13.463305352259983]]]}},{"type":"Feature","properties":{"Cell_ID":7,"Area_ha":1.0,"LC":"3:0.062376,5:0.773894,14:0.163730","XMIN":730164.86160847,"YMIN":8510833.59738907,"XMAX":730264.86160847,"YMAX":8510933.59738907},"geometry":{"type":"Polygon","coordinates":[[[-72.87303484856197,-13.461490315812377],[-72.873042830599,-13.460586703437372],[-72.87396608130624,-13.46059451371327],[-72.87395810272761,-13.461498126631636],[-72.87303484856197,-13.461490315812377]]]}},{"type":"Feature","properties":{"Cell_ID":8,"Area_ha":1.0,"LC":"3:0.019031,5:0.756403,9:0.203449,14:0.021117","XMIN":730164.86160847,"YMIN":8510733.59738907,"XMAX":730264.86160847,"YMAX":8510833.59738907},"geometry":{"type":"Polygon","coordinates":[[[-72.87302686593912,-13.462393928117917],[-72.87303484856197,-13.461490315812377],[-72.87395810272761,-13.461498126631636],[-72.87395012356343,-13.462401739480542],[-72.87302686593912,-13.462393928117917]]]}},{"type":"Feature","properties":{"Cell_ID":9,"Area_ha":1.0,"LC":"3:0.296395,5:0.398757,9:0.304847","XMIN":730164.86160847,"YMIN":8510633.59738907,"XMAX":730264.86160847,"YMAX":8510733.59738907},"geometry":{"type":"Polygon","coordinates":[[[-72.87301888273046,-13.46329754035399],[-72.87302686593912,-13.462393928117917],[-72.87395012356343,-13.462401739480542],[-72.87394214381368,-13.463305352259983],[-72.87301888273046,-13.46329754035399]]]}},{"type":"Feature","properties":{"Cell_ID":10,"Area_ha":1.0,"LC":"3:0.335434,9:0.584847,14:0.079719","XMIN":730264.86160847,"YMIN":8510933.59738907,"XMAX":730364.86160847,"YMAX":8511033.59738907},"geometry":{"type":"Polygon","coordinates":[[[-72.87211958047759,-13.460578889776498],[-72.87212756538696,-13.459675277875624],[-72.87305081205025,-13.459683090992902],[-72.873042830599,-13.460586703437372],[-72.87211958047759,-13.460578889776498]]]}},{"type":"Feature","properties":{"Cell_ID":11,"Area_ha":1.0,"LC":"3:0.059446,9:0.524025,13:0.060541,14:0.355988","XMIN":730264.86160847,"YMIN":8510833.59738907,"XMAX":730364.86160847,"YMAX":8510933.59738907},"geometry":{"type":"Polygon","coordinates":[[[-72.87211159498214,-13.461482501607906],[-72.87211958047759,-13.460578889776498],[-72.873042830599,-13.460586703437372],[-72.87303484856197,-13.461490315812377],[-72.87211159498214,-13.461482501607906]]]}},{"type":"Feature","properties":{"Cell_ID":12,"Area_ha":1.0,"LC":"9:0.316270,13:0.664285,14:0.019446","XMIN":730264.86160847,"YMIN":8510733.59738907,"XMAX":730364.86160847,"YMAX":8510833.59738907},"geometry":{"type":"Polygon","coordinates":[[[-72.87210360890066,-13.462386113369847],[-72.87211159498214,-13.461482501607906],[-72.87303484856197,-13.461490315812377],[-72.87302686593912,-13.462393928117917],[-72.87210360890066,-13.462386113369847]]]}},{"type":"Feature","properties":{"Cell_ID":13,"Area_ha":1.0,"LC":"9:0.295153,13:0.704847","XMIN":730264.86160847,"YMIN":8510633.59738907,"XMAX":730364.86160847,"YMAX":8510733.59738907},"geometry":{"type":"Polygon","coordinates":[[[-72.87209562223308,-13.463289725062314],[-72.87210360890066,-13.462386113369847],[-72.87302686593912,-13.462393928117917],[-72.87301888273046,-13.46329754035399],[-72.87209562223308,-13.463289725062314]]]}},{"type":"Feature","properties":{"Cell_ID":14,"Area_ha":1.0,"LC":"9:0.375153,13:0.624847","XMIN":730264.86160847,"YMIN":8510533.59738907,"XMAX":730364.86160847,"YMAX":8510633.59738907},"geometry":{"type":"Polygon","coordinates":[[[-72.87208763497942,-13.464193336685303],[-72.87209562223308,-13.463289725062314],[-72.87301888273046,-13.46329754035399],[-72.87301089893597,-13.464201152520587],[-72.87208763497942,-13.464193336685303]]]}},{"type":"Feature","properties":{"Cell_ID":15,"Area_ha":1.0,"LC":"9:0.958208,13:0.041792","XMIN":730364.86160847,"YMIN":8510933.59738907,"XMAX":730464.86160847,"YMAX":8511033.59738907},"geometry":{"type":"Polygon","coordinates":[[[-72.8711963309422,-13.460571072730662],[-72.87120431930971,-13.459667461373614],[-72.87212756538696,-13.459675277875624],[-72.87211958047759,-13.460578889776498],[-72.8711963309422,-13.460571072730662]]]}},{"type":"Feature","properties":{"Cell_ID":16,"Area_ha":1.0,"LC":"9:0.477381,13:0.522619","XMIN":730364.86160847,"YMIN":8510833.59738907,"XMAX":730464.86160847,"YMAX":8510933.59738907},"geometry":{"type":"Polygon","coordinates":[[[-72.87118834198839,-13.461474684018237],[-72.8711963309422,-13.460571072730662],[-72.87211958047759,-13.460578889776498],[-72.87211159498214,-13.461482501607906],[-72.87118834198839,-13.461474684018237]]]}},{"type":"Feature","properties":{"Cell_ID":17,"Area_ha":1.0,"LC":"13:1.000000","XMIN":730364.86160847,"YMIN":8510733.59738907,"XMAX":730464.86160847,"YMAX":8510833.59738907},"geometry":{"type":"Polygon","coordinates":[[[-72.87118035244825,-13.462378295236343],[-72.87118834198839,-13.461474684018237],[-72.87211159498214,-13.461482501607906],[-72.87210360890066,-13.462386113369847],[-72.87118035244825,-13.462378295236343]]]}},{"type":"Feature","properties":{"Cell_ID":18,"Area_ha":1.0,"LC":"13:1.000000","XMIN":730364.86160847,"YMIN":8510633.59738907,"XMAX":730464.86160847,"YMAX":8510733.59738907},"geometry":{"type":"Polygon","coordinates":[[[-72.87117236232177,-13.46328190638497],[-72.87118035244825,-13.462378295236343],[-72.87210360890066,-13.462386113369847],[-72.87209562223308,-13.463289725062314],[-72.87117236232177,-13.46328190638497]]]}},{"type":"Feature","properties":{"Cell_ID":19,"Area_ha":1.0,"LC":"13:1.000000","XMIN":730364.86160847,"YMIN":8510533.59738907,"XMAX":730464.86160847,"YMAX":8510633.59738907},"geometry":{"type":"Polygon","coordinates":[[[-72.87116437160898,-13.464185517464113],[-72.87117236232177,-13.46328190638497],[-72.87209562223308,-13.463289725062314],[-72.87208763497942,-13.464193336685303],[-72.87116437160898,-13.464185517464113]]]}},{"type":"Feature","properties":{"Cell_ID":20,"Area_ha":1.0,"LC":"13:1.000000","XMIN":730464.86160847,"YMIN":8510833.59738907,"XMAX":730564.86160847,"YMAX":8510933.59738907},"geometry":{"type":"Polygon","coordinates":[[[-72.87026508958094,-13.461466863043379],[-72.87027308199313,-13.46056325229987],[-72.8711963309422,-13.460571072730662],[-72.87118834198839,-13.461474684018237],[-72.87026508958094,-13.461466863043379]]]}},{"type":"Feature","properties":{"Cell_ID":21,"Area_ha":1.0,"LC":"13:1.000000","XMIN":730464.86160847,"YMIN":8510733.59738907,"XMAX":730564.86160847,"YMAX":8510833.59738907},"geometry":{"type":"Polygon","coordinates":[[[-72.87025709658216,-13.462370473717412],[-72.87026508958094,-13.461466863043379],[-72.87118834198839,-13.461474684018237],[-72.87118035244825,-13.462378295236343],[-72.87025709658216,-13.462370473717412]]]}},{"type":"Feature","properties":{"Cell_ID":22,"Area_ha":1.0,"LC":"13:1.000000","XMIN":730464.86160847,"YMIN":8510633.59738907,"XMAX":730564.86160847,"YMAX":8510733.59738907},"geometry":{"type":"Polygon","coordinates":[[[-72.87024910299682,-13.463274084321965],[-72.87025709658216,-13.462370473717412],[-72.87118035244825,-13.462378295236343],[-72.87117236232177,-13.46328190638497],[-72.87024910299682,-13.463274084321965]]]}},{"type":"Feature","properties":{"Cell_ID":23,"Area_ha":1.0,"LC":"13:1.000000","XMIN":730464.86160847,"YMIN":8510533.59738907,"XMAX":730564.86160847,"YMAX":8510633.59738907},"geometry":{"type":"Polygon","coordinates":[[[-72.87024110882489,-13.464177694857028],[-72.87024910299682,-13.463274084321965],[-72.87117236232177,-13.46328190638497],[-72.87116437160898,-13.464185517464113],[-72.87024110882489,-13.464177694857028]]]}},{"type":"Feature","properties":{"Cell_ID":24,"Area_ha":1.0,"LC":"13:1.000000","XMIN":730564.86160847,"YMIN":8510733.59738907,"XMAX":730664.86160847,"YMAX":8510833.59738907},"geometry":{"type":"Polygon","coordinates":[[[-72.86933384130268,-13.462362648813066],[-72.86934183776006,-13.461459038683339],[-72.87026508958094,-13.461466863043379],[-72.87025709658216,-13.462370473717412],[-72.86933384130268,-13.462362648813066]]]}},{"type":"Feature","properties":{"Cell_ID":25,"Area_ha":1.0,"LC":"13:1.000000","XMIN":730564.86160847,"YMIN":8510633.59738907,"XMAX":730664.86160847,"YMAX":8510733.59738907},"geometry":{"type":"Polygon","coordinates":[[[-72.86932584425846,-13.463266258873304],[-72.86933384130268,-13.462362648813066],[-72.87025709658216,-13.462370473717412],[-72.87024910299682,-13.463274084321965],[-72.86932584425846,-13.463266258873304]]]}},{"type":"Feature","properties":{"Cell_ID":26,"Area_ha":1.0,"LC":"13:1.000000","XMIN":730564.86160847,"YMIN":8510533.59738907,"XMAX":730664.86160847,"YMAX":8510633.59738907},"geometry":{"type":"Polygon","coordinates":[[[-72.8693178466274,-13.464169868864055],[-72.86932584425846,-13.463266258873304],[-72.87024910299682,-13.463274084321965],[-72.87024110882489,-13.464177694857028],[-72.8693178466274,-13.464169868864055]]]}},{"type":"Feature","properties":{"Cell_ID":27,"Area_ha":1.0,"LC":"13:1.000000","XMIN":730564.86160847,"YMIN":8510433.59738907,"XMAX":730664.86160847,"YMAX":8510533.59738907},"geometry":{"type":"Polygon","coordinates":[[[-72.86930984840946,-13.465073478785307],[-72.8693178466274,-13.464169868864055],[-72.87024110882489,-13.464177694857028],[-72.87023311406634,-13.465081305322597],[-72.86930984840946,-13.465073478785307]]]}},{"type":"Feature","properties":{"Cell_ID":28,"Area_ha":1.0,"LC":"13:1.000000","XMIN":730664.86160847,"YMIN":8510733.59738907,"XMAX":730764.86160847,"YMAX":8510833.59738907},"geometry":{"type":"Polygon","coordinates":[[[-72.86841058661003,-13.462354820523311],[-72.86841858652602,-13.461451210938128],[-72.86934183776006,-13.461459038683339],[-72.86933384130268,-13.462362648813066],[-72.86841058661003,-13.462354820523311]]]}},{"type":"Feature","properties":{"Cell_ID":29,"Area_ha":1.0,"LC":"13:1.000000","XMIN":730664.86160847,"YMIN":8510633.59738907,"XMAX":730764.86160847,"YMAX":8510733.59738907},"geometry":{"type":"Polygon","coordinates":[[[-72.86840258610692,-13.463258430039005],[-72.86841058661003,-13.462354820523311],[-72.86933384130268,-13.462362648813066],[-72.86932584425846,-13.463266258873304],[-72.86840258610692,-13.463258430039005]]]}},{"type":"Feature","properties":{"Cell_ID":30,"Area_ha":1.0,"LC":"9:0.039719,13:0.960281","XMIN":730664.86160847,"YMIN":8510533.59738907,"XMAX":730764.86160847,"YMAX":8510633.59738907},"geometry":{"type":"Polygon","coordinates":[[[-72.86839458501674,-13.464162039485206],[-72.86840258610692,-13.463258430039005],[-72.86932584425846,-13.463266258873304],[-72.8693178466274,-13.464169868864055],[-72.86839458501674,-13.464162039485206]]]}},{"type":"Feature","properties":{"Cell_ID":31,"Area_ha":1.0,"LC":"13:1.000000","XMIN":730764.86160847,"YMIN":8510633.59738907,"XMAX":730864.86160847,"YMAX":8510733.59738907},"geometry":{"type":"Polygon","coordinates":[[[-72.86747932854252,-13.463250597819078],[-72.86748733250444,-13.462346988848164],[-72.86841058661003,-13.462354820523311],[-72.86840258610692,-13.463258430039005],[-72.86747932854252,-13.463250597819078]]]}},{"type":"Feature","properties":{"Cell_ID":32,"Area_ha":1.0,"LC":"13:1.000000","XMIN":730764.86160847,"YMIN":8510533.59738907,"XMAX":730864.86160847,"YMAX":8510633.59738907},"geometry":{"type":"Polygon","coordinates":[[[-72.86747132399323,-13.46415420672049],[-72.86747932854252,-13.463250597819078],[-72.86840258610692,-13.463258430039005],[-72.86839458501674,-13.464162039485206],[-72.86747132399323,-13.46415420672049]]]}},{"type":"Feature","properties":{"Cell_ID":33,"Area_ha":1.0,"LC":"5:0.123211,13:0.876789","XMIN":730864.86160847,"YMIN":8510633.59738907,"XMAX":730964.86160847,"YMAX":8510733.59738907},"geometry":{"type":"Polygon","coordinates":[[[-72.86655607156545,-13.463242762213525],[-72.86656407898623,-13.462339153787632],[-72.86748733250444,-13.462346988848164],[-72.86747932854252,-13.463250597819078],[-72.86655607156545,-13.463242762213525]]]}},{"type":"Feature","properties":{"Cell_ID":34,"Area_ha":1.0,"LC":"13:1.000000","XMIN":730864.86160847,"YMIN":8510533.59738907,"XMAX":730964.86160847,"YMAX":8510633.59738907},"geometry":{"type":"Polygon","coordinates":[[[-72.86654806355706,-13.464146370569917],[-72.86655607156545,-13.463242762213525],[-72.86747932854252,-13.463250597819078],[-72.86747132399323,-13.46415420672049],[-72.86654806355706,-13.464146370569917]]]}},{"type":"Feature","properties":{"Cell_ID":35,"Area_ha":1.0,"LC":"5:0.662761,9:0.040562,13:0.256395,16:0.040281","XMIN":730964.86160847,"YMIN":8510633.59738907,"XMAX":731064.86160847,"YMAX":8510733.59738907},"geometry":{"type":"Polygon","coordinates":[[[-72.86563281517599,-13.463234923222364],[-72.8656408260556,-13.462331315341721],[-72.86656407898623,-13.462339153787632],[-72.86655607156545,-13.463242762213525],[-72.86563281517599,-13.463234923222364]]]}},{"type":"Feature","properties":{"Cell_ID":36,"Area_ha":1.0,"LC":"5:0.543056,13:0.456944","XMIN":730964.86160847,"YMIN":8510533.59738907,"XMAX":731064.86160847,"YMAX":8510633.59738907},"geometry":{"type":"Polygon","coordinates":[[[-72.86562480370851,-13.4641385310335],[-72.86563281517599,-13.463234923222364],[-72.86655607156545,-13.463242762213525],[-72.86654806355706,-13.464146370569917],[-72.86562480370851,-13.4641385310335]]]}},{"type":"Feature","properties":{"Cell_ID":37,"Area_ha":1.0,"LC":"5:0.040562,13:0.959438","XMIN":730964.86160847,"YMIN":8510433.59738907,"XMAX":731064.86160847,"YMAX":8510533.59738907},"geometry":{"type":"Polygon","coordinates":[[[-72.86561679165318,-13.465042138775122],[-72.86562480370851,-13.4641385310335],[-72.86654806355706,-13.464146370569917],[-72.86654005496106,-13.465049978856802],[-72.86561679165318,-13.465042138775122]]]}}]}