{"type":"FeatureCollection","features":[{"type":"Feature","properties":{"Cell_ID":1,"Area_ha":1.0,"LC":"3:0.520119,5:0.479881","XMIN":728694.86160847,"YMIN":8510533.59738907,"XMAX":728794.86160847,"YMAX":8510633.59738907},"geometry":{"type":"Polygon","coordinates":[[[-72.8865829465666,-13.46431565457623],[-72.88659087951027,-13.463412034445756],[-72.88751414917591,-13.463419796581102],[-72.88750621969157,-13.464323417251483],[-72.8865829465666,-13.46431565457623]]]}},{"type":"Feature","properties":{"Cell_ID":2,"Area_ha":1.0,"LC":"3:0.520007,5:0.275434,14:0.204559","XMIN":728694.86160847,"YMIN":8510433.59738907,"XMAX":728794.86160847,"YMAX":8510533.59738907},"geometry":{"type":"Polygon","coordinates":[[[-72.88657501304084,-13.46521927463728],[-72.8865829465666,-13.46431565457623],[-72.88750621969157,-13.464323417251483],[-72.88749828962538,-13.46522703785245],[-72.88657501304084,-13.46521927463728]]]}},{"type":"Feature","properties":{"Cell_ID":3,"Area_ha":1.0,"LC":"3:0.477624,5:0.522376","XMIN":728794.86160847,"YMIN":8510533.59738907,"XMAX":728894.86160847,"YMAX":8510633.59738907},"geometry":{"type":"Polygon","coordinates":[[[-72.88565967402374,-13.464307888514911],[-72.88566761042672,-13.46340426892459],[-72.88659087951027,-13.463412034445756],[-72.8865829465666,-13.46431565457623],[-72.88565967402374,-13.464307888514911]]]}},{"type":"Feature","properties":{"Cell_ID":4,"Area_ha":1.0,"LC":"3:0.645403,14:0.354597","XMIN":728794.86160847,"YMIN":8510433.59738907,"XMAX":728894.86160847,"YMAX":8510533.59738907},"geometry":{"type":"Polygon","coordinates":[[[-72.88565173703842,-13.465211508035809],[-72.88565967402374,-13.464307888514911],[-72.8865829465666,-13.46431565457623],[-72.88657501304084,-13.46521927463728],[-72.88565173703842,-13.465211508035809]]]}},{"type":"Feature","properties":{"Cell_ID":5,"Area_ha":1.0,"LC":"3:0.040850,5:0.679563,14:0.279586","XMIN":728794.86160847,"YMIN":8510333.59738907,"XMAX":728894.86160847,"YMAX":8510433.59738907},"geometry":{"type":"Polygon","coordinates":[[[-72.8856437994707,-13.466115127487281],[-72.88565173703842,-13.465211508035809],[-72.88657501304084,-13.46521927463728],[-72.88656707893294,-13.466122894628905],[-72.8856437994707,-13.466115127487281]]]}},{"type":"Feature","properties":{"Cell_ID":6,"Area_ha":1.0,"LC":"5:0.837092,14:0.162908","XMIN":728794.86160847,"YMIN":8510233.59738907,"XMAX":728894.86160847,"YMAX":8510333.59738907},"geometry":{"type":"Polygon","coordinates":[[[-72.8856358613206,-13.467018746869318],[-72.8856437994707,-13.466115127487281],[-72.88656707893294,-13.466122894628905],[-72.88655914424291,-13.467026514551097],[-72.8856358613206,-13.467018746869318]]]}},{"type":"Feature","properties":{"Cell_ID":7,"Area_ha":1.0,"LC":"3:0.157224,5:0.842776","XMIN":728894.86160847,"YMIN":8510533.59738907,"XMAX":728994.86160847,"YMAX":8510633.59738907},"geometry":{"type":"Polygon","coordinates":[[[-72.88473640206325,-13.464300119067541],[-72.88474434192553,-13.463396500017602],[-72.88566761042672,-13.46340426892459],[-72.88565967402374,-13.464307888514911],[-72.88473640206325,-13.464300119067541]]]}},{"type":"Feature","properties":{"Cell_ID":8,"Area_ha":1.0,"LC":"3:0.595715,5:0.364566,14:0.039719","XMIN":728894.86160847,"YMIN":8510433.59738907,"XMAX":728994.86160847,"YMAX":8510533.59738907},"geometry":{"type":"Polygon","coordinates":[[[-72.88472846161835,-13.465203738048052],[-72.88473640206325,-13.464300119067541],[-72.88565967402374,-13.464307888514911],[-72.88565173703842,-13.465211508035809],[-72.88472846161835,-13.465203738048052]]]}},{"type":"Feature","properties":{"Cell_ID":9,"Area_ha":1.0,"LC":"3:0.000274,5:0.517668,14:0.482058","XMIN":728894.86160847,"YMIN":8510333.59738907,"XMAX":728994.86160847,"YMAX":8510433.59738907},"geometry":{"type":"Polygon","coordinates":[[[-72.88472052059083,-13.466107356959135],[-72.88472846161835,-13.465203738048052],[-72.88565173703842,-13.465211508035809],[-72.8856437994707,-13.466115127487281],[-72.88472052059083,-13.466107356959135]]]}},{"type":"Feature","properties":{"Cell_ID":10,"Area_ha":1.0,"LC":"5:0.356936,14:0.643064","XMIN":728894.86160847,"YMIN":8510233.59738907,"XMAX":728994.86160847,"YMAX":8510333.59738907},"geometry":{"type":"Polygon","coordinates":[[[-72.88471257898067,-13.467010975800774],[-72.88472052059083,-13.466107356959135],[-72.8856437994707,-13.466115127487281],[-72.8856358613206,-13.467018746869318],[-72.88471257898067,-13.467010975800774]]]}},{"type":"Feature","properties":{"Cell_ID":11,"Area_ha":1.0,"LC":"5:0.555434,9:0.444559,14:0.000007","XMIN":728894.86160847,"YMIN":8510133.59738907,"XMAX":728994.86160847,"YMAX":8510233.59738907},"geometry":{"type":"Polygon","coordinates":[[[-72.88470463678786,-13.467914594572974],[-72.88471257898067,-13.467010975800774],[-72.8856358613206,-13.467018746869318],[-72.8856279225881,-13.467922366181913],[-72.88470463678786,-13.467914594572974]]]}},{"type":"Feature","properties":{"Cell_ID":12,"Area_ha":1.0,"LC":"5:0.999719,9:0.000281","XMIN":728994.86160847,"YMIN":8510533.59738907,"XMAX":729094.86160847,"YMAX":8510633.59738907},"geometry":{"type":"Polygon","coordinates":[[[-72.88381313068538,-13.464292346234132],[-72.88382107400695,-13.463388727724809],[-72.88474434192553,-13.463396500017602],[-72.88473640206325,-13.464300119067541],[-72.88381313068538,-13.464292346234132]]]}},{"type":"Feature","properties":{"Cell_ID":13,"Area_ha":1.0,"LC":"5:0.318223,14:0.681777","XMIN":728994.86160847,"YMIN":8510433.59738907,"XMAX":729094.86160847,"YMAX":8510533.59738907},"geometry":{"type":"Polygon","coordinates":[[[-72.88380518678093,-13.46519596467402],[-72.88381313068538,-13.464292346234132],[-72.88473640206325,-13.464300119067541],[-72.88472846161835,-13.465203738048052],[-72.88380518678093,-13.46519596467402]]]}},{"type":"Feature","properties":{"Cell_ID":14,"Area_ha":1.0,"LC":"5:0.359305,9:0.203309,14:0.437386","XMIN":728994.86160847,"YMIN":8510333.59738907,"XMAX":729094.86160847,"YMAX":8510433.59738907},"geometry":{"type":"Polygon","coordinates":[[[-72.88379724229361,-13.466099583044475],[-72.88380518678093,-13.46519596467402],[-72.88472846161835,-13.465203738048052],[-72.88472052059083,-13.466107356959135],[-72.88379724229361,-13.466099583044475]]]}},{"type":"Feature","properties":{"Cell_ID":15,"Area_ha":1.0,"LC":"5:0.082339,9:0.081539,14:0.836122","XMIN":728994.86160847,"YMIN":8510233.59738907,"XMAX":729094.86160847,"YMAX":8510333.59738907},"geometry":{"type":"Polygon","coordinates":[[[-72.8837892972234,-13.467003201345484],[-72.88379724229361,-13.466099583044475],[-72.88472052059083,-13.466107356959135],[-72.88471257898067,-13.467010975800774],[-72.8837892972234,-13.467003201345484]]]}},{"type":"Feature","properties":{"Cell_ID":16,"Area_ha":1.0,"LC":"5:0.240569,9:0.595004,13:0.163590,14:0.000837","XMIN":728994.86160847,"YMIN":8510133.59738907,"XMAX":729094.86160847,"YMAX":8510233.59738907},"geometry":{"type":"Polygon","coordinates":[[[-72.88378135157026,-13.467906819577053],[-72.8837892972234,-13.467003201345484],[-72.88471257898067,-13.467010975800774],[-72.88470463678786,-13.467914594572974],[-72.88378135157026,-13.467906819577053]]]}},{"type":"Feature","properties":{"Cell_ID":17,"Area_ha":1.0,"LC":"5:0.158335,9:0.243071,13:0.000963,14:0.597631","XMIN":729094.86160847,"YMIN":8510433.59738907,"XMAX":729194.86160847,"YMAX":8510533.59738907},"geometry":{"type":"Polygon","coordinates":[[[-72.88288191252639,-13.465188187913721],[-72.88288985989037,-13.464284570014687],[-72.88381313068538,-13.464292346234132],[-72.88380518678093,-13.46519596467402],[-72.88288191252639,-13.465188187913721]]]}},{"type":"Feature","properties":{"Cell_ID":18,"Area_ha":1.0,"LC":"3:0.402620,5:0.000969,9:0.395004,13:0.000976,14:0.200430","XMIN":729094.86160847,"YMIN":8510333.59738907,"XMAX":729194.86160847,"YMAX":8510433.59738907},"geometry":{"type":"Polygon","coordinates":[[[-72.88287396457928,-13.466091805743313],[-72.88288191252639,-13.465188187913721],[-72.88380518678093,-13.46519596467402],[-72.88379724229361,-13.466099583044475],[-72.88287396457928,-13.466091805743313]]]}},{"type":"Feature","properties":{"Cell_ID":19,"Area_ha":1.0,"LC":"3:0.000288,5:0.557505,9:0.402213,13:0.000963,14:0.039031","XMIN":729094.86160847,"YMIN":8510233.59738907,"XMAX":729194.86160847,"YMAX":8510333.59738907},"geometry":{"type":"Polygon","coordinates":[[[-72.88286601604902,-13.466995423503459],[-72.88287396457928,-13.466091805743313],[-72.88379724229361,-13.466099583044475],[-72.8837892972234,-13.467003201345484],[-72.88286601604902,-13.466995423503459]]]}},{"type":"Feature","properties":{"Cell_ID":20,"Area_ha":1.0,"LC":"5:0.000556,9:0.159593,13:0.839851","XMIN":729094.86160847,"YMIN":8510133.59738907,"XMAX":729194.86160847,"YMAX":8510233.59738907},"geometry":{"type":"Polygon","coordinates":[[[-72.88285806693561,-13.467899041194155],[-72.88286601604902,-13.466995423503459],[-72.8837892972234,-13.467003201345484],[-72.88378135157026,-13.467906819577053],[-72.88285806693561,-13.467899041194155]]]}},{"type":"Feature","properties":{"Cell_ID":21,"Area_ha":1.0,"LC":"5:0.239438,9:0.441383,13:0.319179","XMIN":729094.86160847,"YMIN":8510033.59738907,"XMAX":729194.86160847,"YMAX":8510133.59738907},"geometry":{"type":"Polygon","coordinates":[[[-72.88285011723903,-13.468802658815395],[-72.88285806693561,-13.467899041194155],[-72.88378135157026,-13.467906819577053],[-72.88377340533424,-13.468810437739164],[-72.88285011723903,-13.468802658815395]]]}},{"type":"Feature","properties":{"Cell_ID":22,"Area_ha":1.0,"LC":"5:0.795566,9:0.000837,13:0.164566,14:0.039031","XMIN":729094.86160847,"YMIN":8509933.59738907,"XMAX":729194.86160847,"YMAX":8510033.59738907},"geometry":{"type":"Polygon","coordinates":[[[-72.88284216695926,-13.469706276367178],[-72.88285011723903,-13.468802658815395],[-72.88377340533424,-13.468810437739164],[-72.88376545851527,-13.469714055831824],[-72.88284216695926,-13.469706276367178]]]}},{"type":"Feature","properties":{"Cell_ID":23,"Area_ha":1.0,"LC":"9:0.522376,13:0.319563,14:0.158061","XMIN":729194.86160847,"YMIN":8510433.59738907,"XMAX":729294.86160847,"YMAX":8510533.59738907},"geometry":{"type":"Polygon","coordinates":[[[-72.881958638855,-13.46518040776716],[-72.88196658967848,-13.464276790409224],[-72.88288985989037,-13.464284570014687],[-72.88288191252639,-13.465188187913721],[-72.881958638855,-13.46518040776716]]]}},{"type":"Feature","properties":{"Cell_ID":24,"Area_ha":1.0,"LC":"3:0.598594,5:0.200000,13:0.201406","XMIN":729194.86160847,"YMIN":8510333.59738907,"XMAX":729294.86160847,"YMAX":8510433.59738907},"geometry":{"type":"Polygon","coordinates":[[[-72.8819506874481,-13.466084025055657],[-72.881958638855,-13.46518040776716],[-72.88288191252639,-13.465188187913721],[-72.88287396457928,-13.466091805743313],[-72.8819506874481,-13.466084025055657]]]}},{"type":"Feature","properties":{"Cell_ID":25,"Area_ha":1.0,"LC":"3:0.001406,5:0.039031,9:0.680969,13:0.278594","XMIN":729194.86160847,"YMIN":8510233.59738907,"XMAX":729294.86160847,"YMAX":8510333.59738907},"geometry":{"type":"Polygon","coordinates":[[[-72.88194273545781,-13.4669876422747],[-72.8819506874481,-13.466084025055657],[-72.88287396457928,-13.466091805743313],[-72.88286601604902,-13.466995423503459],[-72.88194273545781,-13.4669876422747]]]}},{"type":"Feature","properties":{"Cell_ID":26,"Area_ha":1.0,"LC":"9:0.159438,13:0.840562","XMIN":729194.86160847,"YMIN":8510133.59738907,"XMAX":729294.86160847,"YMAX":8510233.59738907},"geometry":{"type":"Polygon","coordinates":[[[-72.88193478288412,-13.467891259424293],[-72.88194273545781,-13.4669876422747],[-72.88286601604902,-13.466995423503459],[-72.88285806693561,-13.467899041194155],[-72.88193478288412,-13.467891259424293]]]}},{"type":"Feature","properties":{"Cell_ID":27,"Area_ha":1.0,"LC":"5:0.403590,9:0.237654,13:0.358756","XMIN":729194.86160847,"YMIN":8510033.59738907,"XMAX":729294.86160847,"YMAX":8510133.59738907},"geometry":{"type":"Polygon","coordinates":[[[-72.88192682972699,-13.468794876504425],[-72.88193478288412,-13.467891259424293],[-72.88285806693561,-13.467899041194155],[-72.88285011723903,-13.468802658815395],[-72.88192682972699,-13.468794876504425]]]}},{"type":"Feature","properties":{"Cell_ID":28,"Area_ha":1.0,"LC":"5:0.483196,9:0.121088,13:0.395715","XMIN":729194.86160847,"YMIN":8509933.59738907,"XMAX":729294.86160847,"YMAX":8510033.59738907},"geometry":{"type":"Polygon","coordinates":[[[-72.88191887598643,-13.469698493515098],[-72.88192682972699,-13.468794876504425],[-72.88285011723903,-13.468802658815395],[-72.88284216695926,-13.469706276367178],[-72.88191887598643,-13.469698493515098]]]}},{"type":"Feature","properties":{"Cell_ID":29,"Area_ha":1.0,"LC":"3:0.003871,5:0.435560,9:0.481539,13:0.000556,14:0.078475","XMIN":729194.86160847,"YMIN":8509833.59738907,"XMAX":729294.86160847,"YMAX":8509933.59738907},"geometry":{"type":"Polygon","coordinates":[[[-72.88191092166244,-13.4706021104563],[-72.88191887598643,-13.469698493515098],[-72.88284216695926,-13.469706276367178],[-72.8828342160963,-13.470609893849495],[-72.88191092166244,-13.4706021104563]]]}},{"type":"Feature","properties":{"Cell_ID":30,"Area_ha":1.0,"LC":"9:0.277928,13:0.481264,14:0.240807","XMIN":729294.86160847,"YMIN":8510433.59738907,"XMAX":729394.86160847,"YMAX":8510533.59738907},"geometry":{"type":"Polygon","coordinates":[[[-72.88103536576698,-13.465172624234354],[-72.88104332005,-13.464269007417744],[-72.88196658967848,-13.464276790409224],[-72.881958638855,-13.46518040776716],[-72.88103536576698,-13.465172624234354]]]}},{"type":"Feature","properties":{"Cell_ID":31,"Area_ha":1.0,"LC":"3:0.679563,5:0.280000,13:0.039305,14:0.001132","XMIN":729294.86160847,"YMIN":8510333.59738907,"XMAX":729394.86160847,"YMAX":8510433.59738907},"geometry":{"type":"Polygon","coordinates":[[[-72.88102741090032,-13.46607624098152],[-72.88103536576698,-13.465172624234354],[-72.881958638855,-13.46518040776716],[-72.8819506874481,-13.466084025055657],[-72.88102741090032,-13.46607624098152]]]}},{"type":"Feature","properties":{"Cell_ID":32,"Area_ha":1.0,"LC":"3:0.001406,9:0.197092,13:0.801502","XMIN":729294.86160847,"YMIN":8510233.59738907,"XMAX":729394.86160847,"YMAX":8510333.59738907},"geometry":{"type":"Polygon","coordinates":[[[-72.88101945545002,-13.466979857659227],[-72.88102741090032,-13.46607624098152],[-72.8819506874481,-13.466084025055657],[-72.88194273545781,-13.4669876422747],[-72.88101945545002,-13.466979857659227]]]}},{"type":"Feature","properties":{"Cell_ID":33,"Area_ha":1.0,"LC":"5:0.202339,13:0.797661","XMIN":729294.86160847,"YMIN":8510133.59738907,"XMAX":729394.86160847,"YMAX":8510233.59738907},"geometry":{"type":"Polygon","coordinates":[[[-72.88101149941603,-13.467883474267477],[-72.88101945545002,-13.466979857659227],[-72.88194273545781,-13.4669876422747],[-72.88193478288412,-13.467891259424293],[-72.88101149941603,-13.467883474267477]]]}},{"type":"Feature","properties":{"Cell_ID":34,"Area_ha":1.0,"LC":"5:0.838482,9:0.041651,13:0.119867","XMIN":729294.86160847,"YMIN":8510033.59738907,"XMAX":729394.86160847,"YMAX":8510133.59738907},"geometry":{"type":"Polygon","coordinates":[[[-72.8810035427984,-13.468787090806265],[-72.88101149941603,-13.467883474267477],[-72.88193478288412,-13.467891259424293],[-72.88192682972699,-13.468794876504425],[-72.8810035427984,-13.468787090806265]]]}},{"type":"Feature","properties":{"Cell_ID":35,"Area_ha":1.0,"LC":"5:0.198210,9:0.478482,13:0.323309","XMIN":729294.86160847,"YMIN":8509933.59738907,"XMAX":729394.86160847,"YMAX":8510033.59738907},"geometry":{"type":"Polygon","coordinates":[[[-72.88099558559705,-13.46969070727559],[-72.8810035427984,-13.468787090806265],[-72.88192682972699,-13.468794876504425],[-72.88191887598643,-13.469698493515098],[-72.88099558559705,-13.46969070727559]]]}},{"type":"Feature","properties":{"Cell_ID":36,"Area_ha":1.0,"LC":"2:0.120119,3:0.636536,9:0.241806,13:0.001539","XMIN":729294.86160847,"YMIN":8509833.59738907,"XMAX":729394.86160847,"YMAX":8509933.59738907},"geometry":{"type":"Polygon","coordinates":[[[-72.880987627812,-13.470594323675444],[-72.88099558559705,-13.46969070727559],[-72.88191887598643,-13.469698493515098],[-72.88191092166244,-13.4706021104563],[-72.880987627812,-13.470594323675444]]]}},{"type":"Feature","properties":{"Cell_ID":37,"Area_ha":1.0,"LC":"2:0.523196,3:0.398742,9:0.039031,14:0.039031","XMIN":729294.86160847,"YMIN":8509733.59738907,"XMAX":729394.86160847,"YMAX":8509833.59738907},"geometry":{"type":"Polygon","coordinates":[[[-72.88097966944328,-13.471497940005818],[-72.880987627812,-13.470594323675444],[-72.88191092166244,-13.4706021104563],[-72.88190296675499,-13.471505727328033],[-72.88097966944328,-13.471497940005818]]]}},{"type":"Feature","properties":{"Cell_ID":38,"Area_ha":1.0,"LC":"2:0.000562,3:0.999438","XMIN":729294.86160847,"YMIN":8509633.59738907,"XMAX":729394.86160847,"YMAX":8509733.59738907},"geometry":{"type":"Polygon","coordinates":[[[-72.88097171049081,-13.472401556266712],[-72.88097966944328,-13.471497940005818],[-72.88190296675499,-13.471505727328033],[-72.88189501126406,-13.472409344130286],[-72.88097171049081,-13.472401556266712]]]}},{"type":"Feature","properties":{"Cell_ID":39,"Area_ha":1.0,"LC":"13:1.000000","XMIN":729394.86160847,"YMIN":8510533.59738907,"XMAX":729494.86160847,"YMAX":8510633.59738907},"geometry":{"type":"Polygon","coordinates":[[[-72.88012005100514,-13.464261221040264],[-72.88012800816375,-13.46335760469577],[-72.88105127374936,-13.463365390531687],[-72.88104332005,-13.464269007417744],[-72.88012005100514,-13.464261221040264]]]}},{"type":"Feature","properties":{"Cell_ID":40,"Area_ha":1.0,"LC":"13:0.198498,14:0.801502","XMIN":729394.86160847,"YMIN":8510433.59738907,"XMAX":729494.86160847,"YMAX":8510533.59738907},"geometry":{"type":"Polygon","coordinates":[[[-72.88011209326261,-13.465164837315312],[-72.88012005100514,-13.464261221040264],[-72.88104332005,-13.464269007417744],[-72.88103536576698,-13.465172624234354],[-72.88011209326261,-13.465164837315312]]]}},{"type":"Feature","properties":{"Cell_ID":41,"Area_ha":1.0,"LC":"3:0.515004,5:0.159031,14:0.325965","XMIN":729394.86160847,"YMIN":8510333.59738907,"XMAX":729494.86160847,"YMAX":8510433.59738907},"geometry":{"type":"Polygon","coordinates":[[[-72.8801041349362,-13.466068453520906],[-72.88011209326261,-13.465164837315312],[-72.88103536576698,-13.465172624234354],[-72.88102741090032,-13.46607624098152],[-72.8801041349362,-13.466068453520906]]]}},{"type":"Feature","properties":{"Cell_ID":42,"Area_ha":1.0,"LC":"3:0.041118,9:0.519156,13:0.398468,14:0.041258","XMIN":729394.86160847,"YMIN":8510233.59738907,"XMAX":729494.86160847,"YMAX":8510333.59738907},"geometry":{"type":"Polygon","coordinates":[[[-72.88009617602587,-13.466972069657041],[-72.8801041349362,-13.466068453520906],[-72.88102741090032,-13.46607624098152],[-72.88101945545002,-13.466979857659227],[-72.88009617602587,-13.466972069657041]]]}},{"type":"Feature","properties":{"Cell_ID":43,"Area_ha":1.0,"LC":"5:0.799851,9:0.000844,13:0.199305","XMIN":729394.86160847,"YMIN":8510133.59738907,"XMAX":729494.86160847,"YMAX":8510233.59738907},"geometry":{"type":"Polygon","coordinates":[[[-72.88008821653165,-13.467875685723717],[-72.88009617602587,-13.466972069657041],[-72.88101945545002,-13.466979857659227],[-72.88101149941603,-13.467883474267477],[-72.88008821653165,-13.467875685723717]]]}},{"type":"Feature","properties":{"Cell_ID":44,"Area_ha":1.0,"LC":"5:0.238210,9:0.197505,13:0.564285","XMIN":729394.86160847,"YMIN":8510033.59738907,"XMAX":729494.86160847,"YMAX":8510133.59738907},"geometry":{"type":"Polygon","coordinates":[[[-72.88008025645347,-13.468779301720927],[-72.88008821653165,-13.467875685723717],[-72.88101149941603,-13.467883474267477],[-72.8810035427984,-13.468787090806265],[-72.88008025645347,-13.468779301720927]]]}},{"type":"Feature","properties":{"Cell_ID":45,"Area_ha":1.0,"LC":"9:0.039586,13:0.960414","XMIN":729394.86160847,"YMIN":8509933.59738907,"XMAX":729494.86160847,"YMAX":8510033.59738907},"geometry":{"type":"Polygon","coordinates":[[[-72.88007229579135,-13.469682917648667],[-72.88008025645347,-13.468779301720927],[-72.8810035427984,-13.468787090806265],[-72.88099558559705,-13.46969070727559],[-72.88007229579135,-13.469682917648667]]]}},{"type":"Feature","properties":{"Cell_ID":46,"Area_ha":1.0,"LC":"2:0.198594,3:0.199031,7:0.000969,9:0.440969,13:0.160437","XMIN":729394.86160847,"YMIN":8509833.59738907,"XMAX":729494.86160847,"YMAX":8509933.59738907},"geometry":{"type":"Polygon","coordinates":[[[-72.8800643345453,-13.470586533506932],[-72.88007229579135,-13.469682917648667],[-72.88099558559705,-13.46969070727559],[-72.880987627812,-13.470594323675444],[-72.8800643345453,-13.470586533506932]]]}},{"type":"Feature","properties":{"Cell_ID":47,"Area_ha":1.0,"LC":"2:0.600437,3:0.157505,5:0.162620,9:0.079438","XMIN":729394.86160847,"YMIN":8509733.59738907,"XMAX":729494.86160847,"YMAX":8509833.59738907},"geometry":{"type":"Polygon","coordinates":[[[-72.88005637271527,-13.471490149295715],[-72.8800643345453,-13.470586533506932],[-72.880987627812,-13.470594323675444],[-72.88097966944328,-13.471497940005818],[-72.88005637271527,-13.471490149295715]]]}},{"type":"Feature","properties":{"Cell_ID":48,"Area_ha":1.0,"LC":"3:0.315153,5:0.125129,9:0.559719","XMIN":729394.86160847,"YMIN":8509633.59738907,"XMAX":729494.86160847,"YMAX":8509733.59738907},"geometry":{"type":"Polygon","coordinates":[[[-72.88004841030128,-13.472393765015013],[-72.88005637271527,-13.471490149295715],[-72.88097966944328,-13.471497940005818],[-72.88097171049081,-13.472401556266712],[-72.88004841030128,-13.472393765015013]]]}},{"type":"Feature","properties":{"Cell_ID":49,"Area_ha":1.0,"LC":"9:0.159838,13:0.840162","XMIN":729494.86160847,"YMIN":8510533.59738907,"XMAX":729594.86160847,"YMAX":8510633.59738907},"geometry":{"type":"Polygon","coordinates":[[[-72.87919678254414,-13.46425343127679],[-72.879204743162,-13.463349815474091],[-72.88012800816375,-13.46335760469577],[-72.88012005100514,-13.464261221040264],[-72.87919678254414,-13.46425343127679]]]}},{"type":"Feature","properties":{"Cell_ID":50,"Area_ha":1.0,"LC":"9:0.444040,13:0.000274,14:0.555685","XMIN":729494.86160847,"YMIN":8510433.59738907,"XMAX":729594.86160847,"YMAX":8510533.59738907},"geometry":{"type":"Polygon","coordinates":[[[-72.87918882134214,-13.465157047010038],[-72.87919678254414,-13.46425343127679],[-72.88012005100514,-13.464261221040264],[-72.88011209326261,-13.465164837315312],[-72.87918882134214,-13.465157047010038]]]}},{"type":"Feature","properties":{"Cell_ID":51,"Area_ha":1.0,"LC":"14:1.000000","XMIN":729494.86160847,"YMIN":8510333.59738907,"XMAX":729594.86160847,"YMAX":8510433.59738907},"geometry":{"type":"Polygon","coordinates":[[[-72.87918085955599,-13.46606066267383],[-72.87918882134214,-13.465157047010038],[-72.88011209326261,-13.465164837315312],[-72.8801041349362,-13.466068453520906],[-72.87918085955599,-13.46606066267383]]]}},{"type":"Feature","properties":{"Cell_ID":52,"Area_ha":1.0,"LC":"9:0.320969,13:0.477624,14:0.201406","XMIN":729494.86160847,"YMIN":8510233.59738907,"XMAX":729594.86160847,"YMAX":8510333.59738907},"geometry":{"type":"Polygon","coordinates":[[[-72.87917289718567,-13.46696427826816],[-72.87918085955599,-13.46606066267383],[-72.8801041349362,-13.466068453520906],[-72.88009617602587,-13.466972069657041],[-72.87917289718567,-13.46696427826816]]]}},{"type":"Feature","properties":{"Cell_ID":53,"Area_ha":1.0,"LC":"5:0.316122,13:0.683878","XMIN":729494.86160847,"YMIN":8510133.59738907,"XMAX":729594.86160847,"YMAX":8510233.59738907},"geometry":{"type":"Polygon","coordinates":[[[-72.87916493423117,-13.467867893793024],[-72.87917289718567,-13.46696427826816],[-72.88009617602587,-13.466972069657041],[-72.88008821653165,-13.467875685723717],[-72.87916493423117,-13.467867893793024]]]}},{"type":"Feature","properties":{"Cell_ID":54,"Area_ha":1.0,"LC":"9:0.122620,13:0.877380","XMIN":729494.86160847,"YMIN":8510033.59738907,"XMAX":729594.86160847,"YMAX":8510133.59738907},"geometry":{"type":"Polygon","coordinates":[[[-72.87915697069248,-13.46877150924842],[-72.87916493423117,-13.467867893793024],[-72.88008821653165,-13.467875685723717],[-72.88008025645347,-13.468779301720927],[-72.87915697069248,-13.46877150924842]]]}},{"type":"Feature","properties":{"Cell_ID":55,"Area_ha":1.0,"LC":"3:0.204278,9:0.320007,13:0.475715","XMIN":729494.86160847,"YMIN":8509933.59738907,"XMAX":729594.86160847,"YMAX":8510033.59738907},"geometry":{"type":"Polygon","coordinates":[[[-72.87914900656962,-13.469675124634335],[-72.87915697069248,-13.46877150924842],[-72.88008025645347,-13.468779301720927],[-72.88007229579135,-13.469682917648667],[-72.87914900656962,-13.469675124634335]]]}},{"type":"Feature","properties":{"Cell_ID":56,"Area_ha":1.0,"LC":"2:0.038756,3:0.205410,7:0.557906,9:0.197373,13:0.000556","XMIN":729494.86160847,"YMIN":8509833.59738907,"XMAX":729594.86160847,"YMAX":8509933.59738907},"geometry":{"type":"Polygon","coordinates":[[[-72.87914104186254,-13.470578739950778],[-72.87914900656962,-13.469675124634335],[-72.88007229579135,-13.469682917648667],[-72.8800643345453,-13.470586533506932],[-72.87914104186254,-13.470578739950778]]]}},{"type":"Feature","properties":{"Cell_ID":57,"Area_ha":1.0,"LC":"2:0.078335,3:0.280976,5:0.279845,7:0.360844","XMIN":729494.86160847,"YMIN":8509733.59738907,"XMAX":729594.86160847,"YMAX":8509833.59738907},"geometry":{"type":"Polygon","coordinates":[[[-72.87913307657125,-13.47148235519774],[-72.87914104186254,-13.470578739950778],[-72.8800643345453,-13.470586533506932],[-72.88005637271527,-13.471490149295715],[-72.87913307657125,-13.47148235519774]]]}},{"type":"Feature","properties":{"Cell_ID":58,"Area_ha":1.0,"LC":"5:0.916129,7:0.000281,9:0.083590","XMIN":729494.86160847,"YMIN":8509633.59738907,"XMAX":729594.86160847,"YMAX":8509733.59738907},"geometry":{"type":"Polygon","coordinates":[[[-72.87912511069572,-13.472385970375209],[-72.87913307657125,-13.47148235519774],[-72.88005637271527,-13.471490149295715],[-72.88004841030128,-13.472393765015013],[-72.87912511069572,-13.472385970375209]]]}},{"type":"Feature","properties":{"Cell_ID":59,"Area_ha":1.0,"LC":"3:0.081651,5:0.795153,9:0.123196","XMIN":729494.86160847,"YMIN":8509533.59738907,"XMAX":729594.86160847,"YMAX":8509633.59738907},"geometry":{"type":"Polygon","coordinates":[[[-72.87911714423598,-13.473289585483187],[-72.87912511069572,-13.472385970375209],[-72.88004841030128,-13.472393765015013],[-72.88004044730332,-13.473297380664828],[-72.87911714423598,-13.473289585483187]]]}},{"type":"Feature","properties":{"Cell_ID":60,"Area_ha":1.0,"LC":"9:0.598882,13:0.358498,14:0.042620","XMIN":729594.86160847,"YMIN":8510533.59738907,"XMAX":729694.86160847,"YMAX":8510633.59738907},"geometry":{"type":"Polygon","coordinates":[[[-72.87827351466731,-13.464245638127336],[-72.87828147874441,-13.463342022866668],[-72.879204743162,-13.463349815474091],[-72.87919678254414,-13.46425343127679],[-72.87827351466731,-13.464245638127336]]]}},{"type":"Feature","properties":{"Cell_ID":61,"Area_ha":1.0,"LC":"9:0.358210,14:0.641790","XMIN":729594.86160847,"YMIN":8510433.59738907,"XMAX":729694.86160847,"YMAX":8510533.59738907},"geometry":{"type":"Polygon","coordinates":[[[-72.87826555000582,-13.465149253318549],[-72.87827351466731,-13.464245638127336],[-72.87919678254414,-13.46425343127679],[-72.87918882134214,-13.465157047010038],[-72.87826555000582,-13.465149253318549]]]}},{"type":"Feature","properties":{"Cell_ID":62,"Area_ha":1.0,"LC":"13:0.001932,14:0.998068","XMIN":729594.86160847,"YMIN":8510333.59738907,"XMAX":729694.86160847,"YMAX":8510433.59738907},"geometry":{"type":"Polygon","coordinates":[[[-72.87825758475992,-13.466052868440302],[-72.87826555000582,-13.465149253318549],[-72.87918882134214,-13.465157047010038],[-72.87918085955599,-13.46606066267383],[-72.87825758475992,-13.466052868440302]]]}},{"type":"Feature","properties":{"Cell_ID":63,"Area_ha":1.0,"LC":"9:0.480119,13:0.158482,14:0.361399","XMIN":729594.86160847,"YMIN":8510233.59738907,"XMAX":729694.86160847,"YMAX":8510333.59738907},"geometry":{"type":"Polygon","coordinates":[[[-72.87824961892962,-13.466956483492588],[-72.87825758475992,-13.466052868440302],[-72.87918085955599,-13.46606066267383],[-72.87917289718567,-13.46696427826816],[-72.87824961892962,-13.466956483492588]]]}},{"type":"Feature","properties":{"Cell_ID":64,"Area_ha":1.0,"LC":"9:0.081820,13:0.918180","XMIN":729594.86160847,"YMIN":8510133.59738907,"XMAX":729694.86160847,"YMAX":8510233.59738907},"geometry":{"type":"Polygon","coordinates":[[[-72.87824165251487,-13.467860098475406],[-72.87824961892962,-13.466956483492588],[-72.87917289718567,-13.46696427826816],[-72.87916493423117,-13.467867893793024],[-72.87824165251487,-13.467860098475406]]]}},{"type":"Feature","properties":{"Cell_ID":65,"Area_ha":1.0,"LC":"3:0.283309,9:0.597224,13:0.119467","XMIN":729594.86160847,"YMIN":8510033.59738907,"XMAX":729694.86160847,"YMAX":8510133.59738907},"geometry":{"type":"Polygon","coordinates":[[[-72.87823368551571,-13.468763713388752],[-72.87824165251487,-13.467860098475406],[-72.87916493423117,-13.467867893793024],[-72.87915697069248,-13.46877150924842],[-72.87823368551571,-13.468763713388752]]]}},{"type":"Feature","properties":{"Cell_ID":66,"Area_ha":1.0,"LC":"3:0.560007,5:0.439156,9:0.000837","XMIN":729594.86160847,"YMIN":8509933.59738907,"XMAX":729694.86160847,"YMAX":8510033.59738907},"geometry":{"type":"Polygon","coordinates":[[[-72.87822571793208,-13.469667328232614],[-72.87823368551571,-13.468763713388752],[-72.87915697069248,-13.46877150924842],[-72.87914900656962,-13.469675124634335],[-72.87822571793208,-13.469667328232614]]]}},{"type":"Feature","properties":{"Cell_ID":67,"Area_ha":1.0,"LC":"3:0.315441,5:0.241532,9:0.443027","XMIN":729594.86160847,"YMIN":8509833.59738907,"XMAX":729694.86160847,"YMAX":8509933.59738907},"geometry":{"type":"Polygon","coordinates":[[[-72.878217749764,-13.470570943006996],[-72.87822571793208,-13.469667328232614],[-72.87914900656962,-13.469675124634335],[-72.87914104186254,-13.470578739950778],[-72.878217749764,-13.470570943006996]]]}},{"type":"Feature","properties":{"Cell_ID":68,"Area_ha":1.0,"LC":"3:0.039305,5:0.355848,9:0.442915,13:0.161932","XMIN":729594.86160847,"YMIN":8509733.59738907,"XMAX":729694.86160847,"YMAX":8509833.59738907},"geometry":{"type":"Polygon","coordinates":[[[-72.87820978101145,-13.471474557711893],[-72.878217749764,-13.470570943006996],[-72.87914104186254,-13.470578739950778],[-72.87913307657125,-13.47148235519774],[-72.87820978101145,-13.471474557711893]]]}},{"type":"Feature","properties":{"Cell_ID":69,"Area_ha":1.0,"LC":"5:0.161237,9:0.836817,13:0.001946","XMIN":729594.86160847,"YMIN":8509633.59738907,"XMAX":729694.86160847,"YMAX":8509733.59738907},"geometry":{"type":"Polygon","coordinates":[[[-72.87820181167442,-13.472378172347295],[-72.87820978101145,-13.471474557711893],[-72.87913307657125,-13.47148235519774],[-72.87912511069572,-13.472385970375209],[-72.87820181167442,-13.472378172347295]]]}},{"type":"Feature","properties":{"Cell_ID":70,"Area_ha":1.0,"LC":"3:0.197787,5:0.083196,9:0.719017","XMIN":729594.86160847,"YMIN":8509533.59738907,"XMAX":729694.86160847,"YMAX":8509633.59738907},"geometry":{"type":"Polygon","coordinates":[[[-72.8781938417529,-13.473281786913208],[-72.87820181167442,-13.472378172347295],[-72.87912511069572,-13.472385970375209],[-72.87911714423598,-13.473289585483187],[-72.8781938417529,-13.473281786913208]]]}},{"type":"Feature","properties":{"Cell_ID":71,"Area_ha":1.0,"LC":"9:0.039031,13:0.200437,14:0.760533","XMIN":729694.86160847,"YMIN":8510533.59738907,"XMAX":729794.86160847,"YMAX":8510633.59738907},"geometry":{"type":"Polygon","coordinates":[[[-72.87735024737486,-13.464237841591908],[-72.87735821491118,-13.463334226873505],[-72.87828147874441,-13.463342022866668],[-72.87827351466731,-13.464245638127336],[-72.87735024737486,-13.464237841591908]]]}},{"type":"Feature","properties":{"Cell_ID":72,"Area_ha":1.0,"LC":"14:1.000000","XMIN":729694.86160847,"YMIN":8510433.59738907,"XMAX":729794.86160847,"YMAX":8510533.59738907},"geometry":{"type":"Polygon","coordinates":[[[-72.87734227925392,-13.465141456240847],[-72.87735024737486,-13.464237841591908],[-72.87827351466731,-13.464245638127336],[-72.87826555000582,-13.465149253318549],[-72.87734227925392,-13.465141456240847]]]}},{"type":"Feature","properties":{"Cell_ID":73,"Area_ha":1.0,"LC":"5:0.000963,9:0.079438,13:0.318194,14:0.601406","XMIN":729694.86160847,"YMIN":8510333.59738907,"XMAX":729794.86160847,"YMAX":8510433.59738907},"geometry":{"type":"Polygon","coordinates":[[[-72.87733431054829,-13.466045070820329],[-72.87734227925392,-13.465141456240847],[-72.87826555000582,-13.465149253318549],[-72.87825758475992,-13.466052868440302],[-72.87733431054829,-13.466045070820329]]]}},{"type":"Feature","properties":{"Cell_ID":74,"Area_ha":1.0,"LC":"5:0.164285,9:0.676817,13:0.119867,14:0.039031","XMIN":729694.86160847,"YMIN":8510233.59738907,"XMAX":729794.86160847,"YMAX":8510333.59738907},"geometry":{"type":"Polygon","coordinates":[[[-72.877326341258,-13.466948685330337],[-72.87733431054829,-13.466045070820329],[-72.87825758475992,-13.466052868440302],[-72.87824961892962,-13.466956483492588],[-72.877326341258,-13.466948685330337]]]}},{"type":"Feature","properties":{"Cell_ID":75,"Area_ha":1.0,"LC":"3:0.363997,5:0.120569,9:0.359586,13:0.155848","XMIN":729694.86160847,"YMIN":8510133.59738907,"XMAX":729794.86160847,"YMAX":8510233.59738907},"geometry":{"type":"Polygon","coordinates":[[[-72.87731837138303,-13.467852299770874],[-72.877326341258,-13.466948685330337],[-72.87824961892962,-13.466956483492588],[-72.87824165251487,-13.467860098475406],[-72.87731837138303,-13.467852299770874]]]}},{"type":"Feature","properties":{"Cell_ID":76,"Area_ha":1.0,"LC":"3:0.960414,9:0.039312,13:0.000274","XMIN":729694.86160847,"YMIN":8510033.59738907,"XMAX":729794.86160847,"YMAX":8510133.59738907},"geometry":{"type":"Polygon","coordinates":[[[-72.87731040092336,-13.468755914141934],[-72.87731837138303,-13.467852299770874],[-72.87824165251487,-13.467860098475406],[-72.87823368551571,-13.468763713388752],[-72.87731040092336,-13.468755914141934]]]}},{"type":"Feature","properties":{"Cell_ID":77,"Area_ha":1.0,"LC":"3:0.716003,9:0.283997","XMIN":729694.86160847,"YMIN":8509933.59738907,"XMAX":729794.86160847,"YMAX":8510033.59738907},"geometry":{"type":"Polygon","coordinates":[[[-72.877302429879,-13.469659528443504],[-72.87731040092336,-13.468755914141934],[-72.87823368551571,-13.468763713388752],[-72.87822571793208,-13.469667328232614],[-72.877302429879,-13.469659528443504]]]}},{"type":"Feature","properties":{"Cell_ID":78,"Area_ha":1.0,"LC":"3:0.000556,5:0.079031,9:0.920414","XMIN":729694.86160847,"YMIN":8509833.59738907,"XMAX":729794.86160847,"YMAX":8509933.59738907},"geometry":{"type":"Polygon","coordinates":[[[-72.87729445824992,-13.470563142675598],[-72.877302429879,-13.469659528443504],[-72.87822571793208,-13.469667328232614],[-72.878217749764,-13.470570943006996],[-72.87729445824992,-13.470563142675598]]]}},{"type":"Feature","properties":{"Cell_ID":79,"Area_ha":1.0,"LC":"9:0.882213,13:0.117787","XMIN":729694.86160847,"YMIN":8509733.59738907,"XMAX":729794.86160847,"YMAX":8509833.59738907},"geometry":{"type":"Polygon","coordinates":[[[-72.87728648603614,-13.471466756838195],[-72.87729445824992,-13.470563142675598],[-72.878217749764,-13.470570943006996],[-72.87820978101145,-13.471474557711893],[-72.87728648603614,-13.471466756838195]]]}},{"type":"Feature","properties":{"Cell_ID":80,"Area_ha":1.0,"LC":"5:0.197224,9:0.564440,13:0.238335","XMIN":729694.86160847,"YMIN":8509633.59738907,"XMAX":729794.86160847,"YMAX":8509733.59738907},"geometry":{"type":"Polygon","coordinates":[[[-72.87727851323761,-13.472370370931294],[-72.87728648603614,-13.471466756838195],[-72.87820978101145,-13.471474557711893],[-72.87820181167442,-13.472378172347295],[-72.87727851323761,-13.472370370931294]]]}},{"type":"Feature","properties":{"Cell_ID":81,"Area_ha":1.0,"LC":"5:0.518898,9:0.481102","XMIN":729694.86160847,"YMIN":8509533.59738907,"XMAX":729794.86160847,"YMAX":8509633.59738907},"geometry":{"type":"Polygon","coordinates":[[[-72.87727053985432,-13.473273984954897],[-72.87727851323761,-13.472370370931294],[-72.87820181167442,-13.472378172347295],[-72.8781938417529,-13.473281786913208],[-72.87727053985432,-13.473273984954897]]]}},{"type":"Feature","properties":{"Cell_ID":82,"Area_ha":1.0,"LC":"5:0.000963,9:0.999037","XMIN":729694.86160847,"YMIN":8509433.59738907,"XMAX":729794.86160847,"YMAX":8509533.59738907},"geometry":{"type":"Polygon","coordinates":[[[-72.8772625658863,-13.474177598908998],[-72.87727053985432,-13.473273984954897],[-72.8781938417529,-13.473281786913208],[-72.87818587124688,-13.474185401409615],[-72.8772625658863,-13.474177598908998]]]}},{"type":"Feature","properties":{"Cell_ID":83,"Area_ha":1.0,"LC":"9:0.040681,13:0.959319","XMIN":729794.86160847,"YMIN":8510633.59738907,"XMAX":729894.86160847,"YMAX":8510733.59738907},"geometry":{"type":"Polygon","coordinates":[[[-72.8764349516626,-13.463326427494614],[-72.87644292207324,-13.462422813249253],[-72.87736618186285,-13.462430612085646],[-72.87735821491118,-13.463334226873505],[-72.8764349516626,-13.463326427494614]]]}},{"type":"Feature","properties":{"Cell_ID":84,"Area_ha":1.0,"LC":"9:0.080688,13:0.081118,14:0.838194","XMIN":729794.86160847,"YMIN":8510533.59738907,"XMAX":729894.86160847,"YMAX":8510633.59738907},"geometry":{"type":"Polygon","coordinates":[[[-72.87642698066708,-13.464230041670515],[-72.8764349516626,-13.463326427494614],[-72.87735821491118,-13.463334226873505],[-72.87735024737486,-13.464237841591908],[-72.87642698066708,-13.464230041670515]]]}},{"type":"Feature","properties":{"Cell_ID":85,"Area_ha":1.0,"LC":"9:0.684285,14:0.315715","XMIN":729794.86160847,"YMIN":8510433.59738907,"XMAX":729894.86160847,"YMAX":8510533.59738907},"geometry":{"type":"Polygon","coordinates":[[[-72.87641900908666,-13.46513365577695],[-72.87642698066708,-13.464230041670515],[-72.87735024737486,-13.464237841591908],[-72.87734227925392,-13.465141456240847],[-72.87641900908666,-13.46513365577695]]]}},{"type":"Feature","properties":{"Cell_ID":86,"Area_ha":1.0,"LC":"3:0.039719,5:0.242065,9:0.561820,13:0.039031,14:0.117366","XMIN":729794.86160847,"YMIN":8510333.59738907,"XMAX":729894.86160847,"YMAX":8510433.59738907},"geometry":{"type":"Polygon","coordinates":[[[-72.87641103692133,-13.466037269813922],[-72.87641900908666,-13.46513365577695],[-72.87734227925392,-13.465141456240847],[-72.87733431054829,-13.466045070820329],[-72.87641103692133,-13.466037269813922]]]}},{"type":"Feature","properties":{"Cell_ID":87,"Area_ha":1.0,"LC":"3:0.444278,5:0.555441,9:0.000281","XMIN":729794.86160847,"YMIN":8510233.59738907,"XMAX":729894.86160847,"YMAX":8510333.59738907},"geometry":{"type":"Polygon","coordinates":[[[-72.87640306417106,-13.466940883781415],[-72.87641103692133,-13.466037269813922],[-72.87733431054829,-13.466045070820329],[-72.877326341258,-13.466948685330337],[-72.87640306417106,-13.466940883781415]]]}},{"type":"Feature","properties":{"Cell_ID":88,"Area_ha":1.0,"LC":"3:0.997512,5:0.000556,9:0.001932","XMIN":729794.86160847,"YMIN":8510133.59738907,"XMAX":729894.86160847,"YMAX":8510233.59738907},"geometry":{"type":"Polygon","coordinates":[[[-72.87639509083587,-13.467844497679437],[-72.87640306417106,-13.466940883781415],[-72.877326341258,-13.466948685330337],[-72.87731837138303,-13.467852299770874],[-72.87639509083587,-13.467844497679437]]]}},{"type":"Feature","properties":{"Cell_ID":89,"Area_ha":1.0,"LC":"3:0.596277,9:0.403723","XMIN":729794.86160847,"YMIN":8510033.59738907,"XMAX":729894.86160847,"YMAX":8510133.59738907},"geometry":{"type":"Polygon","coordinates":[[[-72.87638711691572,-13.468748111507972],[-72.87639509083587,-13.467844497679437],[-72.87731837138303,-13.467852299770874],[-72.87731040092336,-13.468755914141934],[-72.87638711691572,-13.468748111507972]]]}},{"type":"Feature","properties":{"Cell_ID":90,"Area_ha":1.0,"LC":"3:0.000274,9:0.997787,13:0.001939","XMIN":729794.86160847,"YMIN":8509933.59738907,"XMAX":729894.86160847,"YMAX":8510033.59738907},"geometry":{"type":"Polygon","coordinates":[[[-72.87637914241064,-13.46965172526702],[-72.87638711691572,-13.468748111507972],[-72.87731040092336,-13.468755914141934],[-72.877302429879,-13.469659528443504],[-72.87637914241064,-13.46965172526702]]]}},{"type":"Feature","properties":{"Cell_ID":91,"Area_ha":1.0,"LC":"9:1.000000","XMIN":729794.86160847,"YMIN":8509833.59738907,"XMAX":729894.86160847,"YMAX":8509933.59738907},"geometry":{"type":"Polygon","coordinates":[[[-72.87637116732058,-13.470555338956581],[-72.87637914241064,-13.46965172526702],[-72.877302429879,-13.469659528443504],[-72.87729445824992,-13.470563142675598],[-72.87637116732058,-13.470555338956581]]]}},{"type":"Feature","properties":{"Cell_ID":92,"Area_ha":1.0,"LC":"9:0.718223,14:0.281777","XMIN":729794.86160847,"YMIN":8509733.59738907,"XMAX":729894.86160847,"YMAX":8509833.59738907},"geometry":{"type":"Polygon","coordinates":[[[-72.87636319164555,-13.471458952576645],[-72.87637116732058,-13.470555338956581],[-72.87729445824992,-13.470563142675598],[-72.87728648603614,-13.471466756838195],[-72.87636319164555,-13.471458952576645]]]}},{"type":"Feature","properties":{"Cell_ID":93,"Area_ha":1.0,"LC":"9:0.918461,14:0.081539","XMIN":729794.86160847,"YMIN":8509633.59738907,"XMAX":729894.86160847,"YMAX":8509733.59738907},"geometry":{"type":"Polygon","coordinates":[[[-72.87635521538552,-13.47236256612721],[-72.87636319164555,-13.471458952576645],[-72.87728648603614,-13.471466756838195],[-72.87727851323761,-13.472370370931294],[-72.87635521538552,-13.47236256612721]]]}},{"type":"Feature","properties":{"Cell_ID":94,"Area_ha":1.0,"LC":"5:0.158468,9:0.517098,14:0.324434","XMIN":729794.86160847,"YMIN":8509533.59738907,"XMAX":729894.86160847,"YMAX":8509633.59738907},"geometry":{"type":"Polygon","coordinates":[[[-72.8763472385405,-13.473266179608272],[-72.87635521538552,-13.47236256612721],[-72.87727851323761,-13.472370370931294],[-72.87727053985432,-13.473273984954897],[-72.8763472385405,-13.473266179608272]]]}},{"type":"Feature","properties":{"Cell_ID":95,"Area_ha":1.0,"LC":"5:0.480414,9:0.519579,14:0.000007","XMIN":729794.86160847,"YMIN":8509433.59738907,"XMAX":729894.86160847,"YMAX":8509533.59738907},"geometry":{"type":"Polygon","coordinates":[[[-72.87633926111047,-13.47416979301983],[-72.8763472385405,-13.473266179608272],[-72.87727053985432,-13.473273984954897],[-72.8772625658863,-13.474177598908998],[-72.87633926111047,-13.47416979301983]]]}},{"type":"Feature","properties":{"Cell_ID":96,"Area_ha":1.0,"LC":"5:0.277240,9:0.641109,13:0.081651","XMIN":729794.86160847,"YMIN":8509333.59738907,"XMAX":729894.86160847,"YMAX":8509433.59738907},"geometry":{"type":"Polygon","coordinates":[[[-72.87633128309542,-13.47507340636187],[-72.87633926111047,-13.47416979301983],[-72.8772625658863,-13.474177598908998],[-72.87725459133351,-13.475081212793588],[-72.87633128309542,-13.47507340636187]]]}},{"type":"Feature","properties":{"Cell_ID":97,"Area_ha":1.0,"LC":"3:0.443716,9:0.200162,14:0.356122","XMIN":729894.86160847,"YMIN":8510533.59738907,"XMAX":729994.86160847,"YMAX":8510633.59738907},"geometry":{"type":"Polygon","coordinates":[[[-72.8755037145442,-13.464222238363174],[-72.87551168899891,-13.463318624730011],[-72.8764349516626,-13.463326427494614],[-72.87642698066708,-13.464230041670515],[-72.8755037145442,-13.464222238363174]]]}},{"type":"Feature","properties":{"Cell_ID":98,"Area_ha":1.0,"LC":"3:0.402101,5:0.402746,9:0.195153","XMIN":729894.86160847,"YMIN":8510433.59738907,"XMAX":729994.86160847,"YMAX":8510533.59738907},"geometry":{"type":"Polygon","coordinates":[[[-72.87549573950433,-13.465125851926867],[-72.8755037145442,-13.464222238363174],[-72.87642698066708,-13.464230041670515],[-72.87641900908666,-13.46513365577695],[-72.87549573950433,-13.465125851926867]]]}},{"type":"Feature","properties":{"Cell_ID":99,"Area_ha":1.0,"LC":"3:0.399156,5:0.560576,9:0.040268","XMIN":729894.86160847,"YMIN":8510333.59738907,"XMAX":729994.86160847,"YMAX":8510433.59738907},"geometry":{"type":"Polygon","coordinates":[[[-72.87548776387928,-13.46602946542109],[-72.87549573950433,-13.465125851926867],[-72.87641900908666,-13.46513365577695],[-72.87641103692133,-13.466037269813922],[-72.87548776387928,-13.46602946542109]]]}},{"type":"Feature","properties":{"Cell_ID":100,"Area_ha":1.0,"LC":"3:0.875159,5:0.000556,9:0.124285","XMIN":729894.86160847,"YMIN":8510233.59738907,"XMAX":729994.86160847,"YMAX":8510333.59738907},"geometry":{"type":"Polygon","coordinates":[[[-72.87547978766905,-13.466933078845836],[-72.87548776387928,-13.46602946542109],[-72.87641103692133,-13.466037269813922],[-72.87640306417106,-13.466940883781415],[-72.87547978766905,-13.466933078845836]]]}},{"type":"Feature","properties":{"Cell_ID":101,"Area_ha":1.0,"LC":"3:0.197928,9:0.802072","XMIN":729894.86160847,"YMIN":8510133.59738907,"XMAX":729994.86160847,"YMAX":8510233.59738907},"geometry":{"type":"Polygon","coordinates":[[[-72.87547181087365,-13.467836692201104],[-72.87547978766905,-13.466933078845836],[-72.87640306417106,-13.466940883781415],[-72.87639509083587,-13.467844497679437],[-72.87547181087365,-13.467836692201104]]]}},{"type":"Feature","properties":{"Cell_ID":102,"Area_ha":1.0,"LC":"9:0.996129,13:0.003871","XMIN":729894.86160847,"YMIN":8510033.59738907,"XMAX":729994.86160847,"YMAX":8510133.59738907},"geometry":{"type":"Polygon","coordinates":[[[-72.87546383349306,-13.468740305486882],[-72.87547181087365,-13.467836692201104],[-72.87639509083587,-13.467844497679437],[-72.87638711691572,-13.468748111507972],[-72.87546383349306,-13.468740305486882]]]}},{"type":"Feature","properties":{"Cell_ID":103,"Area_ha":1.0,"LC":"9:0.520274,13:0.479726","XMIN":729894.86160847,"YMIN":8509933.59738907,"XMAX":729994.86160847,"YMAX":8510033.59738907},"geometry":{"type":"Polygon","coordinates":[[[-72.87545585552724,-13.46964391870317],[-72.87546383349306,-13.468740305486882],[-72.87638711691572,-13.468748111507972],[-72.87637914241064,-13.46965172526702],[-72.87545585552724,-13.46964391870317]]]}},{"type":"Feature","properties":{"Cell_ID":104,"Area_ha":1.0,"LC":"9:0.959719,13:0.040281","XMIN":729894.86160847,"YMIN":8509833.59738907,"XMAX":729994.86160847,"YMAX":8509933.59738907},"geometry":{"type":"Polygon","coordinates":[[[-72.87544787697621,-13.470547531849967],[-72.87545585552724,-13.46964391870317],[-72.87637914241064,-13.46965172526702],[-72.87637116732058,-13.470555338956581],[-72.87544787697621,-13.470547531849967]]]}},{"type":"Feature","properties":{"Cell_ID":105,"Area_ha":1.0,"LC":"9:0.802783,14:0.197217","XMIN":729894.86160847,"YMIN":8509733.59738907,"XMAX":729994.86160847,"YMAX":8509833.59738907},"geometry":{"type":"Polygon","coordinates":[[[-72.87543989783994,-13.471451144927263],[-72.87544787697621,-13.470547531849967],[-72.87637116732058,-13.470555338956581],[-72.87636319164555,-13.471458952576645],[-72.87543989783994,-13.471451144927263]]]}},{"type":"Feature","properties":{"Cell_ID":106,"Area_ha":1.0,"LC":"5:0.039719,9:0.840407,14:0.119874","XMIN":729894.86160847,"YMIN":8509633.59738907,"XMAX":729994.86160847,"YMAX":8509733.59738907},"geometry":{"type":"Polygon","coordinates":[[[-72.87543191811844,-13.472354757935053],[-72.87543989783994,-13.471451144927263],[-72.87636319164555,-13.471458952576645],[-72.87635521538552,-13.47236256612721],[-72.87543191811844,-13.472354757935053]]]}},{"type":"Feature","properties":{"Cell_ID":107,"Area_ha":1.0,"LC":"5:0.439438,9:0.362094,14:0.198468","XMIN":729894.86160847,"YMIN":8509533.59738907,"XMAX":729994.86160847,"YMAX":8509633.59738907},"geometry":{"type":"Polygon","coordinates":[[[-72.87542393781169,-13.47325837087334],[-72.87543191811844,-13.472354757935053],[-72.87635521538552,-13.47236256612721],[-72.8763472385405,-13.473266179608272],[-72.87542393781169,-13.47325837087334]]]}},{"type":"Feature","properties":{"Cell_ID":108,"Area_ha":1.0,"LC":"5:0.478623,9:0.356255,14:0.165122","XMIN":729894.86160847,"YMIN":8509433.59738907,"XMAX":729994.86160847,"YMAX":8509533.59738907},"geometry":{"type":"Polygon","coordinates":[[[-72.87541595691967,-13.474161983742116],[-72.87542393781169,-13.47325837087334],[-72.8763472385405,-13.473266179608272],[-72.87633926111047,-13.47416979301983],[-72.87541595691967,-13.474161983742116]]]}},{"type":"Feature","properties":{"Cell_ID":109,"Area_ha":1.0,"LC":"5:0.003183,9:0.677085,13:0.157505,14:0.162227","XMIN":729894.86160847,"YMIN":8509333.59738907,"XMAX":729994.86160847,"YMAX":8509433.59738907},"geometry":{"type":"Polygon","coordinates":[[[-72.87540797544239,-13.47506559654137],[-72.87541595691967,-13.474161983742116],[-72.87633926111047,-13.47416979301983],[-72.87633128309542,-13.47507340636187],[-72.87540797544239,-13.47506559654137]]]}},{"type":"Feature","properties":{"Cell_ID":110,"Area_ha":1.0,"LC":"3:0.836136,5:0.163590,9:0.000274","XMIN":729994.86160847,"YMIN":8510533.59738907,"XMAX":730094.86160847,"YMAX":8510633.59738907},"geometry":{"type":"Polygon","coordinates":[[[-72.87458044900646,-13.464214431669884],[-72.87458842692037,-13.463310818579693],[-72.87551168899891,-13.463318624730011],[-72.8755037145442,-13.464222238363174],[-72.87458044900646,-13.464214431669884]]]}},{"type":"Feature","properties":{"Cell_ID":111,"Area_ha":1.0,"LC":"3:0.200149,5:0.557105,9:0.202065,13:0.040681","XMIN":729994.86160847,"YMIN":8510433.59738907,"XMAX":730094.86160847,"YMAX":8510533.59738907},"geometry":{"type":"Polygon","coordinates":[[[-72.87457247050715,-13.465118044690602],[-72.87458044900646,-13.464214431669884],[-72.8755037145442,-13.464222238363174],[-72.87549573950433,-13.465125851926867],[-72.87457247050715,-13.465118044690602]]]}},{"type":"Feature","properties":{"Cell_ID":112,"Area_ha":1.0,"LC":"5:0.156396,9:0.239600,13:0.604004","XMIN":729994.86160847,"YMIN":8510333.59738907,"XMAX":730094.86160847,"YMAX":8510433.59738907},"geometry":{"type":"Polygon","coordinates":[[[-72.87456449142242,-13.466021657641848],[-72.87457247050715,-13.465118044690602],[-72.87549573950433,-13.465125851926867],[-72.87548776387928,-13.46602946542109],[-72.87456449142242,-13.466021657641848]]]}},{"type":"Feature","properties":{"Cell_ID":113,"Area_ha":1.0,"LC":"9:0.195153,13:0.804847","XMIN":729994.86160847,"YMIN":8510233.59738907,"XMAX":730094.86160847,"YMAX":8510333.59738907},"geometry":{"type":"Polygon","coordinates":[[[-72.87455651175225,-13.466925270523607],[-72.87456449142242,-13.466021657641848],[-72.87548776387928,-13.46602946542109],[-72.87547978766905,-13.466933078845836],[-72.87455651175225,-13.466925270523607]]]}},{"type":"Feature","properties":{"Cell_ID":114,"Area_ha":1.0,"LC":"9:0.876522,13:0.123478","XMIN":729994.86160847,"YMIN":8510133.59738907,"XMAX":730094.86160847,"YMAX":8510233.59738907},"geometry":{"type":"Polygon","coordinates":[[[-72.87454853149664,-13.467828883335885],[-72.87455651175225,-13.466925270523607],[-72.87547978766905,-13.466933078845836],[-72.87547181087365,-13.467836692201104],[-72.87454853149664,-13.467828883335885]]]}},{"type":"Feature","properties":{"Cell_ID":115,"Area_ha":1.0,"LC":"9:0.242783,13:0.757217","XMIN":729994.86160847,"YMIN":8510033.59738907,"XMAX":730094.86160847,"YMAX":8510133.59738907},"geometry":{"type":"Polygon","coordinates":[[[-72.87454055065557,-13.46873249607867],[-72.87454853149664,-13.467828883335885],[-72.87547181087365,-13.467836692201104],[-72.87546383349306,-13.468740305486882],[-72.87454055065557,-13.46873249607867]]]}},{"type":"Feature","properties":{"Cell_ID":116,"Area_ha":1.0,"LC":"9:0.196817,13:0.803183","XMIN":729994.86160847,"YMIN":8509933.59738907,"XMAX":730094.86160847,"YMAX":8510033.59738907},"geometry":{"type":"Polygon","coordinates":[[[-72.87453256922905,-13.469636108751962],[-72.87454055065557,-13.46873249607867],[-72.87546383349306,-13.468740305486882],[-72.87545585552724,-13.46964391870317],[-72.87453256922905,-13.469636108751962]]]}},{"type":"Feature","properties":{"Cell_ID":117,"Area_ha":1.0,"LC":"9:0.355560,13:0.524040,14:0.120400","XMIN":729994.86160847,"YMIN":8509833.59738907,"XMAX":730094.86160847,"YMAX":8509933.59738907},"geometry":{"type":"Polygon","coordinates":[[[-72.87452458721705,-13.47053972135576],[-72.87453256922905,-13.469636108751962],[-72.87545585552724,-13.46964391870317],[-72.87544787697621,-13.470547531849967],[-72.87452458721705,-13.47053972135576]]]}},{"type":"Feature","properties":{"Cell_ID":118,"Area_ha":1.0,"LC":"9:0.476959,14:0.523041","XMIN":729994.86160847,"YMIN":8509733.59738907,"XMAX":730094.86160847,"YMAX":8509833.59738907},"geometry":{"type":"Polygon","coordinates":[[[-72.87451660461959,-13.471443333890054],[-72.87452458721705,-13.47053972135576],[-72.87544787697621,-13.470547531849967],[-72.87543989783994,-13.471451144927263],[-72.87451660461959,-13.471443333890054]]]}},{"type":"Feature","properties":{"Cell_ID":119,"Area_ha":1.0,"LC":"9:0.916655,13:0.000969,14:0.082376","XMIN":729994.86160847,"YMIN":8509633.59738907,"XMAX":730094.86160847,"YMAX":8509733.59738907},"geometry":{"type":"Polygon","coordinates":[[[-72.8745086214366,-13.472346946354834],[-72.87451660461959,-13.471443333890054],[-72.87543989783994,-13.471451144927263],[-72.87543191811844,-13.472354757935053],[-72.8745086214366,-13.472346946354834]]]}},{"type":"Feature","properties":{"Cell_ID":120,"Area_ha":1.0,"LC":"5:0.361095,9:0.521125,13:0.000963,14:0.116817","XMIN":729994.86160847,"YMIN":8509533.59738907,"XMAX":730094.86160847,"YMAX":8509633.59738907},"geometry":{"type":"Polygon","coordinates":[[[-72.87450063766812,-13.473250558750111],[-72.8745086214366,-13.472346946354834],[-72.87543191811844,-13.472354757935053],[-72.87542393781169,-13.47325837087334],[-72.87450063766812,-13.473250558750111]]]}},{"type":"Feature","properties":{"Cell_ID":121,"Area_ha":1.0,"LC":"5:0.120844,9:0.120281,13:0.084566,14:0.674309","XMIN":729994.86160847,"YMIN":8509433.59738907,"XMAX":730094.86160847,"YMAX":8509533.59738907},"geometry":{"type":"Polygon","coordinates":[[[-72.87449265331414,-13.474154171075867],[-72.87450063766812,-13.473250558750111],[-72.87542393781169,-13.47325837087334],[-72.87541595691967,-13.474161983742116],[-72.87449265331414,-13.474154171075867]]]}},{"type":"Feature","properties":{"Cell_ID":122,"Area_ha":1.0,"LC":"3:0.000969,5:0.759719,9:0.158875,13:0.001258,14:0.079179","XMIN":729994.86160847,"YMIN":8509333.59738907,"XMAX":730094.86160847,"YMAX":8509433.59738907},"geometry":{"type":"Polygon","coordinates":[[[-72.87448466837462,-13.475057783332106],[-72.87449265331414,-13.474154171075867],[-72.87541595691967,-13.474161983742116],[-72.87540797544239,-13.47506559654137],[-72.87448466837462,-13.475057783332106]]]}},{"type":"Feature","properties":{"Cell_ID":123,"Area_ha":1.0,"LC":"5:0.000281,9:0.999719","XMIN":729994.86160847,"YMIN":8509233.59738907,"XMAX":730094.86160847,"YMAX":8509333.59738907},"geometry":{"type":"Polygon","coordinates":[[[-72.87447668284956,-13.47596139551882],[-72.87448466837462,-13.475057783332106],[-72.87540797544239,-13.47506559654137],[-72.87539999337982,-13.47596920927111],[-72.87447668284956,-13.47596139551882]]]}},{"type":"Feature","properties":{"Cell_ID":124,"Area_ha":1.0,"LC":"9:0.039719,13:0.960281","XMIN":730094.86160847,"YMIN":8510233.59738907,"XMAX":730194.86160847,"YMAX":8510333.59738907},"geometry":{"type":"Polygon","coordinates":[[[-72.87363323642087,-13.46691745881474],[-72.87364121955098,-13.4660138464762],[-72.87456449142242,-13.466021657641848],[-72.87455651175225,-13.466925270523607],[-72.87363323642087,-13.46691745881474]]]}},{"type":"Feature","properties":{"Cell_ID":125,"Area_ha":1.0,"LC":"9:0.358068,13:0.641932","XMIN":730094.86160847,"YMIN":8510133.59738907,"XMAX":730194.86160847,"YMAX":8510233.59738907},"geometry":{"type":"Polygon","coordinates":[[[-72.87362525270507,-13.467821071083794],[-72.87363323642087,-13.46691745881474],[-72.87455651175225,-13.466925270523607],[-72.87454853149664,-13.467828883335885],[-72.87362525270507,-13.467821071083794]]]}},{"type":"Feature","properties":{"Cell_ID":126,"Area_ha":1.0,"LC":"9:0.277366,13:0.722634","XMIN":730094.86160847,"YMIN":8510033.59738907,"XMAX":730194.86160847,"YMAX":8510133.59738907},"geometry":{"type":"Polygon","coordinates":[[[-72.87361726840358,-13.468724683283353],[-72.87362525270507,-13.467821071083794],[-72.87454853149664,-13.467828883335885],[-72.87454055065557,-13.46873249607867],[-72.87361726840358,-13.468724683283353]]]}},{"type":"Feature","properties":{"Cell_ID":127,"Area_ha":1.0,"LC":"13:1.000000","XMIN":730094.86160847,"YMIN":8509933.59738907,"XMAX":730194.86160847,"YMAX":8510033.59738907},"geometry":{"type":"Polygon","coordinates":[[[-72.87360928351634,-13.469628295413413],[-72.87361726840358,-13.468724683283353],[-72.87454055065557,-13.46873249607867],[-72.87453256922905,-13.469636108751962],[-72.87360928351634,-13.469628295413413]]]}},{"type":"Feature","properties":{"Cell_ID":128,"Area_ha":1.0,"LC":"9:0.439838,13:0.521406,14:0.038756","XMIN":730094.86160847,"YMIN":8509833.59738907,"XMAX":730194.86160847,"YMAX":8509933.59738907},"geometry":{"type":"Polygon","coordinates":[[[-72.87360129804341,-13.470531907473973],[-72.87360928351634,-13.469628295413413],[-72.87453256922905,-13.469636108751962],[-72.87452458721705,-13.47053972135576],[-72.87360129804341,-13.470531907473973]]]}},{"type":"Feature","properties":{"Cell_ID":129,"Area_ha":1.0,"LC":"9:0.523759,13:0.241088,14:0.235153","XMIN":730094.86160847,"YMIN":8509733.59738907,"XMAX":730194.86160847,"YMAX":8509833.59738907},"geometry":{"type":"Polygon","coordinates":[[[-72.8735933119847,-13.471435519465023],[-72.87360129804341,-13.470531907473973],[-72.87452458721705,-13.47053972135576],[-72.87451660461959,-13.471443333890054],[-72.8735933119847,-13.471435519465023]]]}},{"type":"Feature","properties":{"Cell_ID":130,"Area_ha":1.0,"LC":"9:0.236817,13:0.723878,14:0.039305","XMIN":730094.86160847,"YMIN":8509633.59738907,"XMAX":730194.86160847,"YMAX":8509733.59738907},"geometry":{"type":"Polygon","coordinates":[[[-72.87358532534029,-13.472339131386565],[-72.8735933119847,-13.471435519465023],[-72.87451660461959,-13.471443333890054],[-72.8745086214366,-13.472346946354834],[-72.87358532534029,-13.472339131386565]]]}},{"type":"Feature","properties":{"Cell_ID":131,"Area_ha":1.0,"LC":"5:0.078061,9:0.238617,13:0.683322","XMIN":730094.86160847,"YMIN":8509533.59738907,"XMAX":730194.86160847,"YMAX":8509633.59738907},"geometry":{"type":"Polygon","coordinates":[[[-72.8735773381101,-13.47324274323859],[-72.87358532534029,-13.472339131386565],[-72.8745086214366,-13.472346946354834],[-72.87450063766812,-13.473250558750111],[-72.8735773381101,-13.47324274323859]]]}},{"type":"Feature","properties":{"Cell_ID":132,"Area_ha":1.0,"LC":"13:1.000000","XMIN":730094.86160847,"YMIN":8509433.59738907,"XMAX":730194.86160847,"YMAX":8509533.59738907},"geometry":{"type":"Polygon","coordinates":[[[-72.87356935029413,-13.4741463550211],[-72.8735773381101,-13.47324274323859],[-72.87450063766812,-13.473250558750111],[-72.87449265331414,-13.474154171075867],[-72.87356935029413,-13.4741463550211]]]}},{"type":"Feature","properties":{"Cell_ID":133,"Area_ha":1.0,"LC":"3:0.400681,5:0.355974,9:0.041939,13:0.201406","XMIN":730094.86160847,"YMIN":8509333.59738907,"XMAX":730194.86160847,"YMAX":8509433.59738907},"geometry":{"type":"Polygon","coordinates":[[[-72.87356136189238,-13.47504996673408],[-72.87356935029413,-13.4741463550211],[-72.87449265331414,-13.474154171075867],[-72.87448466837462,-13.475057783332106],[-72.87356136189238,-13.47504996673408]]]}},{"type":"Feature","properties":{"Cell_ID":134,"Area_ha":1.0,"LC":"3:0.041258,5:0.001118,9:0.957624","XMIN":730094.86160847,"YMIN":8509233.59738907,"XMAX":730194.86160847,"YMAX":8509333.59738907},"geometry":{"type":"Polygon","coordinates":[[[-72.87355337290487,-13.475953578377535],[-72.87356136189238,-13.47504996673408],[-72.87448466837462,-13.475057783332106],[-72.87447668284956,-13.47596139551882],[-72.87355337290487,-13.475953578377535]]]}},{"type":"Feature","properties":{"Cell_ID":135,"Area_ha":1.0,"LC":"9:0.000963,13:0.835153,16:0.163885","XMIN":730194.86160847,"YMIN":8510033.59738907,"XMAX":730294.86160847,"YMAX":8510133.59738907},"geometry":{"type":"Polygon","coordinates":[[[-72.87269398673727,-13.468716867100932],[-72.87270197449922,-13.467813255444836],[-72.87362525270507,-13.467821071083794],[-72.87361726840358,-13.468724683283353],[-72.87269398673727,-13.468716867100932]]]}},{"type":"Feature","properties":{"Cell_ID":136,"Area_ha":1.0,"LC":"9:0.004847,13:0.995153","XMIN":730194.86160847,"YMIN":8509933.59738907,"XMAX":730294.86160847,"YMAX":8510033.59738907},"geometry":{"type":"Polygon","coordinates":[[[-72.87268599838936,-13.469620478687526],[-72.87269398673727,-13.468716867100932],[-72.87361726840358,-13.468724683283353],[-72.87360928351634,-13.469628295413413],[-72.87268599838936,-13.469620478687526]]]}},{"type":"Feature","properties":{"Cell_ID":137,"Area_ha":1.0,"LC":"9:0.518601,13:0.481399","XMIN":730194.86160847,"YMIN":8509833.59738907,"XMAX":730294.86160847,"YMAX":8509933.59738907},"geometry":{"type":"Polygon","coordinates":[[[-72.87267800945547,-13.470524090204611],[-72.87268599838936,-13.469620478687526],[-72.87360928351634,-13.469628295413413],[-72.87360129804341,-13.470531907473973],[-72.87267800945547,-13.470524090204611]]]}},{"type":"Feature","properties":{"Cell_ID":138,"Area_ha":1.0,"LC":"9:0.599305,13:0.400695","XMIN":730194.86160847,"YMIN":8509733.59738907,"XMAX":730294.86160847,"YMAX":8509833.59738907},"geometry":{"type":"Polygon","coordinates":[[[-72.8726700199356,-13.47142770165219],[-72.87267800945547,-13.470524090204611],[-72.87360129804341,-13.470531907473973],[-72.8735933119847,-13.471435519465023],[-72.8726700199356,-13.47142770165219]]]}},{"type":"Feature","properties":{"Cell_ID":139,"Area_ha":1.0,"LC":"5:0.043590,9:0.002101,13:0.954309","XMIN":730194.86160847,"YMIN":8509633.59738907,"XMAX":730294.86160847,"YMAX":8509733.59738907},"geometry":{"type":"Polygon","coordinates":[[[-72.87266202982971,-13.472331313030251],[-72.8726700199356,-13.47142770165219],[-72.8735933119847,-13.471435519465023],[-72.87358532534029,-13.472339131386565],[-72.87266202982971,-13.472331313030251]]]}},{"type":"Feature","properties":{"Cell_ID":140,"Area_ha":1.0,"LC":"5:0.364847,9:0.039719,13:0.595434","XMIN":730194.86160847,"YMIN":8509533.59738907,"XMAX":730294.86160847,"YMAX":8509633.59738907},"geometry":{"type":"Polygon","coordinates":[[[-72.87265403913781,-13.473234924338794],[-72.87266202982971,-13.472331313030251],[-72.87358532534029,-13.472339131386565],[-72.8735773381101,-13.47324274323859],[-72.87265403913781,-13.473234924338794]]]}},{"type":"Feature","properties":{"Cell_ID":141,"Area_ha":1.0,"LC":"5:0.043196,9:0.521370,13:0.435434","XMIN":730194.86160847,"YMIN":8509433.59738907,"XMAX":730294.86160847,"YMAX":8509533.59738907},"geometry":{"type":"Polygon","coordinates":[[[-72.87264604785989,-13.474138535577815],[-72.87265403913781,-13.473234924338794],[-72.8735773381101,-13.47324274323859],[-72.87356935029413,-13.4741463550211],[-72.87264604785989,-13.474138535577815]]]}},{"type":"Feature","properties":{"Cell_ID":142,"Area_ha":1.0,"LC":"3:0.157224,6:0.240400,9:0.562789,13:0.039586","XMIN":730194.86160847,"YMIN":8509333.59738907,"XMAX":730294.86160847,"YMAX":8509433.59738907},"geometry":{"type":"Polygon","coordinates":[[[-72.87263805599595,-13.475042146747304],[-72.87264604785989,-13.474138535577815],[-72.87356935029413,-13.4741463550211],[-72.87356136189238,-13.47504996673408],[-72.87263805599595,-13.475042146747304]]]}},{"type":"Feature","properties":{"Cell_ID":143,"Area_ha":1.0,"LC":"3:0.319867,6:0.042508,9:0.637624","XMIN":730194.86160847,"YMIN":8509233.59738907,"XMAX":730294.86160847,"YMAX":8509333.59738907},"geometry":{"type":"Polygon","coordinates":[[[-72.87263006354596,-13.475945757847263],[-72.87263805599595,-13.475042146747304],[-72.87356136189238,-13.47504996673408],[-72.87355337290487,-13.475953578377535],[-72.87263006354596,-13.475945757847263]]]}},{"type":"Feature","properties":{"Cell_ID":144,"Area_ha":1.0,"LC":"5:0.119438,9:0.283752,13:0.596810","XMIN":730294.86160847,"YMIN":8509833.59738907,"XMAX":730394.86160847,"YMAX":8509933.59738907},"geometry":{"type":"Polygon","coordinates":[[[-72.87175472145356,-13.470516269547693],[-72.87176271384837,-13.469612658574311],[-72.87268599838936,-13.469620478687526],[-72.87267800945547,-13.470524090204611],[-72.87175472145356,-13.470516269547693]]]}},{"type":"Feature","properties":{"Cell_ID":145,"Area_ha":1.0,"LC":"5:0.325122,9:0.437505,13:0.237373","XMIN":730294.86160847,"YMIN":8509733.59738907,"XMAX":730394.86160847,"YMAX":8509833.59738907},"geometry":{"type":"Polygon","coordinates":[[[-72.87174672847249,-13.47141988045156],[-72.87175472145356,-13.470516269547693],[-72.87267800945547,-13.470524090204611],[-72.8726700199356,-13.47142770165219],[-72.87174672847249,-13.47141988045156]]]}},{"type":"Feature","properties":{"Cell_ID":146,"Area_ha":1.0,"LC":"3:0.443309,5:0.197105,6:0.279438,9:0.080149","XMIN":730294.86160847,"YMIN":8509633.59738907,"XMAX":730394.86160847,"YMAX":8509733.59738907},"geometry":{"type":"Polygon","coordinates":[[[-72.87173873490516,-13.472323491285904],[-72.87174672847249,-13.47141988045156],[-72.8726700199356,-13.47142770165219],[-72.87266202982971,-13.472331313030251],[-72.87173873490516,-13.472323491285904]]]}},{"type":"Feature","properties":{"Cell_ID":147,"Area_ha":1.0,"LC":"3:0.000569,5:0.195153,6:0.360562,9:0.439845,13:0.003871","XMIN":730294.86160847,"YMIN":8509533.59738907,"XMAX":730394.86160847,"YMAX":8509633.59738907},"geometry":{"type":"Polygon","coordinates":[[[-72.87173074075157,-13.47322710205073],[-72.87173873490516,-13.472323491285904],[-72.87266202982971,-13.472331313030251],[-72.87265403913781,-13.473234924338794],[-72.87173074075157,-13.47322710205073]]]}},{"type":"Feature","properties":{"Cell_ID":148,"Area_ha":1.0,"LC":"5:0.117366,9:0.718068,13:0.164566","XMIN":730294.86160847,"YMIN":8509433.59738907,"XMAX":730394.86160847,"YMAX":8509533.59738907},"geometry":{"type":"Polygon","coordinates":[[[-72.87172274601171,-13.474130712746028],[-72.87173074075157,-13.47322710205073],[-72.87265403913781,-13.473234924338794],[-72.87264604785989,-13.474138535577815],[-72.87172274601171,-13.474130712746028]]]}},{"type":"Feature","properties":{"Cell_ID":149,"Area_ha":1.0,"LC":"6:0.038756,9:0.676678,13:0.284566","XMIN":730294.86160847,"YMIN":8509333.59738907,"XMAX":730394.86160847,"YMAX":8509433.59738907},"geometry":{"type":"Polygon","coordinates":[[[-72.87171475068556,-13.475034323371792],[-72.87172274601171,-13.474130712746028],[-72.87264604785989,-13.474138535577815],[-72.87263805599595,-13.475042146747304],[-72.87171475068556,-13.475034323371792]]]}},{"type":"Feature","properties":{"Cell_ID":150,"Area_ha":1.0,"LC":"6:0.359305,9:0.640126,13:0.000569","XMIN":730294.86160847,"YMIN":8509233.59738907,"XMAX":730394.86160847,"YMAX":8509333.59738907},"geometry":{"type":"Polygon","coordinates":[[[-72.8717067547731,-13.475937933928023],[-72.87171475068556,-13.475034323371792],[-72.87263805599595,-13.475042146747304],[-72.87263006354596,-13.475945757847263],[-72.8717067547731,-13.475937933928023]]]}},{"type":"Feature","properties":{"Cell_ID":151,"Area_ha":1.0,"LC":"3:0.275566,5:0.119586,9:0.320562,13:0.284285","XMIN":730394.86160847,"YMIN":8509633.59738907,"XMAX":730494.86160847,"YMAX":8509733.59738907},"geometry":{"type":"Polygon","coordinates":[[[-72.87081544056686,-13.472315666153536],[-72.87082343759562,-13.471412055863142],[-72.87174672847249,-13.47141988045156],[-72.87173873490516,-13.472323491285904],[-72.87081544056686,-13.472315666153536]]]}},{"type":"Feature","properties":{"Cell_ID":152,"Area_ha":1.0,"LC":"3:0.000556,9:0.079031,13:0.920414","XMIN":730394.86160847,"YMIN":8509533.59738907,"XMAX":730494.86160847,"YMAX":8509633.59738907},"geometry":{"type":"Polygon","coordinates":[[[-72.8708074429516,-13.473219276374408],[-72.87081544056686,-13.472315666153536],[-72.87173873490516,-13.472323491285904],[-72.87173074075157,-13.47322710205073],[-72.8708074429516,-13.473219276374408]]]}},{"type":"Feature","properties":{"Cell_ID":153,"Area_ha":1.0,"LC":"13:1.000000","XMIN":730394.86160847,"YMIN":8509433.59738907,"XMAX":730494.86160847,"YMAX":8509533.59738907},"geometry":{"type":"Polygon","coordinates":[[[-72.87079944474979,-13.474122886525748],[-72.8708074429516,-13.473219276374408],[-72.87173074075157,-13.47322710205073],[-72.87172274601171,-13.474130712746028],[-72.87079944474979,-13.474122886525748]]]}},{"type":"Feature","properties":{"Cell_ID":154,"Area_ha":1.0,"LC":"13:1.000000","XMIN":730394.86160847,"YMIN":8509333.59738907,"XMAX":730494.86160847,"YMAX":8509433.59738907},"geometry":{"type":"Polygon","coordinates":[[[-72.87079144596144,-13.475026496607548],[-72.87079944474979,-13.474122886525748],[-72.87172274601171,-13.474130712746028],[-72.87171475068556,-13.475034323371792],[-72.87079144596144,-13.475026496607548]]]}},{"type":"Feature","properties":{"Cell_ID":155,"Area_ha":1.0,"LC":"6:0.039031,9:0.918594,13:0.001406,14:0.040969","XMIN":730394.86160847,"YMIN":8509233.59738907,"XMAX":730494.86160847,"YMAX":8509333.59738907},"geometry":{"type":"Polygon","coordinates":[[[-72.87078344658656,-13.475930106619815],[-72.87079144596144,-13.475026496607548],[-72.87171475068556,-13.475034323371792],[-72.8717067547731,-13.475937933928023],[-72.87078344658656,-13.475930106619815]]]}},{"type":"Feature","properties":{"Cell_ID":156,"Area_ha":1.0,"LC":"13:1.000000","XMIN":730494.86160847,"YMIN":8509533.59738907,"XMAX":730594.86160847,"YMAX":8509633.59738907},"geometry":{"type":"Polygon","coordinates":[[[-72.86988414573815,-13.473211447309838],[-72.86989214681509,-13.472307837633155],[-72.87081544056686,-13.472315666153536],[-72.8708074429516,-13.473219276374408],[-72.86988414573815,-13.473211447309838]]]}},{"type":"Feature","properties":{"Cell_ID":157,"Area_ha":1.0,"LC":"13:1.000000","XMIN":730494.86160847,"YMIN":8509433.59738907,"XMAX":730594.86160847,"YMAX":8509533.59738907},"geometry":{"type":"Polygon","coordinates":[[[-72.86987614407442,-13.474115056916984],[-72.86988414573815,-13.473211447309838],[-72.8708074429516,-13.473219276374408],[-72.87079944474979,-13.474122886525748],[-72.86987614407442,-13.474115056916984]]]}},{"type":"Feature","properties":{"Cell_ID":158,"Area_ha":1.0,"LC":"9:0.080400,13:0.919600","XMIN":730494.86160847,"YMIN":8509333.59738907,"XMAX":730594.86160847,"YMAX":8509433.59738907},"geometry":{"type":"Polygon","coordinates":[[[-72.8698681418239,-13.47501866645459],[-72.86987614407442,-13.474115056916984],[-72.87079944474979,-13.474122886525748],[-72.87079144596144,-13.475026496607548],[-72.8698681418239,-13.47501866645459]]]}},{"type":"Feature","properties":{"Cell_ID":159,"Area_ha":1.0,"LC":"3:0.000963,9:0.637512,13:0.000837,14:0.360688","XMIN":730494.86160847,"YMIN":8509233.59738907,"XMAX":730594.86160847,"YMAX":8509333.59738907},"geometry":{"type":"Polygon","coordinates":[[[-72.86986013898658,-13.475922275922652],[-72.8698681418239,-13.47501866645459],[-72.87079144596144,-13.475026496607548],[-72.87078344658656,-13.475930106619815],[-72.86986013898658,-13.475922275922652]]]}},{"type":"Feature","properties":{"Cell_ID":160,"Area_ha":1.0,"LC":"3:0.000976,9:0.998742,14:0.000281","XMIN":730494.86160847,"YMIN":8509133.59738907,"XMAX":730594.86160847,"YMAX":8509233.59738907},"geometry":{"type":"Polygon","coordinates":[[[-72.86985213556244,-13.476825885321164],[-72.86986013898658,-13.475922275922652],[-72.87078344658656,-13.475930106619815],[-72.8707754466251,-13.476833716562533],[-72.86985213556244,-13.476825885321164]]]}},{"type":"Feature","properties":{"Cell_ID":161,"Area_ha":1.0,"LC":"13:1.000000","XMIN":730594.86160847,"YMIN":8509433.59738907,"XMAX":730694.86160847,"YMAX":8509533.59738907},"geometry":{"type":"Polygon","coordinates":[[[-72.86895284398585,-13.474107223919749],[-72.86896084911149,-13.473203614857029],[-72.86988414573815,-13.473211447309838],[-72.86987614407442,-13.474115056916984],[-72.86895284398585,-13.474107223919749]]]}},{"type":"Feature","properties":{"Cell_ID":162,"Area_ha":1.0,"LC":"9:0.118194,13:0.881806","XMIN":730594.86160847,"YMIN":8509333.59738907,"XMAX":730694.86160847,"YMAX":8509433.59738907},"geometry":{"type":"Polygon","coordinates":[[[-72.86894483827315,-13.47501083291292],[-72.86895284398585,-13.474107223919749],[-72.86987614407442,-13.474115056916984],[-72.8698681418239,-13.47501866645459],[-72.86894483827315,-13.47501083291292]]]}},{"type":"Feature","properties":{"Cell_ID":163,"Area_ha":1.0,"LC":"3:0.238594,9:0.561806,13:0.001539,14:0.198061","XMIN":730594.86160847,"YMIN":8509233.59738907,"XMAX":730694.86160847,"YMAX":8509333.59738907},"geometry":{"type":"Polygon","coordinates":[[[-72.86893683197341,-13.475914441836544],[-72.86894483827315,-13.47501083291292],[-72.8698681418239,-13.47501866645459],[-72.86986013898658,-13.475922275922652],[-72.86893683197341,-13.475914441836544]]]}},{"type":"Feature","properties":{"Cell_ID":164,"Area_ha":1.0,"LC":"3:0.282376,9:0.355566,14:0.362058","XMIN":730594.86160847,"YMIN":8509133.59738907,"XMAX":730694.86160847,"YMAX":8509233.59738907},"geometry":{"type":"Polygon","coordinates":[[[-72.86892882508658,-13.476818050690618],[-72.86893683197341,-13.475914441836544],[-72.86986013898658,-13.475922275922652],[-72.86985213556244,-13.476825885321164],[-72.86892882508658,-13.476818050690618]]]}},{"type":"Feature","properties":{"Cell_ID":165,"Area_ha":1.0,"LC":"9:0.000007,13:0.999993","XMIN":730694.86160847,"YMIN":8509433.59738907,"XMAX":730794.86160847,"YMAX":8509533.59738907},"geometry":{"type":"Polygon","coordinates":[[[-72.86802954448433,-13.474099387534046],[-72.86803755307187,-13.473195779015994],[-72.86896084911149,-13.473203614857029],[-72.86895284398585,-13.474107223919749],[-72.86802954448433,-13.474099387534046]]]}},{"type":"Feature","properties":{"Cell_ID":166,"Area_ha":1.0,"LC":"13:1.000000","XMIN":730694.86160847,"YMIN":8509333.59738907,"XMAX":730794.86160847,"YMAX":8509433.59738907},"geometry":{"type":"Polygon","coordinates":[[[-72.86802153530947,-13.475002995982551],[-72.86802954448433,-13.474099387534046],[-72.86895284398585,-13.474107223919749],[-72.86894483827315,-13.47501083291292],[-72.86802153530947,-13.475002995982551]]]}},{"type":"Feature","properties":{"Cell_ID":167,"Area_ha":1.0,"LC":"3:0.078475,9:0.318180,13:0.603345","XMIN":730694.86160847,"YMIN":8509233.59738907,"XMAX":730794.86160847,"YMAX":8509333.59738907},"geometry":{"type":"Polygon","coordinates":[[[-72.86801352554731,-13.475906604361503],[-72.86802153530947,-13.475002995982551],[-72.86894483827315,-13.47501083291292],[-72.86893683197341,-13.475914441836544],[-72.86801352554731,-13.475906604361503]]]}},{"type":"Feature","properties":{"Cell_ID":168,"Area_ha":1.0,"LC":"3:0.078617,9:0.120850,14:0.800533","XMIN":730694.86160847,"YMIN":8509133.59738907,"XMAX":730794.86160847,"YMAX":8509233.59738907},"geometry":{"type":"Polygon","coordinates":[[[-72.86800551519784,-13.4768102126709],[-72.86801352554731,-13.475906604361503],[-72.86893683197341,-13.475914441836544],[-72.86892882508658,-13.476818050690618],[-72.86800551519784,-13.4768102126709]]]}},{"type":"Feature","properties":{"Cell_ID":169,"Area_ha":1.0,"LC":"9:0.041539,13:0.958461","XMIN":730794.86160847,"YMIN":8509333.59738907,"XMAX":730894.86160847,"YMAX":8509433.59738907},"geometry":{"type":"Polygon","coordinates":[[[-72.86709823293312,-13.474995155663493],[-72.8671062455701,-13.474091547759889],[-72.86802954448433,-13.474099387534046],[-72.86802153530947,-13.475002995982551],[-72.86709823293312,-13.474995155663493]]]}},{"type":"Feature","properties":{"Cell_ID":170,"Area_ha":1.0,"LC":"9:0.397624,13:0.602376","XMIN":730794.86160847,"YMIN":8509233.59738907,"XMAX":730894.86160847,"YMAX":8509333.59738907},"geometry":{"type":"Polygon","coordinates":[[[-72.86709021970853,-13.475898763497536],[-72.86709823293312,-13.474995155663493],[-72.86802153530947,-13.475002995982551],[-72.86801352554731,-13.475906604361503],[-72.86709021970853,-13.475898763497536]]]}},{"type":"Feature","properties":{"Cell_ID":171,"Area_ha":1.0,"LC":"9:0.164308,14:0.835692","XMIN":730794.86160847,"YMIN":8509133.59738907,"XMAX":730894.86160847,"YMAX":8509233.59738907},"geometry":{"type":"Polygon","coordinates":[[[-72.8670822058964,-13.476802371262025],[-72.86709021970853,-13.475898763497536],[-72.86801352554731,-13.475906604361503],[-72.86800551519784,-13.4768102126709],[-72.8670822058964,-13.476802371262025]]]}},{"type":"Feature","properties":{"Cell_ID":172,"Area_ha":1.0,"LC":"9:0.157942,13:0.400000,14:0.442058","XMIN":730894.86160847,"YMIN":8509133.59738907,"XMAX":730994.86160847,"YMAX":8509233.59738907},"geometry":{"type":"Polygon","coordinates":[[[-72.86615889718256,-13.476794526463996],[-72.86616691445735,-13.475890919244659],[-72.86709021970853,-13.475898763497536],[-72.8670822058964,-13.476802371262025],[-72.86615889718256,-13.476794526463996]]]}},{"type":"Feature","properties":{"Cell_ID":173,"Area_ha":1.0,"LC":"9:0.683871,13:0.000963,14:0.315166","XMIN":730994.86160847,"YMIN":8509133.59738907,"XMAX":731094.86160847,"YMAX":8509233.59738907},"geometry":{"type":"Polygon","coordinates":[[[-72.86523558905657,-13.476786678276829],[-72.86524360979398,-13.47588307160287],[-72.86616691445735,-13.475890919244659],[-72.86615889718256,-13.476794526463996],[-72.86523558905657,-13.476786678276829]]]}}]}