{"type":"FeatureCollection","features":[{"type":"Feature","properties":{"Cell_ID":1,"Area_ha":1.0,"LC":"9:0.832557,13:0.088131,14:0.079312","XMIN":726144.86160847,"YMIN":8507983.59738907,"XMAX":726244.86160847,"YMAX":8508083.59738907},"geometry":{"type":"Polygon","coordinates":[[[-72.90992635731115,-13.48755518414155],[-72.90993421672088,-13.486651552085975],[-72.91085758944311,-13.486659241495257],[-72.91084973349943,-13.487562874084837],[-72.90992635731115,-13.48755518414155]]]}},{"type":"Feature","properties":{"Cell_ID":2,"Area_ha":1.0,"LC":"5:0.029100,9:0.071476,13:0.899424","XMIN":726144.86160847,"YMIN":8507883.59738907,"XMAX":726244.86160847,"YMAX":8507983.59738907},"geometry":{"type":"Polygon","coordinates":[[[-72.9099184973255,-13.488458816127688],[-72.90992635731115,-13.48755518414155],[-72.91084973349943,-13.487562874084837],[-72.91084187698011,-13.488466506604983],[-72.9099184973255,-13.488458816127688]]]}},{"type":"Feature","properties":{"Cell_ID":3,"Area_ha":1.0,"LC":"5:0.676810,6:0.129775,9:0.121939,13:0.071476","XMIN":726144.86160847,"YMIN":8507783.59738907,"XMAX":726244.86160847,"YMAX":8507883.59738907},"geometry":{"type":"Polygon","coordinates":[[[-72.90991063676397,-13.489362448044385],[-72.9099184973255,-13.488458816127688],[-72.91084187698011,-13.488466506604983],[-72.91083401988513,-13.489370139055696],[-72.90991063676397,-13.489362448044385]]]}},{"type":"Feature","properties":{"Cell_ID":4,"Area_ha":1.0,"LC":"5:0.447022,6:0.552978","XMIN":726144.86160847,"YMIN":8507683.59738907,"XMAX":726244.86160847,"YMAX":8507783.59738907},"geometry":{"type":"Polygon","coordinates":[[[-72.90990277562649,-13.490266079891644],[-72.90991063676397,-13.489362448044385],[-72.91083401988513,-13.489370139055696],[-72.91082616221449,-13.49027377143697],[-72.90990277562649,-13.490266079891644]]]}},{"type":"Feature","properties":{"Cell_ID":5,"Area_ha":1.0,"LC":"5:0.060281,6:0.939719","XMIN":726144.86160847,"YMIN":8507583.59738907,"XMAX":726244.86160847,"YMAX":8507683.59738907},"geometry":{"type":"Polygon","coordinates":[[[-72.90989491391308,-13.491169711669455],[-72.90990277562649,-13.490266079891644],[-72.91082616221449,-13.49027377143697],[-72.91081830396816,-13.491177403748802],[-72.90989491391308,-13.491169711669455]]]}},{"type":"Feature","properties":{"Cell_ID":6,"Area_ha":1.0,"LC":"5:0.782346,13:0.217654","XMIN":726144.86160847,"YMIN":8506983.59738907,"XMAX":726244.86160847,"YMAX":8507083.59738907},"geometry":{"type":"Polygon","coordinates":[[[-72.90984773153745,-13.496591500877688],[-72.90985559670666,-13.495687869516654],[-72.91077900410093,-13.49569556426616],[-72.91077114240029,-13.49659919616124],[-72.90984773153745,-13.496591500877688]]]}},{"type":"Feature","properties":{"Cell_ID":7,"Area_ha":1.0,"LC":"3:0.147850,9:0.489775,14:0.362376","XMIN":726244.86160847,"YMIN":8508583.59738907,"XMAX":726344.86160847,"YMAX":8508683.59738907},"geometry":{"type":"Polygon","coordinates":[[[-72.90905015031147,-13.482125700636537],[-72.90905800973053,-13.48122206869867],[-72.90998136108591,-13.481229758294672],[-72.90997350513138,-13.482133390766759],[-72.90905015031147,-13.482125700636537]]]}},{"type":"Feature","properties":{"Cell_ID":8,"Area_ha":1.0,"LC":"3:0.893401,9:0.106599","XMIN":726244.86160847,"YMIN":8508383.59738907,"XMAX":726344.86160847,"YMAX":8508483.59738907},"geometry":{"type":"Polygon","coordinates":[[[-72.90903442974506,-13.483932964304032],[-72.90904229031632,-13.483029332504994],[-72.909965648601,-13.483037023169436],[-72.90995779149478,-13.483940655502698],[-72.90903442974506,-13.483932964304032]]]}},{"type":"Feature","properties":{"Cell_ID":9,"Area_ha":1.0,"LC":"3:0.030913,5:0.062908,9:0.798329,13:0.107850","XMIN":726244.86160847,"YMIN":8508283.59738907,"XMAX":726344.86160847,"YMAX":8508383.59738907},"geometry":{"type":"Polygon","coordinates":[[[-72.9090265685977,-13.484836596033654],[-72.90903442974506,-13.483932964304032],[-72.90995779149478,-13.483940655502698],[-72.9099499338127,-13.484844287766546],[-72.9090265685977,-13.484836596033654]]]}},{"type":"Feature","properties":{"Cell_ID":10,"Area_ha":1.0,"LC":"9:0.131195,13:0.868805","XMIN":726244.86160847,"YMIN":8508183.59738907,"XMAX":726344.86160847,"YMAX":8508283.59738907},"geometry":{"type":"Polygon","coordinates":[[[-72.90901870687419,-13.485740227693846],[-72.9090265685977,-13.484836596033654],[-72.9099499338127,-13.484844287766546],[-72.90994207555474,-13.485747919960973],[-72.90901870687419,-13.485740227693846]]]}},{"type":"Feature","properties":{"Cell_ID":11,"Area_ha":1.0,"LC":"3:0.150744,9:0.686880,13:0.162376","XMIN":726244.86160847,"YMIN":8508083.59738907,"XMAX":726344.86160847,"YMAX":8508183.59738907},"geometry":{"type":"Polygon","coordinates":[[[-72.90901084457455,-13.486643859284609],[-72.90901870687419,-13.485740227693846],[-72.90994207555474,-13.485747919960973],[-72.90993421672088,-13.486651552085975],[-72.90901084457455,-13.486643859284609]]]}},{"type":"Feature","properties":{"Cell_ID":12,"Area_ha":1.0,"LC":"3:0.152164,9:0.847836","XMIN":726244.86160847,"YMIN":8507983.59738907,"XMAX":726344.86160847,"YMAX":8508083.59738907},"geometry":{"type":"Polygon","coordinates":[[[-72.90900298169876,-13.487547490805943],[-72.90901084457455,-13.486643859284609],[-72.90993421672088,-13.486651552085975],[-72.90992635731115,-13.48755518414155],[-72.90900298169876,-13.487547490805943]]]}},{"type":"Feature","properties":{"Cell_ID":13,"Area_ha":1.0,"LC":"5:0.121939,9:0.792557,13:0.085504","XMIN":726244.86160847,"YMIN":8507883.59738907,"XMAX":726344.86160847,"YMAX":8507983.59738907},"geometry":{"type":"Polygon","coordinates":[[[-72.90899511824684,-13.488451122257837],[-72.90900298169876,-13.487547490805943],[-72.90992635731115,-13.48755518414155],[-72.9099184973255,-13.488458816127688],[-72.90899511824684,-13.488451122257837]]]}},{"type":"Feature","properties":{"Cell_ID":14,"Area_ha":1.0,"LC":"5:0.471995,6:0.068538,9:0.449818,13:0.009649","XMIN":726244.86160847,"YMIN":8507783.59738907,"XMAX":726344.86160847,"YMAX":8507883.59738907},"geometry":{"type":"Polygon","coordinates":[[[-72.90898725421872,-13.489354753640287],[-72.90899511824684,-13.488451122257837],[-72.9099184973255,-13.488458816127688],[-72.90991063676397,-13.489362448044385],[-72.90898725421872,-13.489354753640287]]]}},{"type":"Feature","properties":{"Cell_ID":15,"Area_ha":1.0,"LC":"5:0.091883,6:0.908117","XMIN":726244.86160847,"YMIN":8507683.59738907,"XMAX":726344.86160847,"YMAX":8507783.59738907},"geometry":{"type":"Polygon","coordinates":[[[-72.90897938961444,-13.490258384953291],[-72.90898725421872,-13.489354753640287],[-72.90991063676397,-13.489362448044385],[-72.90990277562649,-13.490266079891644],[-72.90897938961444,-13.490258384953291]]]}},{"type":"Feature","properties":{"Cell_ID":16,"Area_ha":1.0,"LC":"6:1.000000","XMIN":726244.86160847,"YMIN":8507583.59738907,"XMAX":726344.86160847,"YMAX":8507683.59738907},"geometry":{"type":"Polygon","coordinates":[[[-72.90897152443397,-13.49116201619685],[-72.90897938961444,-13.490258384953291],[-72.90990277562649,-13.490266079891644],[-72.90989491391308,-13.491169711669455],[-72.90897152443397,-13.49116201619685]]]}},{"type":"Feature","properties":{"Cell_ID":17,"Area_ha":1.0,"LC":"6:1.000000","XMIN":726244.86160847,"YMIN":8507483.59738907,"XMAX":726344.86160847,"YMAX":8507583.59738907},"geometry":{"type":"Polygon","coordinates":[[[-72.9089636586773,-13.492065647370945],[-72.90897152443397,-13.49116201619685],[-72.90989491391308,-13.491169711669455],[-72.90988705162373,-13.492073343377815],[-72.9089636586773,-13.492065647370945]]]}},{"type":"Feature","properties":{"Cell_ID":18,"Area_ha":1.0,"LC":"6:1.000000","XMIN":726244.86160847,"YMIN":8507383.59738907,"XMAX":726344.86160847,"YMAX":8507483.59738907},"geometry":{"type":"Polygon","coordinates":[[[-72.90895579234441,-13.492969278475588],[-72.9089636586773,-13.492065647370945],[-72.90988705162373,-13.492073343377815],[-72.90987918875842,-13.492976975016719],[-72.90895579234441,-13.492969278475588]]]}},{"type":"Feature","properties":{"Cell_ID":19,"Area_ha":1.0,"LC":"5:0.419156,6:0.580844","XMIN":726244.86160847,"YMIN":8507283.59738907,"XMAX":726344.86160847,"YMAX":8507383.59738907},"geometry":{"type":"Polygon","coordinates":[[[-72.90894792543531,-13.493872909510763],[-72.90895579234441,-13.492969278475588],[-72.90987918875842,-13.492976975016719],[-72.90987132531716,-13.493880606586163],[-72.90894792543531,-13.493872909510763]]]}},{"type":"Feature","properties":{"Cell_ID":20,"Area_ha":1.0,"LC":"5:0.696403,6:0.254778,9:0.048819","XMIN":726244.86160847,"YMIN":8507183.59738907,"XMAX":726344.86160847,"YMAX":8507283.59738907},"geometry":{"type":"Polygon","coordinates":[[[-72.90894005794999,-13.49477654047647],[-72.90894792543531,-13.493872909510763],[-72.90987132531716,-13.493880606586163],[-72.9098634612999,-13.494784238086142],[-72.90894005794999,-13.49477654047647]]]}},{"type":"Feature","properties":{"Cell_ID":21,"Area_ha":1.0,"LC":"5:0.758187,6:0.010632,9:0.231181","XMIN":726244.86160847,"YMIN":8507083.59738907,"XMAX":726344.86160847,"YMAX":8507183.59738907},"geometry":{"type":"Polygon","coordinates":[[[-72.90893218988842,-13.495680171372705],[-72.90894005794999,-13.49477654047647],[-72.9098634612999,-13.494784238086142],[-72.90985559670666,-13.495687869516654],[-72.90893218988842,-13.495680171372705]]]}},{"type":"Feature","properties":{"Cell_ID":22,"Area_ha":1.0,"LC":"5:1.000000","XMIN":726244.86160847,"YMIN":8506983.59738907,"XMAX":726344.86160847,"YMAX":8507083.59738907},"geometry":{"type":"Polygon","coordinates":[[[-72.90892432125061,-13.496583802199464],[-72.90893218988842,-13.495680171372705],[-72.90985559670666,-13.495687869516654],[-72.90984773153745,-13.496591500877688],[-72.90892432125061,-13.496583802199464]]]}},{"type":"Feature","properties":{"Cell_ID":23,"Area_ha":1.0,"LC":"5:1.000000","XMIN":726244.86160847,"YMIN":8506883.59738907,"XMAX":726344.86160847,"YMAX":8506983.59738907},"geometry":{"type":"Polygon","coordinates":[[[-72.90891645203652,-13.497487432956742],[-72.90892432125061,-13.496583802199464],[-72.90984773153745,-13.496591500877688],[-72.90983986579222,-13.497495132169249],[-72.90891645203652,-13.497487432956742]]]}},{"type":"Feature","properties":{"Cell_ID":24,"Area_ha":1.0,"LC":"5:0.487879,6:0.512121","XMIN":726244.86160847,"YMIN":8506783.59738907,"XMAX":726344.86160847,"YMAX":8506883.59738907},"geometry":{"type":"Polygon","coordinates":[[[-72.90890858224617,-13.49839106364453],[-72.90891645203652,-13.497487432956742],[-72.90983986579222,-13.497495132169249],[-72.90983199947097,-13.498398763391325],[-72.90890858224617,-13.49839106364453]]]}},{"type":"Feature","properties":{"Cell_ID":25,"Area_ha":1.0,"LC":"3:0.019031,6:0.588805,9:0.030913,14:0.361251","XMIN":726344.86160847,"YMIN":8508683.59738907,"XMAX":726444.86160847,"YMAX":8508783.59738907},"geometry":{"type":"Polygon","coordinates":[[[-72.90813465895125,-13.481214375712009],[-72.90814252125848,-13.480310744239183],[-72.90906586857352,-13.480318436691398],[-72.90905800973053,-13.48122206869867],[-72.90813465895125,-13.481214375712009]]]}},{"type":"Feature","properties":{"Cell_ID":26,"Area_ha":1.0,"LC":"5:0.329212,6:0.173134,9:0.047443,14:0.450211","XMIN":726344.86160847,"YMIN":8508583.59738907,"XMAX":726444.86160847,"YMAX":8508683.59738907},"geometry":{"type":"Polygon","coordinates":[[[-72.90812679606768,-13.482118007115425],[-72.90813465895125,-13.481214375712009],[-72.90905800973053,-13.48122206869867],[-72.90905015031147,-13.482125700636537],[-72.90812679606768,-13.482118007115425]]]}},{"type":"Feature","properties":{"Cell_ID":27,"Area_ha":1.0,"LC":"3:0.147161,5:0.190788,9:0.220112,14:0.441939","XMIN":726344.86160847,"YMIN":8508483.59738907,"XMAX":726444.86160847,"YMAX":8508583.59738907},"geometry":{"type":"Polygon","coordinates":[[[-72.90811893260775,-13.483021638449422],[-72.90812679606768,-13.482118007115425],[-72.90905015031147,-13.482125700636537],[-72.90904229031632,-13.483029332504994],[-72.90811893260775,-13.483021638449422]]]}},{"type":"Feature","properties":{"Cell_ID":28,"Area_ha":1.0,"LC":"3:0.255153,9:0.591602,13:0.153246","XMIN":726344.86160847,"YMIN":8508383.59738907,"XMAX":726444.86160847,"YMAX":8508483.59738907},"geometry":{"type":"Polygon","coordinates":[[[-72.90811106857147,-13.483925269714002],[-72.90811893260775,-13.483021638449422],[-72.90904229031632,-13.483029332504994],[-72.90903442974506,-13.483932964304032],[-72.90811106857147,-13.483925269714002]]]}},{"type":"Feature","properties":{"Cell_ID":29,"Area_ha":1.0,"LC":"3:0.149930,5:0.379031,9:0.418468,13:0.052571","XMIN":726344.86160847,"YMIN":8508283.59738907,"XMAX":726444.86160847,"YMAX":8508383.59738907},"geometry":{"type":"Polygon","coordinates":[[[-72.90810320395882,-13.484828900909156],[-72.90811106857147,-13.483925269714002],[-72.90903442974506,-13.483932964304032],[-72.9090265685977,-13.484836596033654],[-72.90810320395882,-13.484828900909156]]]}},{"type":"Feature","properties":{"Cell_ID":30,"Area_ha":1.0,"LC":"3:0.070744,9:0.263345,13:0.665911","XMIN":726344.86160847,"YMIN":8508183.59738907,"XMAX":726444.86160847,"YMAX":8508283.59738907},"geometry":{"type":"Polygon","coordinates":[[[-72.9080953387698,-13.48573253203488],[-72.90810320395882,-13.484828900909156],[-72.9090265685977,-13.484836596033654],[-72.90901870687419,-13.485740227693846],[-72.9080953387698,-13.48573253203488]]]}},{"type":"Feature","properties":{"Cell_ID":31,"Area_ha":1.0,"LC":"3:0.623203,5:0.069494,9:0.158061,13:0.149242","XMIN":726344.86160847,"YMIN":8508083.59738907,"XMAX":726444.86160847,"YMAX":8508183.59738907},"geometry":{"type":"Polygon","coordinates":[[[-72.90808747300437,-13.486636163091173],[-72.9080953387698,-13.48573253203488],[-72.90901870687419,-13.485740227693846],[-72.90901084457455,-13.486643859284609],[-72.90808747300437,-13.486636163091173]]]}},{"type":"Feature","properties":{"Cell_ID":32,"Area_ha":1.0,"LC":"3:0.048961,5:0.374384,9:0.125629,13:0.451026","XMIN":726344.86160847,"YMIN":8507983.59738907,"XMAX":726444.86160847,"YMAX":8508083.59738907},"geometry":{"type":"Polygon","coordinates":[[[-72.90807960666254,-13.487539794078026],[-72.90808747300437,-13.486636163091173],[-72.90901084457455,-13.486643859284609],[-72.90900298169876,-13.487547490805943],[-72.90807960666254,-13.487539794078026]]]}},{"type":"Feature","properties":{"Cell_ID":33,"Area_ha":1.0,"LC":"5:0.670182,9:0.298905,13:0.030913","XMIN":726344.86160847,"YMIN":8507883.59738907,"XMAX":726444.86160847,"YMAX":8507983.59738907},"geometry":{"type":"Polygon","coordinates":[[[-72.90807173974432,-13.488443424995442],[-72.90807960666254,-13.487539794078026],[-72.90900298169876,-13.487547490805943],[-72.90899511824684,-13.488451122257837],[-72.90807173974432,-13.488443424995442]]]}},{"type":"Feature","properties":{"Cell_ID":34,"Area_ha":1.0,"LC":"5:0.950913,6:0.039438,9:0.009649","XMIN":726344.86160847,"YMIN":8507783.59738907,"XMAX":726444.86160847,"YMAX":8507883.59738907},"geometry":{"type":"Polygon","coordinates":[[[-72.90806387224964,-13.489347055843409],[-72.90807173974432,-13.488443424995442],[-72.90899511824684,-13.488451122257837],[-72.90898725421872,-13.489354753640287],[-72.90806387224964,-13.489347055843409]]]}},{"type":"Feature","properties":{"Cell_ID":35,"Area_ha":1.0,"LC":"5:0.153120,6:0.846880","XMIN":726344.86160847,"YMIN":8507683.59738907,"XMAX":726444.86160847,"YMAX":8507783.59738907},"geometry":{"type":"Polygon","coordinates":[[[-72.90805600417856,-13.490250686621929],[-72.90806387224964,-13.489347055843409],[-72.90898725421872,-13.489354753640287],[-72.90897938961444,-13.490258384953291],[-72.90805600417856,-13.490250686621929]]]}},{"type":"Feature","properties":{"Cell_ID":36,"Area_ha":1.0,"LC":"5:0.283315,6:0.716685","XMIN":726344.86160847,"YMIN":8507583.59738907,"XMAX":726444.86160847,"YMAX":8507683.59738907},"geometry":{"type":"Polygon","coordinates":[[[-72.90804813553105,-13.491154317330992],[-72.90805600417856,-13.490250686621929],[-72.90897938961444,-13.490258384953291],[-72.90897152443397,-13.49116201619685],[-72.90804813553105,-13.491154317330992]]]}},{"type":"Feature","properties":{"Cell_ID":37,"Area_ha":1.0,"LC":"3:0.041939,5:0.392164,6:0.565897","XMIN":726344.86160847,"YMIN":8507483.59738907,"XMAX":726444.86160847,"YMAX":8507583.59738907},"geometry":{"type":"Polygon","coordinates":[[[-72.90804026630705,-13.492057947970595],[-72.90804813553105,-13.491154317330992],[-72.90897152443397,-13.49116201619685],[-72.9089636586773,-13.492065647370945],[-72.90804026630705,-13.492057947970595]]]}},{"type":"Feature","properties":{"Cell_ID":38,"Area_ha":1.0,"LC":"6:1.000000","XMIN":726344.86160847,"YMIN":8507383.59738907,"XMAX":726444.86160847,"YMAX":8507483.59738907},"geometry":{"type":"Polygon","coordinates":[[[-72.90803239650663,-13.492961578540735],[-72.90804026630705,-13.492057947970595],[-72.9089636586773,-13.492065647370945],[-72.90895579234441,-13.492969278475588],[-72.90803239650663,-13.492961578540735]]]}},{"type":"Feature","properties":{"Cell_ID":39,"Area_ha":1.0,"LC":"6:1.000000","XMIN":726344.86160847,"YMIN":8507283.59738907,"XMAX":726444.86160847,"YMAX":8507383.59738907},"geometry":{"type":"Polygon","coordinates":[[[-72.90802452612971,-13.493865209041408],[-72.90803239650663,-13.492961578540735],[-72.90895579234441,-13.492969278475588],[-72.90894792543531,-13.493872909510763],[-72.90802452612971,-13.493865209041408]]]}},{"type":"Feature","properties":{"Cell_ID":40,"Area_ha":1.0,"LC":"6:1.000000","XMIN":726344.86160847,"YMIN":8507183.59738907,"XMAX":726444.86160847,"YMAX":8507283.59738907},"geometry":{"type":"Polygon","coordinates":[[[-72.9080166551763,-13.494768839472608],[-72.90802452612971,-13.493865209041408],[-72.90894792543531,-13.493872909510763],[-72.90894005794999,-13.49477654047647],[-72.9080166551763,-13.494768839472608]]]}},{"type":"Feature","properties":{"Cell_ID":41,"Area_ha":1.0,"LC":"5:0.246192,6:0.322376,9:0.220969,13:0.210463","XMIN":726344.86160847,"YMIN":8507083.59738907,"XMAX":726444.86160847,"YMAX":8507183.59738907},"geometry":{"type":"Polygon","coordinates":[[[-72.90800878364641,-13.495672469834334],[-72.9080166551763,-13.494768839472608],[-72.90894005794999,-13.49477654047647],[-72.90893218988842,-13.495680171372705],[-72.90800878364641,-13.495672469834334]]]}},{"type":"Feature","properties":{"Cell_ID":42,"Area_ha":1.0,"LC":"5:0.474309,6:0.010337,9:0.243878,13:0.271476","XMIN":726344.86160847,"YMIN":8506983.59738907,"XMAX":726444.86160847,"YMAX":8507083.59738907},"geometry":{"type":"Polygon","coordinates":[[[-72.90800091154001,-13.496576100126576],[-72.90800878364641,-13.495672469834334],[-72.90893218988842,-13.495680171372705],[-72.90892432125061,-13.496583802199464],[-72.90800091154001,-13.496576100126576]]]}},{"type":"Feature","properties":{"Cell_ID":43,"Area_ha":1.0,"LC":"5:0.738216,6:0.251446,14:0.010337","XMIN":726344.86160847,"YMIN":8506883.59738907,"XMAX":726444.86160847,"YMAX":8506983.59738907},"geometry":{"type":"Polygon","coordinates":[[[-72.9079930388571,-13.497479730349331],[-72.90800091154001,-13.496576100126576],[-72.90892432125061,-13.496583802199464],[-72.90891645203652,-13.497487432956742],[-72.9079930388571,-13.497479730349331]]]}},{"type":"Feature","properties":{"Cell_ID":44,"Area_ha":1.0,"LC":"3:0.030056,5:0.028680,6:0.686754,14:0.254510","XMIN":726344.86160847,"YMIN":8506783.59738907,"XMAX":726444.86160847,"YMAX":8506883.59738907},"geometry":{"type":"Polygon","coordinates":[[[-72.90798516559767,-13.4983833605026],[-72.9079930388571,-13.497479730349331],[-72.90891645203652,-13.497487432956742],[-72.90890858224617,-13.49839106364453],[-72.90798516559767,-13.4983833605026]]]}},{"type":"Feature","properties":{"Cell_ID":45,"Area_ha":1.0,"LC":"6:0.136655,9:0.825284,14:0.038061","XMIN":726444.86160847,"YMIN":8508683.59738907,"XMAX":726544.86160847,"YMAX":8508783.59738907},"geometry":{"type":"Polygon","coordinates":[[[-72.90721130874832,-13.481206679334699],[-72.9072191745198,-13.48030304839656],[-72.90814252125848,-13.480310744239183],[-72.90813465895125,-13.481214375712009],[-72.90721130874832,-13.481206679334699]]]}},{"type":"Feature","properties":{"Cell_ID":46,"Area_ha":1.0,"LC":"5:0.029100,6:0.581406,14:0.389494","XMIN":726444.86160847,"YMIN":8508583.59738907,"XMAX":726544.86160847,"YMAX":8508683.59738907},"geometry":{"type":"Polygon","coordinates":[[[-72.90720344240022,-13.482110310203424],[-72.90721130874832,-13.481206679334699],[-72.90813465895125,-13.481214375712009],[-72.90812679606768,-13.482118007115425],[-72.90720344240022,-13.482110310203424]]]}},{"type":"Feature","properties":{"Cell_ID":47,"Area_ha":1.0,"LC":"5:0.109930,6:0.281939,9:0.028412,14:0.579719","XMIN":726444.86160847,"YMIN":8508483.59738907,"XMAX":726544.86160847,"YMAX":8508583.59738907},"geometry":{"type":"Polygon","coordinates":[[[-72.90719557547554,-13.483013941002733],[-72.90720344240022,-13.482110310203424],[-72.90812679606768,-13.482118007115425],[-72.90811893260775,-13.483021638449422],[-72.90719557547554,-13.483013941002733]]]}},{"type":"Feature","properties":{"Cell_ID":48,"Area_ha":1.0,"LC":"9:0.541925,13:0.145911,14:0.312164","XMIN":726444.86160847,"YMIN":8508383.59738907,"XMAX":726544.86160847,"YMAX":8508483.59738907},"geometry":{"type":"Polygon","coordinates":[[[-72.90718770797424,-13.483917571732613],[-72.90719557547554,-13.483013941002733],[-72.90811893260775,-13.483021638449422],[-72.90811106857147,-13.483925269714002],[-72.90718770797424,-13.483917571732613]]]}},{"type":"Feature","properties":{"Cell_ID":49,"Area_ha":1.0,"LC":"3:0.059156,5:0.457780,9:0.020014,13:0.208273,14:0.254778","XMIN":726444.86160847,"YMIN":8508283.59738907,"XMAX":726544.86160847,"YMAX":8508383.59738907},"geometry":{"type":"Polygon","coordinates":[[[-72.90717983989633,-13.484821202393068],[-72.90718770797424,-13.483917571732613],[-72.90811106857147,-13.483925269714002],[-72.90810320395882,-13.484828900909156],[-72.90717983989633,-13.484821202393068]]]}},{"type":"Feature","properties":{"Cell_ID":50,"Area_ha":1.0,"LC":"3:0.568131,5:0.060281,9:0.310619,13:0.019031,14:0.041939","XMIN":726444.86160847,"YMIN":8508183.59738907,"XMAX":726544.86160847,"YMAX":8508283.59738907},"geometry":{"type":"Polygon","coordinates":[[[-72.90717197124178,-13.485724832984088],[-72.90717983989633,-13.484821202393068],[-72.90810320395882,-13.484828900909156],[-72.9080953387698,-13.48573253203488],[-72.90717197124178,-13.485724832984088]]]}},{"type":"Feature","properties":{"Cell_ID":51,"Area_ha":1.0,"LC":"3:0.366896,5:0.009381,6:0.339156,14:0.284566","XMIN":726444.86160847,"YMIN":8508083.59738907,"XMAX":726544.86160847,"YMAX":8508183.59738907},"geometry":{"type":"Polygon","coordinates":[[[-72.90716410201058,-13.48662846350567],[-72.90717197124178,-13.485724832984088],[-72.9080953387698,-13.48573253203488],[-72.90808747300437,-13.486636163091173],[-72.90716410201058,-13.48662846350567]]]}},{"type":"Feature","properties":{"Cell_ID":52,"Area_ha":1.0,"LC":"5:0.106741,6:0.500844,9:0.231433,13:0.088131,14:0.072852","XMIN":726444.86160847,"YMIN":8507983.59738907,"XMAX":726544.86160847,"YMAX":8508083.59738907},"geometry":{"type":"Polygon","coordinates":[[[-72.90715623220272,-13.487532093957817],[-72.90716410201058,-13.48662846350567],[-72.90808747300437,-13.486636163091173],[-72.90807960666254,-13.487539794078026],[-72.90715623220272,-13.487532093957817]]]}},{"type":"Feature","properties":{"Cell_ID":53,"Area_ha":1.0,"LC":"5:0.357624,9:0.612445,13:0.029930","XMIN":726444.86160847,"YMIN":8507883.59738907,"XMAX":726544.86160847,"YMAX":8507983.59738907},"geometry":{"type":"Polygon","coordinates":[[[-72.90714836181822,-13.488435724340512],[-72.90715623220272,-13.487532093957817],[-72.90807960666254,-13.487539794078026],[-72.90807173974432,-13.488443424995442],[-72.90714836181822,-13.488435724340512]]]}},{"type":"Feature","properties":{"Cell_ID":54,"Area_ha":1.0,"LC":"5:0.905785,9:0.094215","XMIN":726444.86160847,"YMIN":8507783.59738907,"XMAX":726544.86160847,"YMAX":8507883.59738907},"geometry":{"type":"Polygon","coordinates":[[[-72.907140490857,-13.489339354653762],[-72.90714836181822,-13.488435724340512],[-72.90807173974432,-13.488443424995442],[-72.90806387224964,-13.489347055843409],[-72.907140490857,-13.489339354653762]]]}},{"type":"Feature","properties":{"Cell_ID":55,"Area_ha":1.0,"LC":"5:0.277247,6:0.712121,9:0.010632","XMIN":726444.86160847,"YMIN":8507683.59738907,"XMAX":726544.86160847,"YMAX":8507783.59738907},"geometry":{"type":"Polygon","coordinates":[[[-72.90713261931914,-13.490242984897558],[-72.907140490857,-13.489339354653762],[-72.90806387224964,-13.489347055843409],[-72.90805600417856,-13.490250686621929],[-72.90713261931914,-13.490242984897558]]]}},{"type":"Feature","properties":{"Cell_ID":56,"Area_ha":1.0,"LC":"3:0.373090,5:0.076122,6:0.550788","XMIN":726444.86160847,"YMIN":8507583.59738907,"XMAX":726544.86160847,"YMAX":8507683.59738907},"geometry":{"type":"Polygon","coordinates":[[[-72.90712474720456,-13.491146615071896],[-72.90713261931914,-13.490242984897558],[-72.90805600417856,-13.490250686621929],[-72.90804813553105,-13.491154317330992],[-72.90712474720456,-13.491146615071896]]]}},{"type":"Feature","properties":{"Cell_ID":57,"Area_ha":1.0,"LC":"3:0.209818,5:0.028680,6:0.761502","XMIN":726444.86160847,"YMIN":8507483.59738907,"XMAX":726544.86160847,"YMAX":8507583.59738907},"geometry":{"type":"Polygon","coordinates":[[[-72.90711687451328,-13.492050245176767],[-72.90712474720456,-13.491146615071896],[-72.90804813553105,-13.491154317330992],[-72.90804026630705,-13.492057947970595],[-72.90711687451328,-13.492050245176767]]]}},{"type":"Feature","properties":{"Cell_ID":58,"Area_ha":1.0,"LC":"6:1.000000","XMIN":726444.86160847,"YMIN":8507383.59738907,"XMAX":726544.86160847,"YMAX":8507483.59738907},"geometry":{"type":"Polygon","coordinates":[[[-72.90710900124529,-13.492953875212171],[-72.90711687451328,-13.492050245176767],[-72.90804026630705,-13.492057947970595],[-72.90803239650663,-13.492961578540735],[-72.90710900124529,-13.492953875212171]]]}},{"type":"Feature","properties":{"Cell_ID":59,"Area_ha":1.0,"LC":"6:0.907035,9:0.092965","XMIN":726444.86160847,"YMIN":8507283.59738907,"XMAX":726544.86160847,"YMAX":8507383.59738907},"geometry":{"type":"Polygon","coordinates":[[[-72.90710112740057,-13.493857505178108],[-72.90710900124529,-13.492953875212171],[-72.90803239650663,-13.492961578540735],[-72.90802452612971,-13.493865209041408],[-72.90710112740057,-13.493857505178108]]]}},{"type":"Feature","properties":{"Cell_ID":60,"Area_ha":1.0,"LC":"5:0.020969,6:0.647710,9:0.331320","XMIN":726444.86160847,"YMIN":8507183.59738907,"XMAX":726544.86160847,"YMAX":8507283.59738907},"geometry":{"type":"Polygon","coordinates":[[[-72.90709325297912,-13.494761135074564],[-72.90710112740057,-13.493857505178108],[-72.90802452612971,-13.493865209041408],[-72.9080166551763,-13.494768839472608],[-72.90709325297912,-13.494761135074564]]]}},{"type":"Feature","properties":{"Cell_ID":61,"Area_ha":1.0,"LC":"6:0.180844,9:0.581532,13:0.237624","XMIN":726444.86160847,"YMIN":8507083.59738907,"XMAX":726544.86160847,"YMAX":8507183.59738907},"geometry":{"type":"Polygon","coordinates":[[[-72.9070853779809,-13.495664764901543],[-72.90709325297912,-13.494761135074564],[-72.9080166551763,-13.494768839472608],[-72.90800878364641,-13.495672469834334],[-72.9070853779809,-13.495664764901543]]]}},{"type":"Feature","properties":{"Cell_ID":62,"Area_ha":1.0,"LC":"6:0.119563,9:0.459031,13:0.421406","XMIN":726444.86160847,"YMIN":8506983.59738907,"XMAX":726544.86160847,"YMAX":8507083.59738907},"geometry":{"type":"Polygon","coordinates":[[[-72.90707750240594,-13.496568394659034],[-72.9070853779809,-13.495664764901543],[-72.90800878364641,-13.495672469834334],[-72.90800091154001,-13.496576100126576],[-72.90707750240594,-13.496568394659034]]]}},{"type":"Feature","properties":{"Cell_ID":63,"Area_ha":1.0,"LC":"5:0.601939,6:0.299467,14:0.098594","XMIN":726444.86160847,"YMIN":8506883.59738907,"XMAX":726544.86160847,"YMAX":8506983.59738907},"geometry":{"type":"Polygon","coordinates":[[[-72.90706962625421,-13.497472024347038],[-72.90707750240594,-13.496568394659034],[-72.90800091154001,-13.496576100126576],[-72.9079930388571,-13.497479730349331],[-72.90706962625421,-13.497472024347038]]]}},{"type":"Feature","properties":{"Cell_ID":64,"Area_ha":1.0,"LC":"6:0.193104,9:0.806896","XMIN":726544.86160847,"YMIN":8508683.59738907,"XMAX":726644.86160847,"YMAX":8508783.59738907},"geometry":{"type":"Polygon","coordinates":[[[-72.90628795912194,-13.481198979566747],[-72.90629582835768,-13.48029534916353],[-72.9072191745198,-13.48030304839656],[-72.90721130874832,-13.481206679334699],[-72.90628795912194,-13.481198979566747]]]}},{"type":"Feature","properties":{"Cell_ID":65,"Area_ha":1.0,"LC":"6:0.501406,9:0.451151,14:0.047443","XMIN":726544.86160847,"YMIN":8508583.59738907,"XMAX":726644.86160847,"YMAX":8508683.59738907},"geometry":{"type":"Polygon","coordinates":[[[-72.90628008930938,-13.482102609900549],[-72.90628795912194,-13.481198979566747],[-72.90721130874832,-13.481206679334699],[-72.90720344240022,-13.482110310203424],[-72.90628008930938,-13.482102609900549]]]}},{"type":"Feature","properties":{"Cell_ID":66,"Area_ha":1.0,"LC":"6:0.540969,9:0.091757,14:0.367273","XMIN":726544.86160847,"YMIN":8508483.59738907,"XMAX":726644.86160847,"YMAX":8508583.59738907},"geometry":{"type":"Polygon","coordinates":[[[-72.90627221891994,-13.48300624016493],[-72.90628008930938,-13.482102609900549],[-72.90720344240022,-13.482110310203424],[-72.90719557547554,-13.483013941002733],[-72.90627221891994,-13.48300624016493]]]}},{"type":"Feature","properties":{"Cell_ID":67,"Area_ha":1.0,"LC":"9:0.397624,14:0.602376","XMIN":726544.86160847,"YMIN":8508383.59738907,"XMAX":726644.86160847,"YMAX":8508483.59738907},"geometry":{"type":"Polygon","coordinates":[[[-72.90626434795364,-13.483909870359877],[-72.90627221891994,-13.48300624016493],[-72.90719557547554,-13.483013941002733],[-72.90718770797424,-13.483917571732613],[-72.90626434795364,-13.483909870359877]]]}},{"type":"Feature","properties":{"Cell_ID":68,"Area_ha":1.0,"LC":"3:0.031307,9:0.581532,14:0.387161","XMIN":726544.86160847,"YMIN":8508283.59738907,"XMAX":726644.86160847,"YMAX":8508383.59738907},"geometry":{"type":"Polygon","coordinates":[[[-72.90625647641046,-13.484813500485396],[-72.90626434795364,-13.483909870359877],[-72.90718770797424,-13.483917571732613],[-72.90717983989633,-13.484821202393068],[-72.90625647641046,-13.484813500485396]]]}},{"type":"Feature","properties":{"Cell_ID":69,"Area_ha":1.0,"LC":"3:0.081377,5:0.020969,9:0.317935,14:0.579719","XMIN":726544.86160847,"YMIN":8508183.59738907,"XMAX":726644.86160847,"YMAX":8508283.59738907},"geometry":{"type":"Polygon","coordinates":[[[-72.90624860429041,-13.48571713054148],[-72.90625647641046,-13.484813500485396],[-72.90717983989633,-13.484821202393068],[-72.90717197124178,-13.485724832984088],[-72.90624860429041,-13.48571713054148]]]}},{"type":"Feature","properties":{"Cell_ID":70,"Area_ha":1.0,"LC":"3:0.431602,9:0.073246,14:0.495153","XMIN":726544.86160847,"YMIN":8508083.59738907,"XMAX":726644.86160847,"YMAX":8508183.59738907},"geometry":{"type":"Polygon","coordinates":[[[-72.90624073159344,-13.48662076052812],[-72.90624860429041,-13.48571713054148],[-72.90717197124178,-13.485724832984088],[-72.90716410201058,-13.48662846350567],[-72.90624073159344,-13.48662076052812]]]}},{"type":"Feature","properties":{"Cell_ID":71,"Area_ha":1.0,"LC":"3:0.494215,9:0.177512,14:0.328273","XMIN":726544.86160847,"YMIN":8507983.59738907,"XMAX":726644.86160847,"YMAX":8508083.59738907},"geometry":{"type":"Polygon","coordinates":[[[-72.90623285831957,-13.487524390445317],[-72.90624073159344,-13.48662076052812],[-72.90716410201058,-13.48662846350567],[-72.90715623220272,-13.487532093957817],[-72.90623285831957,-13.487524390445317]]]}},{"type":"Feature","properties":{"Cell_ID":72,"Area_ha":1.0,"LC":"3:0.131195,5:0.047443,6:0.110744,9:0.710619","XMIN":726544.86160847,"YMIN":8507883.59738907,"XMAX":726644.86160847,"YMAX":8507983.59738907},"geometry":{"type":"Polygon","coordinates":[[[-72.90622498446878,-13.488428020293066],[-72.90623285831957,-13.487524390445317],[-72.90715623220272,-13.487532093957817],[-72.90714836181822,-13.488435724340512],[-72.90622498446878,-13.488428020293066]]]}},{"type":"Feature","properties":{"Cell_ID":73,"Area_ha":1.0,"LC":"5:0.201082,6:0.493134,9:0.305785","XMIN":726544.86160847,"YMIN":8507783.59738907,"XMAX":726644.86160847,"YMAX":8507883.59738907},"geometry":{"type":"Polygon","coordinates":[[[-72.90621711004107,-13.489331650071358],[-72.90622498446878,-13.488428020293066],[-72.90714836181822,-13.488435724340512],[-72.907140490857,-13.489339354653762],[-72.90621711004107,-13.489331650071358]]]}},{"type":"Feature","properties":{"Cell_ID":74,"Area_ha":1.0,"LC":"3:0.139719,5:0.254384,6:0.575967,9:0.029930","XMIN":726544.86160847,"YMIN":8507683.59738907,"XMAX":726644.86160847,"YMAX":8507783.59738907},"geometry":{"type":"Polygon","coordinates":[[[-72.9062092350364,-13.490235279780194],[-72.90621711004107,-13.489331650071358],[-72.907140490857,-13.489339354653762],[-72.90713261931914,-13.490242984897558],[-72.9062092350364,-13.490235279780194]]]}},{"type":"Feature","properties":{"Cell_ID":75,"Area_ha":1.0,"LC":"3:0.185785,6:0.814215","XMIN":726544.86160847,"YMIN":8507583.59738907,"XMAX":726644.86160847,"YMAX":8507683.59738907},"geometry":{"type":"Polygon","coordinates":[[[-72.9062013594548,-13.491138909419567],[-72.9062092350364,-13.490235279780194],[-72.90713261931914,-13.490242984897558],[-72.90712474720456,-13.491146615071896],[-72.9062013594548,-13.491138909419567]]]}},{"type":"Feature","properties":{"Cell_ID":76,"Area_ha":1.0,"LC":"3:0.009649,6:0.990351","XMIN":726544.86160847,"YMIN":8507483.59738907,"XMAX":726644.86160847,"YMAX":8507583.59738907},"geometry":{"type":"Polygon","coordinates":[[[-72.90619348329624,-13.492042538989468],[-72.9062013594548,-13.491138909419567],[-72.90712474720456,-13.491146615071896],[-72.90711687451328,-13.492050245176767],[-72.90619348329624,-13.492042538989468]]]}},{"type":"Feature","properties":{"Cell_ID":77,"Area_ha":1.0,"LC":"6:1.000000","XMIN":726544.86160847,"YMIN":8507383.59738907,"XMAX":726644.86160847,"YMAX":8507483.59738907},"geometry":{"type":"Polygon","coordinates":[[[-72.9061856065607,-13.492946168489908],[-72.90619348329624,-13.492042538989468],[-72.90711687451328,-13.492050245176767],[-72.90710900124529,-13.492953875212171],[-72.9061856065607,-13.492946168489908]]]}},{"type":"Feature","properties":{"Cell_ID":78,"Area_ha":1.0,"LC":"5:0.433934,6:0.159874,9:0.406192","XMIN":726544.86160847,"YMIN":8507283.59738907,"XMAX":726644.86160847,"YMAX":8507383.59738907},"geometry":{"type":"Polygon","coordinates":[[[-72.90617772924818,-13.493849797920868],[-72.9061856065607,-13.492946168489908],[-72.90710900124529,-13.492953875212171],[-72.90710112740057,-13.493857505178108],[-72.90617772924818,-13.493849797920868]]]}},{"type":"Feature","properties":{"Cell_ID":79,"Area_ha":1.0,"LC":"6:0.950225,9:0.049775","XMIN":726644.86160847,"YMIN":8508683.59738907,"XMAX":726744.86160847,"YMAX":8508783.59738907},"geometry":{"type":"Polygon","coordinates":[[[-72.90536461007244,-13.48119127640817],[-72.9053724827724,-13.480287646540104],[-72.90629582835768,-13.48029534916353],[-72.90628795912194,-13.481198979566747],[-72.90536461007244,-13.48119127640817]]]}},{"type":"Feature","properties":{"Cell_ID":80,"Area_ha":1.0,"LC":"6:0.288273,9:0.498763,14:0.212965","XMIN":726644.86160847,"YMIN":8508583.59738907,"XMAX":726744.86160847,"YMAX":8508683.59738907},"geometry":{"type":"Polygon","coordinates":[[[-72.90535673679538,-13.482094906206811],[-72.90536461007244,-13.48119127640817],[-72.90628795912194,-13.481198979566747],[-72.90628008930938,-13.482102609900549],[-72.90535673679538,-13.482094906206811]]]}},{"type":"Feature","properties":{"Cell_ID":81,"Area_ha":1.0,"LC":"6:0.529087,9:0.070493,14:0.400421","XMIN":726644.86160847,"YMIN":8508483.59738907,"XMAX":726744.86160847,"YMAX":8508583.59738907},"geometry":{"type":"Polygon","coordinates":[[[-72.90534886294121,-13.482998535936025],[-72.90535673679538,-13.482094906206811],[-72.90628008930938,-13.482102609900549],[-72.90627221891994,-13.48300624016493],[-72.90534886294121,-13.482998535936025]]]}},{"type":"Feature","properties":{"Cell_ID":82,"Area_ha":1.0,"LC":"6:0.030913,9:0.660533,14:0.308554","XMIN":726644.86160847,"YMIN":8508383.59738907,"XMAX":726744.86160847,"YMAX":8508483.59738907},"geometry":{"type":"Polygon","coordinates":[[[-72.90534098850992,-13.483902165595808],[-72.90534886294121,-13.482998535936025],[-72.90627221891994,-13.48300624016493],[-72.90626434795364,-13.483909870359877],[-72.90534098850992,-13.483902165595808]]]}},{"type":"Feature","properties":{"Cell_ID":83,"Area_ha":1.0,"LC":"3:0.297906,9:0.181406,14:0.520688","XMIN":726644.86160847,"YMIN":8508283.59738907,"XMAX":726744.86160847,"YMAX":8508383.59738907},"geometry":{"type":"Polygon","coordinates":[[[-72.90533311350148,-13.484805795186155],[-72.90534098850992,-13.483902165595808],[-72.90626434795364,-13.483909870359877],[-72.90625647641046,-13.484813500485396],[-72.90533311350148,-13.484805795186155]]]}},{"type":"Feature","properties":{"Cell_ID":84,"Area_ha":1.0,"LC":"3:0.269537,5:0.260969,9:0.411151,14:0.058342","XMIN":726644.86160847,"YMIN":8508183.59738907,"XMAX":726744.86160847,"YMAX":8508283.59738907},"geometry":{"type":"Polygon","coordinates":[[[-72.90532523791593,-13.485709424707062],[-72.90533311350148,-13.484805795186155],[-72.90625647641046,-13.484813500485396],[-72.90624860429041,-13.48571713054148],[-72.90532523791593,-13.485709424707062]]]}},{"type":"Feature","properties":{"Cell_ID":85,"Area_ha":1.0,"LC":"3:0.028680,9:0.971320","XMIN":726644.86160847,"YMIN":8508083.59738907,"XMAX":726744.86160847,"YMAX":8508183.59738907},"geometry":{"type":"Polygon","coordinates":[[[-72.9053173617532,-13.486613054158523],[-72.90532523791593,-13.485709424707062],[-72.90624860429041,-13.48571713054148],[-72.90624073159344,-13.48662076052812],[-72.9053173617532,-13.486613054158523]]]}},{"type":"Feature","properties":{"Cell_ID":86,"Area_ha":1.0,"LC":"3:0.085504,9:0.914496","XMIN":726644.86160847,"YMIN":8507983.59738907,"XMAX":726744.86160847,"YMAX":8508083.59738907},"geometry":{"type":"Polygon","coordinates":[[[-72.90530948501333,-13.48751668354054],[-72.9053173617532,-13.486613054158523],[-72.90624073159344,-13.48662076052812],[-72.90623285831957,-13.487524390445317],[-72.90530948501333,-13.48751668354054]]]}},{"type":"Feature","properties":{"Cell_ID":87,"Area_ha":1.0,"LC":"3:0.009649,6:0.028412,9:0.961939","XMIN":726644.86160847,"YMIN":8507883.59738907,"XMAX":726744.86160847,"YMAX":8507983.59738907},"geometry":{"type":"Polygon","coordinates":[[[-72.90530160769629,-13.488420312853098],[-72.90530948501333,-13.48751668354054],[-72.90623285831957,-13.487524390445317],[-72.90622498446878,-13.488428020293066],[-72.90530160769629,-13.488420312853098]]]}},{"type":"Feature","properties":{"Cell_ID":88,"Area_ha":1.0,"LC":"5:0.047443,6:0.047710,9:0.904847","XMIN":726644.86160847,"YMIN":8507783.59738907,"XMAX":726744.86160847,"YMAX":8507883.59738907},"geometry":{"type":"Polygon","coordinates":[[[-72.90529372980205,-13.489323942096203],[-72.90530160769629,-13.488420312853098],[-72.90622498446878,-13.488428020293066],[-72.90621711004107,-13.489331650071358],[-72.90529372980205,-13.489323942096203]]]}},{"type":"Feature","properties":{"Cell_ID":89,"Area_ha":1.0,"LC":"5:0.146741,6:0.761502,9:0.091757","XMIN":726644.86160847,"YMIN":8507683.59738907,"XMAX":726744.86160847,"YMAX":8507783.59738907},"geometry":{"type":"Polygon","coordinates":[[[-72.90528585133063,-13.490227571269843],[-72.90529372980205,-13.489323942096203],[-72.90621711004107,-13.489331650071358],[-72.9062092350364,-13.490235279780194],[-72.90528585133063,-13.490227571269843]]]}},{"type":"Feature","properties":{"Cell_ID":90,"Area_ha":1.0,"LC":"6:1.000000","XMIN":726644.86160847,"YMIN":8507583.59738907,"XMAX":726744.86160847,"YMAX":8507683.59738907},"geometry":{"type":"Polygon","coordinates":[[[-72.905277972282,-13.491131200374019],[-72.90528585133063,-13.490227571269843],[-72.9062092350364,-13.490235279780194],[-72.9062013594548,-13.491138909419567],[-72.905277972282,-13.491131200374019]]]}},{"type":"Feature","properties":{"Cell_ID":91,"Area_ha":1.0,"LC":"6:1.000000","XMIN":726644.86160847,"YMIN":8507483.59738907,"XMAX":726744.86160847,"YMAX":8507583.59738907},"geometry":{"type":"Polygon","coordinates":[[[-72.90527009265615,-13.49203482940872],[-72.905277972282,-13.491131200374019],[-72.9062013594548,-13.491138909419567],[-72.90619348329624,-13.492042538989468],[-72.90527009265615,-13.49203482940872]]]}},{"type":"Feature","properties":{"Cell_ID":92,"Area_ha":1.0,"LC":"6:1.000000","XMIN":726644.86160847,"YMIN":8507383.59738907,"XMAX":726744.86160847,"YMAX":8507483.59738907},"geometry":{"type":"Polygon","coordinates":[[[-72.90526221245308,-13.492938458373953],[-72.90527009265615,-13.49203482940872],[-72.90619348329624,-13.492042538989468],[-72.9061856065607,-13.492946168489908],[-72.90526221245308,-13.492938458373953]]]}},{"type":"Feature","properties":{"Cell_ID":93,"Area_ha":1.0,"LC":"5:0.010337,9:0.362376,14:0.627287","XMIN":726744.86160847,"YMIN":8508583.59738907,"XMAX":726844.86160847,"YMAX":8508683.59738907},"geometry":{"type":"Polygon","coordinates":[[[-72.90443338485849,-13.482087199122216],[-72.90444126160004,-13.481183569858969],[-72.90536461007244,-13.48119127640817],[-72.90535673679538,-13.482094906206811],[-72.90443338485849,-13.482087199122216]]]}},{"type":"Feature","properties":{"Cell_ID":94,"Area_ha":1.0,"LC":"5:0.134510,6:0.366880,9:0.049775,14:0.448835","XMIN":726744.86160847,"YMIN":8508483.59738907,"XMAX":726844.86160847,"YMAX":8508583.59738907},"geometry":{"type":"Polygon","coordinates":[[[-72.9044255075396,-13.482990828316034],[-72.90443338485849,-13.482087199122216],[-72.90535673679538,-13.482094906206811],[-72.90534886294121,-13.482998535936025],[-72.9044255075396,-13.482990828316034]]]}},{"type":"Feature","properties":{"Cell_ID":95,"Area_ha":1.0,"LC":"6:0.050211,9:0.949789","XMIN":726744.86160847,"YMIN":8508383.59738907,"XMAX":726844.86160847,"YMAX":8508483.59738907},"geometry":{"type":"Polygon","coordinates":[[[-72.90441762964332,-13.483894457440412],[-72.9044255075396,-13.482990828316034],[-72.90534886294121,-13.482998535936025],[-72.90534098850992,-13.483902165595808],[-72.90441762964332,-13.483894457440412]]]}},{"type":"Feature","properties":{"Cell_ID":96,"Area_ha":1.0,"LC":"3:0.160126,5:0.180407,9:0.482376,14:0.177092","XMIN":726744.86160847,"YMIN":8508283.59738907,"XMAX":726844.86160847,"YMAX":8508383.59738907},"geometry":{"type":"Polygon","coordinates":[[[-72.90440975116967,-13.484798086495353],[-72.90441762964332,-13.483894457440412],[-72.90534098850992,-13.483902165595808],[-72.90533311350148,-13.484805795186155],[-72.90440975116967,-13.484798086495353]]]}},{"type":"Feature","properties":{"Cell_ID":97,"Area_ha":1.0,"LC":"3:0.654215,5:0.278623,9:0.067161","XMIN":726744.86160847,"YMIN":8508183.59738907,"XMAX":726844.86160847,"YMAX":8508283.59738907},"geometry":{"type":"Polygon","coordinates":[[[-72.90440187211861,-13.485701715480845],[-72.90440975116967,-13.484798086495353],[-72.90533311350148,-13.484805795186155],[-72.90532523791593,-13.485709424707062],[-72.90440187211861,-13.485701715480845]]]}},{"type":"Feature","properties":{"Cell_ID":98,"Area_ha":1.0,"LC":"3:0.071476,9:0.928524","XMIN":726744.86160847,"YMIN":8508083.59738907,"XMAX":726844.86160847,"YMAX":8508183.59738907},"geometry":{"type":"Polygon","coordinates":[[[-72.90439399249016,-13.486605344396896],[-72.90440187211861,-13.485701715480845],[-72.90532523791593,-13.485709424707062],[-72.9053173617532,-13.486613054158523],[-72.90439399249016,-13.486605344396896]]]}},{"type":"Feature","properties":{"Cell_ID":99,"Area_ha":1.0,"LC":"9:0.908974,14:0.091026","XMIN":726744.86160847,"YMIN":8507983.59738907,"XMAX":726844.86160847,"YMAX":8508083.59738907},"geometry":{"type":"Polygon","coordinates":[[[-72.90438611228427,-13.487508973243491],[-72.90439399249016,-13.486605344396896],[-72.9053173617532,-13.486613054158523],[-72.90530948501333,-13.48751668354054],[-72.90438611228427,-13.487508973243491]]]}},{"type":"Feature","properties":{"Cell_ID":100,"Area_ha":1.0,"LC":"9:0.786178,14:0.213822","XMIN":726744.86160847,"YMIN":8507883.59738907,"XMAX":726844.86160847,"YMAX":8507983.59738907},"geometry":{"type":"Polygon","coordinates":[[[-72.90437823150097,-13.48841260202063],[-72.90438611228427,-13.487508973243491],[-72.90530948501333,-13.48751668354054],[-72.90530160769629,-13.488420312853098],[-72.90437823150097,-13.48841260202063]]]}},{"type":"Feature","properties":{"Cell_ID":101,"Area_ha":1.0,"LC":"9:1.000000","XMIN":726744.86160847,"YMIN":8507783.59738907,"XMAX":726844.86160847,"YMAX":8507883.59738907},"geometry":{"type":"Polygon","coordinates":[[[-72.90437035014024,-13.489316230728308],[-72.90437823150097,-13.48841260202063],[-72.90530160769629,-13.488420312853098],[-72.90529372980205,-13.489323942096203],[-72.90437035014024,-13.489316230728308]]]}},{"type":"Feature","properties":{"Cell_ID":102,"Area_ha":1.0,"LC":"6:0.898594,9:0.101406","XMIN":726744.86160847,"YMIN":8507683.59738907,"XMAX":726844.86160847,"YMAX":8507783.59738907},"geometry":{"type":"Polygon","coordinates":[[[-72.90436246820204,-13.490219859366517],[-72.90437035014024,-13.489316230728308],[-72.90529372980205,-13.489323942096203],[-72.90528585133063,-13.490227571269843],[-72.90436246820204,-13.490219859366517]]]}},{"type":"Feature","properties":{"Cell_ID":103,"Area_ha":1.0,"LC":"5:0.009381,9:0.189242,14:0.801377","XMIN":726844.86160847,"YMIN":8508583.59738907,"XMAX":726944.86160847,"YMAX":8508683.59738907},"geometry":{"type":"Polygon","coordinates":[[[-72.90351003349897,-13.482079488646777],[-72.90351791370497,-13.481175859919158],[-72.90444126160004,-13.481183569858969],[-72.90443338485849,-13.482087199122216],[-72.90351003349897,-13.482079488646777]]]}},{"type":"Feature","properties":{"Cell_ID":104,"Area_ha":1.0,"LC":"3:0.171714,5:0.645771,7:0.020969,9:0.048819,14:0.112727","XMIN":726844.86160847,"YMIN":8508483.59738907,"XMAX":726944.86160847,"YMAX":8508583.59738907},"geometry":{"type":"Polygon","coordinates":[[[-72.90350215271536,-13.482983117304954],[-72.90351003349897,-13.482079488646777],[-72.90443338485849,-13.482087199122216],[-72.9044255075396,-13.482990828316034],[-72.90350215271536,-13.482983117304954]]]}},{"type":"Feature","properties":{"Cell_ID":105,"Area_ha":1.0,"LC":"3:0.051195,9:0.774590,14:0.174215","XMIN":726844.86160847,"YMIN":8508383.59738907,"XMAX":726944.86160847,"YMAX":8508483.59738907},"geometry":{"type":"Polygon","coordinates":[[[-72.90349427135412,-13.483886745893699],[-72.90350215271536,-13.482983117304954],[-72.9044255075396,-13.482990828316034],[-72.90441762964332,-13.483894457440412],[-72.90349427135412,-13.483886745893699]]]}},{"type":"Feature","properties":{"Cell_ID":106,"Area_ha":1.0,"LC":"3:0.247568,5:0.271995,9:0.469804,14:0.010632","XMIN":726844.86160847,"YMIN":8508283.59738907,"XMAX":726944.86160847,"YMAX":8508383.59738907},"geometry":{"type":"Polygon","coordinates":[[[-72.90348638941524,-13.484790374412993],[-72.90349427135412,-13.483886745893699],[-72.90441762964332,-13.483894457440412],[-72.90440975116967,-13.484798086495353],[-72.90348638941524,-13.484790374412993]]]}},{"type":"Feature","properties":{"Cell_ID":107,"Area_ha":1.0,"LC":"3:0.715996,5:0.112852,9:0.039438,14:0.131714","XMIN":726844.86160847,"YMIN":8508183.59738907,"XMAX":726944.86160847,"YMAX":8508283.59738907},"geometry":{"type":"Polygon","coordinates":[[[-72.9034785068987,-13.485694002862846],[-72.90348638941524,-13.484790374412993],[-72.90440975116967,-13.484798086495353],[-72.90440187211861,-13.485701715480845],[-72.9034785068987,-13.485694002862846]]]}},{"type":"Feature","properties":{"Cell_ID":108,"Area_ha":1.0,"LC":"3:0.009649,9:0.718187,14:0.272164","XMIN":726844.86160847,"YMIN":8508083.59738907,"XMAX":726944.86160847,"YMAX":8508183.59738907},"geometry":{"type":"Polygon","coordinates":[[[-72.90347062380451,-13.486597631243246],[-72.9034785068987,-13.485694002862846],[-72.90440187211861,-13.485701715480845],[-72.90439399249016,-13.486605344396896],[-72.90347062380451,-13.486597631243246]]]}},{"type":"Feature","properties":{"Cell_ID":109,"Area_ha":1.0,"LC":"9:0.911869,14:0.088131","XMIN":726844.86160847,"YMIN":8507983.59738907,"XMAX":726944.86160847,"YMAX":8508083.59738907},"geometry":{"type":"Polygon","coordinates":[[[-72.90346274013264,-13.487501259554184],[-72.90347062380451,-13.486597631243246],[-72.90439399249016,-13.486605344396896],[-72.90438611228427,-13.487508973243491],[-72.90346274013264,-13.487501259554184]]]}},{"type":"Feature","properties":{"Cell_ID":110,"Area_ha":1.0,"LC":"9:0.832978,14:0.167022","XMIN":726844.86160847,"YMIN":8507883.59738907,"XMAX":726944.86160847,"YMAX":8507983.59738907},"geometry":{"type":"Polygon","coordinates":[[[-72.9034548558831,-13.488404887795667],[-72.90346274013264,-13.487501259554184],[-72.90438611228427,-13.487508973243491],[-72.90437823150097,-13.48841260202063],[-72.9034548558831,-13.488404887795667]]]}},{"type":"Feature","properties":{"Cell_ID":111,"Area_ha":1.0,"LC":"9:1.000000","XMIN":726844.86160847,"YMIN":8507783.59738907,"XMAX":726944.86160847,"YMAX":8507883.59738907},"geometry":{"type":"Polygon","coordinates":[[[-72.90344697105586,-13.48930851596768],[-72.9034548558831,-13.488404887795667],[-72.90437823150097,-13.48841260202063],[-72.90437035014024,-13.489316230728308],[-72.90344697105586,-13.48930851596768]]]}},{"type":"Feature","properties":{"Cell_ID":112,"Area_ha":1.0,"LC":"6:0.145222,9:0.854778","XMIN":726844.86160847,"YMIN":8507683.59738907,"XMAX":726944.86160847,"YMAX":8507783.59738907},"geometry":{"type":"Polygon","coordinates":[[[-72.90343908565093,-13.490212144070227],[-72.90344697105586,-13.48930851596768],[-72.90437035014024,-13.489316230728308],[-72.90436246820204,-13.490219859366517],[-72.90343908565093,-13.490212144070227]]]}},{"type":"Feature","properties":{"Cell_ID":113,"Area_ha":1.0,"LC":"6:0.928524,9:0.071476","XMIN":726844.86160847,"YMIN":8507583.59738907,"XMAX":726944.86160847,"YMAX":8507683.59738907},"geometry":{"type":"Polygon","coordinates":[[[-72.90343119966828,-13.491115772103301],[-72.90343908565093,-13.490212144070227],[-72.90436246820204,-13.490219859366517],[-72.9043545856864,-13.491123487935262],[-72.90343119966828,-13.491115772103301]]]}},{"type":"Feature","properties":{"Cell_ID":114,"Area_ha":1.0,"LC":"3:0.170463,9:0.199874,14:0.629663","XMIN":726944.86160847,"YMIN":8508583.59738907,"XMAX":727044.86160847,"YMAX":8508683.59738907},"geometry":{"type":"Polygon","coordinates":[[[-72.90258668271707,-13.482071774780499],[-72.90259456638752,-13.481168146588749],[-72.90351791370497,-13.481175859919158],[-72.90351003349897,-13.482079488646777],[-72.90258668271707,-13.482071774780499]]]}},{"type":"Feature","properties":{"Cell_ID":115,"Area_ha":1.0,"LC":"3:0.500014,7:0.291026,14:0.208961","XMIN":726944.86160847,"YMIN":8508483.59738907,"XMAX":727044.86160847,"YMAX":8508583.59738907},"geometry":{"type":"Polygon","coordinates":[[[-72.90257879846875,-13.482975402902811],[-72.90258668271707,-13.482071774780499],[-72.90351003349897,-13.482079488646777],[-72.90350215271536,-13.482983117304954],[-72.90257879846875,-13.482975402902811]]]}},{"type":"Feature","properties":{"Cell_ID":116,"Area_ha":1.0,"LC":"3:0.070493,5:0.010337,7:0.030913,9:0.443878,14:0.444379","XMIN":726944.86160847,"YMIN":8508383.59738907,"XMAX":727044.86160847,"YMAX":8508483.59738907},"geometry":{"type":"Polygon","coordinates":[[[-72.90257091364253,-13.483879030955675],[-72.90257879846875,-13.482975402902811],[-72.90350215271536,-13.482983117304954],[-72.90349427135412,-13.483886745893699],[-72.90257091364253,-13.483879030955675]]]}},{"type":"Feature","properties":{"Cell_ID":117,"Area_ha":1.0,"LC":"5:0.570196,9:0.059031,14:0.370774","XMIN":726944.86160847,"YMIN":8508283.59738907,"XMAX":727044.86160847,"YMAX":8508383.59738907},"geometry":{"type":"Polygon","coordinates":[[[-72.90256302823845,-13.4847826589391],[-72.90257091364253,-13.483879030955675],[-72.90349427135412,-13.483886745893699],[-72.90348638941524,-13.484790374412993],[-72.90256302823845,-13.4847826589391]]]}},{"type":"Feature","properties":{"Cell_ID":118,"Area_ha":1.0,"LC":"5:0.673682,14:0.326318","XMIN":726944.86160847,"YMIN":8508183.59738907,"XMAX":727044.86160847,"YMAX":8508283.59738907},"geometry":{"type":"Polygon","coordinates":[[[-72.90255514225643,-13.485686286853067],[-72.90256302823845,-13.4847826589391],[-72.90348638941524,-13.484790374412993],[-72.9034785068987,-13.485694002862846],[-72.90255514225643,-13.485686286853067]]]}},{"type":"Feature","properties":{"Cell_ID":119,"Area_ha":1.0,"LC":"5:0.052571,9:0.625348,14:0.322081","XMIN":726944.86160847,"YMIN":8508083.59738907,"XMAX":727044.86160847,"YMAX":8508183.59738907},"geometry":{"type":"Polygon","coordinates":[[[-72.90254725569652,-13.486589914697579],[-72.90255514225643,-13.485686286853067],[-72.9034785068987,-13.485694002862846],[-72.90347062380451,-13.486597631243246],[-72.90254725569652,-13.486589914697579]]]}},{"type":"Feature","properties":{"Cell_ID":120,"Area_ha":1.0,"LC":"5:0.089775,9:0.836685,14:0.073541","XMIN":726944.86160847,"YMIN":8507983.59738907,"XMAX":727044.86160847,"YMAX":8508083.59738907},"geometry":{"type":"Polygon","coordinates":[[[-72.90253936855868,-13.487493542472631],[-72.90254725569652,-13.486589914697579],[-72.90347062380451,-13.486597631243246],[-72.90346274013264,-13.487501259554184],[-72.90253936855868,-13.487493542472631]]]}},{"type":"Feature","properties":{"Cell_ID":121,"Area_ha":1.0,"LC":"5:0.411195,9:0.588805","XMIN":726944.86160847,"YMIN":8507883.59738907,"XMAX":727044.86160847,"YMAX":8507983.59738907},"geometry":{"type":"Polygon","coordinates":[[[-72.90253148084291,-13.488397170178217],[-72.90253936855868,-13.487493542472631],[-72.90346274013264,-13.487501259554184],[-72.9034548558831,-13.488404887795667],[-72.90253148084291,-13.488397170178217]]]}},{"type":"Feature","properties":{"Cell_ID":122,"Area_ha":1.0,"LC":"9:1.000000","XMIN":726944.86160847,"YMIN":8507783.59738907,"XMAX":727044.86160847,"YMAX":8507883.59738907},"geometry":{"type":"Polygon","coordinates":[[[-72.90252359254919,-13.489300797814337],[-72.90253148084291,-13.488397170178217],[-72.9034548558831,-13.488404887795667],[-72.90344697105586,-13.48930851596768],[-72.90252359254919,-13.489300797814337]]]}},{"type":"Feature","properties":{"Cell_ID":123,"Area_ha":1.0,"LC":"9:1.000000","XMIN":726944.86160847,"YMIN":8507683.59738907,"XMAX":727044.86160847,"YMAX":8507783.59738907},"geometry":{"type":"Polygon","coordinates":[[[-72.90251570367751,-13.490204425380984],[-72.90252359254919,-13.489300797814337],[-72.90344697105586,-13.48930851596768],[-72.90343908565093,-13.490212144070227],[-72.90251570367751,-13.490204425380984]]]}},{"type":"Feature","properties":{"Cell_ID":124,"Area_ha":1.0,"LC":"3:0.589930,6:0.100969,7:0.086880,9:0.150744,14:0.071476","XMIN":727044.86160847,"YMIN":8508483.59738907,"XMAX":727144.86160847,"YMAX":8508583.59738907},"geometry":{"type":"Polygon","coordinates":[[[-72.90165544480003,-13.482967685109603],[-72.90166333251304,-13.482064057523399],[-72.90258668271707,-13.482071774780499],[-72.90257879846875,-13.482975402902811],[-72.90165544480003,-13.482967685109603]]]}},{"type":"Feature","properties":{"Cell_ID":125,"Area_ha":1.0,"LC":"5:0.239563,7:0.050211,9:0.710225","XMIN":727044.86160847,"YMIN":8508383.59738907,"XMAX":727144.86160847,"YMAX":8508483.59738907},"geometry":{"type":"Polygon","coordinates":[[[-72.90164755650888,-13.483871312626361],[-72.90165544480003,-13.482967685109603],[-72.90257879846875,-13.482975402902811],[-72.90257091364253,-13.483879030955675],[-72.90164755650888,-13.483871312626361]]]}},{"type":"Feature","properties":{"Cell_ID":126,"Area_ha":1.0,"LC":"5:0.808567,6:0.191433","XMIN":727044.86160847,"YMIN":8508283.59738907,"XMAX":727144.86160847,"YMAX":8508383.59738907},"geometry":{"type":"Polygon","coordinates":[[[-72.90163966763956,-13.484774940073669],[-72.90164755650888,-13.483871312626361],[-72.90257091364253,-13.483879030955675],[-72.90256302823845,-13.4847826589391],[-72.90163966763956,-13.484774940073669]]]}},{"type":"Feature","properties":{"Cell_ID":127,"Area_ha":1.0,"LC":"5:0.616403,6:0.172445,9:0.211151","XMIN":727044.86160847,"YMIN":8508183.59738907,"XMAX":727144.86160847,"YMAX":8508283.59738907},"geometry":{"type":"Polygon","coordinates":[[[-72.9016317781921,-13.48567856745152],[-72.90163966763956,-13.484774940073669],[-72.90256302823845,-13.4847826589391],[-72.90255514225643,-13.485686286853067],[-72.9016317781921,-13.48567856745152]]]}},{"type":"Feature","properties":{"Cell_ID":128,"Area_ha":1.0,"LC":"5:0.047710,9:0.335635,13:0.030056,14:0.586599","XMIN":727044.86160847,"YMIN":8508083.59738907,"XMAX":727144.86160847,"YMAX":8508183.59738907},"geometry":{"type":"Polygon","coordinates":[[[-72.90162388816647,-13.486582194759912],[-72.9016317781921,-13.48567856745152],[-72.90255514225643,-13.485686286853067],[-72.90254725569652,-13.486589914697579],[-72.90162388816647,-13.486582194759912]]]}},{"type":"Feature","properties":{"Cell_ID":129,"Area_ha":1.0,"LC":"5:0.009381,9:0.078749,13:0.304847,14:0.607022","XMIN":727044.86160847,"YMIN":8507983.59738907,"XMAX":727144.86160847,"YMAX":8508083.59738907},"geometry":{"type":"Polygon","coordinates":[[[-72.90161599756266,-13.487485821998838],[-72.90162388816647,-13.486582194759912],[-72.90254725569652,-13.486589914697579],[-72.90253936855868,-13.487493542472631],[-72.90161599756266,-13.487485821998838]]]}}]}