{"type":"FeatureCollection","features":[{"type":"Feature","properties":{"Cell_ID":1,"Area_ha":1.0,"LC":"3:0.461679,6:0.197365,14:0.340956","XMIN":726024.86160847,"YMIN":8508433.59738907,"XMAX":726124.86160847,"YMAX":8508533.59738907},"geometry":{"type":"Polygon","coordinates":[[[-72.91106975290057,-13.483498063986147],[-72.91107760556098,-13.482594430977418],[-72.91200096337975,-13.482602113914488],[-72.9119931141843,-13.48350574745692],[-72.91106975290057,-13.483498063986147]]]}},{"type":"Feature","properties":{"Cell_ID":2,"Area_ha":1.0,"LC":"3:0.255996,7:0.261636,9:0.482368","XMIN":726124.86160847,"YMIN":8508533.59738907,"XMAX":726224.86160847,"YMAX":8508633.59738907},"geometry":{"type":"Polygon","coordinates":[[[-72.91015424831772,-13.482586744649316],[-72.91016210386725,-13.48168311210512],[-72.91108545764583,-13.481690797899287],[-72.91107760556098,-13.482594430977418],[-72.91015424831772,-13.482586744649316]]]}},{"type":"Feature","properties":{"Cell_ID":3,"Area_ha":1.0,"LC":"3:0.601644,7:0.142242,9:0.079438,14:0.176677","XMIN":726124.86160847,"YMIN":8508433.59738907,"XMAX":726224.86160847,"YMAX":8508533.59738907},"geometry":{"type":"Polygon","coordinates":[[[-72.91014639219242,-13.483490377124102],[-72.91015424831772,-13.482586744649316],[-72.91107760556098,-13.482594430977418],[-72.91106975290057,-13.483498063986147],[-72.91014639219242,-13.483490377124102]]]}},{"type":"Feature","properties":{"Cell_ID":4,"Area_ha":1.0,"LC":"3:0.118356,9:0.664138,14:0.217507","XMIN":726124.86160847,"YMIN":8508333.59738907,"XMAX":726224.86160847,"YMAX":8508433.59738907},"geometry":{"type":"Polygon","coordinates":[[[-72.9101385354913,-13.48439400952948],[-72.91014639219242,-13.483490377124102],[-72.91106975290057,-13.483498063986147],[-72.91106189966463,-13.484401696925465],[-72.9101385354913,-13.48439400952948]]]}},{"type":"Feature","properties":{"Cell_ID":5,"Area_ha":1.0,"LC":"3:0.460541,5:0.020969,7:0.176114,9:0.342228,14:0.000147","XMIN":726224.86160847,"YMIN":8508533.59738907,"XMAX":726324.86160847,"YMAX":8508633.59738907},"geometry":{"type":"Polygon","coordinates":[[[-72.9092308916503,-13.482579054930191],[-72.90923875066446,-13.481675422920166],[-72.91016210386725,-13.48168311210512],[-72.91015424831772,-13.482586744649316],[-72.9092308916503,-13.482579054930191]]]}},{"type":"Feature","properties":{"Cell_ID":6,"Area_ha":1.0,"LC":"3:0.779992,7:0.220008","XMIN":726224.86160847,"YMIN":8508433.59738907,"XMAX":726324.86160847,"YMAX":8508533.59738907},"geometry":{"type":"Polygon","coordinates":[[[-72.90922303206005,-13.483482686870802],[-72.9092308916503,-13.482579054930191],[-72.91015424831772,-13.482586744649316],[-72.91014639219242,-13.483490377124102],[-72.90922303206005,-13.483482686870802]]]}}]}