{"type":"FeatureCollection","features":[{"type":"Feature","properties":{"Cell_ID":1,"Area_ha":1.0,"LC":"6:0.000976,9:0.637654,13:0.082620,14:0.278749","XMIN":724974.86160847,"YMIN":8507733.59738907,"XMAX":725074.86160847,"YMAX":8507833.59738907},"geometry":{"type":"Polygon","coordinates":[[[-72.9207103450484,-13.489904039551456],[-72.92071816533695,-13.48900040143625],[-72.92164155344418,-13.489008052485579],[-72.92163373662245,-13.489911691132049],[-72.9207103450484,-13.489904039551456]]]}},{"type":"Feature","properties":{"Cell_ID":2,"Area_ha":1.0,"LC":"9:0.279867,13:0.164166,14:0.555967","XMIN":724974.86160847,"YMIN":8507633.59738907,"XMAX":725074.86160847,"YMAX":8507733.59738907},"geometry":{"type":"Polygon","coordinates":[[[-72.92070252418692,-13.490807677597267],[-72.9207103450484,-13.489904039551456],[-72.92163373662245,-13.489911691132049],[-72.92162591922803,-13.490815329709115],[-72.92070252418692,-13.490807677597267]]]}},{"type":"Feature","properties":{"Cell_ID":3,"Area_ha":1.0,"LC":"9:0.240969,13:0.277505,14:0.481525","XMIN":724974.86160847,"YMIN":8507533.59738907,"XMAX":725074.86160847,"YMAX":8507633.59738907},"geometry":{"type":"Polygon","coordinates":[[[-72.92069470275246,-13.49171131557367],[-72.92070252418692,-13.490807677597267],[-72.92162591922803,-13.490815329709115],[-72.92161810126089,-13.491718968216787],[-72.92069470275246,-13.49171131557367]]]}},{"type":"Feature","properties":{"Cell_ID":4,"Area_ha":1.0,"LC":"5:0.041651,9:0.158749,13:0.079586,14:0.720014","XMIN":724974.86160847,"YMIN":8507433.59738907,"XMAX":725074.86160847,"YMAX":8507533.59738907},"geometry":{"type":"Polygon","coordinates":[[[-72.920686880745,-13.492614953480667],[-72.92069470275246,-13.49171131557367],[-72.92161810126089,-13.491718968216787],[-72.92161028272102,-13.492622606655054],[-72.920686880745,-13.492614953480667]]]}},{"type":"Feature","properties":{"Cell_ID":5,"Area_ha":1.0,"LC":"5:0.160288,6:0.237224,9:0.443590,14:0.158898","XMIN":724974.86160847,"YMIN":8507333.59738907,"XMAX":725074.86160847,"YMAX":8507433.59738907},"geometry":{"type":"Polygon","coordinates":[[[-72.92067905816458,-13.49351859131825],[-72.920686880745,-13.492614953480667],[-72.92161028272102,-13.492622606655054],[-72.92160246360842,-13.493526245023912],[-72.92067905816458,-13.49351859131825]]]}},{"type":"Feature","properties":{"Cell_ID":6,"Area_ha":1.0,"LC":"6:0.081125,9:0.239312,13:0.436255,14:0.243309","XMIN":725074.86160847,"YMIN":8507733.59738907,"XMAX":725174.86160847,"YMAX":8507833.59738907},"geometry":{"type":"Polygon","coordinates":[[[-72.91978695404732,-13.489896384577847],[-72.91979477780266,-13.488992746994134],[-72.92071816533695,-13.48900040143625],[-72.9207103450484,-13.489904039551456],[-72.91978695404732,-13.489896384577847]]]}},{"type":"Feature","properties":{"Cell_ID":7,"Area_ha":1.0,"LC":"9:0.483027,13:0.316959,14:0.200014","XMIN":725074.86160847,"YMIN":8507633.59738907,"XMAX":725174.86160847,"YMAX":8507733.59738907},"geometry":{"type":"Polygon","coordinates":[[[-72.91977912971876,-13.490800022092158],[-72.91978695404732,-13.489896384577847],[-72.9207103450484,-13.489904039551456],[-72.92070252418692,-13.490807677597267],[-72.91977912971876,-13.490800022092158]]]}},{"type":"Feature","properties":{"Cell_ID":8,"Area_ha":1.0,"LC":"9:0.763597,14:0.236403","XMIN":725074.86160847,"YMIN":8507533.59738907,"XMAX":725174.86160847,"YMAX":8507633.59738907},"geometry":{"type":"Polygon","coordinates":[[[-72.91977130481699,-13.491703659537064],[-72.91977912971876,-13.490800022092158],[-72.92070252418692,-13.490807677597267],[-72.92069470275246,-13.49171131557367],[-72.91977130481699,-13.491703659537064]]]}},{"type":"Feature","properties":{"Cell_ID":9,"Area_ha":1.0,"LC":"5:0.236662,9:0.443071,14:0.320268","XMIN":725074.86160847,"YMIN":8507433.59738907,"XMAX":725174.86160847,"YMAX":8507533.59738907},"geometry":{"type":"Polygon","coordinates":[[[-72.91976347934198,-13.492607296912551],[-72.91977130481699,-13.491703659537064],[-72.92069470275246,-13.49171131557367],[-72.920686880745,-13.492614953480667],[-72.91976347934198,-13.492607296912551]]]}},{"type":"Feature","properties":{"Cell_ID":10,"Area_ha":1.0,"LC":"5:0.280430,6:0.119156,9:0.600407,14:0.000007","XMIN":725074.86160847,"YMIN":8507333.59738907,"XMAX":725174.86160847,"YMAX":8507433.59738907},"geometry":{"type":"Polygon","coordinates":[[[-72.91975565329372,-13.493510934218625],[-72.91976347934198,-13.492607296912551],[-72.920686880745,-13.492614953480667],[-72.92067905816458,-13.49351859131825],[-72.91975565329372,-13.493510934218625]]]}},{"type":"Feature","properties":{"Cell_ID":11,"Area_ha":1.0,"LC":"5:0.237780,6:0.357661,9:0.360969,14:0.043590","XMIN":725074.86160847,"YMIN":8507233.59738907,"XMAX":725174.86160847,"YMAX":8507333.59738907},"geometry":{"type":"Polygon","coordinates":[[[-72.91974782667221,-13.494414571455275],[-72.91975565329372,-13.493510934218625],[-72.92067905816458,-13.49351859131825],[-72.92067123501114,-13.494422229086416],[-72.91974782667221,-13.494414571455275]]]}},{"type":"Feature","properties":{"Cell_ID":12,"Area_ha":1.0,"LC":"6:0.394597,9:0.604847,14:0.000556","XMIN":725174.86160847,"YMIN":8507833.59738907,"XMAX":725274.86160847,"YMAX":8507933.59738907},"geometry":{"type":"Polygon","coordinates":[[[-72.91887139084157,-13.488985089159247],[-72.91887921749026,-13.488081452037859],[-72.9198026009848,-13.48808910934102],[-72.91979477780266,-13.488992746994134],[-72.91887139084157,-13.488985089159247]]]}},{"type":"Feature","properties":{"Cell_ID":13,"Area_ha":1.0,"LC":"6:0.079586,9:0.565129,14:0.355285","XMIN":725174.86160847,"YMIN":8507733.59738907,"XMAX":725274.86160847,"YMAX":8507833.59738907},"geometry":{"type":"Polygon","coordinates":[[[-72.91886356361944,-13.48988872621123],[-72.91887139084157,-13.488985089159247],[-72.91979477780266,-13.488992746994134],[-72.91978695404732,-13.489896384577847],[-72.91886356361944,-13.48988872621123]]]}},{"type":"Feature","properties":{"Cell_ID":14,"Area_ha":1.0,"LC":"9:0.880133,14:0.119867","XMIN":725174.86160847,"YMIN":8507633.59738907,"XMAX":725274.86160847,"YMAX":8507733.59738907},"geometry":{"type":"Polygon","coordinates":[[[-72.91885573582384,-13.490792363193806],[-72.91886356361944,-13.48988872621123],[-72.91978695404732,-13.489896384577847],[-72.91977912971876,-13.490800022092158],[-72.91885573582384,-13.490792363193806]]]}},{"type":"Feature","properties":{"Cell_ID":15,"Area_ha":1.0,"LC":"6:0.482058,9:0.517942","XMIN":725174.86160847,"YMIN":8507533.59738907,"XMAX":725274.86160847,"YMAX":8507633.59738907},"geometry":{"type":"Polygon","coordinates":[[[-72.91884790745476,-13.49169600010697],[-72.91885573582384,-13.490792363193806],[-72.91977912971876,-13.490800022092158],[-72.91977130481699,-13.491703659537064],[-72.91884790745476,-13.49169600010697]]]}},{"type":"Feature","properties":{"Cell_ID":16,"Area_ha":1.0,"LC":"6:0.245410,9:0.437366,14:0.317224","XMIN":725174.86160847,"YMIN":8507433.59738907,"XMAX":725274.86160847,"YMAX":8507533.59738907},"geometry":{"type":"Polygon","coordinates":[[[-72.91884007851218,-13.49259963695072],[-72.91884790745476,-13.49169600010697],[-72.91977130481699,-13.491703659537064],[-72.91976347934198,-13.492607296912551],[-72.91884007851218,-13.49259963695072]]]}},{"type":"Feature","properties":{"Cell_ID":17,"Area_ha":1.0,"LC":"5:0.282620,6:0.082227,9:0.554316,14:0.080837","XMIN":725174.86160847,"YMIN":8507333.59738907,"XMAX":725274.86160847,"YMAX":8507433.59738907},"geometry":{"type":"Polygon","coordinates":[[[-72.91883224899613,-13.493503273725043],[-72.91884007851218,-13.49259963695072],[-72.91976347934198,-13.492607296912551],[-72.91975565329372,-13.493510934218625],[-72.91883224899613,-13.493503273725043]]]}},{"type":"Feature","properties":{"Cell_ID":18,"Area_ha":1.0,"LC":"5:0.000288,9:0.120149,14:0.879563","XMIN":725174.86160847,"YMIN":8507233.59738907,"XMAX":725274.86160847,"YMAX":8507333.59738907},"geometry":{"type":"Polygon","coordinates":[[[-72.91882441890655,-13.49440691042995],[-72.91883224899613,-13.493503273725043],[-72.91975565329372,-13.493510934218625],[-72.91974782667221,-13.494414571455275],[-72.91882441890655,-13.49440691042995]]]}},{"type":"Feature","properties":{"Cell_ID":19,"Area_ha":1.0,"LC":"5:0.001406,9:0.997631,14:0.000963","XMIN":725274.86160847,"YMIN":8508033.59738907,"XMAX":725374.86160847,"YMAX":8508133.59738907},"geometry":{"type":"Polygon","coordinates":[[[-72.91796366411067,-13.487170154683339],[-72.9179714930785,-13.48626651795511],[-72.9188948690673,-13.48627417758689],[-72.9188870435655,-13.487177814847072],[-72.91796366411067,-13.487170154683339]]]}},{"type":"Feature","properties":{"Cell_ID":20,"Area_ha":1.0,"LC":"9:0.718905,14:0.281095","XMIN":725274.86160847,"YMIN":8507933.59738907,"XMAX":725374.86160847,"YMAX":8508033.59738907},"geometry":{"type":"Polygon","coordinates":[[[-72.91795583456917,-13.488073791342165],[-72.91796366411067,-13.487170154683339],[-72.9188870435655,-13.487177814847072],[-72.91887921749026,-13.488081452037859],[-72.91795583456917,-13.488073791342165]]]}},{"type":"Feature","properties":{"Cell_ID":21,"Area_ha":1.0,"LC":"9:0.877211,14:0.122789","XMIN":725274.86160847,"YMIN":8507833.59738907,"XMAX":725374.86160847,"YMAX":8507933.59738907},"geometry":{"type":"Polygon","coordinates":[[[-72.91794800445395,-13.488977427931587],[-72.91795583456917,-13.488073791342165],[-72.91887921749026,-13.488081452037859],[-72.91887139084157,-13.488985089159247],[-72.91794800445395,-13.488977427931587]]]}},{"type":"Feature","properties":{"Cell_ID":22,"Area_ha":1.0,"LC":"9:1.000000","XMIN":725274.86160847,"YMIN":8507733.59738907,"XMAX":725374.86160847,"YMAX":8507833.59738907},"geometry":{"type":"Polygon","coordinates":[[[-72.91794017376503,-13.489881064451609],[-72.91794800445395,-13.488977427931587],[-72.91887139084157,-13.488985089159247],[-72.91886356361944,-13.48988872621123],[-72.91794017376503,-13.489881064451609]]]}},{"type":"Feature","properties":{"Cell_ID":23,"Area_ha":1.0,"LC":"6:0.039719,9:0.960281","XMIN":725274.86160847,"YMIN":8507633.59738907,"XMAX":725374.86160847,"YMAX":8507733.59738907},"geometry":{"type":"Polygon","coordinates":[[[-72.91793234250238,-13.490784700902214],[-72.91794017376503,-13.489881064451609],[-72.91886356361944,-13.48988872621123],[-72.91885573582384,-13.490792363193806],[-72.91793234250238,-13.490784700902214]]]}},{"type":"Feature","properties":{"Cell_ID":24,"Area_ha":1.0,"LC":"6:0.837906,9:0.162094","XMIN":725274.86160847,"YMIN":8507533.59738907,"XMAX":725374.86160847,"YMAX":8507633.59738907},"geometry":{"type":"Polygon","coordinates":[[[-72.91792451066601,-13.491688337283406],[-72.91793234250238,-13.490784700902214],[-72.91885573582384,-13.490792363193806],[-72.91884790745476,-13.49169600010697],[-72.91792451066601,-13.491688337283406]]]}},{"type":"Feature","properties":{"Cell_ID":25,"Area_ha":1.0,"LC":"6:1.000000","XMIN":725274.86160847,"YMIN":8507433.59738907,"XMAX":725374.86160847,"YMAX":8507533.59738907},"geometry":{"type":"Polygon","coordinates":[[[-72.9179166782559,-13.492591973595179],[-72.91792451066601,-13.491688337283406],[-72.91884790745476,-13.49169600010697],[-72.91884007851218,-13.49259963695072],[-72.9179166782559,-13.492591973595179]]]}},{"type":"Feature","properties":{"Cell_ID":26,"Area_ha":1.0,"LC":"5:0.000556,9:0.760850,14:0.238594","XMIN":725374.86160847,"YMIN":8508033.59738907,"XMAX":725474.86160847,"YMAX":8508133.59738907},"geometry":{"type":"Polygon","coordinates":[[[-72.91704028522955,-13.487162491127316],[-72.91704811766337,-13.486258854931279],[-72.9179714930785,-13.48626651795511],[-72.91796366411067,-13.487170154683339],[-72.91704028522955,-13.487162491127316]]]}},{"type":"Feature","properties":{"Cell_ID":27,"Area_ha":1.0,"LC":"9:0.560119,14:0.439881","XMIN":725374.86160847,"YMIN":8507933.59738907,"XMAX":725474.86160847,"YMAX":8508033.59738907},"geometry":{"type":"Polygon","coordinates":[[[-72.91703245222176,-13.48806612725395],[-72.91704028522955,-13.487162491127316],[-72.91796366411067,-13.487170154683339],[-72.91795583456917,-13.488073791342165],[-72.91703245222176,-13.48806612725395]]]}},{"type":"Feature","properties":{"Cell_ID":28,"Area_ha":1.0,"LC":"9:0.601383,14:0.398617","XMIN":725374.86160847,"YMIN":8507833.59738907,"XMAX":725474.86160847,"YMAX":8507933.59738907},"geometry":{"type":"Polygon","coordinates":[[[-72.91702461864003,-13.488969763311175],[-72.91703245222176,-13.48806612725395],[-72.91795583456917,-13.488073791342165],[-72.91794800445395,-13.488977427931587],[-72.91702461864003,-13.488969763311175]]]}},{"type":"Feature","properties":{"Cell_ID":29,"Area_ha":1.0,"LC":"9:1.000000","XMIN":725374.86160847,"YMIN":8507733.59738907,"XMAX":725474.86160847,"YMAX":8507833.59738907},"geometry":{"type":"Polygon","coordinates":[[[-72.91701678448433,-13.489873399298995],[-72.91702461864003,-13.488969763311175],[-72.91794800445395,-13.488977427931587],[-72.91794017376503,-13.489881064451609],[-72.91701678448433,-13.489873399298995]]]}},{"type":"Feature","properties":{"Cell_ID":30,"Area_ha":1.0,"LC":"9:1.000000","XMIN":725374.86160847,"YMIN":8507633.59738907,"XMAX":725474.86160847,"YMAX":8507733.59738907},"geometry":{"type":"Polygon","coordinates":[[[-72.91700894975466,-13.490777035217397],[-72.91701678448433,-13.489873399298995],[-72.91794017376503,-13.489881064451609],[-72.91793234250238,-13.490784700902214],[-72.91700894975466,-13.490777035217397]]]}},{"type":"Feature","properties":{"Cell_ID":31,"Area_ha":1.0,"LC":"5:0.159438,6:0.077787,9:0.762776","XMIN":725374.86160847,"YMIN":8507533.59738907,"XMAX":725474.86160847,"YMAX":8507633.59738907},"geometry":{"type":"Polygon","coordinates":[[[-72.91700111445101,-13.49168067106638],[-72.91700894975466,-13.490777035217397],[-72.91793234250238,-13.490784700902214],[-72.91792451066601,-13.491688337283406],[-72.91700111445101,-13.49168067106638]]]}},{"type":"Feature","properties":{"Cell_ID":32,"Area_ha":1.0,"LC":"5:0.801377,6:0.195153,9:0.003471","XMIN":725374.86160847,"YMIN":8507433.59738907,"XMAX":725474.86160847,"YMAX":8507533.59738907},"geometry":{"type":"Polygon","coordinates":[[[-72.91699327857336,-13.49258430684594],[-72.91700111445101,-13.49168067106638],[-72.91792451066601,-13.491688337283406],[-72.9179166782559,-13.492591973595179],[-72.91699327857336,-13.49258430684594]]]}},{"type":"Feature","properties":{"Cell_ID":33,"Area_ha":1.0,"LC":"3:1.000000","XMIN":725474.86160847,"YMIN":8508233.59738907,"XMAX":725574.86160847,"YMAX":8508333.59738907},"geometry":{"type":"Polygon","coordinates":[[[-72.91613257814784,-13.485347552782393],[-72.91614041289931,-13.484443916979984],[-72.91706378080926,-13.484451582331015],[-72.91705594952327,-13.485355218665843],[-72.91613257814784,-13.485347552782393]]]}},{"type":"Feature","properties":{"Cell_ID":34,"Area_ha":1.0,"LC":"3:0.243345,6:0.237092,9:0.318749,14:0.200814","XMIN":725474.86160847,"YMIN":8508133.59738907,"XMAX":725574.86160847,"YMAX":8508233.59738907},"geometry":{"type":"Polygon","coordinates":[[[-72.91612474282219,-13.486251188515407],[-72.91613257814784,-13.485347552782393],[-72.91705594952327,-13.485355218665843],[-72.91704811766337,-13.486258854931279],[-72.91612474282219,-13.486251188515407]]]}},{"type":"Feature","properties":{"Cell_ID":35,"Area_ha":1.0,"LC":"3:0.119438,5:0.321377,9:0.279305,14:0.279881","XMIN":725474.86160847,"YMIN":8508033.59738907,"XMAX":725574.86160847,"YMAX":8508133.59738907},"geometry":{"type":"Polygon","coordinates":[[[-72.91611690692235,-13.48715482417902],[-72.91612474282219,-13.486251188515407],[-72.91704811766337,-13.486258854931279],[-72.91704028522955,-13.487162491127316],[-72.91611690692235,-13.48715482417902]]]}},{"type":"Feature","properties":{"Cell_ID":36,"Area_ha":1.0,"LC":"3:0.520000,5:0.120562,9:0.320133,14:0.039305","XMIN":725474.86160847,"YMIN":8507933.59738907,"XMAX":725574.86160847,"YMAX":8508033.59738907},"geometry":{"type":"Polygon","coordinates":[[[-72.91610907044831,-13.488058459773226],[-72.91611690692235,-13.48715482417902],[-72.91704028522955,-13.487162491127316],[-72.91703245222176,-13.48806612725395],[-72.91610907044831,-13.488058459773226]]]}},{"type":"Feature","properties":{"Cell_ID":37,"Area_ha":1.0,"LC":"3:0.000562,9:0.999438","XMIN":725474.86160847,"YMIN":8507833.59738907,"XMAX":725574.86160847,"YMAX":8507933.59738907},"geometry":{"type":"Polygon","coordinates":[[[-72.91610123340007,-13.48896209529802],[-72.91610907044831,-13.488058459773226],[-72.91703245222176,-13.48806612725395],[-72.91702461864003,-13.488969763311175],[-72.91610123340007,-13.48896209529802]]]}},{"type":"Feature","properties":{"Cell_ID":38,"Area_ha":1.0,"LC":"9:1.000000","XMIN":725474.86160847,"YMIN":8507733.59738907,"XMAX":725574.86160847,"YMAX":8507833.59738907},"geometry":{"type":"Polygon","coordinates":[[[-72.91609339577761,-13.489865730753403],[-72.91610123340007,-13.48896209529802],[-72.91702461864003,-13.488969763311175],[-72.91701678448433,-13.489873399298995],[-72.91609339577761,-13.489865730753403]]]}},{"type":"Feature","properties":{"Cell_ID":39,"Area_ha":1.0,"LC":"3:0.040681,9:0.959319","XMIN":725474.86160847,"YMIN":8507633.59738907,"XMAX":725574.86160847,"YMAX":8507733.59738907},"geometry":{"type":"Polygon","coordinates":[[[-72.91608555758093,-13.490769366139364],[-72.91609339577761,-13.489865730753403],[-72.91701678448433,-13.489873399298995],[-72.91700894975466,-13.490777035217397],[-72.91608555758093,-13.490769366139364]]]}},{"type":"Feature","properties":{"Cell_ID":40,"Area_ha":1.0,"LC":"3:0.041258,5:0.082339,9:0.876403","XMIN":725474.86160847,"YMIN":8507533.59738907,"XMAX":725574.86160847,"YMAX":8507633.59738907},"geometry":{"type":"Polygon","coordinates":[[[-72.91607771880999,-13.491673001455904],[-72.91608555758093,-13.490769366139364],[-72.91700894975466,-13.490777035217397],[-72.91700111445101,-13.49168067106638],[-72.91607771880999,-13.491673001455904]]]}},{"type":"Feature","properties":{"Cell_ID":41,"Area_ha":1.0,"LC":"3:0.361790,14:0.638210","XMIN":725574.86160847,"YMIN":8508433.59738907,"XMAX":725674.86160847,"YMAX":8508533.59738907},"geometry":{"type":"Polygon","coordinates":[[[-72.91522488320608,-13.483532612898243],[-72.9152327202742,-13.482628977489693],[-72.9161560806798,-13.482636645166991],[-72.91614824707663,-13.48354028110818],[-72.91522488320608,-13.483532612898243]]]}},{"type":"Feature","properties":{"Cell_ID":42,"Area_ha":1.0,"LC":"3:0.999719,14:0.000281","XMIN":725574.86160847,"YMIN":8508333.59738907,"XMAX":725674.86160847,"YMAX":8508433.59738907},"geometry":{"type":"Polygon","coordinates":[[[-72.91521704556354,-13.484436248237397],[-72.91522488320608,-13.483532612898243],[-72.91614824707663,-13.48354028110818],[-72.91614041289931,-13.484443916979984],[-72.91521704556354,-13.484436248237397]]]}},{"type":"Feature","properties":{"Cell_ID":43,"Area_ha":1.0,"LC":"3:0.957380,14:0.042620","XMIN":725574.86160847,"YMIN":8508233.59738907,"XMAX":725674.86160847,"YMAX":8508333.59738907},"geometry":{"type":"Polygon","coordinates":[[[-72.91520920734658,-13.485339883507153],[-72.91521704556354,-13.484436248237397],[-72.91614041289931,-13.484443916979984],[-72.91613257814784,-13.485347552782393],[-72.91520920734658,-13.485339883507153]]]}},{"type":"Feature","properties":{"Cell_ID":44,"Area_ha":1.0,"LC":"3:0.199179,9:0.478594,14:0.322227","XMIN":725574.86160847,"YMIN":8508133.59738907,"XMAX":725674.86160847,"YMAX":8508233.59738907},"geometry":{"type":"Polygon","coordinates":[[[-72.91520136855519,-13.486243518707507],[-72.91520920734658,-13.485339883507153],[-72.91613257814784,-13.485347552782393],[-72.91612474282219,-13.486251188515407],[-72.91520136855519,-13.486243518707507]]]}},{"type":"Feature","properties":{"Cell_ID":45,"Area_ha":1.0,"LC":"5:0.198061,9:0.801939","XMIN":725574.86160847,"YMIN":8508033.59738907,"XMAX":725674.86160847,"YMAX":8508133.59738907},"geometry":{"type":"Polygon","coordinates":[[[-72.91519352918935,-13.48714715383846],[-72.91520136855519,-13.486243518707507],[-72.91612474282219,-13.486251188515407],[-72.91611690692235,-13.48715482417902],[-72.91519352918935,-13.48714715383846]]]}},{"type":"Feature","properties":{"Cell_ID":46,"Area_ha":1.0,"LC":"9:1.000000","XMIN":725574.86160847,"YMIN":8507933.59738907,"XMAX":725674.86160847,"YMAX":8508033.59738907},"geometry":{"type":"Polygon","coordinates":[[[-72.91518568924907,-13.4880507889],[-72.91519352918935,-13.48714715383846],[-72.91611690692235,-13.48715482417902],[-72.91610907044831,-13.488058459773226],[-72.91518568924907,-13.4880507889]]]}},{"type":"Feature","properties":{"Cell_ID":47,"Area_ha":1.0,"LC":"9:1.000000","XMIN":725574.86160847,"YMIN":8507833.59738907,"XMAX":725674.86160847,"YMAX":8507933.59738907},"geometry":{"type":"Polygon","coordinates":[[[-72.91517784873433,-13.488954423892125],[-72.91518568924907,-13.4880507889],[-72.91610907044831,-13.488058459773226],[-72.91610123340007,-13.48896209529802],[-72.91517784873433,-13.488954423892125]]]}},{"type":"Feature","properties":{"Cell_ID":48,"Area_ha":1.0,"LC":"3:0.357631,5:0.081399,6:0.001946,9:0.000963,14:0.558061","XMIN":725674.86160847,"YMIN":8508533.59738907,"XMAX":725774.86160847,"YMAX":8508633.59738907},"geometry":{"type":"Polygon","coordinates":[[[-72.91430936044304,-13.48262130642132],[-72.91431720040147,-13.481717671476265],[-72.91524055676794,-13.48172534201176],[-72.9152327202742,-13.482628977489693],[-72.91430936044304,-13.48262130642132]]]}},{"type":"Feature","properties":{"Cell_ID":49,"Area_ha":1.0,"LC":"3:0.996115,9:0.003885","XMIN":725674.86160847,"YMIN":8508433.59738907,"XMAX":725774.86160847,"YMAX":8508533.59738907},"geometry":{"type":"Polygon","coordinates":[[[-72.91430151990994,-13.483524941296986],[-72.91430936044304,-13.48262130642132],[-72.9152327202742,-13.482628977489693],[-72.91522488320608,-13.483532612898243],[-72.91430151990994,-13.483524941296986]]]}},{"type":"Feature","properties":{"Cell_ID":50,"Area_ha":1.0,"LC":"3:1.000000","XMIN":725674.86160847,"YMIN":8508333.59738907,"XMAX":725774.86160847,"YMAX":8508433.59738907},"geometry":{"type":"Polygon","coordinates":[[[-72.91429367880217,-13.484428576103257],[-72.91430151990994,-13.483524941296986],[-72.91522488320608,-13.483532612898243],[-72.91521704556354,-13.484436248237397],[-72.91429367880217,-13.484428576103257]]]}},{"type":"Feature","properties":{"Cell_ID":51,"Area_ha":1.0,"LC":"3:0.239467,5:0.160807,14:0.599726","XMIN":725674.86160847,"YMIN":8508233.59738907,"XMAX":725774.86160847,"YMAX":8508333.59738907},"geometry":{"type":"Polygon","coordinates":[[[-72.91428583711975,-13.485332210840125],[-72.91429367880217,-13.484428576103257],[-72.91521704556354,-13.484436248237397],[-72.91520920734658,-13.485339883507153],[-72.91428583711975,-13.485332210840125]]]}},{"type":"Feature","properties":{"Cell_ID":52,"Area_ha":1.0,"LC":"5:0.242101,9:0.519563,14:0.238335","XMIN":725674.86160847,"YMIN":8508133.59738907,"XMAX":725774.86160847,"YMAX":8508233.59738907},"geometry":{"type":"Polygon","coordinates":[[[-72.91427799486262,-13.48623584550759],[-72.91428583711975,-13.485332210840125],[-72.91520920734658,-13.485339883507153],[-72.91520136855519,-13.486243518707507],[-72.91427799486262,-13.48623584550759]]]}},{"type":"Feature","properties":{"Cell_ID":53,"Area_ha":1.0,"LC":"9:0.917098,14:0.082902","XMIN":725674.86160847,"YMIN":8508033.59738907,"XMAX":725774.86160847,"YMAX":8508133.59738907},"geometry":{"type":"Polygon","coordinates":[[[-72.91427015203081,-13.487139480105645],[-72.91427799486262,-13.48623584550759],[-72.91520136855519,-13.486243518707507],[-72.91519352918935,-13.48714715383846],[-72.91427015203081,-13.487139480105645]]]}},{"type":"Feature","properties":{"Cell_ID":54,"Area_ha":1.0,"LC":"9:0.999993,14:0.000007","XMIN":725674.86160847,"YMIN":8507933.59738907,"XMAX":725774.86160847,"YMAX":8508033.59738907},"geometry":{"type":"Polygon","coordinates":[[[-72.91426230862429,-13.488043114634287],[-72.91427015203081,-13.487139480105645],[-72.91519352918935,-13.48714715383846],[-72.91518568924907,-13.4880507889],[-72.91426230862429,-13.488043114634287]]]}},{"type":"Feature","properties":{"Cell_ID":55,"Area_ha":1.0,"LC":"3:0.001946,6:0.559460,9:0.277631,14:0.160963","XMIN":725774.86160847,"YMIN":8508533.59738907,"XMAX":725874.86160847,"YMAX":8508633.59738907},"geometry":{"type":"Polygon","coordinates":[[[-72.91338600118651,-13.482613631961879],[-72.91339384460966,-13.481709997549935],[-72.91431720040147,-13.481717671476265],[-72.91430936044304,-13.48262130642132],[-72.91338600118651,-13.482613631961879]]]}},{"type":"Feature","properties":{"Cell_ID":56,"Area_ha":1.0,"LC":"3:0.157912,9:0.840142,14:0.001946","XMIN":725774.86160847,"YMIN":8508433.59738907,"XMAX":725874.86160847,"YMAX":8508533.59738907},"geometry":{"type":"Polygon","coordinates":[[[-72.91337815718845,-13.48351726630443],[-72.91338600118651,-13.482613631961879],[-72.91430936044304,-13.48262130642132],[-72.91430151990994,-13.483524941296986],[-72.91337815718845,-13.48351726630443]]]}},{"type":"Feature","properties":{"Cell_ID":57,"Area_ha":1.0,"LC":"3:0.798623,9:0.000288,14:0.201088","XMIN":725774.86160847,"YMIN":8508333.59738907,"XMAX":725874.86160847,"YMAX":8508433.59738907},"geometry":{"type":"Polygon","coordinates":[[[-72.91337031261548,-13.484420900577579],[-72.91337815718845,-13.48351726630443],[-72.91430151990994,-13.483524941296986],[-72.91429367880217,-13.484428576103257],[-72.91337031261548,-13.484420900577579]]]}},{"type":"Feature","properties":{"Cell_ID":58,"Area_ha":1.0,"LC":"3:0.000556,5:0.316943,14:0.682501","XMIN":725774.86160847,"YMIN":8508233.59738907,"XMAX":725874.86160847,"YMAX":8508333.59738907},"geometry":{"type":"Polygon","coordinates":[[[-72.91336246746759,-13.485324534781322],[-72.91337031261548,-13.484420900577579],[-72.91429367880217,-13.484428576103257],[-72.91428583711975,-13.485332210840125],[-72.91336246746759,-13.485324534781322]]]}},{"type":"Feature","properties":{"Cell_ID":59,"Area_ha":1.0,"LC":"5:0.120149,9:0.357624,14:0.522227","XMIN":725774.86160847,"YMIN":8508133.59738907,"XMAX":725874.86160847,"YMAX":8508233.59738907},"geometry":{"type":"Polygon","coordinates":[[[-72.91335462174474,-13.486228168915659],[-72.91336246746759,-13.485324534781322],[-72.91428583711975,-13.485332210840125],[-72.91427799486262,-13.48623584550759],[-72.91335462174474,-13.486228168915659]]]}},{"type":"Feature","properties":{"Cell_ID":60,"Area_ha":1.0,"LC":"9:0.520562,14:0.479438","XMIN":725774.86160847,"YMIN":8508033.59738907,"XMAX":725874.86160847,"YMAX":8508133.59738907},"geometry":{"type":"Polygon","coordinates":[[[-72.91334677544697,-13.487131802980583],[-72.91335462174474,-13.486228168915659],[-72.91427799486262,-13.48623584550759],[-72.91427015203081,-13.487139480105645],[-72.91334677544697,-13.487131802980583]]]}},{"type":"Feature","properties":{"Cell_ID":61,"Area_ha":1.0,"LC":"3:0.160288,6:0.482058,9:0.156817,14:0.200837","XMIN":725874.86160847,"YMIN":8508433.59738907,"XMAX":725974.86160847,"YMAX":8508533.59738907},"geometry":{"type":"Polygon","coordinates":[[[-72.9124547950419,-13.483509587920578],[-72.91246264250489,-13.48260595411138],[-72.91338600118651,-13.482613631961879],[-72.91337815718845,-13.48351726630443],[-72.9124547950419,-13.483509587920578]]]}},{"type":"Feature","properties":{"Cell_ID":62,"Area_ha":1.0,"LC":"3:0.157373,6:0.563885,9:0.000274,14:0.278468","XMIN":725874.86160847,"YMIN":8508333.59738907,"XMAX":725974.86160847,"YMAX":8508433.59738907},"geometry":{"type":"Polygon","coordinates":[[[-72.91244694700373,-13.48441322166037],[-72.9124547950419,-13.483509587920578],[-72.91337815718845,-13.48351726630443],[-72.91337031261548,-13.484420900577579],[-72.91244694700373,-13.48441322166037]]]}},{"type":"Feature","properties":{"Cell_ID":63,"Area_ha":1.0,"LC":"5:0.160688,6:0.520281,14:0.319031","XMIN":725874.86160847,"YMIN":8508233.59738907,"XMAX":725974.86160847,"YMAX":8508333.59738907},"geometry":{"type":"Polygon","coordinates":[[[-72.91243909839038,-13.485316855330755],[-72.91244694700373,-13.48441322166037],[-72.91337031261548,-13.484420900577579],[-72.91336246746759,-13.485324534781322],[-72.91243909839038,-13.485316855330755]]]}},{"type":"Feature","properties":{"Cell_ID":64,"Area_ha":1.0,"LC":"3:0.203190,6:0.475692,14:0.321118","XMIN":725974.86160847,"YMIN":8508433.59738907,"XMAX":726074.86160847,"YMAX":8508533.59738907},"geometry":{"type":"Polygon","coordinates":[[[-72.9115314334705,-13.483501906145444],[-72.91153928439843,-13.482598272869833],[-72.91246264250489,-13.48260595411138],[-72.9124547950419,-13.483509587920578],[-72.9115314334705,-13.483501906145444]]]}},{"type":"Feature","properties":{"Cell_ID":65,"Area_ha":1.0,"LC":"6:0.319460,9:0.641777,14:0.038763","XMIN":725974.86160847,"YMIN":8508333.59738907,"XMAX":726074.86160847,"YMAX":8508433.59738907},"geometry":{"type":"Polygon","coordinates":[[[-72.91152358196715,-13.484405539351645],[-72.9115314334705,-13.483501906145444],[-72.9124547950419,-13.483509587920578],[-72.91244694700373,-13.48441322166037],[-72.91152358196715,-13.484405539351645]]]}}]}