{"type":"FeatureCollection","features":[{"type":"Feature","properties":{"Cell_ID":1,"Area_ha":1.0,"LC":"3:0.518694,6:0.220604,9:0.260702","XMIN":729354.86160847,"YMIN":8509523.59738907,"XMAX":729454.86160847,"YMAX":8509623.59738907},"geometry":{"type":"Polygon","coordinates":[[[-72.88040897250032,-13.473390859371577],[-72.88041693417198,-13.472487243512044],[-72.8813402349412,-13.472495033462641],[-72.88133227673137,-13.47339864986368],[-72.88040897250032,-13.473390859371577]]]}},{"type":"Feature","properties":{"Cell_ID":2,"Area_ha":1.0,"LC":"6:0.423274,9:0.557007,14:0.019719","XMIN":729354.86160847,"YMIN":8509423.59738907,"XMAX":729454.86160847,"YMAX":8509523.59738907},"geometry":{"type":"Polygon","coordinates":[[[-72.88040101024478,-13.474294475161617],[-72.88040897250032,-13.473390859371577],[-72.88133227673137,-13.47339864986368],[-72.8813243179379,-13.474302266195231],[-72.88040101024478,-13.474294475161617]]]}}]}