{"type":"FeatureCollection","features":[{"type":"Feature","properties":{"Cell_ID":1,"Area_ha":1.0,"LC":"13:0.372854,18:0.133439","XMIN":699289.3903163396,"YMIN":8513484.007515207,"XMAX":699389.3903163396,"YMAX":8513584.007515207},"geometry":{"type":"Polygon","coordinates":[[[-73.15830358197604,-13.439787456611077],[-73.15831048229197,-13.438883685851252],[-73.15923381008042,-13.438890438074516],[-73.15922691321919,-13.439794209304882],[-73.15830358197604,-13.439787456611077]]]}},{"type":"Feature","properties":{"Cell_ID":2,"Area_ha":1.0,"LC":"13:0.043432,16:0.401513,18:0.269551","XMIN":699289.3903163396,"YMIN":8513384.007515207,"XMAX":699389.3903163396,"YMAX":8513484.007515207},"geometry":{"type":"Polygon","coordinates":[[[-73.15829668115292,-13.44069122730268],[-73.15830358197604,-13.439787456611077],[-73.15922691321919,-13.439794209304882],[-73.15922001585103,-13.440697980467029],[-73.15829668115292,-13.44069122730268]]]}},{"type":"Feature","properties":{"Cell_ID":3,"Area_ha":1.0,"LC":"9:0.619861,13:0.239778,16:0.109172","XMIN":699289.3903163396,"YMIN":8513284.007515207,"XMAX":699389.3903163396,"YMAX":8513384.007515207},"geometry":{"type":"Polygon","coordinates":[[[-73.15828977982261,-13.44159499792606],[-73.15829668115292,-13.44069122730268],[-73.15922001585103,-13.440697980467029],[-73.15921311797592,-13.44160175156095],[-73.15828977982261,-13.44159499792606]]]}},{"type":"Feature","properties":{"Cell_ID":4,"Area_ha":1.0,"LC":"13:0.732084,16:0.234669","XMIN":699389.3903163396,"YMIN":8513584.007515207,"XMAX":699489.3903163396,"YMAX":8513684.007515207},"geometry":{"type":"Polygon","coordinates":[[[-73.1573871550107,-13.438876930246398],[-73.15739405827388,-13.437973159889124],[-73.15831738210072,-13.437979915023204],[-73.15831048229197,-13.438883685851252],[-73.1573871550107,-13.438876930246398]]]}},{"type":"Feature","properties":{"Cell_ID":5,"Area_ha":1.0,"LC":"13:0.869919,16:0.130081","XMIN":699389.3903163396,"YMIN":8513484.007515207,"XMAX":699489.3903163396,"YMAX":8513584.007515207},"geometry":{"type":"Polygon","coordinates":[[[-73.15738025124008,-13.43978070053545],[-73.1573871550107,-13.438876930246398],[-73.15831048229197,-13.438883685851252],[-73.15830358197604,-13.439787456611077],[-73.15738025124008,-13.43978070053545]]]}},{"type":"Feature","properties":{"Cell_ID":6,"Area_ha":1.0,"LC":"13:0.169667,16:0.240306,18:0.590027","XMIN":699389.3903163396,"YMIN":8513384.007515207,"XMAX":699489.3903163396,"YMAX":8513484.007515207},"geometry":{"type":"Polygon","coordinates":[[[-73.15737334696202,-13.440684470756278],[-73.15738025124008,-13.43978070053545],[-73.15830358197604,-13.439787456611077],[-73.15829668115292,-13.44069122730268],[-73.15737334696202,-13.440684470756278]]]}},{"type":"Feature","properties":{"Cell_ID":7,"Area_ha":1.0,"LC":"9:0.432428,16:0.567572","XMIN":699389.3903163396,"YMIN":8513284.007515207,"XMAX":699489.3903163396,"YMAX":8513384.007515207},"geometry":{"type":"Polygon","coordinates":[[[-73.15736644217651,-13.441588240908871],[-73.15737334696202,-13.440684470756278],[-73.15829668115292,-13.44069122730268],[-73.15828977982261,-13.44159499792606],[-73.15736644217651,-13.441588240908871]]]}},{"type":"Feature","properties":{"Cell_ID":8,"Area_ha":1.0,"LC":"9:0.129973,13:0.512536,16:0.082011,17:0.261463","XMIN":699489.3903163396,"YMIN":8513684.007515207,"XMAX":699589.3903163396,"YMAX":8513784.007515207},"geometry":{"type":"Polygon","coordinates":[[[-73.15647073495447,-13.437966401373696],[-73.1564776411644,-13.437062631419208],[-73.15740096102965,-13.43706938946363],[-73.15739405827388,-13.437973159889124],[-73.15647073495447,-13.437966401373696]]]}},{"type":"Feature","properties":{"Cell_ID":9,"Area_ha":1.0,"LC":"13:0.396336,16:0.603664","XMIN":699489.3903163396,"YMIN":8513584.007515207,"XMAX":699589.3903163396,"YMAX":8513684.007515207},"geometry":{"type":"Polygon","coordinates":[[[-73.15646382823685,-13.438870171259966],[-73.15647073495447,-13.437966401373696],[-73.15739405827388,-13.437973159889124],[-73.1573871550107,-13.438876930246398],[-73.15646382823685,-13.438870171259966]]]}},{"type":"Feature","properties":{"Cell_ID":10,"Area_ha":1.0,"LC":"13:0.321048,16:0.678952","XMIN":699489.3903163396,"YMIN":8513484.007515207,"XMAX":699589.3903163396,"YMAX":8513584.007515207},"geometry":{"type":"Polygon","coordinates":[[[-73.15645692101155,-13.439773941078009],[-73.15646382823685,-13.438870171259966],[-73.1573871550107,-13.438876930246398],[-73.15738025124008,-13.43978070053545],[-73.15645692101155,-13.439773941078009]]]}},{"type":"Feature","properties":{"Cell_ID":11,"Area_ha":1.0,"LC":"9:0.103112,16:0.866969,18:0.029919","XMIN":699489.3903163396,"YMIN":8513384.007515207,"XMAX":699589.3903163396,"YMAX":8513484.007515207},"geometry":{"type":"Polygon","coordinates":[[[-73.15645001327856,-13.44067771082782],[-73.15645692101155,-13.439773941078009],[-73.15738025124008,-13.43978070053545],[-73.15737334696202,-13.440684470756278],[-73.15645001327856,-13.44067771082782]]]}},{"type":"Feature","properties":{"Cell_ID":12,"Area_ha":1.0,"LC":"13:0.579754,16:0.351681,17:0.068566","XMIN":699589.3903163396,"YMIN":8513684.007515207,"XMAX":699689.3903163396,"YMAX":8513784.007515207},"geometry":{"type":"Polygon","coordinates":[[[-73.15554741214272,-13.437959639476935],[-73.15555432180682,-13.437055869993685],[-73.1564776411644,-13.437062631419208],[-73.15647073495447,-13.437966401373696],[-73.15554741214272,-13.437959639476935]]]}},{"type":"Feature","properties":{"Cell_ID":13,"Area_ha":1.0,"LC":"13:0.653439,16:0.346561","XMIN":699589.3903163396,"YMIN":8513584.007515207,"XMAX":699689.3903163396,"YMAX":8513684.007515207},"geometry":{"type":"Polygon","coordinates":[[[-73.15554050197069,-13.438863408891962],[-73.15554741214272,-13.437959639476935],[-73.15647073495447,-13.437966401373696],[-73.15646382823685,-13.438870171259966],[-73.15554050197069,-13.438863408891962]]]}},{"type":"Feature","properties":{"Cell_ID":14,"Area_ha":1.0,"LC":"13:0.295948,16:0.704052","XMIN":699589.3903163396,"YMIN":8513484.007515207,"XMAX":699689.3903163396,"YMAX":8513584.007515207},"geometry":{"type":"Polygon","coordinates":[[[-73.1555335912907,-13.439767178238755],[-73.15554050197069,-13.438863408891962],[-73.15646382823685,-13.438870171259966],[-73.15645692101155,-13.439773941078009],[-73.1555335912907,-13.439767178238755]]]}},{"type":"Feature","properties":{"Cell_ID":15,"Area_ha":1.0,"LC":"9:0.191381,13:0.021101,16:0.787518","XMIN":699589.3903163396,"YMIN":8513384.007515207,"XMAX":699689.3903163396,"YMAX":8513484.007515207},"geometry":{"type":"Polygon","coordinates":[[[-73.1555266801028,-13.44067094751732],[-73.1555335912907,-13.439767178238755],[-73.15645692101155,-13.439773941078009],[-73.15645001327856,-13.44067771082782],[-73.1555266801028,-13.44067094751732]]]}},{"type":"Feature","properties":{"Cell_ID":16,"Area_ha":1.0,"LC":"9:0.014187,16:0.420360,17:0.125080","XMIN":699689.3903163396,"YMIN":8513784.007515207,"XMAX":699789.3903163396,"YMAX":8513884.007515207},"geometry":{"type":"Polygon","coordinates":[[[-73.15463100295716,-13.43704910518707],[-73.15463791556724,-13.43614533610707],[-73.15556123096302,-13.436152100442216],[-73.15555432180682,-13.437055869993685],[-73.15463100295716,-13.43704910518707]]]}},{"type":"Feature","properties":{"Cell_ID":17,"Area_ha":1.0,"LC":"9:0.135948,13:0.594439,16:0.269613","XMIN":699689.3903163396,"YMIN":8513684.007515207,"XMAX":699789.3903163396,"YMAX":8513784.007515207},"geometry":{"type":"Polygon","coordinates":[[[-73.1546240898389,-13.437952874198842],[-73.15463100295716,-13.43704910518707],[-73.15555432180682,-13.437055869993685],[-73.15554741214272,-13.437959639476935],[-73.1546240898389,-13.437952874198842]]]}},{"type":"Feature","properties":{"Cell_ID":18,"Area_ha":1.0,"LC":"13:0.969973,16:0.030027","XMIN":699689.3903163396,"YMIN":8513584.007515207,"XMAX":699789.3903163396,"YMAX":8513684.007515207},"geometry":{"type":"Polygon","coordinates":[[[-73.15461717621247,-13.438856643142392],[-73.1546240898389,-13.437952874198842],[-73.15554741214272,-13.437959639476935],[-73.15554050197069,-13.438863408891962],[-73.15461717621247,-13.438856643142392]]]}},{"type":"Feature","properties":{"Cell_ID":19,"Area_ha":1.0,"LC":"13:0.995288,16:0.004712","XMIN":699689.3903163396,"YMIN":8513484.007515207,"XMAX":699789.3903163396,"YMAX":8513584.007515207},"geometry":{"type":"Polygon","coordinates":[[[-73.15461026207784,-13.439760412017707],[-73.15461717621247,-13.438856643142392],[-73.15554050197069,-13.438863408891962],[-73.1555335912907,-13.439767178238755],[-73.15461026207784,-13.439760412017707]]]}},{"type":"Feature","properties":{"Cell_ID":20,"Area_ha":1.0,"LC":"13:0.620354,16:0.379646","XMIN":699689.3903163396,"YMIN":8513384.007515207,"XMAX":699789.3903163396,"YMAX":8513484.007515207},"geometry":{"type":"Polygon","coordinates":[[[-73.154603347435,-13.440664180824786],[-73.15461026207784,-13.439760412017707],[-73.1555335912907,-13.439767178238755],[-73.1555266801028,-13.44067094751732],[-73.154603347435,-13.440664180824786]]]}},{"type":"Feature","properties":{"Cell_ID":21,"Area_ha":1.0,"LC":"9:0.214493,16:0.169973,17:0.242558","XMIN":699789.3903163396,"YMIN":8513784.007515207,"XMAX":699889.3903163396,"YMAX":8513884.007515207},"geometry":{"type":"Polygon","coordinates":[[[-73.15370768461567,-13.43704233699937],[-73.15371460067963,-13.43613856839108],[-73.15463791556724,-13.43614533610707],[-73.15463100295716,-13.43704910518707],[-73.15370768461567,-13.43704233699937]]]}},{"type":"Feature","properties":{"Cell_ID":22,"Area_ha":1.0,"LC":"9:0.455427,13:0.364520,16:0.180054","XMIN":699789.3903163396,"YMIN":8513684.007515207,"XMAX":699889.3903163396,"YMAX":8513784.007515207},"geometry":{"type":"Polygon","coordinates":[[[-73.15370076804328,-13.437946105539433],[-73.15370768461567,-13.43704233699937],[-73.15463100295716,-13.43704910518707],[-73.1546240898389,-13.437952874198842],[-73.15370076804328,-13.437946105539433]]]}},{"type":"Feature","properties":{"Cell_ID":23,"Area_ha":1.0,"LC":"13:0.592230,16:0.407770","XMIN":699789.3903163396,"YMIN":8513584.007515207,"XMAX":699889.3903163396,"YMAX":8513684.007515207},"geometry":{"type":"Polygon","coordinates":[[[-73.15369385096243,-13.438849874011272],[-73.15370076804328,-13.437946105539433],[-73.1546240898389,-13.437952874198842],[-73.15461717621247,-13.438856643142392],[-73.15369385096243,-13.438849874011272]]]}},{"type":"Feature","properties":{"Cell_ID":24,"Area_ha":1.0,"LC":"13:0.697743,16:0.302257","XMIN":699789.3903163396,"YMIN":8513484.007515207,"XMAX":699889.3903163396,"YMAX":8513584.007515207},"geometry":{"type":"Polygon","coordinates":[[[-73.15368693337315,-13.439753642414868],[-73.15369385096243,-13.438849874011272],[-73.15461717621247,-13.438856643142392],[-73.15461026207784,-13.439760412017707],[-73.15368693337315,-13.439753642414868]]]}},{"type":"Feature","properties":{"Cell_ID":25,"Area_ha":1.0,"LC":"9:0.220909,13:0.755480,16:0.023610","XMIN":699789.3903163396,"YMIN":8513384.007515207,"XMAX":699889.3903163396,"YMAX":8513484.007515207},"geometry":{"type":"Polygon","coordinates":[[[-73.15368001527541,-13.440657410750227],[-73.15368693337315,-13.439753642414868],[-73.15461026207784,-13.439760412017707],[-73.154603347435,-13.440664180824786],[-73.15368001527541,-13.440657410750227]]]}},{"type":"Feature","properties":{"Cell_ID":26,"Area_ha":1.0,"LC":"9:0.004712,16:0.146669,17:0.502171","XMIN":699889.3903163396,"YMIN":8513784.007515207,"XMAX":699989.3903163396,"YMAX":8513884.007515207},"geometry":{"type":"Polygon","coordinates":[[[-73.15278436678261,-13.4370355654306],[-73.15279128630047,-13.436131797294252],[-73.15371460067963,-13.43613856839108],[-73.15370768461567,-13.43704233699937],[-73.15278436678261,-13.4370355654306]]]}},{"type":"Feature","properties":{"Cell_ID":27,"Area_ha":1.0,"LC":"9:0.239502,13:0.130279,16:0.593278,17:0.036942","XMIN":699889.3903163396,"YMIN":8513684.007515207,"XMAX":699989.3903163396,"YMAX":8513784.007515207},"geometry":{"type":"Polygon","coordinates":[[[-73.15277744675608,-13.437939333498718],[-73.15278436678261,-13.4370355654306],[-73.15370768461567,-13.43704233699937],[-73.15370076804328,-13.437946105539433],[-73.15277744675608,-13.437939333498718]]]}},{"type":"Feature","properties":{"Cell_ID":28,"Area_ha":1.0,"LC":"9:0.045867,13:0.849866,16:0.104267","XMIN":699889.3903163396,"YMIN":8513584.007515207,"XMAX":699989.3903163396,"YMAX":8513684.007515207},"geometry":{"type":"Polygon","coordinates":[[[-73.15277052622085,-13.438843101498604],[-73.15277744675608,-13.437939333498718],[-73.15370076804328,-13.437946105539433],[-73.15369385096243,-13.438849874011272],[-73.15277052622085,-13.438843101498604]]]}},{"type":"Feature","properties":{"Cell_ID":29,"Area_ha":1.0,"LC":"9:0.082011,13:0.792122,16:0.125867","XMIN":699889.3903163396,"YMIN":8513484.007515207,"XMAX":699989.3903163396,"YMAX":8513584.007515207},"geometry":{"type":"Polygon","coordinates":[[[-73.15276360517693,-13.439746869430248],[-73.15277052622085,-13.438843101498604],[-73.15369385096243,-13.438849874011272],[-73.15368693337315,-13.439753642414868],[-73.15276360517693,-13.439746869430248]]]}},{"type":"Feature","properties":{"Cell_ID":30,"Area_ha":1.0,"LC":"9:0.689531,13:0.237383,16:0.073085","XMIN":699889.3903163396,"YMIN":8513384.007515207,"XMAX":699989.3903163396,"YMAX":8513484.007515207},"geometry":{"type":"Polygon","coordinates":[[[-73.15275668362429,-13.440650637293649],[-73.15276360517693,-13.439746869430248],[-73.15368693337315,-13.439753642414868],[-73.15368001527541,-13.440657410750227],[-73.15275668362429,-13.440650637293649]]]}},{"type":"Feature","properties":{"Cell_ID":31,"Area_ha":1.0,"LC":"9:0.031007,17:0.641067","XMIN":699989.3903163396,"YMIN":8513784.007515207,"XMAX":700089.3903163396,"YMAX":8513884.007515207},"geometry":{"type":"Polygon","coordinates":[[[-73.15186104945823,-13.437028790480758],[-73.15186797242995,-13.436125022816588],[-73.15279128630047,-13.436131797294252],[-73.15278436678261,-13.4370355654306],[-73.15186104945823,-13.437028790480758]]]}},{"type":"Feature","properties":{"Cell_ID":32,"Area_ha":1.0,"LC":"9:0.234631,13:0.216696,16:0.443166,17:0.105507","XMIN":699989.3903163396,"YMIN":8513684.007515207,"XMAX":700089.3903163396,"YMAX":8513784.007515207},"geometry":{"type":"Polygon","coordinates":[[[-73.15185412597756,-13.437932558076696],[-73.15186104945823,-13.437028790480758],[-73.15278436678261,-13.4370355654306],[-73.15277744675608,-13.437939333498718],[-73.15185412597756,-13.437932558076696]]]}},{"type":"Feature","properties":{"Cell_ID":33,"Area_ha":1.0,"LC":"9:0.015234,13:0.383304,16:0.601461","XMIN":699989.3903163396,"YMIN":8513584.007515207,"XMAX":700089.3903163396,"YMAX":8513684.007515207},"geometry":{"type":"Polygon","coordinates":[[[-73.15184720198796,-13.438836325604395],[-73.15185412597756,-13.437932558076696],[-73.15277744675608,-13.437939333498718],[-73.15277052622085,-13.438843101498604],[-73.15184720198796,-13.438836325604395]]]}},{"type":"Feature","properties":{"Cell_ID":34,"Area_ha":1.0,"LC":"7:0.234240,9:0.014685,16:0.751075","XMIN":699989.3903163396,"YMIN":8513484.007515207,"XMAX":700089.3903163396,"YMAX":8513584.007515207},"geometry":{"type":"Polygon","coordinates":[[[-73.1518402774894,-13.439740093063852],[-73.15184720198796,-13.438836325604395],[-73.15277052622085,-13.438843101498604],[-73.15276360517693,-13.439746869430248],[-73.1518402774894,-13.439740093063852]]]}},{"type":"Feature","properties":{"Cell_ID":35,"Area_ha":1.0,"LC":"7:0.015840,9:0.214934,13:0.030027,16:0.739198","XMIN":699989.3903163396,"YMIN":8513384.007515207,"XMAX":700089.3903163396,"YMAX":8513484.007515207},"geometry":{"type":"Polygon","coordinates":[[[-73.15183335248189,-13.440643860455063],[-73.1518402774894,-13.439740093063852],[-73.15276360517693,-13.439746869430248],[-73.15275668362429,-13.440650637293649],[-73.15183335248189,-13.440643860455063]]]}},{"type":"Feature","properties":{"Cell_ID":36,"Area_ha":1.0,"LC":"9:0.055784,17:0.693348","XMIN":700089.3903163396,"YMIN":8513784.007515207,"XMAX":700189.3903163396,"YMAX":8513884.007515207},"geometry":{"type":"Polygon","coordinates":[[[-73.15093773264279,-13.437022012149862],[-73.15094465906839,-13.436118244958106],[-73.15186797242995,-13.436125022816588],[-73.15186104945823,-13.437028790480758],[-73.15093773264279,-13.437022012149862]]]}},{"type":"Feature","properties":{"Cell_ID":37,"Area_ha":1.0,"LC":"16:0.894493,17:0.105507","XMIN":700089.3903163396,"YMIN":8513684.007515207,"XMAX":700189.3903163396,"YMAX":8513784.007515207},"geometry":{"type":"Polygon","coordinates":[[[-73.15093080570801,-13.437925779273383],[-73.15093773264279,-13.437022012149862],[-73.15186104945823,-13.437028790480758],[-73.15185412597756,-13.437932558076696],[-73.15093080570801,-13.437925779273383]]]}},{"type":"Feature","properties":{"Cell_ID":38,"Area_ha":1.0,"LC":"13:0.113085,16:0.886915","XMIN":700089.3903163396,"YMIN":8513584.007515207,"XMAX":700189.3903163396,"YMAX":8513684.007515207},"geometry":{"type":"Polygon","coordinates":[[[-73.15092387826404,-13.438829546328662],[-73.15093080570801,-13.437925779273383],[-73.15185412597756,-13.437932558076696],[-73.15184720198796,-13.438836325604395],[-73.15092387826404,-13.438829546328662]]]}},{"type":"Feature","properties":{"Cell_ID":39,"Area_ha":1.0,"LC":"5:0.060054,7:0.102455,13:0.308979,16:0.528512","XMIN":700089.3903163396,"YMIN":8513484.007515207,"XMAX":700189.3903163396,"YMAX":8513584.007515207},"geometry":{"type":"Polygon","coordinates":[[[-73.15091695031084,-13.439733313315696],[-73.15092387826404,-13.438829546328662],[-73.15184720198796,-13.438836325604395],[-73.1518402774894,-13.439740093063852],[-73.15091695031084,-13.439733313315696]]]}},{"type":"Feature","properties":{"Cell_ID":40,"Area_ha":1.0,"LC":"7:0.127464,9:0.042509,13:0.560108,16:0.269919","XMIN":700089.3903163396,"YMIN":8513384.007515207,"XMAX":700189.3903163396,"YMAX":8513484.007515207},"geometry":{"type":"Polygon","coordinates":[[[-73.15091002184845,-13.44063708023448],[-73.15091695031084,-13.439733313315696],[-73.1518402774894,-13.439740093063852],[-73.15183335248189,-13.440643860455063],[-73.15091002184845,-13.44063708023448]]]}},{"type":"Feature","properties":{"Cell_ID":41,"Area_ha":1.0,"LC":"9:0.315516,14:0.159941,17:0.031706","XMIN":700189.3903163396,"YMIN":8515084.007515207,"XMAX":700289.3903163396,"YMAX":8515184.007515207},"geometry":{"type":"Polygon","coordinates":[[[-73.15010446503608,-13.425266257768287],[-73.1501113882936,-13.424362490162437],[-73.15103465626898,-13.424369265257598],[-73.15102773646203,-13.425273033336055],[-73.15010446503608,-13.425266257768287]]]}},{"type":"Feature","properties":{"Cell_ID":42,"Area_ha":1.0,"LC":"9:0.018620,16:0.096696,17:0.669868,18:0.133139","XMIN":700189.3903163396,"YMIN":8513784.007515207,"XMAX":700289.3903163396,"YMAX":8513884.007515207},"geometry":{"type":"Polygon","coordinates":[[[-73.15001441633653,-13.437015230437918],[-73.15002134621598,-13.43611146371881],[-73.15094465906839,-13.436118244958106],[-73.15093773264279,-13.437022012149862],[-73.15001441633653,-13.437015230437918]]]}},{"type":"Feature","properties":{"Cell_ID":43,"Area_ha":1.0,"LC":"16:0.717689,17:0.005261,18:0.277049","XMIN":700189.3903163396,"YMIN":8513684.007515207,"XMAX":700289.3903163396,"YMAX":8513784.007515207},"geometry":{"type":"Polygon","coordinates":[[[-73.15000748594764,-13.437918997088786],[-73.15001441633653,-13.437015230437918],[-73.15093773264279,-13.437022012149862],[-73.15093080570801,-13.437925779273383],[-73.15000748594764,-13.437918997088786]]]}},{"type":"Feature","properties":{"Cell_ID":44,"Area_ha":1.0,"LC":"9:0.262064,13:0.042509,16:0.695427","XMIN":700189.3903163396,"YMIN":8513584.007515207,"XMAX":700289.3903163396,"YMAX":8513684.007515207},"geometry":{"type":"Polygon","coordinates":[[[-73.15000055504932,-13.438822763671409],[-73.15000748594764,-13.437918997088786],[-73.15093080570801,-13.437925779273383],[-73.15092387826404,-13.438829546328662],[-73.15000055504932,-13.438822763671409]]]}},{"type":"Feature","properties":{"Cell_ID":45,"Area_ha":1.0,"LC":"5:0.257743,9:0.158097,13:0.584160","XMIN":700189.3903163396,"YMIN":8513484.007515207,"XMAX":700289.3903163396,"YMAX":8513584.007515207},"geometry":{"type":"Polygon","coordinates":[[[-73.1499936236415,-13.43972653018578],[-73.15000055504932,-13.438822763671409],[-73.15092387826404,-13.438829546328662],[-73.15091695031084,-13.439733313315696],[-73.1499936236415,-13.43972653018578]]]}},{"type":"Feature","properties":{"Cell_ID":46,"Area_ha":1.0,"LC":"5:0.395288,9:0.056696,13:0.548016","XMIN":700189.3903163396,"YMIN":8513384.007515207,"XMAX":700289.3903163396,"YMAX":8513484.007515207},"geometry":{"type":"Polygon","coordinates":[[[-73.14998669172424,-13.440630296631902],[-73.1499936236415,-13.43972653018578],[-73.15091695031084,-13.439733313315696],[-73.15091002184845,-13.44063708023448],[-73.14998669172424,-13.440630296631902]]]}},{"type":"Feature","properties":{"Cell_ID":47,"Area_ha":1.0,"LC":"5:0.066969,6:0.083557,9:0.814187,13:0.035288","XMIN":700189.3903163396,"YMIN":8513284.007515207,"XMAX":700289.3903163396,"YMAX":8513384.007515207},"geometry":{"type":"Polygon","coordinates":[[[-73.14997975929748,-13.441534063009762],[-73.14998669172424,-13.440630296631902],[-73.15091002184845,-13.44063708023448],[-73.15090309287682,-13.441540847085005],[-73.14997975929748,-13.441534063009762]]]}},{"type":"Feature","properties":{"Cell_ID":48,"Area_ha":1.0,"LC":"9:0.802617,17:0.180921","XMIN":700289.3903163396,"YMIN":8515184.007515207,"XMAX":700389.3903163396,"YMAX":8515284.007515207},"geometry":{"type":"Polygon","coordinates":[[[-73.14918812082753,-13.42435571168953],[-73.14919504702601,-13.423451944488338],[-73.1501183110418,-13.423458722488407],[-73.1501113882936,-13.424362490162437],[-73.14918812082753,-13.42435571168953]]]}},{"type":"Feature","properties":{"Cell_ID":49,"Area_ha":1.0,"LC":"9:0.665507,14:0.334493","XMIN":700289.3903163396,"YMIN":8515084.007515207,"XMAX":700389.3903163396,"YMAX":8515184.007515207},"geometry":{"type":"Polygon","coordinates":[[[-73.14918119411946,-13.42525947882254],[-73.14918812082753,-13.42435571168953],[-73.1501113882936,-13.424362490162437],[-73.15010446503608,-13.425266257768287],[-73.14918119411946,-13.42525947882254]]]}},{"type":"Feature","properties":{"Cell_ID":50,"Area_ha":1.0,"LC":"3:0.444520,14:0.555480","XMIN":700289.3903163396,"YMIN":8514984.007515207,"XMAX":700389.3903163396,"YMAX":8515084.007515207},"geometry":{"type":"Polygon","coordinates":[[[-73.14917426690182,-13.426163245887356],[-73.14918119411946,-13.42525947882254],[-73.15010446503608,-13.425266257768287],[-73.15009754126925,-13.426170025305947],[-73.14917426690182,-13.426163245887356]]]}},{"type":"Feature","properties":{"Cell_ID":51,"Area_ha":1.0,"LC":"3:0.973001","XMIN":700289.3903163396,"YMIN":8514884.007515207,"XMAX":700389.3903163396,"YMAX":8514984.007515207},"geometry":{"type":"Polygon","coordinates":[[[-73.1491673391746,-13.427067012883985],[-73.14917426690182,-13.426163245887356],[-73.15009754126925,-13.426170025305947],[-73.15009061699307,-13.427073792775422],[-73.1491673391746,-13.427067012883985]]]}},{"type":"Feature","properties":{"Cell_ID":52,"Area_ha":1.0,"LC":"3:0.460127,14:0.074240","XMIN":700289.3903163396,"YMIN":8514784.007515207,"XMAX":700389.3903163396,"YMAX":8514884.007515207},"geometry":{"type":"Polygon","coordinates":[[[-73.14916041093778,-13.427970779812416],[-73.1491673391746,-13.427067012883985],[-73.15009061699307,-13.427073792775422],[-73.15008369220756,-13.427977560176705],[-73.14916041093778,-13.427970779812416]]]}},{"type":"Feature","properties":{"Cell_ID":53,"Area_ha":1.0,"LC":"9:0.033085,16:0.298151,17:0.107410,18:0.561354","XMIN":700289.3903163396,"YMIN":8513784.007515207,"XMAX":700389.3903163396,"YMAX":8513884.007515207},"geometry":{"type":"Polygon","coordinates":[[[-73.14909110053972,-13.437008445344933],[-73.14909803387302,-13.43610467909871],[-73.15002134621598,-13.43611146371881],[-73.15001441633653,-13.437015230437918],[-73.14909110053972,-13.437008445344933]]]}},{"type":"Feature","properties":{"Cell_ID":54,"Area_ha":1.0,"LC":"9:0.296996,16:0.434546,18:0.268458","XMIN":700289.3903163396,"YMIN":8513684.007515207,"XMAX":700389.3903163396,"YMAX":8513784.007515207},"geometry":{"type":"Polygon","coordinates":[[[-73.14908416669674,-13.437912211522912],[-73.14909110053972,-13.437008445344933],[-73.15001441633653,-13.437015230437918],[-73.15000748594764,-13.437918997088786],[-73.14908416669674,-13.437912211522912]]]}},{"type":"Feature","properties":{"Cell_ID":55,"Area_ha":1.0,"LC":"9:0.034631,13:0.037797,16:0.927572","XMIN":700289.3903163396,"YMIN":8513584.007515207,"XMAX":700389.3903163396,"YMAX":8513684.007515207},"geometry":{"type":"Polygon","coordinates":[[[-73.14907723234404,-13.438815977632643],[-73.14908416669674,-13.437912211522912],[-73.15000748594764,-13.437918997088786],[-73.15000055504932,-13.438822763671409],[-73.14907723234404,-13.438815977632643]]]}},{"type":"Feature","properties":{"Cell_ID":56,"Area_ha":1.0,"LC":"5:0.214294,9:0.223004,13:0.464658,16:0.098043","XMIN":700289.3903163396,"YMIN":8513484.007515207,"XMAX":700389.3903163396,"YMAX":8513584.007515207},"geometry":{"type":"Polygon","coordinates":[[[-73.14907029748163,-13.43971974367412],[-73.14907723234404,-13.438815977632643],[-73.15000055504932,-13.438822763671409],[-73.1499936236415,-13.43972653018578],[-73.14907029748163,-13.43971974367412]]]}},{"type":"Feature","properties":{"Cell_ID":57,"Area_ha":1.0,"LC":"5:0.050579,9:0.504267,13:0.445154","XMIN":700289.3903163396,"YMIN":8513384.007515207,"XMAX":700389.3903163396,"YMAX":8513484.007515207},"geometry":{"type":"Polygon","coordinates":[[[-73.1490633621095,-13.440623509647343],[-73.14907029748163,-13.43971974367412],[-73.1499936236415,-13.43972653018578],[-73.14998669172424,-13.440630296631902],[-73.1490633621095,-13.440623509647343]]]}},{"type":"Feature","properties":{"Cell_ID":58,"Area_ha":1.0,"LC":"5:0.015234,9:0.612590,13:0.372176","XMIN":700289.3903163396,"YMIN":8513284.007515207,"XMAX":700389.3903163396,"YMAX":8513384.007515207},"geometry":{"type":"Polygon","coordinates":[[[-73.14905642622763,-13.441527275552302],[-73.1490633621095,-13.440623509647343],[-73.14998669172424,-13.440630296631902],[-73.14997975929748,-13.441534063009762],[-73.14905642622763,-13.441527275552302]]]}},{"type":"Feature","properties":{"Cell_ID":59,"Area_ha":1.0,"LC":"9:0.113584,13:0.370936,17:0.231678,18:0.275894","XMIN":700389.3903163396,"YMIN":8515284.007515207,"XMAX":700489.3903163396,"YMAX":8515384.007515207},"geometry":{"type":"Polygon","coordinates":[[[-73.14827178351979,-13.42344516311077],[-73.14827871265875,-13.422541396314472],[-73.14920197271495,-13.422548177218966],[-73.14919504702601,-13.423451944488338],[-73.14827178351979,-13.42344516311077]]]}},{"type":"Feature","properties":{"Cell_ID":60,"Area_ha":1.0,"LC":"9:0.620802,13:0.379198","XMIN":700389.3903163396,"YMIN":8515184.007515207,"XMAX":700489.3903163396,"YMAX":8515284.007515207},"geometry":{"type":"Polygon","coordinates":[[[-73.14826485387103,-13.424348929838894],[-73.14827178351979,-13.42344516311077],[-73.14919504702601,-13.423451944488338],[-73.14918812082753,-13.42435571168953],[-73.14826485387103,-13.424348929838894]]]}},{"type":"Feature","properties":{"Cell_ID":61,"Area_ha":1.0,"LC":"9:0.601048,14:0.398952","XMIN":700389.3903163396,"YMIN":8515084.007515207,"XMAX":700489.3903163396,"YMAX":8515184.007515207},"geometry":{"type":"Polygon","coordinates":[[[-73.14825792371242,-13.425252696498825],[-73.14826485387103,-13.424348929838894],[-73.14918812082753,-13.42435571168953],[-73.14918119411946,-13.42525947882254],[-73.14825792371242,-13.425252696498825]]]}},{"type":"Feature","properties":{"Cell_ID":62,"Area_ha":1.0,"LC":"3:0.394439,9:0.234433,14:0.371128","XMIN":700389.3903163396,"YMIN":8514984.007515207,"XMAX":700489.3903163396,"YMAX":8515084.007515207},"geometry":{"type":"Polygon","coordinates":[[[-73.148250993044,-13.426156463090562],[-73.14825792371242,-13.425252696498825],[-73.14918119411946,-13.42525947882254],[-73.14917426690182,-13.426163245887356],[-73.148250993044,-13.426156463090562]]]}},{"type":"Feature","properties":{"Cell_ID":63,"Area_ha":1.0,"LC":"3:0.580139,14:0.419861","XMIN":700389.3903163396,"YMIN":8514884.007515207,"XMAX":700489.3903163396,"YMAX":8514984.007515207},"geometry":{"type":"Polygon","coordinates":[[[-73.14824406186573,-13.427060229614108],[-73.148250993044,-13.426156463090562],[-73.14917426690182,-13.426163245887356],[-73.1491673391746,-13.427067012883985],[-73.14824406186573,-13.427060229614108]]]}},{"type":"Feature","properties":{"Cell_ID":64,"Area_ha":1.0,"LC":"3:0.125261,14:0.874739","XMIN":700389.3903163396,"YMIN":8514784.007515207,"XMAX":700489.3903163396,"YMAX":8514884.007515207},"geometry":{"type":"Polygon","coordinates":[[[-73.1482371301776,-13.427963996069455],[-73.14824406186573,-13.427060229614108],[-73.1491673391746,-13.427067012883985],[-73.14916041093778,-13.427970779812416],[-73.1482371301776,-13.427963996069455]]]}},{"type":"Feature","properties":{"Cell_ID":65,"Area_ha":1.0,"LC":"3:0.212380,14:0.698700","XMIN":700389.3903163396,"YMIN":8514684.007515207,"XMAX":700489.3903163396,"YMAX":8514784.007515207},"geometry":{"type":"Polygon","coordinates":[[[-73.14823019797961,-13.42886776245659],[-73.1482371301776,-13.427963996069455],[-73.14916041093778,-13.427970779812416],[-73.14915348219135,-13.428874546672644],[-73.14823019797961,-13.42886776245659]]]}},{"type":"Feature","properties":{"Cell_ID":66,"Area_ha":1.0,"LC":"7:0.021101,16:0.171758,18:0.703700","XMIN":700389.3903163396,"YMIN":8513884.007515207,"XMAX":700489.3903163396,"YMAX":8513984.007515207},"geometry":{"type":"Polygon","coordinates":[[[-73.14817472203974,-13.436097891097813],[-73.14818165831693,-13.435194125256464],[-73.14910496669661,-13.435200912784243],[-73.14909803387302,-13.43610467909871],[-73.14817472203974,-13.436097891097813]]]}},{"type":"Feature","properties":{"Cell_ID":67,"Area_ha":1.0,"LC":"9:0.394546,16:0.568512,18:0.036942","XMIN":700389.3903163396,"YMIN":8513784.007515207,"XMAX":700489.3903163396,"YMAX":8513884.007515207},"geometry":{"type":"Polygon","coordinates":[[[-73.14816778525261,-13.437001656870915],[-73.14817472203974,-13.436097891097813],[-73.14909803387302,-13.43610467909871],[-73.14909110053972,-13.437008445344933],[-73.14816778525261,-13.437001656870915]]]}},{"type":"Feature","properties":{"Cell_ID":68,"Area_ha":1.0,"LC":"9:0.937545,16:0.024658,18:0.037797","XMIN":700389.3903163396,"YMIN":8513684.007515207,"XMAX":700489.3903163396,"YMAX":8513784.007515207},"geometry":{"type":"Polygon","coordinates":[[[-73.14816084795554,-13.437905422575769],[-73.14816778525261,-13.437001656870915],[-73.14909110053972,-13.437008445344933],[-73.14908416669674,-13.437912211522912],[-73.14816084795554,-13.437905422575769]]]}},{"type":"Feature","properties":{"Cell_ID":69,"Area_ha":1.0,"LC":"9:0.371236,16:0.049866,18:0.578899","XMIN":700389.3903163396,"YMIN":8513584.007515207,"XMAX":700489.3903163396,"YMAX":8513684.007515207},"geometry":{"type":"Polygon","coordinates":[[[-73.1481539101485,-13.438809188212375],[-73.14816084795554,-13.437905422575769],[-73.14908416669674,-13.437912211522912],[-73.14907723234404,-13.438815977632643],[-73.1481539101485,-13.438809188212375]]]}},{"type":"Feature","properties":{"Cell_ID":70,"Area_ha":1.0,"LC":"5:0.564412,9:0.106969,16:0.005261,18:0.323358","XMIN":700389.3903163396,"YMIN":8513484.007515207,"XMAX":700489.3903163396,"YMAX":8513584.007515207},"geometry":{"type":"Polygon","coordinates":[[[-73.14814697183148,-13.439712953780722],[-73.1481539101485,-13.438809188212375],[-73.14907723234404,-13.438815977632643],[-73.14907029748163,-13.43971974367412],[-73.14814697183148,-13.439712953780722]]]}},{"type":"Feature","properties":{"Cell_ID":71,"Area_ha":1.0,"LC":"5:0.435480,9:0.564520","XMIN":700389.3903163396,"YMIN":8513384.007515207,"XMAX":700489.3903163396,"YMAX":8513484.007515207},"geometry":{"type":"Polygon","coordinates":[[[-73.14814003300451,-13.44061671928081],[-73.14814697183148,-13.439712953780722],[-73.14907029748163,-13.43971974367412],[-73.1490633621095,-13.440623509647343],[-73.14814003300451,-13.44061671928081]]]}},{"type":"Feature","properties":{"Cell_ID":72,"Area_ha":1.0,"LC":"9:1.000000","XMIN":700389.3903163396,"YMIN":8513284.007515207,"XMAX":700489.3903163396,"YMAX":8513384.007515207},"geometry":{"type":"Polygon","coordinates":[[[-73.14813309366752,-13.44152048471263],[-73.14814003300451,-13.44061671928081],[-73.1490633621095,-13.440623509647343],[-73.14905642622763,-13.441527275552302],[-73.14813309366752,-13.44152048471263]]]}},{"type":"Feature","properties":{"Cell_ID":73,"Area_ha":1.0,"LC":"17:0.529988,18:0.434546","XMIN":700489.3903163396,"YMIN":8515384.007515207,"XMAX":700589.3903163396,"YMAX":8515484.007515207},"geometry":{"type":"Polygon","coordinates":[[[-73.14735545311235,-13.422534612032724],[-73.14736238519129,-13.421630845641541],[-73.1482856412879,-13.421637629449993],[-73.14827871265875,-13.422541396314472],[-73.14735545311235,-13.422534612032724]]]}},{"type":"Feature","properties":{"Cell_ID":74,"Area_ha":1.0,"LC":"9:0.033085,13:0.281354,18:0.685561","XMIN":700489.3903163396,"YMIN":8515284.007515207,"XMAX":700589.3903163396,"YMAX":8515384.007515207},"geometry":{"type":"Polygon","coordinates":[[[-73.14734852052338,-13.42343837835572],[-73.14735545311235,-13.422534612032724],[-73.14827871265875,-13.422541396314472],[-73.14827178351979,-13.42344516311077],[-73.14734852052338,-13.42343837835572]]]}},{"type":"Feature","properties":{"Cell_ID":75,"Area_ha":1.0,"LC":"9:0.659505,13:0.208512,14:0.131984","XMIN":700489.3903163396,"YMIN":8515184.007515207,"XMAX":700589.3903163396,"YMAX":8515284.007515207},"geometry":{"type":"Polygon","coordinates":[[[-73.14734158742434,-13.424342144610529],[-73.14734852052338,-13.42343837835572],[-73.14827178351979,-13.42344516311077],[-73.14826485387103,-13.424348929838894],[-73.14734158742434,-13.424342144610529]]]}},{"type":"Feature","properties":{"Cell_ID":76,"Area_ha":1.0,"LC":"9:0.057437,14:0.942563","XMIN":700489.3903163396,"YMIN":8515084.007515207,"XMAX":700589.3903163396,"YMAX":8515184.007515207},"geometry":{"type":"Polygon","coordinates":[[[-73.14733465381521,-13.425245910797152],[-73.14734158742434,-13.424342144610529],[-73.14826485387103,-13.424348929838894],[-73.14825792371242,-13.425252696498825],[-73.14733465381521,-13.425245910797152]]]}},{"type":"Feature","properties":{"Cell_ID":77,"Area_ha":1.0,"LC":"3:0.132482,9:0.009973,14:0.857545","XMIN":700489.3903163396,"YMIN":8514984.007515207,"XMAX":700589.3903163396,"YMAX":8515084.007515207},"geometry":{"type":"Polygon","coordinates":[[[-73.14732771969601,-13.426149676915573],[-73.14733465381521,-13.425245910797152],[-73.14825792371242,-13.425252696498825],[-73.148250993044,-13.426156463090562],[-73.14732771969601,-13.426149676915573]]]}},{"type":"Feature","properties":{"Cell_ID":78,"Area_ha":1.0,"LC":"3:0.599502,14:0.400498","XMIN":700489.3903163396,"YMIN":8514884.007515207,"XMAX":700589.3903163396,"YMAX":8514984.007515207},"geometry":{"type":"Polygon","coordinates":[[[-73.1473207850667,-13.427053442965796],[-73.14732771969601,-13.426149676915573],[-73.148250993044,-13.426156463090562],[-73.14824406186573,-13.427060229614108],[-73.1473207850667,-13.427053442965796]]]}},{"type":"Feature","properties":{"Cell_ID":79,"Area_ha":1.0,"LC":"3:0.817851,14:0.182149","XMIN":700489.3903163396,"YMIN":8514784.007515207,"XMAX":700589.3903163396,"YMAX":8514884.007515207},"geometry":{"type":"Polygon","coordinates":[[[-73.14731384992729,-13.427957208947822],[-73.1473207850667,-13.427053442965796],[-73.14824406186573,-13.427060229614108],[-73.1482371301776,-13.427963996069455],[-73.14731384992729,-13.427957208947822]]]}},{"type":"Feature","properties":{"Cell_ID":80,"Area_ha":1.0,"LC":"3:0.872337,14:0.127663","XMIN":700489.3903163396,"YMIN":8514684.007515207,"XMAX":700589.3903163396,"YMAX":8514784.007515207},"geometry":{"type":"Polygon","coordinates":[[[-73.14730691427778,-13.428860974861633],[-73.14731384992729,-13.427957208947822],[-73.1482371301776,-13.427963996069455],[-73.14823019797961,-13.42886776245659],[-73.14730691427778,-13.428860974861633]]]}},{"type":"Feature","properties":{"Cell_ID":81,"Area_ha":1.0,"LC":"3:0.216996,7:0.014187,9:0.191381,14:0.577437","XMIN":700489.3903163396,"YMIN":8514584.007515207,"XMAX":700589.3903163396,"YMAX":8514684.007515207},"geometry":{"type":"Polygon","coordinates":[[[-73.14729997811813,-13.429764740707231],[-73.14730691427778,-13.428860974861633],[-73.14823019797961,-13.42886776245659],[-73.14822326527177,-13.42977152877552],[-73.14729997811813,-13.429764740707231]]]}},{"type":"Feature","properties":{"Cell_ID":82,"Area_ha":1.0,"LC":"3:0.304267,7:0.045867,9:0.606309,13:0.043557","XMIN":700489.3903163396,"YMIN":8514484.007515207,"XMAX":700589.3903163396,"YMAX":8514584.007515207},"geometry":{"type":"Polygon","coordinates":[[[-73.14729304144835,-13.430668506484617],[-73.14729997811813,-13.429764740707231],[-73.14822326527177,-13.42977152877552],[-73.14821633205405,-13.430675295026232],[-73.14729304144835,-13.430668506484617]]]}},{"type":"Feature","properties":{"Cell_ID":83,"Area_ha":1.0,"LC":"3:0.186969,9:0.382257,13:0.400748,14:0.030027","XMIN":700489.3903163396,"YMIN":8514384.007515207,"XMAX":700589.3903163396,"YMAX":8514484.007515207},"geometry":{"type":"Polygon","coordinates":[[[-73.14728610426843,-13.43157227219378],[-73.14729304144835,-13.430668506484617],[-73.14821633205405,-13.430675295026232],[-73.14820939832643,-13.431579061208735],[-73.14728610426843,-13.43157227219378]]]}},{"type":"Feature","properties":{"Cell_ID":84,"Area_ha":1.0,"LC":"9:0.613139,13:0.225507,18:0.161354","XMIN":700489.3903163396,"YMIN":8514284.007515207,"XMAX":700589.3903163396,"YMAX":8514384.007515207},"geometry":{"type":"Polygon","coordinates":[[[-73.14727916657837,-13.43247603783472],[-73.14728610426843,-13.43157227219378],[-73.14820939832643,-13.431579061208735],[-73.14820246408893,-13.43248282732301],[-73.14727916657837,-13.43247603783472]]]}},{"type":"Feature","properties":{"Cell_ID":85,"Area_ha":1.0,"LC":"5:0.272037,9:0.395894,18:0.319918","XMIN":700489.3903163396,"YMIN":8514184.007515207,"XMAX":700589.3903163396,"YMAX":8514284.007515207},"geometry":{"type":"Polygon","coordinates":[[[-73.14727222837813,-13.433379803407428],[-73.14727916657837,-13.43247603783472],[-73.14820246408893,-13.43248282732301],[-73.14819552934152,-13.433386593369061],[-73.14727222837813,-13.433379803407428]]]}},{"type":"Feature","properties":{"Cell_ID":86,"Area_ha":1.0,"LC":"5:0.447022,7:0.242011,9:0.130410,18:0.077295","XMIN":700489.3903163396,"YMIN":8514084.007515207,"XMAX":700589.3903163396,"YMAX":8514184.007515207},"geometry":{"type":"Polygon","coordinates":[[[-73.14726528966774,-13.434283568911898],[-73.14727222837813,-13.433379803407428],[-73.14819552934152,-13.433386593369061],[-73.14818859408419,-13.43429035934688],[-73.14726528966774,-13.434283568911898]]]}},{"type":"Feature","properties":{"Cell_ID":87,"Area_ha":1.0,"LC":"5:0.061101,7:0.258151,9:0.353020,14:0.317569,18:0.004712","XMIN":700489.3903163396,"YMIN":8513984.007515207,"XMAX":700589.3903163396,"YMAX":8514084.007515207},"geometry":{"type":"Polygon","coordinates":[[[-73.14725835044717,-13.435187334348136],[-73.14726528966774,-13.434283568911898],[-73.14818859408419,-13.43429035934688],[-73.14818165831693,-13.435194125256464],[-73.14725835044717,-13.435187334348136]]]}},{"type":"Feature","properties":{"Cell_ID":88,"Area_ha":1.0,"LC":"9:0.298151,14:0.042203,16:0.033085,18:0.626561","XMIN":700489.3903163396,"YMIN":8513884.007515207,"XMAX":700589.3903163396,"YMAX":8513984.007515207},"geometry":{"type":"Polygon","coordinates":[[[-73.14725141071641,-13.43609109971613],[-73.14725835044717,-13.435187334348136],[-73.14818165831693,-13.435194125256464],[-73.14817472203974,-13.436097891097813],[-73.14725141071641,-13.43609109971613]]]}},{"type":"Feature","properties":{"Cell_ID":89,"Area_ha":1.0,"LC":"9:0.102455,16:0.206915,18:0.690630","XMIN":700489.3903163396,"YMIN":8513784.007515207,"XMAX":700589.3903163396,"YMAX":8513884.007515207},"geometry":{"type":"Polygon","coordinates":[[[-73.14724447047546,-13.436994865015876],[-73.14725141071641,-13.43609109971613],[-73.14817472203974,-13.436097891097813],[-73.14816778525261,-13.437001656870915],[-73.14724447047546,-13.436994865015876]]]}},{"type":"Feature","properties":{"Cell_ID":90,"Area_ha":1.0,"LC":"9:0.613031,18:0.386969","XMIN":700489.3903163396,"YMIN":8513684.007515207,"XMAX":700589.3903163396,"YMAX":8513784.007515207},"geometry":{"type":"Polygon","coordinates":[[[-73.1472375297243,-13.437898630247371],[-73.14724447047546,-13.436994865015876],[-73.14816778525261,-13.437001656870915],[-73.14816084795554,-13.437905422575769],[-73.1472375297243,-13.437898630247371]]]}},{"type":"Feature","properties":{"Cell_ID":91,"Area_ha":1.0,"LC":"9:0.709919,18:0.290081","XMIN":700489.3903163396,"YMIN":8513584.007515207,"XMAX":700589.3903163396,"YMAX":8513684.007515207},"geometry":{"type":"Polygon","coordinates":[[[-73.14723058846293,-13.438802395410613],[-73.1472375297243,-13.437898630247371],[-73.14816084795554,-13.437905422575769],[-73.1481539101485,-13.438809188212375],[-73.14723058846293,-13.438802395410613]]]}},{"type":"Feature","properties":{"Cell_ID":92,"Area_ha":1.0,"LC":"5:0.058899,9:0.660054,18:0.281048","XMIN":700489.3903163396,"YMIN":8513484.007515207,"XMAX":700589.3903163396,"YMAX":8513584.007515207},"geometry":{"type":"Polygon","coordinates":[[[-73.14722364669132,-13.43970616050559],[-73.14723058846293,-13.438802395410613],[-73.1481539101485,-13.438809188212375],[-73.14814697183148,-13.439712953780722],[-73.14722364669132,-13.43970616050559]]]}},{"type":"Feature","properties":{"Cell_ID":93,"Area_ha":1.0,"LC":"5:0.021101,9:0.978899","XMIN":700489.3903163396,"YMIN":8513384.007515207,"XMAX":700589.3903163396,"YMAX":8513484.007515207},"geometry":{"type":"Polygon","coordinates":[[[-73.14721670440949,-13.44060992553231],[-73.14722364669132,-13.43970616050559],[-73.14814697183148,-13.439712953780722],[-73.14814003300451,-13.44061671928081],[-73.14721670440949,-13.44060992553231]]]}},{"type":"Feature","properties":{"Cell_ID":94,"Area_ha":1.0,"LC":"9:1.000000","XMIN":700489.3903163396,"YMIN":8513284.007515207,"XMAX":700589.3903163396,"YMAX":8513384.007515207},"geometry":{"type":"Polygon","coordinates":[[[-73.14720976161743,-13.44151369049076],[-73.14721670440949,-13.44060992553231],[-73.14814003300451,-13.44061671928081],[-73.14813309366752,-13.44152048471263],[-73.14720976161743,-13.44151369049076]]]}},{"type":"Feature","properties":{"Cell_ID":95,"Area_ha":1.0,"LC":"9:0.184267,13:0.176696,17:0.516572","XMIN":700589.3903163396,"YMIN":8515484.007515207,"XMAX":700689.3903163396,"YMAX":8515584.007515207},"geometry":{"type":"Polygon","coordinates":[[[-73.14643912960472,-13.421624058456088],[-73.14644606462308,-13.420720292470264],[-73.14736931676015,-13.420727079182186],[-73.14736238519129,-13.421630845641541],[-73.14643912960472,-13.421624058456088]]]}},{"type":"Feature","properties":{"Cell_ID":96,"Area_ha":1.0,"LC":"9:0.045867,13:0.386470,16:0.256696,17:0.286309,18:0.024658","XMIN":700589.3903163396,"YMIN":8515384.007515207,"XMAX":700689.3903163396,"YMAX":8515484.007515207},"geometry":{"type":"Polygon","coordinates":[[[-73.14643219407604,-13.422527824373729],[-73.14643912960472,-13.421624058456088],[-73.14736238519129,-13.421630845641541],[-73.14735545311235,-13.422534612032724],[-73.14643219407604,-13.422527824373729]]]}},{"type":"Feature","properties":{"Cell_ID":97,"Area_ha":1.0,"LC":"9:0.023610,13:0.036942,16:0.555396,18:0.384052","XMIN":700589.3903163396,"YMIN":8515284.007515207,"XMAX":700689.3903163396,"YMAX":8515384.007515207},"geometry":{"type":"Polygon","coordinates":[[[-73.14642525803704,-13.423431590223187],[-73.14643219407604,-13.422527824373729],[-73.14735545311235,-13.422534612032724],[-73.14734852052338,-13.42343837835572],[-73.14642525803704,-13.423431590223187]]]}},{"type":"Feature","properties":{"Cell_ID":98,"Area_ha":1.0,"LC":"9:0.464052,14:0.023610,16:0.411236,18:0.101101","XMIN":700589.3903163396,"YMIN":8515184.007515207,"XMAX":700689.3903163396,"YMAX":8515284.007515207},"geometry":{"type":"Polygon","coordinates":[[[-73.14641832148773,-13.424335356004452],[-73.14642525803704,-13.423431590223187],[-73.14734852052338,-13.42343837835572],[-73.14734158742434,-13.424342144610529],[-73.14641832148773,-13.424335356004452]]]}},{"type":"Feature","properties":{"Cell_ID":99,"Area_ha":1.0,"LC":"7:0.060054,9:0.162203,14:0.680748,16:0.096996","XMIN":700589.3903163396,"YMIN":8515084.007515207,"XMAX":700689.3903163396,"YMAX":8515184.007515207},"geometry":{"type":"Polygon","coordinates":[[[-73.14641138442809,-13.425239121717524],[-73.14641832148773,-13.424335356004452],[-73.14734158742434,-13.424342144610529],[-73.14733465381521,-13.425245910797152],[-73.14641138442809,-13.425239121717524]]]}},{"type":"Feature","properties":{"Cell_ID":100,"Area_ha":1.0,"LC":"7:0.154240,14:0.845760","XMIN":700589.3903163396,"YMIN":8514984.007515207,"XMAX":700689.3903163396,"YMAX":8515084.007515207},"geometry":{"type":"Polygon","coordinates":[[[-73.14640444685811,-13.426142887362396],[-73.14641138442809,-13.425239121717524],[-73.14733465381521,-13.425245910797152],[-73.14732771969601,-13.426149676915573],[-73.14640444685811,-13.426142887362396]]]}},{"type":"Feature","properties":{"Cell_ID":101,"Area_ha":1.0,"LC":"3:0.415540,6:0.090081,7:0.015840,14:0.478539","XMIN":700589.3903163396,"YMIN":8514884.007515207,"XMAX":700689.3903163396,"YMAX":8514984.007515207},"geometry":{"type":"Polygon","coordinates":[[[-73.14639750877778,-13.427046652939069],[-73.14640444685811,-13.426142887362396],[-73.14732771969601,-13.426149676915573],[-73.1473207850667,-13.427053442965796],[-73.14639750877778,-13.427046652939069]]]}},{"type":"Feature","properties":{"Cell_ID":102,"Area_ha":1.0,"LC":"3:0.229064,14:0.770936","XMIN":700589.3903163396,"YMIN":8514784.007515207,"XMAX":700689.3903163396,"YMAX":8514884.007515207},"geometry":{"type":"Polygon","coordinates":[[[-73.1463905701871,-13.42795041844753],[-73.14639750877778,-13.427046652939069],[-73.1473207850667,-13.427053442965796],[-73.14731384992729,-13.427957208947822],[-73.1463905701871,-13.42795041844753]]]}},{"type":"Feature","properties":{"Cell_ID":103,"Area_ha":1.0,"LC":"3:0.379646,14:0.620354","XMIN":700589.3903163396,"YMIN":8514684.007515207,"XMAX":700689.3903163396,"YMAX":8514784.007515207},"geometry":{"type":"Polygon","coordinates":[[[-73.14638363108602,-13.428854183887783],[-73.1463905701871,-13.42795041844753],[-73.14731384992729,-13.427957208947822],[-73.14730691427778,-13.428860974861633],[-73.14638363108602,-13.428854183887783]]]}},{"type":"Feature","properties":{"Cell_ID":104,"Area_ha":1.0,"LC":"3:0.433278,7:0.023610,9:0.060054,14:0.483058","XMIN":700589.3903163396,"YMIN":8514584.007515207,"XMAX":700689.3903163396,"YMAX":8514684.007515207},"geometry":{"type":"Polygon","coordinates":[[[-73.14637669147461,-13.429757949259818],[-73.14638363108602,-13.428854183887783],[-73.14730691427778,-13.428860974861633],[-73.14729997811813,-13.429764740707231],[-73.14637669147461,-13.429757949259818]]]}},{"type":"Feature","properties":{"Cell_ID":105,"Area_ha":1.0,"LC":"3:0.234631,7:0.556336,9:0.142064,14:0.066969","XMIN":700589.3903163396,"YMIN":8514484.007515207,"XMAX":700689.3903163396,"YMAX":8514584.007515207},"geometry":{"type":"Polygon","coordinates":[[[-73.1463697513528,-13.430661714563634],[-73.14637669147461,-13.429757949259818],[-73.14729997811813,-13.429764740707231],[-73.14729304144835,-13.430668506484617],[-73.1463697513528,-13.430661714563634]]]}},{"type":"Feature","properties":{"Cell_ID":106,"Area_ha":1.0,"LC":"3:0.217437,9:0.310027,13:0.004712,14:0.467824","XMIN":700589.3903163396,"YMIN":8514384.007515207,"XMAX":700689.3903163396,"YMAX":8514484.007515207},"geometry":{"type":"Polygon","coordinates":[[[-73.14636281072057,-13.431565479799225],[-73.1463697513528,-13.430661714563634],[-73.14729304144835,-13.430668506484617],[-73.14728610426843,-13.43157227219378],[-73.14636281072057,-13.431565479799225]]]}},{"type":"Feature","properties":{"Cell_ID":107,"Area_ha":1.0,"LC":"9:0.652590,13:0.225207,14:0.122203","XMIN":700589.3903163396,"YMIN":8514284.007515207,"XMAX":700689.3903163396,"YMAX":8514384.007515207},"geometry":{"type":"Polygon","coordinates":[[[-73.14635586957796,-13.43246924496659],[-73.14636281072057,-13.431565479799225],[-73.14728610426843,-13.43157227219378],[-73.14727916657837,-13.43247603783472],[-73.14635586957796,-13.43246924496659]]]}},{"type":"Feature","properties":{"Cell_ID":108,"Area_ha":1.0,"LC":"3:0.018899,5:0.024658,9:0.784460,14:0.171984","XMIN":700589.3903163396,"YMIN":8514184.007515207,"XMAX":700689.3903163396,"YMAX":8514284.007515207},"geometry":{"type":"Polygon","coordinates":[[[-73.14634892792492,-13.433373010065722],[-73.14635586957796,-13.43246924496659],[-73.14727916657837,-13.43247603783472],[-73.14727222837813,-13.433379803407428],[-73.14634892792492,-13.433373010065722]]]}},{"type":"Feature","properties":{"Cell_ID":109,"Area_ha":1.0,"LC":"3:0.444213,5:0.035181,7:0.014685,9:0.357797,14:0.148124","XMIN":700589.3903163396,"YMIN":8514084.007515207,"XMAX":700689.3903163396,"YMAX":8514184.007515207},"geometry":{"type":"Polygon","coordinates":[[[-73.14634198576148,-13.43427677509661],[-73.14634892792492,-13.433373010065722],[-73.14727222837813,-13.433379803407428],[-73.14726528966774,-13.434283568911898],[-73.14634198576148,-13.43427677509661]]]}},{"type":"Feature","properties":{"Cell_ID":110,"Area_ha":1.0,"LC":"3:0.036942,7:0.686116,9:0.276942","XMIN":700589.3903163396,"YMIN":8513984.007515207,"XMAX":700689.3903163396,"YMAX":8514084.007515207},"geometry":{"type":"Polygon","coordinates":[[[-73.14633504308759,-13.435180540059264],[-73.14634198576148,-13.43427677509661],[-73.14726528966774,-13.434283568911898],[-73.14725835044717,-13.435187334348136],[-73.14633504308759,-13.435180540059264]]]}},{"type":"Feature","properties":{"Cell_ID":111,"Area_ha":1.0,"LC":"7:0.229172,9:0.445154,13:0.138899,16:0.186776","XMIN":700589.3903163396,"YMIN":8513884.007515207,"XMAX":700689.3903163396,"YMAX":8513984.007515207},"geometry":{"type":"Polygon","coordinates":[[[-73.14632809990327,-13.436084304953669],[-73.14633504308759,-13.435180540059264],[-73.14725835044717,-13.435187334348136],[-73.14725141071641,-13.43609109971613],[-73.14632809990327,-13.436084304953669]]]}},{"type":"Feature","properties":{"Cell_ID":112,"Area_ha":1.0,"LC":"9:0.021101,13:0.305315,16:0.521155,18:0.152428","XMIN":700589.3903163396,"YMIN":8513784.007515207,"XMAX":700689.3903163396,"YMAX":8513884.007515207},"geometry":{"type":"Polygon","coordinates":[[[-73.14632115620849,-13.43698806977982],[-73.14632809990327,-13.436084304953669],[-73.14725141071641,-13.43609109971613],[-73.14724447047546,-13.436994865015876],[-73.14632115620849,-13.43698806977982]]]}},{"type":"Feature","properties":{"Cell_ID":113,"Area_ha":1.0,"LC":"9:0.764520,13:0.015840,16:0.082203,18:0.137437","XMIN":700589.3903163396,"YMIN":8513684.007515207,"XMAX":700689.3903163396,"YMAX":8513784.007515207},"geometry":{"type":"Polygon","coordinates":[[[-73.14631421200326,-13.437891834537723],[-73.14632115620849,-13.43698806977982],[-73.14724447047546,-13.436994865015876],[-73.1472375297243,-13.437898630247371],[-73.14631421200326,-13.437891834537723]]]}},{"type":"Feature","properties":{"Cell_ID":114,"Area_ha":1.0,"LC":"9:0.680300,14:0.249781,18:0.069919","XMIN":700589.3903163396,"YMIN":8513584.007515207,"XMAX":700689.3903163396,"YMAX":8513684.007515207},"geometry":{"type":"Polygon","coordinates":[[[-73.14630726728757,-13.438795599227365],[-73.14631421200326,-13.437891834537723],[-73.1472375297243,-13.437898630247371],[-73.14723058846293,-13.438802395410613],[-73.14630726728757,-13.438795599227365]]]}},{"type":"Feature","properties":{"Cell_ID":115,"Area_ha":1.0,"LC":"5:0.294493,9:0.275181,14:0.430327","XMIN":700589.3903163396,"YMIN":8513484.007515207,"XMAX":700689.3903163396,"YMAX":8513584.007515207},"geometry":{"type":"Polygon","coordinates":[[[-73.14630032206138,-13.439699363848742],[-73.14630726728757,-13.438795599227365],[-73.14723058846293,-13.438802395410613],[-73.14722364669132,-13.43970616050559],[-73.14630032206138,-13.439699363848742]]]}},{"type":"Feature","properties":{"Cell_ID":116,"Area_ha":1.0,"LC":"5:0.675588,9:0.063503,14:0.260909","XMIN":700589.3903163396,"YMIN":8513384.007515207,"XMAX":700689.3903163396,"YMAX":8513484.007515207},"geometry":{"type":"Polygon","coordinates":[[[-73.14629337632472,-13.440603128401854],[-73.14630032206138,-13.439699363848742],[-73.14722364669132,-13.43970616050559],[-73.14721670440949,-13.44060992553231],[-73.14629337632472,-13.440603128401854]]]}},{"type":"Feature","properties":{"Cell_ID":117,"Area_ha":1.0,"LC":"5:0.033085,9:0.607770,14:0.359145","XMIN":700589.3903163396,"YMIN":8513284.007515207,"XMAX":700689.3903163396,"YMAX":8513384.007515207},"geometry":{"type":"Polygon","coordinates":[[[-73.14628643007757,-13.441506892886693],[-73.14629337632472,-13.440603128401854],[-73.14721670440949,-13.44060992553231],[-73.14720976161743,-13.44151369049076],[-73.14628643007757,-13.441506892886693]]]}},{"type":"Feature","properties":{"Cell_ID":118,"Area_ha":1.0,"LC":"7:0.103112,9:0.862257,13:0.034631","XMIN":700689.3903163396,"YMIN":8515384.007515207,"XMAX":700789.3903163396,"YMAX":8515484.007515207},"geometry":{"type":"Polygon","coordinates":[[[-73.14550893555003,-13.422521033337501],[-73.14551587452846,-13.421617267893632],[-73.14643912960472,-13.421624058456088],[-73.14643219407604,-13.422527824373729],[-73.14550893555003,-13.422521033337501]]]}},{"type":"Feature","properties":{"Cell_ID":119,"Area_ha":1.0,"LC":"5:0.104267,7:0.066969,9:0.541101,13:0.005261,16:0.282401","XMIN":700689.3903163396,"YMIN":8515284.007515207,"XMAX":700789.3903163396,"YMAX":8515384.007515207},"geometry":{"type":"Polygon","coordinates":[[[-73.14550199606103,-13.423424798713176],[-73.14550893555003,-13.422521033337501],[-73.14643219407604,-13.422527824373729],[-73.14642525803704,-13.423431590223187],[-73.14550199606103,-13.423424798713176]]]}},{"type":"Feature","properties":{"Cell_ID":120,"Area_ha":1.0,"LC":"5:0.075894,9:0.514240,16:0.409866","XMIN":700689.3903163396,"YMIN":8515184.007515207,"XMAX":700789.3903163396,"YMAX":8515284.007515207},"geometry":{"type":"Polygon","coordinates":[[[-73.14549505606146,-13.424328564020666],[-73.14550199606103,-13.423424798713176],[-73.14642525803704,-13.423431590223187],[-73.14641832148773,-13.424335356004452],[-73.14549505606146,-13.424328564020666]]]}},{"type":"Feature","properties":{"Cell_ID":121,"Area_ha":1.0,"LC":"5:0.074240,6:0.098899,7:0.483557,9:0.238097,14:0.105207","XMIN":700689.3903163396,"YMIN":8514984.007515207,"XMAX":700789.3903163396,"YMAX":8515084.007515207},"geometry":{"type":"Polygon","coordinates":[[[-73.14548117453057,-13.42613609443104],[-73.1454881155513,-13.425232329259956],[-73.14641138442809,-13.425239121717524],[-73.14640444685811,-13.426142887362396],[-73.14548117453057,-13.42613609443104]]]}},{"type":"Feature","properties":{"Cell_ID":122,"Area_ha":1.0,"LC":"3:0.052482,5:0.150134,6:0.411021,7:0.188566,14:0.197797","XMIN":700689.3903163396,"YMIN":8514884.007515207,"XMAX":700789.3903163396,"YMAX":8514984.007515207},"geometry":{"type":"Polygon","coordinates":[[[-73.14547423299922,-13.427039859533922],[-73.14548117453057,-13.42613609443104],[-73.14640444685811,-13.426142887362396],[-73.14639750877778,-13.427046652939069],[-73.14547423299922,-13.427039859533922]]]}},{"type":"Feature","properties":{"Cell_ID":123,"Area_ha":1.0,"LC":"3:0.097437,5:0.150134,14:0.752428","XMIN":700689.3903163396,"YMIN":8514784.007515207,"XMAX":700789.3903163396,"YMAX":8514884.007515207},"geometry":{"type":"Polygon","coordinates":[[[-73.14546729095726,-13.427943624568593],[-73.14547423299922,-13.427039859533922],[-73.14639750877778,-13.427046652939069],[-73.1463905701871,-13.42795041844753],[-73.14546729095726,-13.427943624568593]]]}},{"type":"Feature","properties":{"Cell_ID":124,"Area_ha":1.0,"LC":"3:0.080306,5:0.015840,7:0.090081,14:0.813773","XMIN":700689.3903163396,"YMIN":8514684.007515207,"XMAX":700789.3903163396,"YMAX":8514784.007515207},"geometry":{"type":"Polygon","coordinates":[[[-73.14546034840468,-13.428847389535047],[-73.14546729095726,-13.427943624568593],[-73.1463905701871,-13.42795041844753],[-73.14638363108602,-13.428854183887783],[-73.14546034840468,-13.428847389535047]]]}},{"type":"Feature","properties":{"Cell_ID":125,"Area_ha":1.0,"LC":"3:0.209667,9:0.459754,14:0.330579","XMIN":700689.3903163396,"YMIN":8514584.007515207,"XMAX":700789.3903163396,"YMAX":8514684.007515207},"geometry":{"type":"Polygon","coordinates":[[[-73.14545340534147,-13.429751154433282],[-73.14546034840468,-13.428847389535047],[-73.14638363108602,-13.428854183887783],[-73.14637669147461,-13.429757949259818],[-73.14545340534147,-13.429751154433282]]]}},{"type":"Feature","properties":{"Cell_ID":126,"Area_ha":1.0,"LC":"9:0.944766,14:0.055234","XMIN":700689.3903163396,"YMIN":8514484.007515207,"XMAX":700789.3903163396,"YMAX":8514584.007515207},"geometry":{"type":"Polygon","coordinates":[[[-73.14544646176762,-13.430654919263295],[-73.14545340534147,-13.429751154433282],[-73.14637669147461,-13.429757949259818],[-73.1463697513528,-13.430661714563634],[-73.14544646176762,-13.430654919263295]]]}},{"type":"Feature","properties":{"Cell_ID":127,"Area_ha":1.0,"LC":"9:0.980054,14:0.019946","XMIN":700689.3903163396,"YMIN":8514384.007515207,"XMAX":700789.3903163396,"YMAX":8514484.007515207},"geometry":{"type":"Polygon","coordinates":[[[-73.14543951768312,-13.431558684025081],[-73.14544646176762,-13.430654919263295],[-73.1463697513528,-13.430661714563634],[-73.14636281072057,-13.431565479799225],[-73.14543951768312,-13.431558684025081]]]}},{"type":"Feature","properties":{"Cell_ID":128,"Area_ha":1.0,"LC":"9:0.880192,13:0.119808","XMIN":700689.3903163396,"YMIN":8514284.007515207,"XMAX":700789.3903163396,"YMAX":8514384.007515207},"geometry":{"type":"Polygon","coordinates":[[[-73.14543257308796,-13.432462448718633],[-73.14543951768312,-13.431558684025081],[-73.14636281072057,-13.431565479799225],[-73.14635586957796,-13.43246924496659],[-73.14543257308796,-13.432462448718633]]]}},{"type":"Feature","properties":{"Cell_ID":129,"Area_ha":1.0,"LC":"9:0.693031,13:0.100246,14:0.162509,18:0.044213","XMIN":700689.3903163396,"YMIN":8514184.007515207,"XMAX":700789.3903163396,"YMAX":8514284.007515207},"geometry":{"type":"Polygon","coordinates":[[[-73.14542562798215,-13.433366213343948],[-73.14543257308796,-13.432462448718633],[-73.14635586957796,-13.43246924496659],[-73.14634892792492,-13.433373010065722],[-73.14542562798215,-13.433366213343948]]]}},{"type":"Feature","properties":{"Cell_ID":130,"Area_ha":1.0,"LC":"3:0.014685,9:0.338899,14:0.277383,18:0.369033","XMIN":700689.3903163396,"YMIN":8514084.007515207,"XMAX":700789.3903163396,"YMAX":8514184.007515207},"geometry":{"type":"Polygon","coordinates":[[[-73.14541868236564,-13.434269977901021],[-73.14542562798215,-13.433366213343948],[-73.14634892792492,-13.433373010065722],[-73.14634198576148,-13.43427677509661],[-73.14541868236564,-13.434269977901021]]]}},{"type":"Feature","properties":{"Cell_ID":131,"Area_ha":1.0,"LC":"3:0.005261,7:0.048818,9:0.810081,16:0.098899,18:0.036942","XMIN":700689.3903163396,"YMIN":8513984.007515207,"XMAX":700789.3903163396,"YMAX":8514084.007515207},"geometry":{"type":"Polygon","coordinates":[[[-73.14541173623844,-13.435173742389853],[-73.14541868236564,-13.434269977901021],[-73.14634198576148,-13.43427677509661],[-73.14633504308759,-13.435180540059264],[-73.14541173623844,-13.435173742389853]]]}},{"type":"Feature","properties":{"Cell_ID":132,"Area_ha":1.0,"LC":"7:0.141101,9:0.063304,16:0.574685,17:0.150027,18:0.070882","XMIN":700689.3903163396,"YMIN":8513884.007515207,"XMAX":700789.3903163396,"YMAX":8513984.007515207},"geometry":{"type":"Polygon","coordinates":[[[-73.14540478960058,-13.436077506810435],[-73.14541173623844,-13.435173742389853],[-73.14633504308759,-13.435180540059264],[-73.14632809990327,-13.436084304953669],[-73.14540478960058,-13.436077506810435]]]}},{"type":"Feature","properties":{"Cell_ID":133,"Area_ha":1.0,"LC":"13:0.113584,16:0.494079,18:0.392337","XMIN":700689.3903163396,"YMIN":8513784.007515207,"XMAX":700789.3903163396,"YMAX":8513884.007515207},"geometry":{"type":"Polygon","coordinates":[[[-73.145397842452,-13.436981271162763],[-73.14540478960058,-13.436077506810435],[-73.14632809990327,-13.436084304953669],[-73.14632115620849,-13.43698806977982],[-73.145397842452,-13.436981271162763]]]}},{"type":"Feature","properties":{"Cell_ID":134,"Area_ha":1.0,"LC":"9:0.362401,13:0.026363,16:0.042203,18:0.569033","XMIN":700689.3903163396,"YMIN":8513684.007515207,"XMAX":700789.3903163396,"YMAX":8513784.007515207},"geometry":{"type":"Polygon","coordinates":[[[-73.1453908947927,-13.437885035446829],[-73.145397842452,-13.436981271162763],[-73.14632115620849,-13.43698806977982],[-73.14631421200326,-13.437891834537723],[-73.1453908947927,-13.437885035446829]]]}},{"type":"Feature","properties":{"Cell_ID":135,"Area_ha":1.0,"LC":"9:0.747410,14:0.094493,18:0.158097","XMIN":700689.3903163396,"YMIN":8513584.007515207,"XMAX":700789.3903163396,"YMAX":8513684.007515207},"geometry":{"type":"Polygon","coordinates":[[[-73.14538394662269,-13.438788799662639],[-73.1453908947927,-13.437885035446829],[-73.14631421200326,-13.437891834537723],[-73.14630726728757,-13.438795599227365],[-73.14538394662269,-13.438788799662639]]]}},{"type":"Feature","properties":{"Cell_ID":136,"Area_ha":1.0,"LC":"5:0.170279,9:0.014187,14:0.815534","XMIN":700689.3903163396,"YMIN":8513484.007515207,"XMAX":700789.3903163396,"YMAX":8513584.007515207},"geometry":{"type":"Polygon","coordinates":[[[-73.14537699794194,-13.439692563810182],[-73.14538394662269,-13.438788799662639],[-73.14630726728757,-13.438795599227365],[-73.14630032206138,-13.439699363848742],[-73.14537699794194,-13.439692563810182]]]}},{"type":"Feature","properties":{"Cell_ID":137,"Area_ha":1.0,"LC":"5:0.659640,9:0.325675,14:0.014685","XMIN":700689.3903163396,"YMIN":8513384.007515207,"XMAX":700789.3903163396,"YMAX":8513484.007515207},"geometry":{"type":"Polygon","coordinates":[[[-73.14537004875045,-13.440596327889452],[-73.14537699794194,-13.439692563810182],[-73.14630032206138,-13.439699363848742],[-73.14629337632472,-13.440603128401854],[-73.14537004875045,-13.440596327889452]]]}},{"type":"Feature","properties":{"Cell_ID":138,"Area_ha":1.0,"LC":"5:0.023610,9:0.971128,14:0.005261","XMIN":700689.3903163396,"YMIN":8513284.007515207,"XMAX":700789.3903163396,"YMAX":8513384.007515207},"geometry":{"type":"Polygon","coordinates":[[[-73.14536309904821,-13.441500091900446],[-73.14537004875045,-13.440596327889452],[-73.14629337632472,-13.440603128401854],[-73.14628643007757,-13.441506892886693],[-73.14536309904821,-13.441500091900446]]]}},{"type":"Feature","properties":{"Cell_ID":139,"Area_ha":1.0,"LC":"5:0.336497,7:0.589919,14:0.073584","XMIN":700789.3903163396,"YMIN":8514684.007515207,"XMAX":700889.3903163396,"YMAX":8514784.007515207},"geometry":{"type":"Polygon","coordinates":[[[-73.14453706623395,-13.428840591803434],[-73.14454401223804,-13.427936827311013],[-73.14546729095726,-13.427943624568593],[-73.14546034840468,-13.428847389535047],[-73.14453706623395,-13.428840591803434]]]}},{"type":"Feature","properties":{"Cell_ID":140,"Area_ha":1.0,"LC":"3:0.009973,5:0.670134,9:0.153584,14:0.166309","XMIN":700789.3903163396,"YMIN":8514584.007515207,"XMAX":700889.3903163396,"YMAX":8514684.007515207},"geometry":{"type":"Polygon","coordinates":[[[-73.14453011971897,-13.429744356227635],[-73.14453706623395,-13.428840591803434],[-73.14546034840468,-13.428847389535047],[-73.14545340534147,-13.429751154433282],[-73.14453011971897,-13.429744356227635]]]}},{"type":"Feature","properties":{"Cell_ID":141,"Area_ha":1.0,"LC":"5:0.611236,9:0.388764","XMIN":700789.3903163396,"YMIN":8514484.007515207,"XMAX":700889.3903163396,"YMAX":8514584.007515207},"geometry":{"type":"Polygon","coordinates":[[[-73.1445231726931,-13.430648120583607],[-73.14453011971897,-13.429744356227635],[-73.14545340534147,-13.429751154433282],[-73.14544646176762,-13.430654919263295],[-73.1445231726931,-13.430648120583607]]]}},{"type":"Feature","properties":{"Cell_ID":142,"Area_ha":1.0,"LC":"5:0.248070,9:0.751930","XMIN":700789.3903163396,"YMIN":8514384.007515207,"XMAX":700889.3903163396,"YMAX":8514484.007515207},"geometry":{"type":"Polygon","coordinates":[[[-73.14451622515632,-13.431551884871352],[-73.1445231726931,-13.430648120583607],[-73.14544646176762,-13.430654919263295],[-73.14543951768312,-13.431558684025081],[-73.14451622515632,-13.431551884871352]]]}},{"type":"Feature","properties":{"Cell_ID":143,"Area_ha":1.0,"LC":"9:0.789721,13:0.210279","XMIN":700789.3903163396,"YMIN":8514284.007515207,"XMAX":700889.3903163396,"YMAX":8514384.007515207},"geometry":{"type":"Polygon","coordinates":[[[-73.14450927710864,-13.432455649090857],[-73.14451622515632,-13.431551884871352],[-73.14543951768312,-13.431558684025081],[-73.14543257308796,-13.432462448718633],[-73.14450927710864,-13.432455649090857]]]}},{"type":"Feature","properties":{"Cell_ID":144,"Area_ha":1.0,"LC":"9:0.836749,13:0.089667,18:0.073584","XMIN":700789.3903163396,"YMIN":8514184.007515207,"XMAX":700889.3903163396,"YMAX":8514284.007515207},"geometry":{"type":"Polygon","coordinates":[[[-73.14450232855003,-13.433359413242124],[-73.14450927710864,-13.432455649090857],[-73.14543257308796,-13.432462448718633],[-73.14542562798215,-13.433366213343948],[-73.14450232855003,-13.433359413242124]]]}},{"type":"Feature","properties":{"Cell_ID":145,"Area_ha":1.0,"LC":"7:0.130081,9:0.358952,18:0.510967","XMIN":700789.3903163396,"YMIN":8514084.007515207,"XMAX":700889.3903163396,"YMAX":8514184.007515207},"geometry":{"type":"Polygon","coordinates":[[[-73.14449537948049,-13.434263177325146],[-73.14450232855003,-13.433359413242124],[-73.14542562798215,-13.433366213343948],[-73.14541868236564,-13.434269977901021],[-73.14449537948049,-13.434263177325146]]]}},{"type":"Feature","properties":{"Cell_ID":146,"Area_ha":1.0,"LC":"7:0.854600,9:0.140139,18:0.005261","XMIN":700789.3903163396,"YMIN":8513984.007515207,"XMAX":700889.3903163396,"YMAX":8514084.007515207},"geometry":{"type":"Polygon","coordinates":[[[-73.14448842990002,-13.43516694133992],[-73.14449537948049,-13.434263177325146],[-73.14541868236564,-13.434269977901021],[-73.14541173623844,-13.435173742389853],[-73.14448842990002,-13.43516694133992]]]}},{"type":"Feature","properties":{"Cell_ID":147,"Area_ha":1.0,"LC":"7:0.566416,16:0.059946,17:0.350027,18:0.023610","XMIN":700789.3903163396,"YMIN":8513884.007515207,"XMAX":700889.3903163396,"YMAX":8513984.007515207},"geometry":{"type":"Polygon","coordinates":[[[-73.14448147980859,-13.436070705286442],[-73.14448842990002,-13.43516694133992],[-73.14541173623844,-13.435173742389853],[-73.14540478960058,-13.436077506810435],[-73.14448147980859,-13.436070705286442]]]}},{"type":"Feature","properties":{"Cell_ID":148,"Area_ha":1.0,"LC":"7:0.196942,9:0.098899,18:0.704160","XMIN":700789.3903163396,"YMIN":8513784.007515207,"XMAX":700889.3903163396,"YMAX":8513884.007515207},"geometry":{"type":"Polygon","coordinates":[[[-73.1444745292062,-13.436974469164706],[-73.14448147980859,-13.436070705286442],[-73.14540478960058,-13.436077506810435],[-73.145397842452,-13.436981271162763],[-73.1444745292062,-13.436974469164706]]]}},{"type":"Feature","properties":{"Cell_ID":149,"Area_ha":1.0,"LC":"7:0.605369,9:0.091128,18:0.303503","XMIN":700789.3903163396,"YMIN":8513684.007515207,"XMAX":700889.3903163396,"YMAX":8513784.007515207},"geometry":{"type":"Polygon","coordinates":[[[-73.14446757809286,-13.43787823297471],[-73.1444745292062,-13.436974469164706],[-73.145397842452,-13.436981271162763],[-73.1453908947927,-13.437885035446829],[-73.14446757809286,-13.43787823297471]]]}},{"type":"Feature","properties":{"Cell_ID":150,"Area_ha":1.0,"LC":"7:0.036942,9:0.429835,14:0.004712,18:0.528512","XMIN":700789.3903163396,"YMIN":8513584.007515207,"XMAX":700889.3903163396,"YMAX":8513684.007515207},"geometry":{"type":"Polygon","coordinates":[[[-73.14446062646853,-13.438781996716449],[-73.14446757809286,-13.43787823297471],[-73.1453908947927,-13.437885035446829],[-73.14538394662269,-13.438788799662639],[-73.14446062646853,-13.438781996716449]]]}},{"type":"Feature","properties":{"Cell_ID":151,"Area_ha":1.0,"LC":"9:0.334793,14:0.665207","XMIN":700789.3903163396,"YMIN":8513484.007515207,"XMAX":700889.3903163396,"YMAX":8513584.007515207},"geometry":{"type":"Polygon","coordinates":[[[-73.14445367433323,-13.439685760389914],[-73.14446062646853,-13.438781996716449],[-73.14538394662269,-13.438788799662639],[-73.14537699794194,-13.439692563810182],[-73.14445367433323,-13.439685760389914]]]}},{"type":"Feature","properties":{"Cell_ID":152,"Area_ha":1.0,"LC":"5:0.510027,9:0.452176,13:0.037797","XMIN":700789.3903163396,"YMIN":8513384.007515207,"XMAX":700889.3903163396,"YMAX":8513484.007515207},"geometry":{"type":"Polygon","coordinates":[[[-73.14444672168693,-13.44058952399511],[-73.14445367433323,-13.439685760389914],[-73.14537699794194,-13.439692563810182],[-73.14537004875045,-13.440596327889452],[-73.14444672168693,-13.44058952399511]]]}},{"type":"Feature","properties":{"Cell_ID":153,"Area_ha":1.0,"LC":"5:0.192337,7:0.357797,9:0.449866","XMIN":700889.3903163396,"YMIN":8514184.007515207,"XMAX":700989.3903163396,"YMAX":8514284.007515207},"geometry":{"type":"Polygon","coordinates":[[[-73.14357902962885,-13.433352609760254],[-73.14358598164023,-13.432448846083272],[-73.14450927710864,-13.432455649090857],[-73.14450232855003,-13.433359413242124],[-73.14357902962885,-13.433352609760254]]]}},{"type":"Feature","properties":{"Cell_ID":154,"Area_ha":1.0,"LC":"5:0.225921,7:0.589919,9:0.184160","XMIN":700889.3903163396,"YMIN":8514084.007515207,"XMAX":700989.3903163396,"YMAX":8514184.007515207},"geometry":{"type":"Polygon","coordinates":[[[-73.14357207710628,-13.434256373368985],[-73.14357902962885,-13.433352609760254],[-73.14450232855003,-13.433359413242124],[-73.14449537948049,-13.434263177325146],[-73.14357207710628,-13.434256373368985]]]}},{"type":"Feature","properties":{"Cell_ID":155,"Area_ha":1.0,"LC":"7:0.244604,9:0.755396","XMIN":700889.3903163396,"YMIN":8513984.007515207,"XMAX":700989.3903163396,"YMAX":8514084.007515207},"geometry":{"type":"Polygon","coordinates":[[[-73.14356512407252,-13.435160136909467],[-73.14357207710628,-13.434256373368985],[-73.14449537948049,-13.434263177325146],[-73.14448842990002,-13.43516694133992],[-73.14356512407252,-13.435160136909467]]]}},{"type":"Feature","properties":{"Cell_ID":156,"Area_ha":1.0,"LC":"7:0.851984,9:0.128070,17:0.019946","XMIN":700889.3903163396,"YMIN":8513884.007515207,"XMAX":700989.3903163396,"YMAX":8513984.007515207},"geometry":{"type":"Polygon","coordinates":[[[-73.14355817052757,-13.436063900381697],[-73.14356512407252,-13.435160136909467],[-73.14448842990002,-13.43516694133992],[-73.14448147980859,-13.436070705286442],[-73.14355817052757,-13.436063900381697]]]}},{"type":"Feature","properties":{"Cell_ID":157,"Area_ha":1.0,"LC":"7:0.475588,9:0.098899,16:0.063112,18:0.362401","XMIN":700889.3903163396,"YMIN":8513784.007515207,"XMAX":700989.3903163396,"YMAX":8513884.007515207},"geometry":{"type":"Polygon","coordinates":[[[-73.1435512164714,-13.436967663785662],[-73.14355817052757,-13.436063900381697],[-73.14448147980859,-13.436070705286442],[-73.1444745292062,-13.436974469164706],[-73.1435512164714,-13.436967663785662]]]}},{"type":"Feature","properties":{"Cell_ID":158,"Area_ha":1.0,"LC":"5:0.134294,7:0.034631,9:0.666669,16:0.076942,18:0.087464","XMIN":700889.3903163396,"YMIN":8513684.007515207,"XMAX":700989.3903163396,"YMAX":8513784.007515207},"geometry":{"type":"Polygon","coordinates":[[[-73.143544261904,-13.437871427121358],[-73.1435512164714,-13.436967663785662],[-73.1444745292062,-13.436974469164706],[-73.14446757809286,-13.43787823297471],[-73.143544261904,-13.437871427121358]]]}},{"type":"Feature","properties":{"Cell_ID":159,"Area_ha":1.0,"LC":"5:0.075894,7:0.005261,9:0.918845","XMIN":700889.3903163396,"YMIN":8513584.007515207,"XMAX":700989.3903163396,"YMAX":8513684.007515207},"geometry":{"type":"Polygon","coordinates":[[[-73.14353730682537,-13.43877519038879],[-73.143544261904,-13.437871427121358],[-73.14446757809286,-13.43787823297471],[-73.14446062646853,-13.438781996716449],[-73.14353730682537,-13.43877519038879]]]}},{"type":"Feature","properties":{"Cell_ID":160,"Area_ha":1.0,"LC":"5:0.018899,9:0.309064,13:0.652091,14:0.019946","XMIN":700889.3903163396,"YMIN":8513484.007515207,"XMAX":700989.3903163396,"YMAX":8513584.007515207},"geometry":{"type":"Polygon","coordinates":[[[-73.14353035123551,-13.439678953587952],[-73.14353730682537,-13.43877519038879],[-73.14446062646853,-13.438781996716449],[-73.14445367433323,-13.439685760389914],[-73.14353035123551,-13.439678953587952]]]}},{"type":"Feature","properties":{"Cell_ID":161,"Area_ha":1.0,"LC":"5:0.411021,9:0.099946,13:0.489033","XMIN":700889.3903163396,"YMIN":8513384.007515207,"XMAX":700989.3903163396,"YMAX":8513484.007515207},"geometry":{"type":"Polygon","coordinates":[[[-73.14352339513441,-13.440582716718833],[-73.14353035123551,-13.439678953587952],[-73.14445367433323,-13.439685760389914],[-73.14444672168693,-13.44058952399511],[-73.14352339513441,-13.440582716718833]]]}},{"type":"Feature","properties":{"Cell_ID":162,"Area_ha":1.0,"LC":"5:0.384460,9:0.175342,13:0.440198","XMIN":700989.3903163396,"YMIN":8513484.007515207,"XMAX":701089.3903163396,"YMAX":8513584.007515207},"geometry":{"type":"Polygon","coordinates":[[[-73.14260702864904,-13.439672143404302],[-73.14261398769345,-13.43876838067969],[-73.14353730682537,-13.43877519038879],[-73.14353035123551,-13.439678953587952],[-73.14260702864904,-13.439672143404302]]]}}]}