{"type":"FeatureCollection","features":[{"type":"Feature","properties":{"Cell_ID":1,"Area_ha":1.0,"LC":"5:0.651320,9:0.039438,14:0.309242","XMIN":729084.86160847,"YMIN":8504683.59738907,"XMAX":729184.86160847,"YMAX":8504783.59738907},"geometry":{"type":"Polygon","coordinates":[[[-72.88251630533782,-13.517146881117656],[-72.88252428590172,-13.516243267164477],[-72.88344775609069,-13.516251074149613],[-72.88343977900091,-13.517154688643847],[-72.88251630533782,-13.517146881117656]]]}},{"type":"Feature","properties":{"Cell_ID":2,"Area_ha":1.0,"LC":"5:0.756122,9:0.152852,14:0.091026","XMIN":729184.86160847,"YMIN":8504683.59738907,"XMAX":729284.86160847,"YMAX":8504783.59738907},"geometry":{"type":"Polygon","coordinates":[[[-72.88159283225843,-13.517139070191657],[-72.88160081629647,-13.516235456779775],[-72.88252428590172,-13.516243267164477],[-72.88251630533782,-13.517146881117656],[-72.88159283225843,-13.517139070191657]]]}},{"type":"Feature","properties":{"Cell_ID":3,"Area_ha":1.0,"LC":"3:0.009381,5:0.666741,9:0.019031,14:0.304847","XMIN":729184.86160847,"YMIN":8504583.59738907,"XMAX":729284.86160847,"YMAX":8504683.59738907},"geometry":{"type":"Polygon","coordinates":[[[-72.88158484763643,-13.518042683533842],[-72.88159283225843,-13.517139070191657],[-72.88251630533782,-13.517146881117656],[-72.88250832419018,-13.518050495001138],[-72.88158484763643,-13.518042683533842]]]}},{"type":"Feature","properties":{"Cell_ID":4,"Area_ha":1.0,"LC":"5:0.603878,9:0.328273,14:0.067850","XMIN":729284.86160847,"YMIN":8504683.59738907,"XMAX":729384.86160847,"YMAX":8504783.59738907},"geometry":{"type":"Polygon","coordinates":[[[-72.88066935976303,-13.51713125586587],[-72.88067734727517,-13.516227642995515],[-72.88160081629647,-13.516235456779775],[-72.88159283225843,-13.517139070191657],[-72.88066935976303,-13.51713125586587]]]}},{"type":"Feature","properties":{"Cell_ID":5,"Area_ha":1.0,"LC":"3:0.551433,5:0.093134,14:0.355434","XMIN":729284.86160847,"YMIN":8504583.59738907,"XMAX":729384.86160847,"YMAX":8504683.59738907},"geometry":{"type":"Polygon","coordinates":[[[-72.88066137166666,-13.518034868666524],[-72.88066935976303,-13.51713125586587],[-72.88159283225843,-13.517139070191657],[-72.88158484763643,-13.518042683533842],[-72.88066137166666,-13.518034868666524]]]}},{"type":"Feature","properties":{"Cell_ID":6,"Area_ha":1.0,"LC":"5:0.808567,14:0.191433","XMIN":729384.86160847,"YMIN":8504683.59738907,"XMAX":729484.86160847,"YMAX":8504783.59738907},"geometry":{"type":"Polygon","coordinates":[[[-72.87974588785184,-13.517123438140299],[-72.8797538788381,-13.516219825811712],[-72.88067734727517,-13.516227642995515],[-72.88066935976303,-13.51713125586587],[-72.87974588785184,-13.517123438140299]]]}},{"type":"Feature","properties":{"Cell_ID":7,"Area_ha":1.0,"LC":"3:0.166880,5:0.477766,9:0.283878,14:0.071476","XMIN":729384.86160847,"YMIN":8504583.59738907,"XMAX":729484.86160847,"YMAX":8504683.59738907},"geometry":{"type":"Polygon","coordinates":[[[-72.87973789628111,-13.518027050399182],[-72.87974588785184,-13.517123438140299],[-72.88066935976303,-13.51713125586587],[-72.88066137166666,-13.518034868666524],[-72.87973789628111,-13.518027050399182]]]}},{"type":"Feature","properties":{"Cell_ID":8,"Area_ha":1.0,"LC":"3:0.030056,5:0.400437,9:0.100969,14:0.468538","XMIN":729484.86160847,"YMIN":8504683.59738907,"XMAX":729584.86160847,"YMAX":8504783.59738907},"geometry":{"type":"Polygon","coordinates":[[[-72.87882241652513,-13.517115617014962],[-72.87883041098547,-13.516212005228375],[-72.8797538788381,-13.516219825811712],[-72.87974588785184,-13.517123438140299],[-72.87882241652513,-13.517115617014962]]]}},{"type":"Feature","properties":{"Cell_ID":9,"Area_ha":1.0,"LC":"3:0.062220,5:0.009381,9:0.375278,14:0.553120","XMIN":729484.86160847,"YMIN":8504583.59738907,"XMAX":729584.86160847,"YMAX":8504683.59738907},"geometry":{"type":"Polygon","coordinates":[[[-72.87881442148004,-13.51801922873184],[-72.87882241652513,-13.517115617014962],[-72.87974588785184,-13.517123438140299],[-72.87973789628111,-13.518027050399182],[-72.87881442148004,-13.51801922873184]]]}},{"type":"Feature","properties":{"Cell_ID":10,"Area_ha":1.0,"LC":"3:0.427287,5:0.009649,9:0.180844,14:0.382220","XMIN":729484.86160847,"YMIN":8504483.59738907,"XMAX":729584.86160847,"YMAX":8504583.59738907},"geometry":{"type":"Polygon","coordinates":[[[-72.87880642585024,-13.518922840379002],[-72.87881442148004,-13.51801922873184],[-72.87973789628111,-13.518027050399182],[-72.8797299041259,-13.518930662588355],[-72.87880642585024,-13.518922840379002]]]}},{"type":"Feature","properties":{"Cell_ID":11,"Area_ha":1.0,"LC":"3:1.000000","XMIN":729484.86160847,"YMIN":8504383.59738907,"XMAX":729584.86160847,"YMAX":8504483.59738907},"geometry":{"type":"Polygon","coordinates":[[[-72.87879842963567,-13.519826451956447],[-72.87880642585024,-13.518922840379002],[-72.8797299041259,-13.518930662588355],[-72.87972191138618,-13.519834274707815],[-72.87879842963567,-13.519826451956447]]]}},{"type":"Feature","properties":{"Cell_ID":12,"Area_ha":1.0,"LC":"5:0.020014,9:0.979986","XMIN":729584.86160847,"YMIN":8504783.59738907,"XMAX":729684.86160847,"YMAX":8504883.59738907},"geometry":{"type":"Polygon","coordinates":[[[-72.87790694371756,-13.516204181245511],[-72.87791494106703,-13.515300569931457],[-72.8788384048611,-13.515308393372091],[-72.87883041098547,-13.516212005228375],[-72.87790694371756,-13.516204181245511]]]}},{"type":"Feature","properties":{"Cell_ID":13,"Area_ha":1.0,"LC":"3:0.098594,5:0.028680,9:0.674665,14:0.198061","XMIN":729584.86160847,"YMIN":8504683.59738907,"XMAX":729684.86160847,"YMAX":8504783.59738907},"geometry":{"type":"Polygon","coordinates":[[[-72.87789894578314,-13.517107792489858],[-72.87790694371756,-13.516204181245511],[-72.87883041098547,-13.516212005228375],[-72.87882241652513,-13.517115617014962],[-72.87789894578314,-13.517107792489858]]]}},{"type":"Feature","properties":{"Cell_ID":14,"Area_ha":1.0,"LC":"3:0.900969,14:0.099031","XMIN":729584.86160847,"YMIN":8504583.59738907,"XMAX":729684.86160847,"YMAX":8504683.59738907},"geometry":{"type":"Polygon","coordinates":[[[-72.87789094726374,-13.518011403664495],[-72.87789894578314,-13.517107792489858],[-72.87882241652513,-13.517115617014962],[-72.87881442148004,-13.51801922873184],[-72.87789094726374,-13.518011403664495]]]}},{"type":"Feature","properties":{"Cell_ID":15,"Area_ha":1.0,"LC":"3:0.961939,14:0.038061","XMIN":729584.86160847,"YMIN":8504483.59738907,"XMAX":729684.86160847,"YMAX":8504583.59738907},"geometry":{"type":"Polygon","coordinates":[[[-72.87788294815932,-13.518915014769416],[-72.87789094726374,-13.518011403664495],[-72.87881442148004,-13.51801922873184],[-72.87880642585024,-13.518922840379002],[-72.87788294815932,-13.518915014769416]]]}},{"type":"Feature","properties":{"Cell_ID":16,"Area_ha":1.0,"LC":"3:1.000000","XMIN":729584.86160847,"YMIN":8504383.59738907,"XMAX":729684.86160847,"YMAX":8504483.59738907},"geometry":{"type":"Polygon","coordinates":[[[-72.87787494846991,-13.519818625804612],[-72.87788294815932,-13.518915014769416],[-72.87880642585024,-13.518922840379002],[-72.87879842963567,-13.519826451956447],[-72.87787494846991,-13.519818625804612]]]}},{"type":"Feature","properties":{"Cell_ID":17,"Area_ha":1.0,"LC":"3:0.465410,5:0.449087,9:0.085504","XMIN":729684.86160847,"YMIN":8504783.59738907,"XMAX":729784.86160847,"YMAX":8504883.59738907},"geometry":{"type":"Polygon","coordinates":[[[-72.87698347703464,-13.51619635386313],[-72.87699147785791,-13.515292743091543],[-72.87791494106703,-13.515300569931457],[-72.87790694371756,-13.516204181245511],[-72.87698347703464,-13.51619635386313]]]}},{"type":"Feature","properties":{"Cell_ID":18,"Area_ha":1.0,"LC":"3:0.212697,5:0.302094,9:0.405771,14:0.079438","XMIN":729684.86160847,"YMIN":8504683.59738907,"XMAX":729784.86160847,"YMAX":8504783.59738907},"geometry":{"type":"Polygon","coordinates":[[[-72.87697547562614,-13.517099964565006],[-72.87698347703464,-13.51619635386313],[-72.87790694371756,-13.516204181245511],[-72.87789894578314,-13.517107792489858],[-72.87697547562614,-13.517099964565006]]]}},{"type":"Feature","properties":{"Cell_ID":19,"Area_ha":1.0,"LC":"3:0.601377,14:0.398623","XMIN":729684.86160847,"YMIN":8504583.59738907,"XMAX":729784.86160847,"YMAX":8504683.59738907},"geometry":{"type":"Polygon","coordinates":[[[-72.8769674736324,-13.518003575197167],[-72.87697547562614,-13.517099964565006],[-72.87789894578314,-13.517107792489858],[-72.87789094726374,-13.518011403664495],[-72.8769674736324,-13.518003575197167]]]}},{"type":"Feature","properties":{"Cell_ID":20,"Area_ha":1.0,"LC":"3:0.546347,14:0.453653","XMIN":729684.86160847,"YMIN":8504483.59738907,"XMAX":729784.86160847,"YMAX":8504583.59738907},"geometry":{"type":"Polygon","coordinates":[[[-72.87695947105341,-13.518907185759605],[-72.8769674736324,-13.518003575197167],[-72.87789094726374,-13.518011403664495],[-72.87788294815932,-13.518915014769416],[-72.87695947105341,-13.518907185759605]]]}},{"type":"Feature","properties":{"Cell_ID":21,"Area_ha":1.0,"LC":"3:0.335715,14:0.664285","XMIN":729684.86160847,"YMIN":8504383.59738907,"XMAX":729784.86160847,"YMAX":8504483.59738907},"geometry":{"type":"Polygon","coordinates":[[[-72.87695146788917,-13.51981079625232],[-72.87695947105341,-13.518907185759605],[-72.87788294815932,-13.518915014769416],[-72.87787494846991,-13.519818625804612],[-72.87695146788917,-13.51981079625232]]]}},{"type":"Feature","properties":{"Cell_ID":22,"Area_ha":1.0,"LC":"3:0.647443,9:0.352557","XMIN":729784.86160847,"YMIN":8504783.59738907,"XMAX":729884.86160847,"YMAX":8504883.59738907},"geometry":{"type":"Polygon","coordinates":[[[-72.87606001093694,-13.516188523081244],[-72.87606801523401,-13.515284912852358],[-72.87699147785791,-13.515292743091543],[-72.87698347703464,-13.51619635386313],[-72.87606001093694,-13.516188523081244]]]}},{"type":"Feature","properties":{"Cell_ID":23,"Area_ha":1.0,"LC":"3:0.496966,5:0.019031,9:0.072852,14:0.411151","XMIN":729784.86160847,"YMIN":8504683.59738907,"XMAX":729884.86160847,"YMAX":8504783.59738907},"geometry":{"type":"Polygon","coordinates":[[[-72.87605200605437,-13.51709213324041],[-72.87606001093694,-13.516188523081244],[-72.87698347703464,-13.51619635386313],[-72.87697547562614,-13.517099964565006],[-72.87605200605437,-13.51709213324041]]]}},{"type":"Feature","properties":{"Cell_ID":24,"Area_ha":1.0,"LC":"3:0.095153,13:0.251714,14:0.653134","XMIN":729784.86160847,"YMIN":8504583.59738907,"XMAX":729884.86160847,"YMAX":8504683.59738907},"geometry":{"type":"Polygon","coordinates":[[[-72.87604400058632,-13.51799574332986],[-72.87605200605437,-13.51709213324041],[-72.87697547562614,-13.517099964565006],[-72.8769674736324,-13.518003575197167],[-72.87604400058632,-13.51799574332986]]]}},{"type":"Feature","properties":{"Cell_ID":25,"Area_ha":1.0,"LC":"3:0.009649,13:0.133134,14:0.857217","XMIN":729784.86160847,"YMIN":8504483.59738907,"XMAX":729884.86160847,"YMAX":8504583.59738907},"geometry":{"type":"Polygon","coordinates":[[[-72.87603599453276,-13.518899353349587],[-72.87604400058632,-13.51799574332986],[-72.8769674736324,-13.518003575197167],[-72.87695947105341,-13.518907185759605],[-72.87603599453276,-13.518899353349587]]]}},{"type":"Feature","properties":{"Cell_ID":26,"Area_ha":1.0,"LC":"5:0.131026,14:0.868974","XMIN":729784.86160847,"YMIN":8504383.59738907,"XMAX":729884.86160847,"YMAX":8504483.59738907},"geometry":{"type":"Polygon","coordinates":[[[-72.87602798789369,-13.51980296329958],[-72.87603599453276,-13.518899353349587],[-72.87695947105341,-13.518907185759605],[-72.87695146788917,-13.51981079625232],[-72.87602798789369,-13.51980296329958]]]}},{"type":"Feature","properties":{"Cell_ID":27,"Area_ha":1.0,"LC":"5:0.253822,9:0.070744,14:0.675434","XMIN":729784.86160847,"YMIN":8504283.59738907,"XMAX":729884.86160847,"YMAX":8504383.59738907},"geometry":{"type":"Polygon","coordinates":[[[-72.87601998066911,-13.520706573179844],[-72.87602798789369,-13.51980296329958],[-72.87695146788917,-13.51981079625232],[-72.87694346413966,-13.52071440667531],[-72.87601998066911,-13.520706573179844]]]}},{"type":"Feature","properties":{"Cell_ID":28,"Area_ha":1.0,"LC":"9:0.472164,13:0.272683,14:0.255153","XMIN":729784.86160847,"YMIN":8504183.59738907,"XMAX":729884.86160847,"YMAX":8504283.59738907},"geometry":{"type":"Polygon","coordinates":[[[-72.87601197285898,-13.521610182990372],[-72.87601998066911,-13.520706573179844],[-72.87694346413966,-13.52071440667531],[-72.87693545980487,-13.52161801702856],[-72.87601197285898,-13.521610182990372]]]}},{"type":"Feature","properties":{"Cell_ID":29,"Area_ha":1.0,"LC":"5:0.684566,9:0.267991,14:0.047443","XMIN":729884.86160847,"YMIN":8504683.59738907,"XMAX":729984.86160847,"YMAX":8504783.59738907},"geometry":{"type":"Polygon","coordinates":[[[-72.87512853706811,-13.517084298516084],[-72.87513654542471,-13.516180688899858],[-72.87606001093694,-13.516188523081244],[-72.87605200605437,-13.51709213324041],[-72.87512853706811,-13.517084298516084]]]}},{"type":"Feature","properties":{"Cell_ID":30,"Area_ha":1.0,"LC":"5:0.625410,9:0.279438,13:0.047443,14:0.047710","XMIN":729884.86160847,"YMIN":8504583.59738907,"XMAX":729984.86160847,"YMAX":8504683.59738907},"geometry":{"type":"Polygon","coordinates":[[[-72.87512052812575,-13.517987908062587],[-72.87512853706811,-13.517084298516084],[-72.87605200605437,-13.51709213324041],[-72.87604400058632,-13.51799574332986],[-72.87512052812575,-13.517987908062587]]]}},{"type":"Feature","properties":{"Cell_ID":31,"Area_ha":1.0,"LC":"5:0.182908,9:0.342783,13:0.327148,14:0.147161","XMIN":729884.86160847,"YMIN":8504483.59738907,"XMAX":729984.86160847,"YMAX":8504583.59738907},"geometry":{"type":"Polygon","coordinates":[[[-72.87511251859763,-13.518891517539362],[-72.87512052812575,-13.517987908062587],[-72.87604400058632,-13.51799574332986],[-72.87603599453276,-13.518899353349587],[-72.87511251859763,-13.518891517539362]]]}},{"type":"Feature","properties":{"Cell_ID":32,"Area_ha":1.0,"LC":"5:0.461390,13:0.040562,14:0.498047","XMIN":729884.86160847,"YMIN":8504383.59738907,"XMAX":729984.86160847,"YMAX":8504483.59738907},"geometry":{"type":"Polygon","coordinates":[[[-72.87510450848374,-13.5197951269464],[-72.87511251859763,-13.518891517539362],[-72.87603599453276,-13.518899353349587],[-72.87602798789369,-13.51980296329958],[-72.87510450848374,-13.5197951269464]]]}},{"type":"Feature","properties":{"Cell_ID":33,"Area_ha":1.0,"LC":"5:0.449523,9:0.519563,14:0.030913","XMIN":729884.86160847,"YMIN":8504283.59738907,"XMAX":729984.86160847,"YMAX":8504383.59738907},"geometry":{"type":"Polygon","coordinates":[[[-72.87509649778409,-13.520698736283704],[-72.87510450848374,-13.5197951269464],[-72.87602798789369,-13.51980296329958],[-72.87601998066911,-13.520706573179844],[-72.87509649778409,-13.520698736283704]]]}},{"type":"Feature","properties":{"Cell_ID":34,"Area_ha":1.0,"LC":"9:0.501406,13:0.498594","XMIN":729884.86160847,"YMIN":8504183.59738907,"XMAX":729984.86160847,"YMAX":8504283.59738907},"geometry":{"type":"Polygon","coordinates":[[[-72.87508848649865,-13.52160234555127],[-72.87509649778409,-13.520698736283704],[-72.87601998066911,-13.520706573179844],[-72.87601197285898,-13.521610182990372],[-72.87508848649865,-13.52160234555127]]]}},{"type":"Feature","properties":{"Cell_ID":35,"Area_ha":1.0,"LC":"13:0.901406,14:0.098594","XMIN":729884.86160847,"YMIN":8504083.59738907,"XMAX":729984.86160847,"YMAX":8504183.59738907},"geometry":{"type":"Polygon","coordinates":[[[-72.8750804746274,-13.522505954749088],[-72.87508848649865,-13.52160234555127],[-72.87601197285898,-13.521610182990372],[-72.87600396446332,-13.522513792731154],[-72.8750804746274,-13.522505954749088]]]}},{"type":"Feature","properties":{"Cell_ID":36,"Area_ha":1.0,"LC":"5:0.209256,9:0.790744","XMIN":729984.86160847,"YMIN":8504483.59738907,"XMAX":730084.86160847,"YMAX":8504583.59738907},"geometry":{"type":"Polygon","coordinates":[[[-72.87418904324826,-13.518883678328944],[-72.87419705625092,-13.517980069395355],[-72.87512052812575,-13.517987908062587],[-72.87511251859763,-13.518891517539362],[-72.87418904324826,-13.518883678328944]]]}},{"type":"Feature","properties":{"Cell_ID":37,"Area_ha":1.0,"LC":"5:0.146741,9:0.514665,14:0.338594","XMIN":729984.86160847,"YMIN":8504383.59738907,"XMAX":730084.86160847,"YMAX":8504483.59738907},"geometry":{"type":"Polygon","coordinates":[[[-72.87418102965958,-13.519787287192791],[-72.87418904324826,-13.518883678328944],[-72.87511251859763,-13.518891517539362],[-72.87510450848374,-13.5197951269464],[-72.87418102965958,-13.519787287192791]]]}},{"type":"Feature","properties":{"Cell_ID":38,"Area_ha":1.0,"LC":"5:0.238061,9:0.216655,13:0.363878,14:0.181406","XMIN":729984.86160847,"YMIN":8504283.59738907,"XMAX":730084.86160847,"YMAX":8504383.59738907},"geometry":{"type":"Polygon","coordinates":[[[-72.87417301548486,-13.520690895986906],[-72.87418102965958,-13.519787287192791],[-72.87510450848374,-13.5197951269464],[-72.87509649778409,-13.520698736283704],[-72.87417301548486,-13.520690895986906]]]}},{"type":"Feature","properties":{"Cell_ID":39,"Area_ha":1.0,"LC":"9:0.694652,13:0.305348","XMIN":729984.86160847,"YMIN":8504183.59738907,"XMAX":730084.86160847,"YMAX":8504283.59738907},"geometry":{"type":"Polygon","coordinates":[[[-72.87416500072412,-13.521594504711267],[-72.87417301548486,-13.520690895986906],[-72.87509649778409,-13.520698736283704],[-72.87508848649865,-13.52160234555127],[-72.87416500072412,-13.521594504711267]]]}},{"type":"Feature","properties":{"Cell_ID":40,"Area_ha":1.0,"LC":"9:0.262346,13:0.688835,14:0.048819","XMIN":729984.86160847,"YMIN":8504083.59738907,"XMAX":730084.86160847,"YMAX":8504183.59738907},"geometry":{"type":"Polygon","coordinates":[[[-72.8741569853773,-13.522498113365883],[-72.87416500072412,-13.521594504711267],[-72.87508848649865,-13.52160234555127],[-72.8750804746274,-13.522505954749088],[-72.8741569853773,-13.522498113365883]]]}},{"type":"Feature","properties":{"Cell_ID":41,"Area_ha":1.0,"LC":"9:0.251320,13:0.718749,14:0.029930","XMIN":730084.86160847,"YMIN":8504283.59738907,"XMAX":730184.86160847,"YMAX":8504383.59738907},"geometry":{"type":"Polygon","coordinates":[[[-72.87324953377167,-13.52068305228945],[-72.87325755142143,-13.519779444038766],[-72.87418102965958,-13.519787287192791],[-72.87417301548486,-13.520690895986906],[-72.87324953377167,-13.52068305228945]]]}},{"type":"Feature","properties":{"Cell_ID":42,"Area_ha":1.0,"LC":"9:0.867724,13:0.020281,14:0.111995","XMIN":730084.86160847,"YMIN":8504183.59738907,"XMAX":730184.86160847,"YMAX":8504283.59738907},"geometry":{"type":"Polygon","coordinates":[[[-72.87324151553561,-13.521586660470378],[-72.87324953377167,-13.52068305228945],[-72.87417301548486,-13.520690895986906],[-72.87416500072412,-13.521594504711267],[-72.87324151553561,-13.521586660470378]]]}},{"type":"Feature","properties":{"Cell_ID":43,"Area_ha":1.0,"LC":"9:0.540844,13:0.158061,14:0.301095","XMIN":730084.86160847,"YMIN":8504083.59738907,"XMAX":730184.86160847,"YMAX":8504183.59738907},"geometry":{"type":"Polygon","coordinates":[[[-72.87323349671327,-13.522490268581555],[-72.87324151553561,-13.521586660470378],[-72.87416500072412,-13.521594504711267],[-72.8741569853773,-13.522498113365883],[-72.87323349671327,-13.522490268581555]]]}},{"type":"Feature","properties":{"Cell_ID":44,"Area_ha":1.0,"LC":"5:0.052276,9:0.819031,13:0.128693","XMIN":730184.86160847,"YMIN":8504283.59738907,"XMAX":730284.86160847,"YMAX":8504383.59738907},"geometry":{"type":"Polygon","coordinates":[[[-72.87232605264478,-13.520675205191345],[-72.87233407376957,-13.519771597484333],[-72.87325755142143,-13.519779444038766],[-72.87324953377167,-13.52068305228945],[-72.87232605264478,-13.520675205191345]]]}},{"type":"Feature","properties":{"Cell_ID":45,"Area_ha":1.0,"LC":"5:0.031602,9:0.459298,14:0.509100","XMIN":730184.86160847,"YMIN":8504183.59738907,"XMAX":730284.86160847,"YMAX":8504283.59738907},"geometry":{"type":"Polygon","coordinates":[[[-72.87231803093344,-13.521578812828606],[-72.87232605264478,-13.520675205191345],[-72.87324953377167,-13.52068305228945],[-72.87324151553561,-13.521586660470378],[-72.87231803093344,-13.521578812828606]]]}},{"type":"Feature","properties":{"Cell_ID":46,"Area_ha":1.0,"LC":"9:0.671476,14:0.328524","XMIN":730184.86160847,"YMIN":8504083.59738907,"XMAX":730284.86160847,"YMAX":8504183.59738907},"geometry":{"type":"Polygon","coordinates":[[[-72.87231000863554,-13.522482420396111],[-72.87231803093344,-13.521578812828606],[-72.87324151553561,-13.521586660470378],[-72.87323349671327,-13.522490268581555],[-72.87231000863554,-13.522482420396111]]]}},{"type":"Feature","properties":{"Cell_ID":47,"Area_ha":1.0,"LC":"9:0.530211,13:0.192164,14:0.277624","XMIN":730284.86160847,"YMIN":8504083.59738907,"XMAX":730384.86160847,"YMAX":8504183.59738907},"geometry":{"type":"Polygon","coordinates":[[[-72.87138652114437,-13.522474568809562],[-72.87139454691781,-13.521570961785969],[-72.87231803093344,-13.521578812828606],[-72.87231000863554,-13.522482420396111],[-72.87138652114437,-13.522474568809562]]]}}]}