{"type":"FeatureCollection","features":[{"type":"Feature","properties":{"Cell_ID":1,"Area_ha":1.0,"LC":"16:1.000000","XMIN":716784.86160847,"YMIN":8516365.889585631,"XMAX":716884.86160847,"YMAX":8516465.889585631},"geometry":{"type":"Polygon","coordinates":[[[-72.99698651489074,-13.41251083750364],[-72.99699400358682,-13.411607150710937],[-72.99791713937627,-13.41161447967816],[-72.9979096541259,-13.412518166982508],[-72.99698651489074,-13.41251083750364]]]}},{"type":"Feature","properties":{"Cell_ID":2,"Area_ha":1.0,"LC":"16:1.000000","XMIN":716784.86160847,"YMIN":8516265.889585631,"XMAX":716884.86160847,"YMAX":8516365.889585631},"geometry":{"type":"Polygon","coordinates":[[[-72.99697902564336,-13.413414524227628],[-72.99698651489074,-13.41251083750364],[-72.9979096541259,-13.412518166982508],[-72.99790216832452,-13.413421854218146],[-72.99697902564336,-13.413414524227628]]]}},{"type":"Feature","properties":{"Cell_ID":3,"Area_ha":1.0,"LC":"16:1.000000","XMIN":716784.86160847,"YMIN":8516165.889585631,"XMAX":716884.86160847,"YMAX":8516265.889585631},"geometry":{"type":"Polygon","coordinates":[[[-72.99697153584465,-13.414318210882895],[-72.99697902564336,-13.413414524227628],[-72.99790216832452,-13.413421854218146],[-72.99789468197204,-13.414325541385068],[-72.99697153584465,-13.414318210882895]]]}},{"type":"Feature","properties":{"Cell_ID":4,"Area_ha":1.0,"LC":"13:0.007934,16:0.992066","XMIN":716784.86160847,"YMIN":8516065.889585631,"XMAX":716884.86160847,"YMAX":8516165.889585631},"geometry":{"type":"Polygon","coordinates":[[[-72.99696404549461,-13.415221897469435],[-72.99697153584465,-13.414318210882895],[-72.99789468197204,-13.414325541385068],[-72.9978871950685,-13.415229228483266],[-72.99696404549461,-13.415221897469435]]]}},{"type":"Feature","properties":{"Cell_ID":5,"Area_ha":1.0,"LC":"13:0.255116,16:0.744884","XMIN":716784.86160847,"YMIN":8515965.889585631,"XMAX":716884.86160847,"YMAX":8516065.889585631},"geometry":{"type":"Polygon","coordinates":[[[-72.99695655459324,-13.416125583987247],[-72.99696404549461,-13.415221897469435],[-72.9978871950685,-13.415229228483266],[-72.99787970761388,-13.41613291551274],[-72.99695655459324,-13.416125583987247]]]}},{"type":"Feature","properties":{"Cell_ID":6,"Area_ha":1.0,"LC":"16:0.553733,17:0.443808","XMIN":716884.86160847,"YMIN":8516465.889585631,"XMAX":716984.86160847,"YMAX":8516565.889585631},"geometry":{"type":"Polygon","coordinates":[[[-72.99607086834868,-13.41159981837048],[-72.99607835993893,-13.410696132020941],[-72.99700149173161,-13.410703463849519],[-72.99699400358682,-13.411607150710937],[-72.99607086834868,-13.41159981837048]]]}},{"type":"Feature","properties":{"Cell_ID":7,"Area_ha":1.0,"LC":"16:1.000000","XMIN":716884.86160847,"YMIN":8516365.889585631,"XMAX":716984.86160847,"YMAX":8516465.889585631},"geometry":{"type":"Polygon","coordinates":[[[-72.99606337620688,-13.4125035046513],[-72.99607086834868,-13.41159981837048],[-72.99699400358682,-13.411607150710937],[-72.99698651489074,-13.41251083750364],[-72.99606337620688,-13.4125035046513]]]}},{"type":"Feature","properties":{"Cell_ID":8,"Area_ha":1.0,"LC":"16:1.000000","XMIN":716884.86160847,"YMIN":8516265.889585631,"XMAX":716984.86160847,"YMAX":8516365.889585631},"geometry":{"type":"Polygon","coordinates":[[[-72.9960558835135,-13.4134071908634],[-72.99606337620688,-13.4125035046513],[-72.99698651489074,-13.41251083750364],[-72.99697902564336,-13.413414524227628],[-72.9960558835135,-13.4134071908634]]]}},{"type":"Feature","properties":{"Cell_ID":9,"Area_ha":1.0,"LC":"16:1.000000","XMIN":716884.86160847,"YMIN":8516165.889585631,"XMAX":716984.86160847,"YMAX":8516265.889585631},"geometry":{"type":"Polygon","coordinates":[[[-72.99604839026857,-13.414310877006777],[-72.9960558835135,-13.4134071908634],[-72.99697902564336,-13.413414524227628],[-72.99697153584465,-13.414318210882895],[-72.99604839026857,-13.414310877006777]]]}},{"type":"Feature","properties":{"Cell_ID":10,"Area_ha":1.0,"LC":"13:0.007200,16:0.992800","XMIN":716884.86160847,"YMIN":8516065.889585631,"XMAX":716984.86160847,"YMAX":8516165.889585631},"geometry":{"type":"Polygon","coordinates":[[[-72.99604089647207,-13.415214563081424],[-72.99604839026857,-13.414310877006777],[-72.99697153584465,-13.414318210882895],[-72.99696404549461,-13.415221897469435],[-72.99604089647207,-13.415214563081424]]]}},{"type":"Feature","properties":{"Cell_ID":11,"Area_ha":1.0,"LC":"9:0.015134,13:0.310287,16:0.674579","XMIN":716884.86160847,"YMIN":8515965.889585631,"XMAX":716984.86160847,"YMAX":8516065.889585631},"geometry":{"type":"Polygon","coordinates":[[[-72.99603340212396,-13.416118249087337],[-72.99604089647207,-13.415214563081424],[-72.99696404549461,-13.415221897469435],[-72.99695655459324,-13.416125583987247],[-72.99603340212396,-13.416118249087337]]]}},{"type":"Feature","properties":{"Cell_ID":12,"Area_ha":1.0,"LC":"9:0.281365,13:0.263660,16:0.454974","XMIN":716884.86160847,"YMIN":8515865.889585631,"XMAX":716984.86160847,"YMAX":8515965.889585631},"geometry":{"type":"Polygon","coordinates":[[[-72.99602590722425,-13.417021935024513],[-72.99603340212396,-13.416118249087337],[-72.99695655459324,-13.416125583987247],[-72.99694906314053,-13.417029270436322],[-72.99602590722425,-13.417021935024513]]]}},{"type":"Feature","properties":{"Cell_ID":13,"Area_ha":1.0,"LC":"5:0.095134,6:0.057092,9:0.539764,13:0.020236,16:0.287774","XMIN":716884.86160847,"YMIN":8515765.889585631,"XMAX":716984.86160847,"YMAX":8515865.889585631},"geometry":{"type":"Polygon","coordinates":[[[-72.99601841177294,-13.417925620892948],[-72.99602590722425,-13.417021935024513],[-72.99694906314053,-13.417029270436322],[-72.99694157113646,-13.41793295681666],[-72.99601841177294,-13.417925620892948]]]}},{"type":"Feature","properties":{"Cell_ID":14,"Area_ha":1.0,"LC":"9:0.084038,16:0.915962","XMIN":716984.86160847,"YMIN":8516365.889585631,"XMAX":717084.86160847,"YMAX":8516465.889585631},"geometry":{"type":"Polygon","coordinates":[[[-72.99514023807458,-13.4124961684255],[-72.9951477336621,-13.411592482656795],[-72.99607086834868,-13.41159981837048],[-72.99606337620688,-13.4125035046513],[-72.99514023807458,-13.4124961684255]]]}},{"type":"Feature","properties":{"Cell_ID":15,"Area_ha":1.0,"LC":"9:0.260810,16:0.739190","XMIN":716984.86160847,"YMIN":8516265.889585631,"XMAX":717084.86160847,"YMAX":8516365.889585631},"geometry":{"type":"Polygon","coordinates":[[[-72.99513274193525,-13.413399854125476],[-72.99514023807458,-13.4124961684255],[-72.99606337620688,-13.4125035046513],[-72.9960558835135,-13.4134071908634],[-72.99513274193525,-13.413399854125476]]]}},{"type":"Feature","properties":{"Cell_ID":16,"Area_ha":1.0,"LC":"16:1.000000","XMIN":716984.86160847,"YMIN":8516165.889585631,"XMAX":717084.86160847,"YMAX":8516265.889585631},"geometry":{"type":"Polygon","coordinates":[[[-72.99512524524408,-13.414303539756729],[-72.99513274193525,-13.413399854125476],[-72.9960558835135,-13.4134071908634],[-72.99604839026857,-13.414310877006777],[-72.99512524524408,-13.414303539756729]]]}},{"type":"Feature","properties":{"Cell_ID":17,"Area_ha":1.0,"LC":"16:1.000000","XMIN":716984.86160847,"YMIN":8516065.889585631,"XMAX":717084.86160847,"YMAX":8516165.889585631},"geometry":{"type":"Polygon","coordinates":[[[-72.99511774800109,-13.415207225319246],[-72.99512524524408,-13.414303539756729],[-72.99604839026857,-13.414310877006777],[-72.99604089647207,-13.415214563081424],[-72.99511774800109,-13.415207225319246]]]}},{"type":"Feature","properties":{"Cell_ID":18,"Area_ha":1.0,"LC":"16:1.000000","XMIN":716984.86160847,"YMIN":8515965.889585631,"XMAX":717084.86160847,"YMAX":8516065.889585631},"geometry":{"type":"Polygon","coordinates":[[[-72.99511025020627,-13.416110910813028],[-72.99511774800109,-13.415207225319246],[-72.99604089647207,-13.415214563081424],[-72.99603340212396,-13.416118249087337],[-72.99511025020627,-13.416110910813028]]]}},{"type":"Feature","properties":{"Cell_ID":19,"Area_ha":1.0,"LC":"9:0.030269,13:0.807342,16:0.162389","XMIN":716984.86160847,"YMIN":8515865.889585631,"XMAX":717084.86160847,"YMAX":8515965.889585631},"geometry":{"type":"Polygon","coordinates":[[[-72.99510275185958,-13.41701459623807],[-72.99511025020627,-13.416110910813028],[-72.99603340212396,-13.416118249087337],[-72.99602590722425,-13.417021935024513],[-72.99510275185958,-13.41701459623807]]]}},{"type":"Feature","properties":{"Cell_ID":20,"Area_ha":1.0,"LC":"5:0.041939,9:0.706373,13:0.114597,16:0.137092","XMIN":716984.86160847,"YMIN":8515765.889585631,"XMAX":717084.86160847,"YMAX":8515865.889585631},"geometry":{"type":"Polygon","coordinates":[[[-72.99509525296102,-13.417918281594364],[-72.99510275185958,-13.41701459623807],[-72.99602590722425,-13.417021935024513],[-72.99601841177294,-13.417925620892948],[-72.99509525296102,-13.417918281594364]]]}},{"type":"Feature","properties":{"Cell_ID":21,"Area_ha":1.0,"LC":"9:0.413787,13:0.049873,16:0.536340","XMIN":717084.86160847,"YMIN":8516265.889585631,"XMAX":717184.86160847,"YMAX":8516365.889585631},"geometry":{"type":"Polygon","coordinates":[[[-72.99420960090879,-13.413392514013864],[-72.99421710049408,-13.412488828826241],[-72.99514023807458,-13.4124961684255],[-72.99513274193525,-13.413399854125476],[-72.99420960090879,-13.413392514013864]]]}},{"type":"Feature","properties":{"Cell_ID":22,"Area_ha":1.0,"LC":"13:0.306213,16:0.693787","XMIN":717084.86160847,"YMIN":8516165.889585631,"XMAX":717184.86160847,"YMAX":8516265.889585631},"geometry":{"type":"Polygon","coordinates":[[[-72.99420210077142,-13.414296199132757],[-72.99420960090879,-13.413392514013864],[-72.99513274193525,-13.413399854125476],[-72.99512524524408,-13.414303539756729],[-72.99420210077142,-13.414296199132757]]]}},{"type":"Feature","properties":{"Cell_ID":23,"Area_ha":1.0,"LC":"5:0.049873,9:0.055134,13:0.400000,16:0.494993","XMIN":717084.86160847,"YMIN":8516065.889585631,"XMAX":717184.86160847,"YMAX":8516165.889585631},"geometry":{"type":"Polygon","coordinates":[[[-72.99419460008198,-13.415199884182913],[-72.99420210077142,-13.414296199132757],[-72.99512524524408,-13.414303539756729],[-72.99511774800109,-13.415207225319246],[-72.99419460008198,-13.415199884182913]]]}},{"type":"Feature","properties":{"Cell_ID":24,"Area_ha":1.0,"LC":"5:0.054974,9:0.455134,13:0.179604,16:0.310287","XMIN":717084.86160847,"YMIN":8515965.889585631,"XMAX":717184.86160847,"YMAX":8516065.889585631},"geometry":{"type":"Polygon","coordinates":[[[-72.99418709884043,-13.416103569164324],[-72.99419460008198,-13.415199884182913],[-72.99511774800109,-13.415207225319246],[-72.99511025020627,-13.416110910813028],[-72.99418709884043,-13.416103569164324]]]}},{"type":"Feature","properties":{"Cell_ID":25,"Area_ha":1.0,"LC":"5:0.007934,9:0.209731,13:0.560773,16:0.221561","XMIN":717084.86160847,"YMIN":8515865.889585631,"XMAX":717184.86160847,"YMAX":8515965.889585631},"geometry":{"type":"Polygon","coordinates":[[[-72.99417959704677,-13.417007254076992],[-72.99418709884043,-13.416103569164324],[-72.99511025020627,-13.416110910813028],[-72.99510275185958,-13.41701459623807],[-72.99417959704677,-13.417007254076992]]]}},{"type":"Feature","properties":{"Cell_ID":26,"Area_ha":1.0,"LC":"5:0.723446,9:0.045261,13:0.231293","XMIN":717084.86160847,"YMIN":8515765.889585631,"XMAX":717184.86160847,"YMAX":8515865.889585631},"geometry":{"type":"Polygon","coordinates":[[[-72.994172094701,-13.417910938920913],[-72.99417959704677,-13.417007254076992],[-72.99510275185958,-13.41701459623807],[-72.99509525296102,-13.417918281594364],[-72.994172094701,-13.417910938920913]]]}},{"type":"Feature","properties":{"Cell_ID":27,"Area_ha":1.0,"LC":"5:0.988170,9:0.011830","XMIN":717084.86160847,"YMIN":8515665.889585631,"XMAX":717184.86160847,"YMAX":8515765.889585631},"geometry":{"type":"Polygon","coordinates":[[[-72.99416459180308,-13.418814623696077],[-72.994172094701,-13.417910938920913],[-72.99509525296102,-13.417918281594364],[-72.9950877535106,-13.41882196688191],[-72.99416459180308,-13.418814623696077]]]}}]}