{"type":"FeatureCollection","features":[{"type":"Feature","properties":{"Cell_ID":1,"Area_ha":1.0,"LC":"9:0.223497,16:0.057637,17:0.423616","XMIN":700644.86160847,"YMIN":8515550.398242213,"XMAX":700744.86160847,"YMAX":8515650.398242213},"geometry":{"type":"Polygon","coordinates":[[[-73.14593159355765,-13.421020275434067],[-73.14593853015062,-13.420116509665759],[-73.14686177971464,-13.420123297936348],[-73.14685484657099,-13.42102706417832],[-73.14593159355765,-13.421020275434067]]]}},{"type":"Feature","properties":{"Cell_ID":2,"Area_ha":1.0,"LC":"5:0.003207,9:0.837382,16:0.159411","XMIN":700744.86160847,"YMIN":8515450.398242213,"XMAX":700844.86160847,"YMAX":8515550.398242213},"geometry":{"type":"Polygon","coordinates":[[[-73.14500140050176,-13.421917248539204],[-73.14500834105473,-13.421013483312974],[-73.14593159355765,-13.421020275434067],[-73.14592465645424,-13.421924041134197],[-73.14500140050176,-13.421917248539204]]]}}]}