{"type":"FeatureCollection","features":[{"type":"Feature","properties":{"Cell_ID":1,"Area_ha":1.0,"LC":"5:0.019164,9:0.755707,13:0.225129","XMIN":708984.86160847,"YMIN":8510933.59738907,"XMAX":709084.86160847,"YMAX":8511033.59738907},"geometry":{"type":"Polygon","coordinates":[[[-73.06860000575199,-13.462165339295138],[-73.06860725453939,-13.461261617024974],[-73.06953062013922,-13.461268709652991],[-73.0695233748121,-13.462172432416628],[-73.06860000575199,-13.462165339295138]]]}},{"type":"Feature","properties":{"Cell_ID":2,"Area_ha":1.0,"LC":"5:0.020822,9:0.895153,13:0.084025","XMIN":708984.86160847,"YMIN":8510833.59738907,"XMAX":709084.86160847,"YMAX":8510933.59738907},"geometry":{"type":"Polygon","coordinates":[[[-73.06859275643257,-13.463069061496636],[-73.06860000575199,-13.462165339295138],[-73.0695233748121,-13.462172432416628],[-73.0695161289532,-13.4630761551116],[-73.06859275643257,-13.463069061496636]]]}},{"type":"Feature","properties":{"Cell_ID":3,"Area_ha":1.0,"LC":"5:0.243744,9:0.418350,13:0.337906","XMIN":708984.86160847,"YMIN":8510733.59738907,"XMAX":709084.86160847,"YMAX":8510833.59738907},"geometry":{"type":"Polygon","coordinates":[[[-73.06858550658109,-13.463972783629456],[-73.06859275643257,-13.463069061496636],[-73.0695161289532,-13.4630761551116],[-73.0695088825625,-13.463979877737902],[-73.06858550658109,-13.463972783629456]]]}},{"type":"Feature","properties":{"Cell_ID":4,"Area_ha":1.0,"LC":"5:0.000281,13:0.999719","XMIN":708984.86160847,"YMIN":8510633.59738907,"XMAX":709084.86160847,"YMAX":8510733.59738907},"geometry":{"type":"Polygon","coordinates":[[[-73.06857825619755,-13.464876505693603],[-73.06858550658109,-13.463972783629456],[-73.0695088825625,-13.463979877737902],[-73.06950163564001,-13.464883600295527],[-73.06857825619755,-13.464876505693603]]]}},{"type":"Feature","properties":{"Cell_ID":5,"Area_ha":1.0,"LC":"13:1.000000","XMIN":708984.86160847,"YMIN":8510533.59738907,"XMAX":709084.86160847,"YMAX":8510633.59738907},"geometry":{"type":"Polygon","coordinates":[[[-73.06857100528195,-13.465780227689065],[-73.06857825619755,-13.464876505693603],[-73.06950163564001,-13.464883600295527],[-73.06949438818569,-13.465787322784477],[-73.06857100528195,-13.465780227689065]]]}},{"type":"Feature","properties":{"Cell_ID":6,"Area_ha":1.0,"LC":"9:0.760533,13:0.201406,14:0.038061","XMIN":708984.86160847,"YMIN":8510333.59738907,"XMAX":709084.86160847,"YMAX":8510433.59738907},"geometry":{"type":"Polygon","coordinates":[[[-73.0685565018545,-13.467587671473925],[-73.06856375383427,-13.46668394961584],[-73.06948714019954,-13.46669104520474],[-73.06947989168158,-13.467594767556317],[-73.0685565018545,-13.467587671473925]]]}},{"type":"Feature","properties":{"Cell_ID":7,"Area_ha":1.0,"LC":"5:0.041792,9:0.939312,13:0.018897","XMIN":709084.86160847,"YMIN":8511133.59738907,"XMAX":709184.86160847,"YMAX":8511233.59738907},"geometry":{"type":"Polygon","coordinates":[[[-73.06769114118696,-13.460350799165083],[-73.06769839237005,-13.459447077251289],[-73.06862175051809,-13.45945417227865],[-73.06861450279474,-13.460357894686139],[-73.06769114118696,-13.460350799165083]]]}},{"type":"Feature","properties":{"Cell_ID":8,"Area_ha":1.0,"LC":"5:0.304566,9:0.440281,13:0.255153","XMIN":709084.86160847,"YMIN":8511033.59738907,"XMAX":709184.86160847,"YMAX":8511133.59738907},"geometry":{"type":"Polygon","coordinates":[[[-73.06768388947158,-13.461254521010211],[-73.06769114118696,-13.460350799165083],[-73.06861450279474,-13.460357894686139],[-73.06860725453939,-13.461261617024974],[-73.06768388947158,-13.461254521010211]]]}},{"type":"Feature","properties":{"Cell_ID":9,"Area_ha":1.0,"LC":"3:0.041939,5:0.542346,9:0.320562,13:0.095153","XMIN":709084.86160847,"YMIN":8510933.59738907,"XMAX":709184.86160847,"YMAX":8511033.59738907},"geometry":{"type":"Polygon","coordinates":[[[-73.06767663722393,-13.46215824278667],[-73.06768388947158,-13.461254521010211],[-73.06860725453939,-13.461261617024974],[-73.06860000575199,-13.462165339295138],[-73.06767663722393,-13.46215824278667]]]}},{"type":"Feature","properties":{"Cell_ID":10,"Area_ha":1.0,"LC":"3:0.041939,5:0.579044,6:0.222480,9:0.000281,13:0.156256","XMIN":709084.86160847,"YMIN":8510833.59738907,"XMAX":709184.86160847,"YMAX":8510933.59738907},"geometry":{"type":"Polygon","coordinates":[[[-73.06766938444397,-13.463061964494454],[-73.06767663722393,-13.46215824278667],[-73.06860000575199,-13.462165339295138],[-73.06859275643257,-13.463069061496636],[-73.06766938444397,-13.463061964494454]]]}},{"type":"Feature","properties":{"Cell_ID":11,"Area_ha":1.0,"LC":"5:0.457359,6:0.124307,13:0.418334","XMIN":709084.86160847,"YMIN":8510733.59738907,"XMAX":709184.86160847,"YMAX":8510833.59738907},"geometry":{"type":"Polygon","coordinates":[[[-73.06766213113174,-13.463965686133562],[-73.06766938444397,-13.463061964494454],[-73.06859275643257,-13.463069061496636],[-73.06858550658109,-13.463972783629456],[-73.06766213113174,-13.463965686133562]]]}},{"type":"Feature","properties":{"Cell_ID":12,"Area_ha":1.0,"LC":"5:0.504847,13:0.495153","XMIN":709084.86160847,"YMIN":8510633.59738907,"XMAX":709184.86160847,"YMAX":8510733.59738907},"geometry":{"type":"Polygon","coordinates":[[[-73.06765487728718,-13.46486940770399],[-73.06766213113174,-13.463965686133562],[-73.06858550658109,-13.463972783629456],[-73.06857825619755,-13.464876505693603],[-73.06765487728718,-13.46486940770399]]]}},{"type":"Feature","properties":{"Cell_ID":13,"Area_ha":1.0,"LC":"5:0.082649,9:0.182199,13:0.735153","XMIN":709084.86160847,"YMIN":8510533.59738907,"XMAX":709184.86160847,"YMAX":8510633.59738907},"geometry":{"type":"Polygon","coordinates":[[[-73.06764762291029,-13.465773129205731],[-73.06765487728718,-13.46486940770399],[-73.06857825619755,-13.464876505693603],[-73.06857100528195,-13.465780227689065],[-73.06764762291029,-13.465773129205731]]]}},{"type":"Feature","properties":{"Cell_ID":14,"Area_ha":1.0,"LC":"9:0.641805,13:0.358195","XMIN":709084.86160847,"YMIN":8510433.59738907,"XMAX":709184.86160847,"YMAX":8510533.59738907},"geometry":{"type":"Polygon","coordinates":[[[-73.06764036800108,-13.466676850638779],[-73.06764762291029,-13.465773129205731],[-73.06857100528195,-13.465780227689065],[-73.06856375383427,-13.46668394961584],[-73.06764036800108,-13.466676850638779]]]}},{"type":"Feature","properties":{"Cell_ID":15,"Area_ha":1.0,"LC":"9:0.596551,13:0.323730,16:0.079719","XMIN":709084.86160847,"YMIN":8510333.59738907,"XMAX":709184.86160847,"YMAX":8510433.59738907},"geometry":{"type":"Polygon","coordinates":[[[-73.06763311255952,-13.467580572003136],[-73.06764036800108,-13.466676850638779],[-73.06856375383427,-13.46668394961584],[-73.0685565018545,-13.467587671473925],[-73.06763311255952,-13.467580572003136]]]}},{"type":"Feature","properties":{"Cell_ID":16,"Area_ha":1.0,"LC":"9:0.059446,13:0.500273,16:0.440281","XMIN":709084.86160847,"YMIN":8510233.59738907,"XMAX":709184.86160847,"YMAX":8510333.59738907},"geometry":{"type":"Polygon","coordinates":[[[-73.06762585658562,-13.468484293298792],[-73.06763311255952,-13.467580572003136],[-73.0685565018545,-13.467587671473925],[-73.06854924934265,-13.468491393263312],[-73.06762585658562,-13.468484293298792]]]}},{"type":"Feature","properties":{"Cell_ID":17,"Area_ha":1.0,"LC":"5:1.000000","XMIN":709184.86160847,"YMIN":8512233.59738907,"XMAX":709284.86160847,"YMAX":8512333.59738907},"geometry":{"type":"Polygon","coordinates":[[[-73.06684755189576,-13.4504027608633],[-73.06685480068143,-13.44949903868838],[-73.06777812025676,-13.449506131668942],[-73.06777087492804,-13.45040985433776],[-73.06684755189576,-13.4504027608633]]]}},{"type":"Feature","properties":{"Cell_ID":18,"Area_ha":1.0,"LC":"5:0.121406,9:0.095019,13:0.783575","XMIN":709184.86160847,"YMIN":8512133.59738907,"XMAX":709284.86160847,"YMAX":8512233.59738907},"geometry":{"type":"Polygon","coordinates":[[[-73.06684030257767,-13.4513064829696],[-73.06684755189576,-13.4504027608633],[-73.06777087492804,-13.45040985433776],[-73.06776362906716,-13.451313576937963],[-73.06684030257767,-13.4513064829696]]]}},{"type":"Feature","properties":{"Cell_ID":19,"Area_ha":1.0,"LC":"5:0.062761,9:0.076256,13:0.860983","XMIN":709184.86160847,"YMIN":8512033.59738907,"XMAX":709284.86160847,"YMAX":8512133.59738907},"geometry":{"type":"Polygon","coordinates":[[[-73.06683305272715,-13.452210205007278],[-73.06684030257767,-13.4513064829696],[-73.06776362906716,-13.451313576937963],[-73.0677563826741,-13.452217299469542],[-73.06683305272715,-13.452210205007278]]]}},{"type":"Feature","properties":{"Cell_ID":20,"Area_ha":1.0,"LC":"5:0.183056,13:0.816944","XMIN":709184.86160847,"YMIN":8511933.59738907,"XMAX":709284.86160847,"YMAX":8512033.59738907},"geometry":{"type":"Polygon","coordinates":[[[-73.0668258023442,-13.453113926976323],[-73.06683305272715,-13.452210205007278],[-73.0677563826741,-13.452217299469542],[-73.06774913574885,-13.453121021932498],[-73.0668258023442,-13.453113926976323]]]}},{"type":"Feature","properties":{"Cell_ID":21,"Area_ha":1.0,"LC":"9:0.018897,13:0.981103","XMIN":709184.86160847,"YMIN":8511833.59738907,"XMAX":709284.86160847,"YMAX":8511933.59738907},"geometry":{"type":"Polygon","coordinates":[[[-73.06681855142877,-13.454017648876738],[-73.0668258023442,-13.453113926976323],[-73.06774913574885,-13.453121021932498],[-73.06774188829141,-13.45402474432682],[-73.06681855142877,-13.454017648876738]]]}},{"type":"Feature","properties":{"Cell_ID":22,"Area_ha":1.0,"LC":"5:0.060541,9:0.318061,13:0.540836,14:0.080562","XMIN":709184.86160847,"YMIN":8511333.59738907,"XMAX":709284.86160847,"YMAX":8511433.59738907},"geometry":{"type":"Polygon","coordinates":[[[-73.0667822888646,-13.458536257349145],[-73.06678954244242,-13.457632535791967],[-73.06771289313946,-13.457639633217724],[-73.06770564302087,-13.458543355268835],[-73.0667822888646,-13.458536257349145]]]}},{"type":"Feature","properties":{"Cell_ID":23,"Area_ha":1.0,"LC":"5:0.624285,9:0.117646,13:0.258069","XMIN":709184.86160847,"YMIN":8511233.59738907,"XMAX":709284.86160847,"YMAX":8511333.59738907},"geometry":{"type":"Polygon","coordinates":[[[-73.06677503475427,-13.459439978837668],[-73.0667822888646,-13.458536257349145],[-73.06770564302087,-13.458543355268835],[-73.06769839237005,-13.459447077251289],[-73.06677503475427,-13.459439978837668]]]}},{"type":"Feature","properties":{"Cell_ID":24,"Area_ha":1.0,"LC":"3:0.139978,5:0.802515,9:0.057507","XMIN":709184.86160847,"YMIN":8511133.59738907,"XMAX":709284.86160847,"YMAX":8511233.59738907},"geometry":{"type":"Polygon","coordinates":[[[-73.06676778011143,-13.460343700257521],[-73.06677503475427,-13.459439978837668],[-73.06769839237005,-13.459447077251289],[-73.06769114118696,-13.460350799165083],[-73.06676778011143,-13.460343700257521]]]}},{"type":"Feature","properties":{"Cell_ID":25,"Area_ha":1.0,"LC":"3:0.000991,5:0.295153,6:0.703856","XMIN":709184.86160847,"YMIN":8511033.59738907,"XMAX":709284.86160847,"YMAX":8511133.59738907},"geometry":{"type":"Polygon","coordinates":[[[-73.06676052493606,-13.461247421608713],[-73.06676778011143,-13.460343700257521],[-73.06769114118696,-13.460350799165083],[-73.06768388947158,-13.461254521010211],[-73.06676052493606,-13.461247421608713]]]}},{"type":"Feature","properties":{"Cell_ID":26,"Area_ha":1.0,"LC":"3:0.821917,5:0.177092,6:0.000991","XMIN":709184.86160847,"YMIN":8510933.59738907,"XMAX":709284.86160847,"YMAX":8511033.59738907},"geometry":{"type":"Polygon","coordinates":[[[-73.06675326922816,-13.462151142891226],[-73.06676052493606,-13.461247421608713],[-73.06768388947158,-13.461254521010211],[-73.06767663722393,-13.46215824278667],[-73.06675326922816,-13.462151142891226]]]}},{"type":"Feature","properties":{"Cell_ID":27,"Area_ha":1.0,"LC":"3:0.199052,5:0.441792,6:0.296395,14:0.062761","XMIN":709184.86160847,"YMIN":8510833.59738907,"XMAX":709284.86160847,"YMAX":8510933.59738907},"geometry":{"type":"Polygon","coordinates":[[[-73.06674601298769,-13.463054864105068],[-73.06675326922816,-13.462151142891226],[-73.06767663722393,-13.46215824278667],[-73.06766938444397,-13.463061964494454],[-73.06674601298769,-13.463054864105068]]]}},{"type":"Feature","properties":{"Cell_ID":28,"Area_ha":1.0,"LC":"5:0.338616,6:0.556537,14:0.104847","XMIN":709184.86160847,"YMIN":8510733.59738907,"XMAX":709284.86160847,"YMAX":8510833.59738907},"geometry":{"type":"Polygon","coordinates":[[[-73.0667387562147,-13.463958585250225],[-73.06674601298769,-13.463054864105068],[-73.06766938444397,-13.463061964494454],[-73.06766213113174,-13.463965686133562],[-73.0667387562147,-13.463958585250225]]]}},{"type":"Feature","properties":{"Cell_ID":29,"Area_ha":1.0,"LC":"5:0.716256,6:0.000281,9:0.199438,14:0.084025","XMIN":709184.86160847,"YMIN":8510633.59738907,"XMAX":709284.86160847,"YMAX":8510733.59738907},"geometry":{"type":"Polygon","coordinates":[[[-73.06673149890912,-13.4648623063267],[-73.0667387562147,-13.463958585250225],[-73.06766213113174,-13.463965686133562],[-73.06765487728718,-13.46486940770399],[-73.06673149890912,-13.4648623063267]]]}},{"type":"Feature","properties":{"Cell_ID":30,"Area_ha":1.0,"LC":"5:0.543042,9:0.456958","XMIN":709184.86160847,"YMIN":8510533.59738907,"XMAX":709284.86160847,"YMAX":8510633.59738907},"geometry":{"type":"Polygon","coordinates":[[[-73.06672424107096,-13.465766027334483],[-73.06673149890912,-13.4648623063267],[-73.06765487728718,-13.46486940770399],[-73.06764762291029,-13.465773129205731],[-73.06672424107096,-13.465766027334483]]]}},{"type":"Feature","properties":{"Cell_ID":31,"Area_ha":1.0,"LC":"5:0.143618,9:0.419727,13:0.436655","XMIN":709184.86160847,"YMIN":8510433.59738907,"XMAX":709284.86160847,"YMAX":8510533.59738907},"geometry":{"type":"Polygon","coordinates":[[[-73.06671698270023,-13.46666974827357],[-73.06672424107096,-13.465766027334483],[-73.06764762291029,-13.465773129205731],[-73.06764036800108,-13.466676850638779],[-73.06671698270023,-13.46666974827357]]]}},{"type":"Feature","properties":{"Cell_ID":32,"Area_ha":1.0,"LC":"13:1.000000","XMIN":709184.86160847,"YMIN":8510333.59738907,"XMAX":709284.86160847,"YMAX":8510433.59738907},"geometry":{"type":"Polygon","coordinates":[[[-73.0667097237969,-13.467573469143963],[-73.06671698270023,-13.46666974827357],[-73.06764036800108,-13.466676850638779],[-73.06763311255952,-13.467580572003136],[-73.0667097237969,-13.467573469143963]]]}},{"type":"Feature","properties":{"Cell_ID":33,"Area_ha":1.0,"LC":"9:0.283730,13:0.716270","XMIN":709184.86160847,"YMIN":8510233.59738907,"XMAX":709284.86160847,"YMAX":8510333.59738907},"geometry":{"type":"Polygon","coordinates":[[[-73.06670246436097,-13.46847718994565],[-73.0667097237969,-13.467573469143963],[-73.06763311255952,-13.467580572003136],[-73.06762585658562,-13.468484293298792],[-73.06670246436097,-13.46847718994565]]]}},{"type":"Feature","properties":{"Cell_ID":34,"Area_ha":1.0,"LC":"5:0.483463,13:0.516537","XMIN":709284.86160847,"YMIN":8512633.59738907,"XMAX":709384.86160847,"YMAX":8512733.59738907},"geometry":{"type":"Polygon","coordinates":[[[-73.06595323517037,-13.446780776870078],[-73.06596048528237,-13.445877054914838],[-73.06688379050004,-13.445884149302575],[-73.06687654384399,-13.446787871751933],[-73.06595323517037,-13.446780776870078]]]}},{"type":"Feature","properties":{"Cell_ID":35,"Area_ha":1.0,"LC":"5:0.981103,9:0.018897","XMIN":709284.86160847,"YMIN":8512533.59738907,"XMAX":709384.86160847,"YMAX":8512633.59738907},"geometry":{"type":"Polygon","coordinates":[[[-73.06594598452574,-13.447684498756717],[-73.06595323517037,-13.446780776870078],[-73.06687654384399,-13.446787871751933],[-73.06686929665554,-13.447691594132692],[-73.06594598452574,-13.447684498756717]]]}},{"type":"Feature","properties":{"Cell_ID":36,"Area_ha":1.0,"LC":"5:0.999866,9:0.000134","XMIN":709284.86160847,"YMIN":8512433.59738907,"XMAX":709384.86160847,"YMAX":8512533.59738907},"geometry":{"type":"Polygon","coordinates":[[[-73.06593873334845,-13.44858822057474],[-73.06594598452574,-13.447684498756717],[-73.06686929665554,-13.447691594132692],[-73.06686204893468,-13.448595316444843],[-73.06593873334845,-13.44858822057474]]]}},{"type":"Feature","properties":{"Cell_ID":37,"Area_ha":1.0,"LC":"5:1.000000","XMIN":709284.86160847,"YMIN":8512333.59738907,"XMAX":709384.86160847,"YMAX":8512433.59738907},"geometry":{"type":"Polygon","coordinates":[[[-73.06593148163851,-13.44949194232415],[-73.06593873334845,-13.44858822057474],[-73.06686204893468,-13.448595316444843],[-73.06685480068143,-13.44949903868838],[-73.06593148163851,-13.44949194232415]]]}},{"type":"Feature","properties":{"Cell_ID":38,"Area_ha":1.0,"LC":"5:0.337935,13:0.662065","XMIN":709284.86160847,"YMIN":8512233.59738907,"XMAX":709384.86160847,"YMAX":8512333.59738907},"geometry":{"type":"Polygon","coordinates":[[[-73.0659242293959,-13.450395664004938],[-73.06593148163851,-13.44949194232415],[-73.06685480068143,-13.44949903868838],[-73.06684755189576,-13.4504027608633],[-73.0659242293959,-13.450395664004938]]]}},{"type":"Feature","properties":{"Cell_ID":39,"Area_ha":1.0,"LC":"5:0.464981,13:0.535019","XMIN":709284.86160847,"YMIN":8512133.59738907,"XMAX":709384.86160847,"YMAX":8512233.59738907},"geometry":{"type":"Polygon","coordinates":[[[-73.0659169766206,-13.451299385617103],[-73.0659242293959,-13.450395664004938],[-73.06684755189576,-13.4504027608633],[-73.06684030257767,-13.4513064829696],[-73.0659169766206,-13.451299385617103]]]}},{"type":"Feature","properties":{"Cell_ID":40,"Area_ha":1.0,"LC":"5:0.378763,13:0.621237","XMIN":709284.86160847,"YMIN":8512033.59738907,"XMAX":709384.86160847,"YMAX":8512133.59738907},"geometry":{"type":"Polygon","coordinates":[[[-73.06590972331264,-13.452203107160638],[-73.0659169766206,-13.451299385617103],[-73.06684030257767,-13.4513064829696],[-73.06683305272715,-13.452210205007278],[-73.06590972331264,-13.452203107160638]]]}},{"type":"Feature","properties":{"Cell_ID":41,"Area_ha":1.0,"LC":"5:0.499017,13:0.500983","XMIN":709284.86160847,"YMIN":8511933.59738907,"XMAX":709384.86160847,"YMAX":8512033.59738907},"geometry":{"type":"Polygon","coordinates":[[[-73.06590246947196,-13.453106828635542],[-73.06590972331264,-13.452203107160638],[-73.06683305272715,-13.452210205007278],[-73.0668258023442,-13.453113926976323],[-73.06590246947196,-13.453106828635542]]]}},{"type":"Feature","properties":{"Cell_ID":42,"Area_ha":1.0,"LC":"5:0.344847,13:0.655153","XMIN":709284.86160847,"YMIN":8511833.59738907,"XMAX":709384.86160847,"YMAX":8511933.59738907},"geometry":{"type":"Polygon","coordinates":[[[-73.06589521509859,-13.454010550041811],[-73.06590246947196,-13.453106828635542],[-73.0668258023442,-13.453113926976323],[-73.06681855142877,-13.454017648876738],[-73.06589521509859,-13.454010550041811]]]}},{"type":"Feature","properties":{"Cell_ID":43,"Area_ha":1.0,"LC":"5:0.164159,9:0.654175,13:0.181666","XMIN":709284.86160847,"YMIN":8511733.59738907,"XMAX":709384.86160847,"YMAX":8511833.59738907},"geometry":{"type":"Polygon","coordinates":[[[-73.06588796019251,-13.454914271379433],[-73.06589521509859,-13.454010550041811],[-73.06681855142877,-13.454017648876738],[-73.0668112999809,-13.454921370708512],[-73.06588796019251,-13.454914271379433]]]}},{"type":"Feature","properties":{"Cell_ID":44,"Area_ha":1.0,"LC":"5:0.304847,9:0.676256,13:0.018897","XMIN":709284.86160847,"YMIN":8511633.59738907,"XMAX":709384.86160847,"YMAX":8511733.59738907},"geometry":{"type":"Polygon","coordinates":[[[-73.0658807047537,-13.455817992648415],[-73.06588796019251,-13.454914271379433],[-73.0668112999809,-13.454921370708512],[-73.06680404800055,-13.45582509247164],[-73.0658807047537,-13.455817992648415]]]}},{"type":"Feature","properties":{"Cell_ID":45,"Area_ha":1.0,"LC":"5:0.185129,9:0.520000,13:0.294871","XMIN":709284.86160847,"YMIN":8511533.59738907,"XMAX":709384.86160847,"YMAX":8511633.59738907},"geometry":{"type":"Polygon","coordinates":[[[-73.06587344878214,-13.456721713848745],[-73.0658807047537,-13.455817992648415],[-73.06680404800055,-13.45582509247164],[-73.06679679548773,-13.45672881416613],[-73.06587344878214,-13.456721713848745]]]}},{"type":"Feature","properties":{"Cell_ID":46,"Area_ha":1.0,"LC":"3:0.163449,5:0.100836,9:0.440562,13:0.257092,14:0.038061","XMIN":709284.86160847,"YMIN":8511433.59738907,"XMAX":709384.86160847,"YMAX":8511533.59738907},"geometry":{"type":"Polygon","coordinates":[[[-73.06586619227787,-13.457625434980418],[-73.06587344878214,-13.456721713848745],[-73.06679679548773,-13.45672881416613],[-73.06678954244242,-13.457632535791967],[-73.06586619227787,-13.457625434980418]]]}},{"type":"Feature","properties":{"Cell_ID":47,"Area_ha":1.0,"LC":"3:0.040429,5:0.882753,9:0.000281,13:0.076537","XMIN":709284.86160847,"YMIN":8511333.59738907,"XMAX":709384.86160847,"YMAX":8511433.59738907},"geometry":{"type":"Polygon","coordinates":[[[-73.06585893524081,-13.458529156043433],[-73.06586619227787,-13.457625434980418],[-73.06678954244242,-13.457632535791967],[-73.0667822888646,-13.458536257349145],[-73.06585893524081,-13.458529156043433]]]}},{"type":"Feature","properties":{"Cell_ID":48,"Area_ha":1.0,"LC":"3:0.203449,5:0.796551","XMIN":709284.86160847,"YMIN":8511233.59738907,"XMAX":709384.86160847,"YMAX":8511333.59738907},"geometry":{"type":"Polygon","coordinates":[[[-73.06585167767102,-13.459432877037788],[-73.06585893524081,-13.458529156043433],[-73.0667822888646,-13.458536257349145],[-73.06677503475427,-13.459439978837668],[-73.06585167767102,-13.459432877037788]]]}},{"type":"Feature","properties":{"Cell_ID":49,"Area_ha":1.0,"LC":"3:0.761390,5:0.198891,6:0.039719","XMIN":709284.86160847,"YMIN":8511133.59738907,"XMAX":709384.86160847,"YMAX":8511233.59738907},"geometry":{"type":"Polygon","coordinates":[[[-73.06584441956844,-13.46033659796347],[-73.06585167767102,-13.459432877037788],[-73.06677503475427,-13.459439978837668],[-73.06676778011143,-13.460343700257521],[-73.06584441956844,-13.46033659796347]]]}},{"type":"Feature","properties":{"Cell_ID":50,"Area_ha":1.0,"LC":"3:0.200696,5:0.021117,6:0.534738,9:0.243449","XMIN":709284.86160847,"YMIN":8511033.59738907,"XMAX":709384.86160847,"YMAX":8511133.59738907},"geometry":{"type":"Polygon","coordinates":[[[-73.06583716093307,-13.461240318820487],[-73.06584441956844,-13.46033659796347],[-73.06676778011143,-13.460343700257521],[-73.06676052493606,-13.461247421608713],[-73.06583716093307,-13.461240318820487]]]}},{"type":"Feature","properties":{"Cell_ID":51,"Area_ha":1.0,"LC":"3:0.255300,5:0.039719,6:0.040696,7:0.359438,9:0.304847","XMIN":709284.86160847,"YMIN":8510933.59738907,"XMAX":709384.86160847,"YMAX":8511033.59738907},"geometry":{"type":"Polygon","coordinates":[[[-73.06582990176493,-13.462144039608823],[-73.06583716093307,-13.461240318820487],[-73.06676052493606,-13.461247421608713],[-73.06675326922816,-13.462151142891226],[-73.06582990176493,-13.462144039608823]]]}},{"type":"Feature","properties":{"Cell_ID":52,"Area_ha":1.0,"LC":"3:0.000134,5:0.238061,7:0.400000,9:0.304847,14:0.056958","XMIN":709284.86160847,"YMIN":8510833.59738907,"XMAX":709384.86160847,"YMAX":8510933.59738907},"geometry":{"type":"Polygon","coordinates":[[[-73.06582264206398,-13.46304776032848],[-73.06582990176493,-13.462144039608823],[-73.06675326922816,-13.462151142891226],[-73.06674601298769,-13.463054864105068],[-73.06582264206398,-13.46304776032848]]]}},{"type":"Feature","properties":{"Cell_ID":53,"Area_ha":1.0,"LC":"5:0.000281,7:0.439719,9:0.265129,14:0.294871","XMIN":709284.86160847,"YMIN":8510733.59738907,"XMAX":709384.86160847,"YMAX":8510833.59738907},"geometry":{"type":"Polygon","coordinates":[[[-73.06581538183022,-13.463951480979453],[-73.06582264206398,-13.46304776032848],[-73.06674601298769,-13.463054864105068],[-73.0667387562147,-13.463958585250225],[-73.06581538183022,-13.463951480979453]]]}},{"type":"Feature","properties":{"Cell_ID":54,"Area_ha":1.0,"LC":"5:0.018897,7:0.320844,9:0.463723,14:0.196537","XMIN":709284.86160847,"YMIN":8510633.59738907,"XMAX":709384.86160847,"YMAX":8510733.59738907},"geometry":{"type":"Polygon","coordinates":[[[-73.06580812106364,-13.464855201561738],[-73.06581538183022,-13.463951480979453],[-73.0667387562147,-13.463958585250225],[-73.06673149890912,-13.4648623063267],[-73.06580812106364,-13.464855201561738]]]}},{"type":"Feature","properties":{"Cell_ID":55,"Area_ha":1.0,"LC":"5:0.294590,9:0.705410","XMIN":709284.86160847,"YMIN":8510533.59738907,"XMAX":709384.86160847,"YMAX":8510633.59738907},"geometry":{"type":"Polygon","coordinates":[[[-73.06580085976422,-13.465758922075329],[-73.06580812106364,-13.464855201561738],[-73.06673149890912,-13.4648623063267],[-73.06672424107096,-13.465766027334483],[-73.06580085976422,-13.465758922075329]]]}},{"type":"Feature","properties":{"Cell_ID":56,"Area_ha":1.0,"LC":"5:0.417788,9:0.402368,13:0.179845","XMIN":709284.86160847,"YMIN":8510433.59738907,"XMAX":709384.86160847,"YMAX":8510533.59738907},"geometry":{"type":"Polygon","coordinates":[[[-73.06579359793199,-13.466662642520225],[-73.06580085976422,-13.465758922075329],[-73.06672424107096,-13.465766027334483],[-73.06671698270023,-13.46666974827357],[-73.06579359793199,-13.466662642520225]]]}},{"type":"Feature","properties":{"Cell_ID":57,"Area_ha":1.0,"LC":"9:0.179978,13:0.820022","XMIN":709284.86160847,"YMIN":8510333.59738907,"XMAX":709384.86160847,"YMAX":8510433.59738907},"geometry":{"type":"Polygon","coordinates":[[[-73.06578633556688,-13.467566362896415],[-73.06579359793199,-13.466662642520225],[-73.06671698270023,-13.46666974827357],[-73.0667097237969,-13.467573469143963],[-73.06578633556688,-13.467566362896415]]]}},{"type":"Feature","properties":{"Cell_ID":58,"Area_ha":1.0,"LC":"9:0.717927,13:0.282073","XMIN":709284.86160847,"YMIN":8510233.59738907,"XMAX":709384.86160847,"YMAX":8510333.59738907},"geometry":{"type":"Polygon","coordinates":[[[-73.06577907266893,-13.468470083203899],[-73.06578633556688,-13.467566362896415],[-73.0667097237969,-13.467573469143963],[-73.06670246436097,-13.46847718994565],[-73.06577907266893,-13.468470083203899]]]}},{"type":"Feature","properties":{"Cell_ID":59,"Area_ha":1.0,"LC":"9:0.543605,13:0.456395","XMIN":709384.86160847,"YMIN":8512833.59738907,"XMAX":709484.86160847,"YMAX":8512933.59738907},"geometry":{"type":"Polygon","coordinates":[[[-73.06504443363234,-13.444966235614894],[-73.06505168613451,-13.444062514016796],[-73.06597498390849,-13.444069610798547],[-73.06596773486173,-13.44497333289099],[-73.06504443363234,-13.444966235614894]]]}},{"type":"Feature","properties":{"Cell_ID":60,"Area_ha":1.0,"LC":"5:0.680533,9:0.200710,13:0.118757","XMIN":709384.86160847,"YMIN":8512733.59738907,"XMAX":709484.86160847,"YMAX":8512833.59738907},"geometry":{"type":"Polygon","coordinates":[[[-73.0650371805973,-13.44586995714439],[-73.06504443363234,-13.444966235614894],[-73.06596773486173,-13.44497333289099],[-73.06596048528237,-13.445877054914838],[-73.0650371805973,-13.44586995714439]]]}},{"type":"Feature","properties":{"Cell_ID":61,"Area_ha":1.0,"LC":"5:1.000000","XMIN":709384.86160847,"YMIN":8512633.59738907,"XMAX":709484.86160847,"YMAX":8512733.59738907},"geometry":{"type":"Polygon","coordinates":[[[-73.06502992702939,-13.446773678605279],[-73.0650371805973,-13.44586995714439],[-73.06596048528237,-13.445877054914838],[-73.06595323517037,-13.446780776870078],[-73.06502992702939,-13.446773678605279]]]}},{"type":"Feature","properties":{"Cell_ID":62,"Area_ha":1.0,"LC":"5:0.878490,9:0.121510","XMIN":709384.86160847,"YMIN":8512533.59738907,"XMAX":709484.86160847,"YMAX":8512633.59738907},"geometry":{"type":"Polygon","coordinates":[[[-73.06502267292859,-13.447677399997557],[-73.06502992702939,-13.446773678605279],[-73.06595323517037,-13.446780776870078],[-73.06594598452574,-13.447684498756717],[-73.06502267292859,-13.447677399997557]]]}},{"type":"Feature","properties":{"Cell_ID":63,"Area_ha":1.0,"LC":"5:0.615153,9:0.384847","XMIN":709384.86160847,"YMIN":8512433.59738907,"XMAX":709484.86160847,"YMAX":8512533.59738907},"geometry":{"type":"Polygon","coordinates":[[[-73.06501541829488,-13.44858112132122],[-73.06502267292859,-13.447677399997557],[-73.06594598452574,-13.447684498756717],[-73.06593873334845,-13.44858822057474],[-73.06501541829488,-13.44858112132122]]]}},{"type":"Feature","properties":{"Cell_ID":64,"Area_ha":1.0,"LC":"5:0.695153,9:0.202368,18:0.102480","XMIN":709384.86160847,"YMIN":8512333.59738907,"XMAX":709484.86160847,"YMAX":8512433.59738907},"geometry":{"type":"Polygon","coordinates":[[[-73.06500816312825,-13.449484842576265],[-73.06501541829488,-13.44858112132122],[-73.06593873334845,-13.44858822057474],[-73.06593148163851,-13.44949194232415],[-73.06500816312825,-13.449484842576265]]]}},{"type":"Feature","properties":{"Cell_ID":65,"Area_ha":1.0,"LC":"5:0.198905,9:0.020822,13:0.216810,16:0.119438,18:0.444025","XMIN":709384.86160847,"YMIN":8512233.59738907,"XMAX":709484.86160847,"YMAX":8512333.59738907},"geometry":{"type":"Polygon","coordinates":[[[-73.06500090742871,-13.450388563762687],[-73.06500816312825,-13.449484842576265],[-73.06593148163851,-13.44949194232415],[-73.0659242293959,-13.450395664004938],[-73.06500090742871,-13.450388563762687]]]}},{"type":"Feature","properties":{"Cell_ID":66,"Area_ha":1.0,"LC":"5:0.095153,9:0.104847,13:0.120000,16:0.320000,18:0.360000","XMIN":709384.86160847,"YMIN":8512133.59738907,"XMAX":709484.86160847,"YMAX":8512233.59738907},"geometry":{"type":"Polygon","coordinates":[[[-73.06499365119623,-13.45129228488048],[-73.06500090742871,-13.450388563762687],[-73.0659242293959,-13.450395664004938],[-73.0659169766206,-13.451299385617103],[-73.06499365119623,-13.45129228488048]]]}},{"type":"Feature","properties":{"Cell_ID":67,"Area_ha":1.0,"LC":"5:0.038195,9:0.441524,13:0.359438,16:0.160562,18:0.000281","XMIN":709384.86160847,"YMIN":8512033.59738907,"XMAX":709484.86160847,"YMAX":8512133.59738907},"geometry":{"type":"Polygon","coordinates":[[[-73.06498639443082,-13.45219600592964],[-73.06499365119623,-13.45129228488048],[-73.0659169766206,-13.451299385617103],[-73.06590972331264,-13.452203107160638],[-73.06498639443082,-13.45219600592964]]]}},{"type":"Feature","properties":{"Cell_ID":68,"Area_ha":1.0,"LC":"5:0.537624,9:0.080562,13:0.381813","XMIN":709384.86160847,"YMIN":8511933.59738907,"XMAX":709484.86160847,"YMAX":8512033.59738907},"geometry":{"type":"Polygon","coordinates":[[[-73.06497913713245,-13.453099726910166],[-73.06498639443082,-13.45219600592964],[-73.06590972331264,-13.452203107160638],[-73.06590246947196,-13.453106828635542],[-73.06497913713245,-13.453099726910166]]]}},{"type":"Feature","properties":{"Cell_ID":69,"Area_ha":1.0,"LC":"5:1.000000","XMIN":709384.86160847,"YMIN":8511833.59738907,"XMAX":709484.86160847,"YMAX":8511933.59738907},"geometry":{"type":"Polygon","coordinates":[[[-73.06497187930113,-13.454003447822055],[-73.06497913713245,-13.453099726910166],[-73.06590246947196,-13.453106828635542],[-73.06589521509859,-13.454010550041811],[-73.06497187930113,-13.454003447822055]]]}},{"type":"Feature","properties":{"Cell_ID":70,"Area_ha":1.0,"LC":"5:0.918208,9:0.062761,13:0.019031","XMIN":709384.86160847,"YMIN":8511733.59738907,"XMAX":709484.86160847,"YMAX":8511833.59738907},"geometry":{"type":"Polygon","coordinates":[[[-73.06496462093685,-13.454907168665292],[-73.06497187930113,-13.454003447822055],[-73.06589521509859,-13.454010550041811],[-73.06588796019251,-13.454914271379433],[-73.06496462093685,-13.454907168665292]]]}},{"type":"Feature","properties":{"Cell_ID":71,"Area_ha":1.0,"LC":"3:0.039719,5:0.855434,9:0.104847","XMIN":709384.86160847,"YMIN":8511633.59738907,"XMAX":709484.86160847,"YMAX":8511733.59738907},"geometry":{"type":"Polygon","coordinates":[[[-73.06495736203958,-13.455810889439881],[-73.06496462093685,-13.454907168665292],[-73.06588796019251,-13.454914271379433],[-73.0658807047537,-13.455817992648415],[-73.06495736203958,-13.455810889439881]]]}},{"type":"Feature","properties":{"Cell_ID":72,"Area_ha":1.0,"LC":"3:0.439156,5:0.375996,9:0.184847","XMIN":709384.86160847,"YMIN":8511533.59738907,"XMAX":709484.86160847,"YMAX":8511633.59738907},"geometry":{"type":"Polygon","coordinates":[[[-73.06495010260932,-13.456714610145818],[-73.06495736203958,-13.455810889439881],[-73.0658807047537,-13.455817992648415],[-73.06587344878214,-13.456721713848745],[-73.06495010260932,-13.456714610145818]]]}},{"type":"Feature","properties":{"Cell_ID":73,"Area_ha":1.0,"LC":"3:0.636551,5:0.058883,9:0.304566","XMIN":709384.86160847,"YMIN":8511433.59738907,"XMAX":709484.86160847,"YMAX":8511533.59738907},"geometry":{"type":"Polygon","coordinates":[[[-73.06494284264606,-13.457618330783095],[-73.06495010260932,-13.456714610145818],[-73.06587344878214,-13.456721713848745],[-73.06586619227787,-13.457625434980418],[-73.06494284264606,-13.457618330783095]]]}},{"type":"Feature","properties":{"Cell_ID":74,"Area_ha":1.0,"LC":"3:0.480134,5:0.477499,9:0.042368","XMIN":709384.86160847,"YMIN":8511333.59738907,"XMAX":709484.86160847,"YMAX":8511433.59738907},"geometry":{"type":"Polygon","coordinates":[[[-73.0649355821498,-13.45852205135171],[-73.06494284264606,-13.457618330783095],[-73.06586619227787,-13.457625434980418],[-73.06585893524081,-13.458529156043433],[-73.0649355821498,-13.45852205135171]]]}},{"type":"Feature","properties":{"Cell_ID":75,"Area_ha":1.0,"LC":"3:0.475988,5:0.419312,9:0.104700","XMIN":709384.86160847,"YMIN":8511233.59738907,"XMAX":709484.86160847,"YMAX":8511333.59738907},"geometry":{"type":"Polygon","coordinates":[[[-73.06492832112052,-13.459425771851661],[-73.0649355821498,-13.45852205135171],[-73.06585893524081,-13.458529156043433],[-73.06585167767102,-13.459432877037788],[-73.06492832112052,-13.459425771851661]]]}},{"type":"Feature","properties":{"Cell_ID":76,"Area_ha":1.0,"LC":"3:0.137788,5:0.358208,9:0.061117,13:0.442887","XMIN":709384.86160847,"YMIN":8511133.59738907,"XMAX":709484.86160847,"YMAX":8511233.59738907},"geometry":{"type":"Polygon","coordinates":[[[-73.06492105955822,-13.460329492282938],[-73.06492832112052,-13.459425771851661],[-73.06585167767102,-13.459432877037788],[-73.06584441956844,-13.46033659796347],[-73.06492105955822,-13.460329492282938]]]}},{"type":"Feature","properties":{"Cell_ID":77,"Area_ha":1.0,"LC":"5:0.179446,9:0.537624,13:0.282930","XMIN":709384.86160847,"YMIN":8511033.59738907,"XMAX":709484.86160847,"YMAX":8511133.59738907},"geometry":{"type":"Polygon","coordinates":[[[-73.06491379746289,-13.461233212645542],[-73.06492105955822,-13.460329492282938],[-73.06584441956844,-13.46033659796347],[-73.06583716093307,-13.461240318820487],[-73.06491379746289,-13.461233212645542]]]}},{"type":"Feature","properties":{"Cell_ID":78,"Area_ha":1.0,"LC":"5:0.503723,9:0.496277","XMIN":709484.86160847,"YMIN":8512933.59738907,"XMAX":709584.86160847,"YMAX":8513033.59738907},"geometry":{"type":"Polygon","coordinates":[[[-73.0641283888934,-13.44405541385281],[-73.06413564431782,-13.443151692680695],[-73.0650589381038,-13.443158792350102],[-73.06505168613451,-13.444062514016796],[-73.0641283888934,-13.44405541385281]]]}},{"type":"Feature","properties":{"Cell_ID":79,"Area_ha":1.0,"LC":"5:0.505410,9:0.494590","XMIN":709484.86160847,"YMIN":8512833.59738907,"XMAX":709584.86160847,"YMAX":8512933.59738907},"geometry":{"type":"Polygon","coordinates":[[[-73.06412113293582,-13.444959134956326],[-73.0641283888934,-13.44405541385281],[-73.06505168613451,-13.444062514016796],[-73.06504443363234,-13.444966235614894],[-73.06412113293582,-13.444959134956326]]]}},{"type":"Feature","properties":{"Cell_ID":80,"Area_ha":1.0,"LC":"5:0.757646,9:0.162635,18:0.079719","XMIN":709484.86160847,"YMIN":8512733.59738907,"XMAX":709584.86160847,"YMAX":8512833.59738907},"geometry":{"type":"Polygon","coordinates":[[[-73.06411387644513,-13.445862855991237],[-73.06412113293582,-13.444959134956326],[-73.06504443363234,-13.444966235614894],[-73.0650371805973,-13.44586995714439],[-73.06411387644513,-13.445862855991237]]]}},{"type":"Feature","properties":{"Cell_ID":81,"Area_ha":1.0,"LC":"5:0.416144,9:0.358875,16:0.020822,18:0.204159","XMIN":709484.86160847,"YMIN":8512633.59738907,"XMAX":709584.86160847,"YMAX":8512733.59738907},"geometry":{"type":"Polygon","coordinates":[[[-73.06410661942131,-13.446766576957536],[-73.06411387644513,-13.445862855991237],[-73.0650371805973,-13.44586995714439],[-73.06502992702939,-13.446773678605279],[-73.06410661942131,-13.446766576957536]]]}},{"type":"Feature","properties":{"Cell_ID":82,"Area_ha":1.0,"LC":"5:0.097225,9:0.598490,16:0.304285","XMIN":709484.86160847,"YMIN":8512533.59738907,"XMAX":709584.86160847,"YMAX":8512633.59738907},"geometry":{"type":"Polygon","coordinates":[[[-73.06409936186434,-13.44767029785522],[-73.06410661942131,-13.446766576957536],[-73.06502992702939,-13.446773678605279],[-73.06502267292859,-13.447677399997557],[-73.06409936186434,-13.44767029785522]]]}},{"type":"Feature","properties":{"Cell_ID":83,"Area_ha":1.0,"LC":"5:0.041792,9:0.776529,16:0.181679","XMIN":709484.86160847,"YMIN":8512433.59738907,"XMAX":709584.86160847,"YMAX":8512533.59738907},"geometry":{"type":"Polygon","coordinates":[[[-73.06409210377421,-13.44857401868429],[-73.06409936186434,-13.44767029785522],[-73.06502267292859,-13.447677399997557],[-73.06501541829488,-13.44858112132122],[-73.06409210377421,-13.44857401868429]]]}},{"type":"Feature","properties":{"Cell_ID":84,"Area_ha":1.0,"LC":"5:0.104847,9:0.838195,18:0.056958","XMIN":709484.86160847,"YMIN":8512333.59738907,"XMAX":709584.86160847,"YMAX":8512433.59738907},"geometry":{"type":"Polygon","coordinates":[[[-73.06408484515092,-13.449477739444735],[-73.06409210377421,-13.44857401868429],[-73.06501541829488,-13.44858112132122],[-73.06500816312825,-13.449484842576265],[-73.06408484515092,-13.449477739444735]]]}},{"type":"Feature","properties":{"Cell_ID":85,"Area_ha":1.0,"LC":"5:0.104847,9:0.818897,18:0.076256","XMIN":709484.86160847,"YMIN":8512233.59738907,"XMAX":709584.86160847,"YMAX":8512333.59738907},"geometry":{"type":"Polygon","coordinates":[[[-73.06407758599445,-13.450381460136551],[-73.06408484515092,-13.449477739444735],[-73.06500816312825,-13.449484842576265],[-73.06500090742871,-13.450388563762687],[-73.06407758599445,-13.450381460136551]]]}},{"type":"Feature","properties":{"Cell_ID":86,"Area_ha":1.0,"LC":"5:0.384285,9:0.615715","XMIN":709484.86160847,"YMIN":8512133.59738907,"XMAX":709584.86160847,"YMAX":8512233.59738907},"geometry":{"type":"Polygon","coordinates":[[[-73.0640703263048,-13.451285180759738],[-73.06407758599445,-13.450381460136551],[-73.06500090742871,-13.450388563762687],[-73.06499365119623,-13.45129228488048],[-73.0640703263048,-13.451285180759738]]]}},{"type":"Feature","properties":{"Cell_ID":87,"Area_ha":1.0,"LC":"5:0.704285,9:0.198757,13:0.096958","XMIN":709484.86160847,"YMIN":8512033.59738907,"XMAX":709584.86160847,"YMAX":8512133.59738907},"geometry":{"type":"Polygon","coordinates":[[[-73.06406306608196,-13.452188901314289],[-73.0640703263048,-13.451285180759738],[-73.06499365119623,-13.45129228488048],[-73.06498639443082,-13.45219600592964],[-73.06406306608196,-13.452188901314289]]]}},{"type":"Feature","properties":{"Cell_ID":88,"Area_ha":1.0,"LC":"5:0.640014,9:0.083730,13:0.276256","XMIN":709484.86160847,"YMIN":8511933.59738907,"XMAX":709584.86160847,"YMAX":8512033.59738907},"geometry":{"type":"Polygon","coordinates":[[[-73.0640558053259,-13.4530926218002],[-73.06406306608196,-13.452188901314289],[-73.06498639443082,-13.45219600592964],[-73.06497913713245,-13.453099726910166],[-73.0640558053259,-13.4530926218002]]]}},{"type":"Feature","properties":{"Cell_ID":89,"Area_ha":1.0,"LC":"5:0.656277,9:0.343723","XMIN":709484.86160847,"YMIN":8511833.59738907,"XMAX":709584.86160847,"YMAX":8511933.59738907},"geometry":{"type":"Polygon","coordinates":[[[-73.06404854403665,-13.45399634221747],[-73.0640558053259,-13.4530926218002],[-73.06497913713245,-13.453099726910166],[-73.06497187930113,-13.454003447822055],[-73.06404854403665,-13.45399634221747]]]}},{"type":"Feature","properties":{"Cell_ID":90,"Area_ha":1.0,"LC":"5:0.038195,9:0.377949,13:0.583856","XMIN":709484.86160847,"YMIN":8511733.59738907,"XMAX":709584.86160847,"YMAX":8511833.59738907},"geometry":{"type":"Polygon","coordinates":[[[-73.06404128221416,-13.454900062566086],[-73.06404854403665,-13.45399634221747],[-73.06497187930113,-13.454003447822055],[-73.06496462093685,-13.454907168665292],[-73.06404128221416,-13.454900062566086]]]}},{"type":"Feature","properties":{"Cell_ID":91,"Area_ha":1.0,"LC":"9:0.294871,13:0.705129","XMIN":709484.86160847,"YMIN":8511633.59738907,"XMAX":709584.86160847,"YMAX":8511733.59738907},"geometry":{"type":"Polygon","coordinates":[[[-73.06403401985845,-13.45580378284605],[-73.06404128221416,-13.454900062566086],[-73.06496462093685,-13.454907168665292],[-73.06495736203958,-13.455810889439881],[-73.06403401985845,-13.45580378284605]]]}},{"type":"Feature","properties":{"Cell_ID":92,"Area_ha":1.0,"LC":"9:0.576382,13:0.423618","XMIN":709484.86160847,"YMIN":8511533.59738907,"XMAX":709584.86160847,"YMAX":8511633.59738907},"geometry":{"type":"Polygon","coordinates":[[[-73.06402675696948,-13.45670750305736],[-73.06403401985845,-13.45580378284605],[-73.06495736203958,-13.455810889439881],[-73.06495010260932,-13.456714610145818],[-73.06402675696948,-13.45670750305736]]]}},{"type":"Feature","properties":{"Cell_ID":93,"Area_ha":1.0,"LC":"5:0.319438,9:0.680562","XMIN":709484.86160847,"YMIN":8511433.59738907,"XMAX":709584.86160847,"YMAX":8511533.59738907},"geometry":{"type":"Polygon","coordinates":[[[-73.06401949354728,-13.457611223200006],[-73.06402675696948,-13.45670750305736],[-73.06495010260932,-13.456714610145818],[-73.06494284264606,-13.457618330783095],[-73.06401949354728,-13.457611223200006]]]}},{"type":"Feature","properties":{"Cell_ID":94,"Area_ha":1.0,"LC":"5:0.457239,9:0.542761","XMIN":709484.86160847,"YMIN":8511333.59738907,"XMAX":709584.86160847,"YMAX":8511433.59738907},"geometry":{"type":"Polygon","coordinates":[[[-73.06401222959181,-13.458514943273988],[-73.06401949354728,-13.457611223200006],[-73.06494284264606,-13.457618330783095],[-73.0649355821498,-13.45852205135171],[-73.06401222959181,-13.458514943273988]]]}},{"type":"Feature","properties":{"Cell_ID":95,"Area_ha":1.0,"LC":"5:0.000415,9:0.999585","XMIN":709484.86160847,"YMIN":8511233.59738907,"XMAX":709584.86160847,"YMAX":8511333.59738907},"geometry":{"type":"Polygon","coordinates":[[[-73.06400496510307,-13.4594186632793],[-73.06401222959181,-13.458514943273988],[-73.0649355821498,-13.45852205135171],[-73.06492832112052,-13.459425771851661],[-73.06400496510307,-13.4594186632793]]]}},{"type":"Feature","properties":{"Cell_ID":96,"Area_ha":1.0,"LC":"5:0.201229,9:0.703618,18:0.095153","XMIN":709584.86160847,"YMIN":8513133.59738907,"XMAX":709684.86160847,"YMAX":8513233.59738907},"geometry":{"type":"Polygon","coordinates":[[[-73.06321960941119,-13.442240868883397],[-73.06322686722405,-13.441337148068898],[-73.0641501535674,-13.441344250130678],[-73.06414289920916,-13.442247971439983],[-73.06321960941119,-13.442240868883397]]]}},{"type":"Feature","properties":{"Cell_ID":97,"Area_ha":1.0,"LC":"5:0.900273,9:0.080562,18:0.019164","XMIN":709584.86160847,"YMIN":8513033.59738907,"XMAX":709684.86160847,"YMAX":8513133.59738907},"geometry":{"type":"Polygon","coordinates":[[[-73.06321235106496,-13.4431445896293],[-73.06321960941119,-13.442240868883397],[-73.06414289920916,-13.442247971439983],[-73.06413564431782,-13.443151692680695],[-73.06321235106496,-13.4431445896293]]]}},{"type":"Feature","properties":{"Cell_ID":98,"Area_ha":1.0,"LC":"5:1.000000","XMIN":709584.86160847,"YMIN":8512933.59738907,"XMAX":709684.86160847,"YMAX":8513033.59738907},"geometry":{"type":"Polygon","coordinates":[[[-73.06320509218538,-13.444048310306602],[-73.06321235106496,-13.4431445896293],[-73.06413564431782,-13.443151692680695],[-73.0641283888934,-13.44405541385281],[-73.06320509218538,-13.444048310306602]]]}},{"type":"Feature","properties":{"Cell_ID":99,"Area_ha":1.0,"LC":"5:0.456425,9:0.543575","XMIN":709584.86160847,"YMIN":8512833.59738907,"XMAX":709684.86160847,"YMAX":8512933.59738907},"geometry":{"type":"Polygon","coordinates":[[[-73.06319783277242,-13.444952030915301],[-73.06320509218538,-13.444048310306602],[-73.0641283888934,-13.44405541385281],[-73.06412113293582,-13.444959134956326],[-73.06319783277242,-13.444952030915301]]]}},{"type":"Feature","properties":{"Cell_ID":100,"Area_ha":1.0,"LC":"5:0.496248,9:0.503752","XMIN":709584.86160847,"YMIN":8512733.59738907,"XMAX":709684.86160847,"YMAX":8512833.59738907},"geometry":{"type":"Polygon","coordinates":[[[-73.06319057282609,-13.44585575145539],[-73.06319783277242,-13.444952030915301],[-73.06412113293582,-13.444959134956326],[-73.06411387644513,-13.445862855991237],[-73.06319057282609,-13.44585575145539]]]}},{"type":"Feature","properties":{"Cell_ID":101,"Area_ha":1.0,"LC":"5:0.000977,9:0.424847,16:0.258053,18:0.316122","XMIN":709584.86160847,"YMIN":8512633.59738907,"XMAX":709684.86160847,"YMAX":8512733.59738907},"geometry":{"type":"Polygon","coordinates":[[[-73.06318331234637,-13.446759471926862],[-73.06319057282609,-13.44585575145539],[-73.06411387644513,-13.445862855991237],[-73.06410661942131,-13.446766576957536],[-73.06318331234637,-13.446759471926862]]]}},{"type":"Feature","properties":{"Cell_ID":102,"Area_ha":1.0,"LC":"9:0.122086,16:0.877914","XMIN":709584.86160847,"YMIN":8512533.59738907,"XMAX":709684.86160847,"YMAX":8512633.59738907},"geometry":{"type":"Polygon","coordinates":[[[-73.06317605133324,-13.44766319232972],[-73.06318331234637,-13.446759471926862],[-73.06410661942131,-13.446766576957536],[-73.06409936186434,-13.44767029785522],[-73.06317605133324,-13.44766319232972]]]}},{"type":"Feature","properties":{"Cell_ID":103,"Area_ha":1.0,"LC":"5:0.237084,9:0.561792,16:0.201125","XMIN":709584.86160847,"YMIN":8512433.59738907,"XMAX":709684.86160847,"YMAX":8512533.59738907},"geometry":{"type":"Polygon","coordinates":[[[-73.06316878978672,-13.448566912663958],[-73.06317605133324,-13.44766319232972],[-73.06409936186434,-13.44767029785522],[-73.06409210377421,-13.44857401868429],[-73.06316878978672,-13.448566912663958]]]}},{"type":"Feature","properties":{"Cell_ID":104,"Area_ha":1.0,"LC":"5:0.695153,9:0.304847","XMIN":709584.86160847,"YMIN":8512333.59738907,"XMAX":709684.86160847,"YMAX":8512433.59738907},"geometry":{"type":"Polygon","coordinates":[[[-73.06316152770675,-13.449470632929568],[-73.06316878978672,-13.448566912663958],[-73.06409210377421,-13.44857401868429],[-73.06408484515092,-13.449477739444735],[-73.06316152770675,-13.449470632929568]]]}},{"type":"Feature","properties":{"Cell_ID":105,"Area_ha":1.0,"LC":"5:0.175715,9:0.824285","XMIN":709584.86160847,"YMIN":8512233.59738907,"XMAX":709684.86160847,"YMAX":8512333.59738907},"geometry":{"type":"Polygon","coordinates":[[[-73.06315426509339,-13.450374353126545],[-73.06316152770675,-13.449470632929568],[-73.06408484515092,-13.449477739444735],[-73.06407758599445,-13.450381460136551],[-73.06315426509339,-13.450374353126545]]]}},{"type":"Feature","properties":{"Cell_ID":106,"Area_ha":1.0,"LC":"5:0.574309,9:0.425691","XMIN":709584.86160847,"YMIN":8512133.59738907,"XMAX":709684.86160847,"YMAX":8512233.59738907},"geometry":{"type":"Polygon","coordinates":[[[-73.06314700194656,-13.45127807325489],[-73.06315426509339,-13.450374353126545],[-73.06407758599445,-13.450381460136551],[-73.0640703263048,-13.451285180759738],[-73.06314700194656,-13.45127807325489]]]}},{"type":"Feature","properties":{"Cell_ID":107,"Area_ha":1.0,"LC":"5:0.999853,9:0.000147","XMIN":709584.86160847,"YMIN":8512033.59738907,"XMAX":709684.86160847,"YMAX":8512133.59738907},"geometry":{"type":"Polygon","coordinates":[[[-73.06313973826629,-13.452181793314594],[-73.06314700194656,-13.45127807325489],[-73.0640703263048,-13.451285180759738],[-73.06406306608196,-13.452188901314289],[-73.06313973826629,-13.452181793314594]]]}},{"type":"Feature","properties":{"Cell_ID":108,"Area_ha":1.0,"LC":"5:0.601125,9:0.075988,13:0.322887","XMIN":709584.86160847,"YMIN":8511933.59738907,"XMAX":709684.86160847,"YMAX":8512033.59738907},"geometry":{"type":"Polygon","coordinates":[[[-73.06313247405257,-13.453085513305655],[-73.06313973826629,-13.452181793314594],[-73.06406306608196,-13.452188901314289],[-73.0640558053259,-13.4530926218002],[-73.06313247405257,-13.453085513305655]]]}},{"type":"Feature","properties":{"Cell_ID":109,"Area_ha":1.0,"LC":"5:0.000281,9:0.357780,13:0.641939","XMIN":709584.86160847,"YMIN":8511833.59738907,"XMAX":709684.86160847,"YMAX":8511933.59738907},"geometry":{"type":"Polygon","coordinates":[[[-73.06312520930537,-13.453989233228073],[-73.06313247405257,-13.453085513305655],[-73.0640558053259,-13.4530926218002],[-73.06404854403665,-13.45399634221747],[-73.06312520930537,-13.453989233228073]]]}},{"type":"Feature","properties":{"Cell_ID":110,"Area_ha":1.0,"LC":"7:0.121792,9:0.818763,16:0.059031,17:0.000415","XMIN":709684.86160847,"YMIN":8513333.59738907,"XMAX":709784.86160847,"YMAX":8513433.59738907},"geometry":{"type":"Polygon","coordinates":[[[-73.06231084214794,-13.440426322237565],[-73.06231810234824,-13.439522601780919],[-73.06324138124975,-13.439529706234131],[-73.06323412450358,-13.440433427185807],[-73.06231084214794,-13.440426322237565]]]}},{"type":"Feature","properties":{"Cell_ID":111,"Area_ha":1.0,"LC":"7:0.000147,9:0.999853","XMIN":709684.86160847,"YMIN":8513233.59738907,"XMAX":709784.86160847,"YMAX":8513333.59738907},"geometry":{"type":"Polygon","coordinates":[[[-73.06230358141404,-13.441330042625612],[-73.06231084214794,-13.440426322237565],[-73.06323412450358,-13.440433427185807],[-73.06322686722405,-13.441337148068898],[-73.06230358141404,-13.441330042625612]]]}},{"type":"Feature","properties":{"Cell_ID":112,"Area_ha":1.0,"LC":"5:0.197365,9:0.739874,16:0.062761","XMIN":709684.86160847,"YMIN":8513133.59738907,"XMAX":709784.86160847,"YMAX":8513233.59738907},"geometry":{"type":"Polygon","coordinates":[[[-73.06229632014656,-13.442233762945069],[-73.06230358141404,-13.441330042625612],[-73.06322686722405,-13.441337148068898],[-73.06321960941119,-13.442240868883397],[-73.06229632014656,-13.442233762945069]]]}},{"type":"Feature","properties":{"Cell_ID":113,"Area_ha":1.0,"LC":"5:0.316685,9:0.683168,16:0.000147","XMIN":709684.86160847,"YMIN":8513033.59738907,"XMAX":709784.86160847,"YMAX":8513133.59738907},"geometry":{"type":"Polygon","coordinates":[[[-73.06228905834546,-13.443137483195926],[-73.06229632014656,-13.442233762945069],[-73.06321960941119,-13.442240868883397],[-73.06321235106496,-13.4431445896293],[-73.06228905834546,-13.443137483195926]]]}},{"type":"Feature","properties":{"Cell_ID":114,"Area_ha":1.0,"LC":"5:0.095153,9:0.904847","XMIN":709684.86160847,"YMIN":8512933.59738907,"XMAX":709784.86160847,"YMAX":8513033.59738907},"geometry":{"type":"Polygon","coordinates":[[[-73.06228179601075,-13.444041203378179],[-73.06228905834546,-13.443137483195926],[-73.06321235106496,-13.4431445896293],[-73.06320509218538,-13.444048310306602],[-73.06228179601075,-13.444041203378179]]]}},{"type":"Feature","properties":{"Cell_ID":115,"Area_ha":1.0,"LC":"5:0.000134,9:0.999866","XMIN":709684.86160847,"YMIN":8512833.59738907,"XMAX":709784.86160847,"YMAX":8512933.59738907},"geometry":{"type":"Polygon","coordinates":[[[-73.06227453314241,-13.444944923491825],[-73.06228179601075,-13.444041203378179],[-73.06320509218538,-13.444048310306602],[-73.06319783277242,-13.444952030915301],[-73.06227453314241,-13.444944923491825]]]}},{"type":"Feature","properties":{"Cell_ID":116,"Area_ha":1.0,"LC":"9:1.000000","XMIN":709684.86160847,"YMIN":8512733.59738907,"XMAX":709784.86160847,"YMAX":8512833.59738907},"geometry":{"type":"Polygon","coordinates":[[[-73.06226726974045,-13.445848643536856],[-73.06227453314241,-13.444944923491825],[-73.06319783277242,-13.444952030915301],[-73.06319057282609,-13.44585575145539],[-73.06226726974045,-13.445848643536856]]]}},{"type":"Feature","properties":{"Cell_ID":117,"Area_ha":1.0,"LC":"9:1.000000","XMIN":709684.86160847,"YMIN":8512633.59738907,"XMAX":709784.86160847,"YMAX":8512733.59738907},"geometry":{"type":"Polygon","coordinates":[[[-73.06226000580483,-13.44675236351327],[-73.06226726974045,-13.445848643536856],[-73.06319057282609,-13.44585575145539],[-73.06318331234637,-13.446759471926862],[-73.06226000580483,-13.44675236351327]]]}},{"type":"Feature","properties":{"Cell_ID":118,"Area_ha":1.0,"LC":"5:0.104700,9:0.838342,16:0.056958","XMIN":709684.86160847,"YMIN":8512533.59738907,"XMAX":709784.86160847,"YMAX":8512633.59738907},"geometry":{"type":"Polygon","coordinates":[[[-73.06225274133557,-13.447656083421066],[-73.06226000580483,-13.44675236351327],[-73.06318331234637,-13.446759471926862],[-73.06317605133324,-13.44766319232972],[-73.06225274133557,-13.447656083421066]]]}},{"type":"Feature","properties":{"Cell_ID":119,"Area_ha":1.0,"LC":"5:0.082086,7:0.341917,9:0.556832,16:0.019164","XMIN":709684.86160847,"YMIN":8512433.59738907,"XMAX":709784.86160847,"YMAX":8512533.59738907},"geometry":{"type":"Polygon","coordinates":[[[-73.06224547633263,-13.448559803260233],[-73.06225274133557,-13.447656083421066],[-73.06317605133324,-13.44766319232972],[-73.06316878978672,-13.448566912663958],[-73.06224547633263,-13.448559803260233]]]}},{"type":"Feature","properties":{"Cell_ID":120,"Area_ha":1.0,"LC":"7:0.484307,9:0.515693","XMIN":709684.86160847,"YMIN":8512333.59738907,"XMAX":709784.86160847,"YMAX":8512433.59738907},"geometry":{"type":"Polygon","coordinates":[[[-73.06223821079604,-13.449463523030774],[-73.06224547633263,-13.448559803260233],[-73.06316878978672,-13.448566912663958],[-73.06316152770675,-13.449470632929568],[-73.06223821079604,-13.449463523030774]]]}},{"type":"Feature","properties":{"Cell_ID":121,"Area_ha":1.0,"LC":"7:0.643730,9:0.356270","XMIN":709684.86160847,"YMIN":8512233.59738907,"XMAX":709784.86160847,"YMAX":8512333.59738907},"geometry":{"type":"Polygon","coordinates":[[[-73.06223094472574,-13.450367242732675],[-73.06223821079604,-13.449463523030774],[-73.06316152770675,-13.449470632929568],[-73.06315426509339,-13.450374353126545],[-73.06223094472574,-13.450367242732675]]]}},{"type":"Feature","properties":{"Cell_ID":122,"Area_ha":1.0,"LC":"5:0.320667,7:0.061679,9:0.617654","XMIN":709684.86160847,"YMIN":8512133.59738907,"XMAX":709784.86160847,"YMAX":8512233.59738907},"geometry":{"type":"Polygon","coordinates":[[[-73.06222367812177,-13.451270962365943],[-73.06223094472574,-13.450367242732675],[-73.06315426509339,-13.450374353126545],[-73.06314700194656,-13.45127807325489],[-73.06222367812177,-13.451270962365943]]]}},{"type":"Feature","properties":{"Cell_ID":123,"Area_ha":1.0,"LC":"5:0.999866,9:0.000134","XMIN":709684.86160847,"YMIN":8512033.59738907,"XMAX":709784.86160847,"YMAX":8512133.59738907},"geometry":{"type":"Polygon","coordinates":[[[-73.06221641098408,-13.452174681930565],[-73.06222367812177,-13.451270962365943],[-73.06314700194656,-13.45127807325489],[-73.06313973826629,-13.452181793314594],[-73.06221641098408,-13.452174681930565]]]}},{"type":"Feature","properties":{"Cell_ID":124,"Area_ha":1.0,"LC":"5:0.403168,7:0.117365,9:0.479467","XMIN":709784.86160847,"YMIN":8513333.59738907,"XMAX":709884.86160847,"YMAX":8513433.59738907},"geometry":{"type":"Polygon","coordinates":[[[-73.06138756032588,-13.44041921390805],[-73.06139482398028,-13.439515493946677],[-73.06231810234824,-13.439522601780919],[-73.06231084214794,-13.440426322237565],[-73.06138756032588,-13.44041921390805]]]}},{"type":"Feature","properties":{"Cell_ID":125,"Area_ha":1.0,"LC":"5:0.465129,7:0.400134,9:0.095019,16:0.039719","XMIN":709784.86160847,"YMIN":8513233.59738907,"XMAX":709884.86160847,"YMAX":8513333.59738907},"geometry":{"type":"Polygon","coordinates":[[[-73.06138029613764,-13.441322933800828],[-73.06138756032588,-13.44041921390805],[-73.06231084214794,-13.440426322237565],[-73.06230358141404,-13.441330042625612],[-73.06138029613764,-13.441322933800828]]]}},{"type":"Feature","properties":{"Cell_ID":126,"Area_ha":1.0,"LC":"5:0.063337,7:0.441792,9:0.038195,16:0.456677","XMIN":709784.86160847,"YMIN":8513133.59738907,"XMAX":709884.86160847,"YMAX":8513233.59738907},"geometry":{"type":"Polygon","coordinates":[[[-73.06137303141553,-13.442226653625008],[-73.06138029613764,-13.441322933800828],[-73.06230358141404,-13.441330042625612],[-73.06229632014656,-13.442233762945069],[-73.06137303141553,-13.442226653625008]]]}},{"type":"Feature","properties":{"Cell_ID":127,"Area_ha":1.0,"LC":"5:0.363315,7:0.360147,9:0.195841,16:0.080696","XMIN":709784.86160847,"YMIN":8513033.59738907,"XMAX":709884.86160847,"YMAX":8513133.59738907},"geometry":{"type":"Polygon","coordinates":[[[-73.06136576615958,-13.443130373380583],[-73.06137303141553,-13.442226653625008],[-73.06229632014656,-13.442233762945069],[-73.06228905834546,-13.443137483195926],[-73.06136576615958,-13.443130373380583]]]}},{"type":"Feature","properties":{"Cell_ID":128,"Area_ha":1.0,"LC":"5:0.160562,7:0.280562,9:0.558875","XMIN":709784.86160847,"YMIN":8512933.59738907,"XMAX":709884.86160847,"YMAX":8513033.59738907},"geometry":{"type":"Polygon","coordinates":[[[-73.06135850036975,-13.44403409306755],[-73.06136576615958,-13.443130373380583],[-73.06228905834546,-13.443137483195926],[-73.06228179601075,-13.444041203378179],[-73.06135850036975,-13.44403409306755]]]}},{"type":"Feature","properties":{"Cell_ID":129,"Area_ha":1.0,"LC":"9:1.000000","XMIN":709784.86160847,"YMIN":8512833.59738907,"XMAX":709884.86160847,"YMAX":8512933.59738907},"geometry":{"type":"Polygon","coordinates":[[[-73.06135123404603,-13.444937812685906],[-73.06135850036975,-13.44403409306755],[-73.06228179601075,-13.444041203378179],[-73.06227453314241,-13.444944923491825],[-73.06135123404603,-13.444937812685906]]]}},{"type":"Feature","properties":{"Cell_ID":130,"Area_ha":1.0,"LC":"9:0.840562,13:0.159438","XMIN":709784.86160847,"YMIN":8512733.59738907,"XMAX":709884.86160847,"YMAX":8512833.59738907},"geometry":{"type":"Polygon","coordinates":[[[-73.06134396718845,-13.445841532235647],[-73.06135123404603,-13.444937812685906],[-73.06227453314241,-13.444944923491825],[-73.06226726974045,-13.445848643536856],[-73.06134396718845,-13.445841532235647]]]}},{"type":"Feature","properties":{"Cell_ID":131,"Area_ha":1.0,"LC":"5:0.039719,9:0.476551,13:0.483730","XMIN":709784.86160847,"YMIN":8512633.59738907,"XMAX":709884.86160847,"YMAX":8512733.59738907},"geometry":{"type":"Polygon","coordinates":[[[-73.06133669979695,-13.446745251716763],[-73.06134396718845,-13.445841532235647],[-73.06226726974045,-13.445848643536856],[-73.06226000580483,-13.44675236351327],[-73.06133669979695,-13.446745251716763]]]}},{"type":"Feature","properties":{"Cell_ID":132,"Area_ha":1.0,"LC":"5:0.295019,9:0.704271,13:0.000710","XMIN":709784.86160847,"YMIN":8512533.59738907,"XMAX":709884.86160847,"YMAX":8512633.59738907},"geometry":{"type":"Polygon","coordinates":[[[-73.06132943187156,-13.447648971129258],[-73.06133669979695,-13.446745251716763],[-73.06226000580483,-13.44675236351327],[-73.06225274133557,-13.447656083421066],[-73.06132943187156,-13.447648971129258]]]}},{"type":"Feature","properties":{"Cell_ID":133,"Area_ha":1.0,"LC":"5:0.238195,7:0.056958,9:0.360147,13:0.344700","XMIN":709784.86160847,"YMIN":8512433.59738907,"XMAX":709884.86160847,"YMAX":8512533.59738907},"geometry":{"type":"Polygon","coordinates":[[[-73.06132216341223,-13.448552690473127],[-73.06132943187156,-13.447648971129258],[-73.06225274133557,-13.447656083421066],[-73.06224547633263,-13.448559803260233],[-73.06132216341223,-13.448552690473127]]]}},{"type":"Feature","properties":{"Cell_ID":134,"Area_ha":1.0,"LC":"5:0.040281,7:0.397766,9:0.561805,13:0.000147","XMIN":709784.86160847,"YMIN":8512333.59738907,"XMAX":709884.86160847,"YMAX":8512433.59738907},"geometry":{"type":"Polygon","coordinates":[[[-73.06131489441898,-13.44945640974836],[-73.06132216341223,-13.448552690473127],[-73.06224547633263,-13.448559803260233],[-73.06223821079604,-13.449463523030774],[-73.06131489441898,-13.44945640974836]]]}},{"type":"Feature","properties":{"Cell_ID":135,"Area_ha":1.0,"LC":"7:0.296824,9:0.703176","XMIN":709784.86160847,"YMIN":8512233.59738907,"XMAX":709884.86160847,"YMAX":8512333.59738907},"geometry":{"type":"Polygon","coordinates":[[[-73.06130762489181,-13.450360128954951],[-73.06131489441898,-13.44945640974836],[-73.06223821079604,-13.449463523030774],[-73.06223094472574,-13.450367242732675],[-73.06130762489181,-13.450360128954951]]]}},{"type":"Feature","properties":{"Cell_ID":136,"Area_ha":1.0,"LC":"5:0.079719,7:0.319438,9:0.600844","XMIN":709884.86160847,"YMIN":8512933.59738907,"XMAX":709984.86160847,"YMAX":8513033.59738907},"geometry":{"type":"Polygon","coordinates":[[[-73.06043520526262,-13.444026979374723],[-73.06044247450757,-13.44312326018328],[-73.06136576615958,-13.443130373380583],[-73.06135850036975,-13.44403409306755],[-73.06043520526262,-13.444026979374723]]]}},{"type":"Feature","properties":{"Cell_ID":137,"Area_ha":1.0,"LC":"5:0.580688,7:0.223471,9:0.195841","XMIN":709884.86160847,"YMIN":8512833.59738907,"XMAX":709984.86160847,"YMAX":8512933.59738907},"geometry":{"type":"Polygon","coordinates":[[[-73.06042793548356,-13.444930698497556],[-73.06043520526262,-13.444026979374723],[-73.06135850036975,-13.44403409306755],[-73.06135123404603,-13.444937812685906],[-73.06042793548356,-13.444930698497556]]]}},{"type":"Feature","properties":{"Cell_ID":138,"Area_ha":1.0,"LC":"5:0.040562,9:0.959438","XMIN":709884.86160847,"YMIN":8512733.59738907,"XMAX":709984.86160847,"YMAX":8512833.59738907},"geometry":{"type":"Polygon","coordinates":[[[-73.06042066517034,-13.445834417551769],[-73.06042793548356,-13.444930698497556],[-73.06135123404603,-13.444937812685906],[-73.06134396718845,-13.445841532235647],[-73.06042066517034,-13.445834417551769]]]}},{"type":"Feature","properties":{"Cell_ID":139,"Area_ha":1.0,"LC":"9:0.684855,13:0.315145","XMIN":709884.86160847,"YMIN":8512633.59738907,"XMAX":709984.86160847,"YMAX":8512733.59738907},"geometry":{"type":"Polygon","coordinates":[[[-73.06041339432296,-13.446738136537352],[-73.06042066517034,-13.445834417551769],[-73.06134396718845,-13.445841532235647],[-73.06133669979695,-13.446745251716763],[-73.06041339432296,-13.446738136537352]]]}},{"type":"Feature","properties":{"Cell_ID":140,"Area_ha":1.0,"LC":"9:0.334885,13:0.665115","XMIN":709884.86160847,"YMIN":8512533.59738907,"XMAX":709984.86160847,"YMAX":8512633.59738907},"geometry":{"type":"Polygon","coordinates":[[[-73.06040612294146,-13.447641855454314],[-73.06041339432296,-13.446738136537352],[-73.06133669979695,-13.446745251716763],[-73.06132943187156,-13.447648971129258],[-73.06040612294146,-13.447641855454314]]]}},{"type":"Feature","properties":{"Cell_ID":141,"Area_ha":1.0,"LC":"9:0.120696,13:0.879304","XMIN":709884.86160847,"YMIN":8512433.59738907,"XMAX":709984.86160847,"YMAX":8512533.59738907},"geometry":{"type":"Polygon","coordinates":[[[-73.06039885102575,-13.448545574302644],[-73.06040612294146,-13.447641855454314],[-73.06132943187156,-13.447648971129258],[-73.06132216341223,-13.448552690473127],[-73.06039885102575,-13.448545574302644]]]}},{"type":"Feature","properties":{"Cell_ID":142,"Area_ha":1.0,"LC":"7:0.117646,9:0.137092,13:0.745262","XMIN":709884.86160847,"YMIN":8512333.59738907,"XMAX":709984.86160847,"YMAX":8512433.59738907},"geometry":{"type":"Polygon","coordinates":[[[-73.06039157857587,-13.449449293082333],[-73.06039885102575,-13.448545574302644],[-73.06132216341223,-13.448552690473127],[-73.06131489441898,-13.44945640974836],[-73.06039157857587,-13.449449293082333]]]}},{"type":"Feature","properties":{"Cell_ID":143,"Area_ha":1.0,"LC":"7:0.160562,9:0.675131,13:0.164307","XMIN":709984.86160847,"YMIN":8512733.59738907,"XMAX":710084.86160847,"YMAX":8512833.59738907},"geometry":{"type":"Polygon","coordinates":[[[-73.05949736368639,-13.445827299485234],[-73.0595046374552,-13.444923580926783],[-73.06042793548356,-13.444930698497556],[-73.06042066517034,-13.445834417551769],[-73.05949736368639,-13.445827299485234]]]}},{"type":"Feature","properties":{"Cell_ID":144,"Area_ha":1.0,"LC":"9:0.897373,13:0.039719,14:0.062908","XMIN":709984.86160847,"YMIN":8512633.59738907,"XMAX":710084.86160847,"YMAX":8512733.59738907},"geometry":{"type":"Polygon","coordinates":[[[-73.05949008938316,-13.44673101797505],[-73.05949736368639,-13.445827299485234],[-73.06042066517034,-13.445834417551769],[-73.06041339432296,-13.446738136537352],[-73.05949008938316,-13.44673101797505]]]}},{"type":"Feature","properties":{"Cell_ID":145,"Area_ha":1.0,"LC":"9:0.022094,13:0.977906","XMIN":709984.86160847,"YMIN":8512533.59738907,"XMAX":710084.86160847,"YMAX":8512633.59738907},"geometry":{"type":"Polygon","coordinates":[[[-73.05948281454552,-13.447634736396244],[-73.05949008938316,-13.44673101797505],[-73.06041339432296,-13.446738136537352],[-73.06040612294146,-13.447641855454314],[-73.05948281454552,-13.447634736396244]]]}},{"type":"Feature","properties":{"Cell_ID":146,"Area_ha":1.0,"LC":"13:1.000000","XMIN":709984.86160847,"YMIN":8512433.59738907,"XMAX":710084.86160847,"YMAX":8512533.59738907},"geometry":{"type":"Polygon","coordinates":[[[-73.05947553917345,-13.448538454748796],[-73.05948281454552,-13.447634736396244],[-73.06040612294146,-13.447641855454314],[-73.06039885102575,-13.448545574302644],[-73.05947553917345,-13.448538454748796]]]}},{"type":"Feature","properties":{"Cell_ID":147,"Area_ha":1.0,"LC":"13:1.000000","XMIN":709984.86160847,"YMIN":8512333.59738907,"XMAX":710084.86160847,"YMAX":8512433.59738907},"geometry":{"type":"Polygon","coordinates":[[[-73.05946826326696,-13.449442173032706],[-73.05947553917345,-13.448538454748796],[-73.06039885102575,-13.448545574302644],[-73.06039157857587,-13.449449293082333],[-73.05946826326696,-13.449442173032706]]]}},{"type":"Feature","properties":{"Cell_ID":148,"Area_ha":1.0,"LC":"9:0.479853,13:0.063056,14:0.457092","XMIN":710084.86160847,"YMIN":8512633.59738907,"XMAX":710184.86160847,"YMAX":8512733.59738907},"geometry":{"type":"Polygon","coordinates":[[[-73.05856678497777,-13.446723896029864],[-73.05857406273684,-13.445820178036048],[-73.05949736368639,-13.445827299485234],[-73.05949008938316,-13.44673101797505],[-73.05856678497777,-13.446723896029864]]]}},{"type":"Feature","properties":{"Cell_ID":149,"Area_ha":1.0,"LC":"9:0.380437,13:0.619563","XMIN":710084.86160847,"YMIN":8512533.59738907,"XMAX":710184.86160847,"YMAX":8512633.59738907},"geometry":{"type":"Polygon","coordinates":[[[-73.05855950668402,-13.44762761395505],[-73.05856678497777,-13.446723896029864],[-73.05949008938316,-13.44673101797505],[-73.05948281454552,-13.447634736396244],[-73.05855950668402,-13.44762761395505]]]}},{"type":"Feature","properties":{"Cell_ID":150,"Area_ha":1.0,"LC":"13:1.000000","XMIN":710084.86160847,"YMIN":8512433.59738907,"XMAX":710184.86160847,"YMAX":8512533.59738907},"geometry":{"type":"Polygon","coordinates":[[[-73.0585522278556,-13.448531331811592],[-73.05855950668402,-13.44762761395505],[-73.05948281454552,-13.447634736396244],[-73.05947553917345,-13.448538454748796],[-73.0585522278556,-13.448531331811592]]]}},{"type":"Feature","properties":{"Cell_ID":151,"Area_ha":1.0,"LC":"13:0.838771,16:0.161229","XMIN":710084.86160847,"YMIN":8512333.59738907,"XMAX":710184.86160847,"YMAX":8512433.59738907},"geometry":{"type":"Polygon","coordinates":[[[-73.05854494849248,-13.44943504959949],[-73.0585522278556,-13.448531331811592],[-73.05947553917345,-13.448538454748796],[-73.05946826326696,-13.449442173032706],[-73.05854494849248,-13.44943504959949]]]}},{"type":"Feature","properties":{"Cell_ID":152,"Area_ha":1.0,"LC":"9:0.000415,13:0.999585","XMIN":710184.86160847,"YMIN":8512533.59738907,"XMAX":710284.86160847,"YMAX":8512633.59738907},"geometry":{"type":"Polygon","coordinates":[[[-73.05763619935719,-13.447620488130744],[-73.05764348110704,-13.4467167707018],[-73.05856678497777,-13.446723896029864],[-73.05855950668402,-13.44762761395505],[-73.05763619935719,-13.447620488130744]]]}},{"type":"Feature","properties":{"Cell_ID":153,"Area_ha":1.0,"LC":"13:1.000000","XMIN":710184.86160847,"YMIN":8512433.59738907,"XMAX":710284.86160847,"YMAX":8512533.59738907},"geometry":{"type":"Polygon","coordinates":[[[-73.05762891707242,-13.448524205491044],[-73.05763619935719,-13.447620488130744],[-73.05855950668402,-13.44762761395505],[-73.0585522278556,-13.448531331811592],[-73.05762891707242,-13.448524205491044]]]}},{"type":"Feature","properties":{"Cell_ID":154,"Area_ha":1.0,"LC":"13:0.702376,16:0.297624","XMIN":710184.86160847,"YMIN":8512333.59738907,"XMAX":710284.86160847,"YMAX":8512433.59738907},"geometry":{"type":"Polygon","coordinates":[[[-73.0576216342527,-13.449427922782691],[-73.05762891707242,-13.448524205491044],[-73.0585522278556,-13.448531331811592],[-73.05854494849248,-13.44943504959949],[-73.0576216342527,-13.449427922782691]]]}}]}