{"type":"FeatureCollection","features":[{"type":"Feature","properties":{"Cell_ID":1,"Area_ha":1.0,"LC":"9:0.406418,16:0.382763,18:0.161939","XMIN":702744.86160847,"YMIN":8508323.59738907,"XMAX":702844.86160847,"YMAX":8508423.59738907},"geometry":{"type":"Polygon","coordinates":[[[-73.1260355041153,-13.486189380280596],[-73.12604255043932,-13.485285629457143],[-73.12696603914708,-13.485292523231623],[-73.12695899629055,-13.48619627453393],[-73.1260355041153,-13.486189380280596]]]}},{"type":"Feature","properties":{"Cell_ID":2,"Area_ha":1.0,"LC":"13:0.537884,18:0.040562","XMIN":702844.86160847,"YMIN":8508223.59738907,"XMAX":702944.86160847,"YMAX":8508323.59738907},"geometry":{"type":"Polygon","coordinates":[[[-73.12510496214831,-13.487086232909363],[-73.12511201245648,-13.486182482633573],[-73.1260355041153,-13.486189380280596],[-73.12602845727484,-13.48709313103548],[-73.12510496214831,-13.487086232909363]]]}}]}