{"type":"FeatureCollection","features":[{"type":"Feature","properties":{"Cell_ID":1,"Area_ha":1.0,"LC":"9:0.805578,16:0.040562,17:0.017304","XMIN":706074.86160847,"YMIN":8506453.59738907,"XMAX":706174.86160847,"YMAX":8506553.59738907},"geometry":{"type":"Polygon","coordinates":[[[-73.09514948908301,-13.502857690618086],[-73.09515666068613,-13.501953957160245],[-73.09608019693854,-13.501960973033865],[-73.09607302880735,-13.50286470697848],[-73.09514948908301,-13.502857690618086]]]}},{"type":"Feature","properties":{"Cell_ID":2,"Area_ha":1.0,"LC":"9:0.481658,13:0.518342","XMIN":706174.86160847,"YMIN":8506753.59738907,"XMAX":706274.86160847,"YMAX":8506853.59738907},"geometry":{"type":"Polygon","coordinates":[[[-73.09424747353293,-13.500139471741122],[-73.09425464703206,-13.499235738564023],[-73.09517817234517,-13.499242756374205],[-73.09517100231722,-13.5001464900383],[-73.09424747353293,-13.500139471741122]]]}},{"type":"Feature","properties":{"Cell_ID":3,"Area_ha":1.0,"LC":"9:0.365122,13:0.240281,16:0.394597","XMIN":706174.86160847,"YMIN":8506653.59738907,"XMAX":706274.86160847,"YMAX":8506753.59738907},"geometry":{"type":"Polygon","coordinates":[[[-73.09424029950851,-13.501043204849468],[-73.09424747353293,-13.500139471741122],[-73.09517100231722,-13.5001464900383],[-73.0951638317642,-13.50105022363365],[-73.09424029950851,-13.501043204849468]]]}},{"type":"Feature","properties":{"Cell_ID":4,"Area_ha":1.0,"LC":"9:0.282508,13:0.322220,16:0.395272","XMIN":706174.86160847,"YMIN":8506553.59738907,"XMAX":706274.86160847,"YMAX":8506653.59738907},"geometry":{"type":"Polygon","coordinates":[[[-73.09423312495878,-13.501946937889059],[-73.09424029950851,-13.501043204849468],[-73.0951638317642,-13.50105022363365],[-73.09515666068613,-13.501953957160245],[-73.09423312495878,-13.501946937889059]]]}},{"type":"Feature","properties":{"Cell_ID":5,"Area_ha":1.0,"LC":"7:0.080400,9:0.598194,16:0.321406","XMIN":706174.86160847,"YMIN":8506453.59738907,"XMAX":706274.86160847,"YMAX":8506553.59738907},"geometry":{"type":"Polygon","coordinates":[[[-73.09422594988374,-13.502850670859893],[-73.09423312495878,-13.501946937889059],[-73.09515666068613,-13.501953957160245],[-73.09514948908301,-13.502857690618086],[-73.09422594988374,-13.502850670859893]]]}},{"type":"Feature","properties":{"Cell_ID":6,"Area_ha":1.0,"LC":"9:0.084440,13:0.915560","XMIN":706274.86160847,"YMIN":8506853.59738907,"XMAX":706374.86160847,"YMAX":8506953.59738907},"geometry":{"type":"Polygon","coordinates":[[[-73.09333112224422,-13.499228717356996],[-73.09333829868896,-13.498324984598387],[-73.09426182000588,-13.498332005318185],[-73.09425464703206,-13.499235738564023],[-73.09333112224422,-13.499228717356996]]]}},{"type":"Feature","properties":{"Cell_ID":7,"Area_ha":1.0,"LC":"9:0.794878,13:0.205122","XMIN":706274.86160847,"YMIN":8506753.59738907,"XMAX":706374.86160847,"YMAX":8506853.59738907},"geometry":{"type":"Polygon","coordinates":[[[-73.09332394527397,-13.500132450046863],[-73.09333112224422,-13.499228717356996],[-73.09425464703206,-13.499235738564023],[-73.09424747353293,-13.500139471741122],[-73.09332394527397,-13.500132450046863]]]}},{"type":"Feature","properties":{"Cell_ID":8,"Area_ha":1.0,"LC":"9:0.395715,13:0.604285","XMIN":706274.86160847,"YMIN":8506653.59738907,"XMAX":706374.86160847,"YMAX":8506753.59738907},"geometry":{"type":"Polygon","coordinates":[[[-73.09331676777813,-13.50103618266797],[-73.09332394527397,-13.500132450046863],[-73.09424747353293,-13.500139471741122],[-73.09424029950851,-13.501043204849468],[-73.09331676777813,-13.50103618266797]]]}},{"type":"Feature","properties":{"Cell_ID":9,"Area_ha":1.0,"LC":"9:0.319424,13:0.641820,16:0.038756","XMIN":706274.86160847,"YMIN":8506553.59738907,"XMAX":706374.86160847,"YMAX":8506653.59738907},"geometry":{"type":"Polygon","coordinates":[[[-73.09330958975674,-13.50193991522032],[-73.09331676777813,-13.50103618266797],[-73.09424029950851,-13.501043204849468],[-73.09423312495878,-13.501946937889059],[-73.09330958975674,-13.50193991522032]]]}},{"type":"Feature","properties":{"Cell_ID":10,"Area_ha":1.0,"LC":"5:0.002908,9:0.678216,13:0.318875","XMIN":706374.86160847,"YMIN":8506853.59738907,"XMAX":706474.86160847,"YMAX":8506953.59738907},"geometry":{"type":"Polygon","coordinates":[[[-73.09240759798193,-13.499221692753133],[-73.09241477789755,-13.498317960481986],[-73.09333829868896,-13.498324984598387],[-73.09333112224422,-13.499228717356996],[-73.09240759798193,-13.499221692753133]]]}}]}