{"type":"FeatureCollection","features":[{"type":"Feature","properties":{"Cell_ID":1,"Area_ha":1.0,"LC":"9:0.193270,16:0.441957,17:0.350044","XMIN":700734.86160847,"YMIN":8515565.037292942,"XMAX":700834.86160847,"YMAX":8515665.037292942},"geometry":{"type":"Polygon","coordinates":[[[-73.14510168221976,-13.420881860014436],[-73.14510862184237,-13.41997809466264],[-73.14603187044209,-13.419984885902805],[-73.14602493426878,-13.420888651728475],[-73.14510168221976,-13.420881860014436]]]}},{"type":"Feature","properties":{"Cell_ID":2,"Area_ha":1.0,"LC":"3:0.244439,5:0.303569,9:0.451992","XMIN":700734.86160847,"YMIN":8515065.037292942,"XMAX":700834.86160847,"YMAX":8515165.037292942},"geometry":{"type":"Polygon","coordinates":[[[-73.14506697644659,-13.425400685750581],[-73.14507391862261,-13.424496920739745],[-73.1459971844713,-13.42450371434931],[-73.14599024574582,-13.425407479834039],[-73.14506697644659,-13.425400685750581]]]}},{"type":"Feature","properties":{"Cell_ID":3,"Area_ha":1.0,"LC":"5:0.541686,6:0.153270,7:0.156122,9:0.148922","XMIN":700734.86160847,"YMIN":8514965.037292942,"XMAX":700834.86160847,"YMAX":8515065.037292942},"geometry":{"type":"Polygon","coordinates":[[[-73.14506003375986,-13.426304450693213],[-73.14506697644659,-13.425400685750581],[-73.14599024574582,-13.425407479834039],[-73.1459833065099,-13.426311245250567],[-73.14506003375986,-13.426304450693213]]]}},{"type":"Feature","properties":{"Cell_ID":4,"Area_ha":1.0,"LC":"5:0.015696,7:0.228351,17:0.484071","XMIN":700834.86160847,"YMIN":8515665.037292942,"XMAX":700934.86160847,"YMAX":8515765.037292942},"geometry":{"type":"Polygon","coordinates":[[[-73.1441853737533,-13.419971300045916],[-73.14419231631427,-13.41906753510005],[-73.14511556095431,-13.419074329242669],[-73.14510862184237,-13.41997809466264],[-73.1441853737533,-13.419971300045916]]]}},{"type":"Feature","properties":{"Cell_ID":5,"Area_ha":1.0,"LC":"9:0.412864,16:0.271331,17:0.315805","XMIN":700834.86160847,"YMIN":8515565.037292942,"XMAX":700934.86160847,"YMAX":8515665.037292942},"geometry":{"type":"Polygon","coordinates":[[[-73.14417843068142,-13.420875064923603],[-73.1441853737533,-13.419971300045916],[-73.14510862184237,-13.41997809466264],[-73.14510168221976,-13.420881860014436],[-73.14417843068142,-13.420875064923603]]]}},{"type":"Feature","properties":{"Cell_ID":6,"Area_ha":1.0,"LC":"3:0.000408,5:0.149295,9:0.765506,16:0.084791","XMIN":700834.86160847,"YMIN":8515465.037292942,"XMAX":700934.86160847,"YMAX":8515565.037292942},"geometry":{"type":"Polygon","coordinates":[[[-73.14417148709863,-13.421778829733102],[-73.14417843068142,-13.420875064923603],[-73.14510168221976,-13.420881860014436],[-73.1450947420865,-13.42178562529805],[-73.14417148709863,-13.421778829733102]]]}},{"type":"Feature","properties":{"Cell_ID":7,"Area_ha":1.0,"LC":"3:0.495364,5:0.482036,9:0.022600","XMIN":700834.86160847,"YMIN":8515365.037292942,"XMAX":700934.86160847,"YMAX":8515465.037292942},"geometry":{"type":"Polygon","coordinates":[[[-73.1441645430049,-13.42268259447441],[-73.14417148709863,-13.421778829733102],[-73.1450947420865,-13.42178562529805],[-73.14508780144256,-13.42268939051347],[-73.1441645430049,-13.42268259447441]]]}},{"type":"Feature","properties":{"Cell_ID":8,"Area_ha":1.0,"LC":"3:0.284847,5:0.715153","XMIN":700834.86160847,"YMIN":8515265.037292942,"XMAX":700934.86160847,"YMAX":8515365.037292942},"geometry":{"type":"Polygon","coordinates":[[[-73.14415759840024,-13.423586359147523],[-73.1441645430049,-13.42268259447441],[-73.14508780144256,-13.42268939051347],[-73.14508086028793,-13.423593155660708],[-73.14415759840024,-13.423586359147523]]]}},{"type":"Feature","properties":{"Cell_ID":9,"Area_ha":1.0,"LC":"3:0.621278,5:0.378722","XMIN":700834.86160847,"YMIN":8515165.037292942,"XMAX":700934.86160847,"YMAX":8515265.037292942},"geometry":{"type":"Polygon","coordinates":[[[-73.14415065328463,-13.424490123752436],[-73.14415759840024,-13.423586359147523],[-73.14508086028793,-13.423593155660708],[-73.14507391862261,-13.424496920739745],[-73.14415065328463,-13.424490123752436]]]}},{"type":"Feature","properties":{"Cell_ID":10,"Area_ha":1.0,"LC":"3:0.448766,5:0.467356,9:0.083878","XMIN":700834.86160847,"YMIN":8515065.037292942,"XMAX":700934.86160847,"YMAX":8515165.037292942},"geometry":{"type":"Polygon","coordinates":[[[-73.14414370765806,-13.425393888289149],[-73.14415065328463,-13.424490123752436],[-73.14507391862261,-13.424496920739745],[-73.14506697644659,-13.425400685750581],[-73.14414370765806,-13.425393888289149]]]}},{"type":"Feature","properties":{"Cell_ID":11,"Area_ha":1.0,"LC":"5:0.663161,9:0.336839","XMIN":700834.86160847,"YMIN":8514965.037292942,"XMAX":700934.86160847,"YMAX":8515065.037292942},"geometry":{"type":"Polygon","coordinates":[[[-73.14413676152054,-13.42629765275765],[-73.14414370765806,-13.425393888289149],[-73.14506697644659,-13.425400685750581],[-73.14506003375986,-13.426304450693213],[-73.14413676152054,-13.42629765275765]]]}},{"type":"Feature","properties":{"Cell_ID":12,"Area_ha":1.0,"LC":"3:0.322908,5:0.360000,9:0.317092","XMIN":700834.86160847,"YMIN":8514865.037292942,"XMAX":700934.86160847,"YMAX":8514965.037292942},"geometry":{"type":"Polygon","coordinates":[[[-73.14412981487202,-13.42720141715794],[-73.14413676152054,-13.42629765275765],[-73.14506003375986,-13.426304450693213],[-73.1450530905624,-13.427208215567639],[-73.14412981487202,-13.42720141715794]]]}},{"type":"Feature","properties":{"Cell_ID":13,"Area_ha":1.0,"LC":"5:0.960408,7:0.016431,9:0.023161","XMIN":700834.86160847,"YMIN":8514765.037292942,"XMAX":700934.86160847,"YMAX":8514865.037292942},"geometry":{"type":"Polygon","coordinates":[[[-73.14412286771254,-13.428105181490015],[-73.14412981487202,-13.42720141715794],[-73.1450530905624,-13.427208215567639],[-73.14504614685423,-13.428111980373851],[-73.14412286771254,-13.428105181490015]]]}},{"type":"Feature","properties":{"Cell_ID":14,"Area_ha":1.0,"LC":"5:0.740309,7:0.259691","XMIN":700834.86160847,"YMIN":8514665.037292942,"XMAX":700934.86160847,"YMAX":8514765.037292942},"geometry":{"type":"Polygon","coordinates":[[[-73.14411592004205,-13.429008945753873],[-73.14412286771254,-13.428105181490015],[-73.14504614685423,-13.428111980373851],[-73.1450392026353,-13.429015745111844],[-73.14411592004205,-13.429008945753873]]]}},{"type":"Feature","properties":{"Cell_ID":15,"Area_ha":1.0,"LC":"5:1.000000","XMIN":700834.86160847,"YMIN":8514565.037292942,"XMAX":700934.86160847,"YMAX":8514665.037292942},"geometry":{"type":"Polygon","coordinates":[[[-73.14410897186059,-13.429912709949502],[-73.14411592004205,-13.429008945753873],[-73.1450392026353,-13.429015745111844],[-73.14503225790564,-13.42991950978162],[-73.14410897186059,-13.429912709949502]]]}},{"type":"Feature","properties":{"Cell_ID":16,"Area_ha":1.0,"LC":"5:1.000000","XMIN":700834.86160847,"YMIN":8514465.037292942,"XMAX":700934.86160847,"YMAX":8514565.037292942},"geometry":{"type":"Polygon","coordinates":[[[-73.14410202316809,-13.430816474076899],[-73.14410897186059,-13.429912709949502],[-73.14503225790564,-13.42991950978162],[-73.14502531266523,-13.430823274383163],[-73.14410202316809,-13.430816474076899]]]}},{"type":"Feature","properties":{"Cell_ID":17,"Area_ha":1.0,"LC":"5:0.552800,9:0.447200","XMIN":700834.86160847,"YMIN":8514365.037292942,"XMAX":700934.86160847,"YMAX":8514465.037292942},"geometry":{"type":"Polygon","coordinates":[[[-73.14409507396458,-13.431720238136064],[-73.14410202316809,-13.430816474076899],[-73.14502531266523,-13.430823274383163],[-73.14501836691403,-13.43172703891648],[-73.14409507396458,-13.431720238136064]]]}},{"type":"Feature","properties":{"Cell_ID":18,"Area_ha":1.0,"LC":"3:0.083130,5:0.049697,7:0.600969,17:0.242256","XMIN":700934.86160847,"YMIN":8515665.037292942,"XMAX":701034.86160847,"YMAX":8515765.037292942},"geometry":{"type":"Polygon","coordinates":[[[-73.14326212617514,-13.419964502052638],[-73.14326907218512,-13.419060737581113],[-73.14419231631427,-13.41906753510005],[-73.1441853737533,-13.419971300045916],[-73.14326212617514,-13.419964502052638]]]}},{"type":"Feature","properties":{"Cell_ID":19,"Area_ha":1.0,"LC":"9:0.522256,17:0.477744","XMIN":700934.86160847,"YMIN":8515565.037292942,"XMAX":701034.86160847,"YMAX":8515665.037292942},"geometry":{"type":"Polygon","coordinates":[[[-73.143255179654,-13.42086826645598],[-73.14326212617514,-13.419964502052638],[-73.1441853737533,-13.419971300045916],[-73.14417843068142,-13.420875064923603],[-73.143255179654,-13.42086826645598]]]}},{"type":"Feature","properties":{"Cell_ID":20,"Area_ha":1.0,"LC":"3:0.033270,5:0.772864,9:0.193866","XMIN":700934.86160847,"YMIN":8515465.037292942,"XMAX":701034.86160847,"YMAX":8515565.037292942},"geometry":{"type":"Polygon","coordinates":[[[-73.14324823262169,-13.421772030791129],[-73.143255179654,-13.42086826645598],[-73.14417843068142,-13.420875064923603],[-73.14417148709863,-13.421778829733102],[-73.14324823262169,-13.421772030791129]]]}},{"type":"Feature","properties":{"Cell_ID":21,"Area_ha":1.0,"LC":"3:0.725670,5:0.272953,6:0.001378","XMIN":700934.86160847,"YMIN":8515365.037292942,"XMAX":701034.86160847,"YMAX":8515465.037292942},"geometry":{"type":"Polygon","coordinates":[[[-73.14324128507819,-13.422675795058085],[-73.14324823262169,-13.421772030791129],[-73.14417148709863,-13.421778829733102],[-73.1441645430049,-13.42268259447441],[-73.14324128507819,-13.422675795058085]]]}},{"type":"Feature","properties":{"Cell_ID":22,"Area_ha":1.0,"LC":"3:0.995153,6:0.004847","XMIN":700934.86160847,"YMIN":8515265.037292942,"XMAX":701034.86160847,"YMAX":8515365.037292942},"geometry":{"type":"Polygon","coordinates":[[[-73.14323433702349,-13.423579559256844],[-73.14324128507819,-13.422675795058085],[-73.1441645430049,-13.42268259447441],[-73.14415759840024,-13.423586359147523],[-73.14323433702349,-13.423579559256844]]]}},{"type":"Feature","properties":{"Cell_ID":23,"Area_ha":1.0,"LC":"3:0.999031,6:0.000561,9:0.000408","XMIN":700934.86160847,"YMIN":8515165.037292942,"XMAX":701034.86160847,"YMAX":8515265.037292942},"geometry":{"type":"Polygon","coordinates":[[[-73.1432273884576,-13.4244833233874],[-73.14323433702349,-13.423579559256844],[-73.14415759840024,-13.423586359147523],[-73.14415065328463,-13.424490123752436],[-73.1432273884576,-13.4244833233874]]]}},{"type":"Feature","properties":{"Cell_ID":24,"Area_ha":1.0,"LC":"3:0.269891,5:0.090517,9:0.639592","XMIN":700934.86160847,"YMIN":8515065.037292942,"XMAX":701034.86160847,"YMAX":8515165.037292942},"geometry":{"type":"Polygon","coordinates":[[[-73.1432204393805,-13.42538708744975],[-73.1432273884576,-13.4244833233874],[-73.14415065328463,-13.424490123752436],[-73.14414370765806,-13.425393888289149],[-73.1432204393805,-13.42538708744975]]]}},{"type":"Feature","properties":{"Cell_ID":25,"Area_ha":1.0,"LC":"3:0.265508,5:0.734492","XMIN":700934.86160847,"YMIN":8514965.037292942,"XMAX":701034.86160847,"YMAX":8515065.037292942},"geometry":{"type":"Polygon","coordinates":[[[-73.14321348979217,-13.426290851443882],[-73.1432204393805,-13.42538708744975],[-73.14414370765806,-13.425393888289149],[-73.14413676152054,-13.42629765275765],[-73.14321348979217,-13.426290851443882]]]}},{"type":"Feature","properties":{"Cell_ID":26,"Area_ha":1.0,"LC":"3:0.738778,5:0.261222","XMIN":700934.86160847,"YMIN":8514865.037292942,"XMAX":701034.86160847,"YMAX":8514965.037292942},"geometry":{"type":"Polygon","coordinates":[[[-73.14320653969264,-13.427194615369809],[-73.14321348979217,-13.426290851443882],[-73.14413676152054,-13.42629765275765],[-73.14412981487202,-13.42720141715794],[-73.14320653969264,-13.427194615369809]]]}},{"type":"Feature","properties":{"Cell_ID":27,"Area_ha":1.0,"LC":"3:0.128822,5:0.871178","XMIN":700934.86160847,"YMIN":8514765.037292942,"XMAX":701034.86160847,"YMAX":8514865.037292942},"geometry":{"type":"Polygon","coordinates":[[[-73.14319958908185,-13.42809837922751],[-73.14320653969264,-13.427194615369809],[-73.14412981487202,-13.42720141715794],[-73.14412286771254,-13.428105181490015],[-73.14319958908185,-13.42809837922751]]]}},{"type":"Feature","properties":{"Cell_ID":28,"Area_ha":1.0,"LC":"3:0.080969,5:0.919031","XMIN":700934.86160847,"YMIN":8514665.037292942,"XMAX":701034.86160847,"YMAX":8514765.037292942},"geometry":{"type":"Polygon","coordinates":[[[-73.14319263795983,-13.429002143016989],[-73.14319958908185,-13.42809837922751],[-73.14412286771254,-13.428105181490015],[-73.14411592004205,-13.429008945753873],[-73.14319263795983,-13.429002143016989]]]}},{"type":"Feature","properties":{"Cell_ID":29,"Area_ha":1.0,"LC":"5:1.000000","XMIN":700934.86160847,"YMIN":8514565.037292942,"XMAX":701034.86160847,"YMAX":8514665.037292942},"geometry":{"type":"Polygon","coordinates":[[[-73.14318568632655,-13.429905906738238],[-73.14319263795983,-13.429002143016989],[-73.14411592004205,-13.429008945753873],[-73.14410897186059,-13.429912709949502],[-73.14318568632655,-13.429905906738238]]]}},{"type":"Feature","properties":{"Cell_ID":30,"Area_ha":1.0,"LC":"3:0.140156,5:0.859844","XMIN":700934.86160847,"YMIN":8514465.037292942,"XMAX":701034.86160847,"YMAX":8514565.037292942},"geometry":{"type":"Polygon","coordinates":[[[-73.14317873418199,-13.430809670391255],[-73.14318568632655,-13.429905906738238],[-73.14410897186059,-13.429912709949502],[-73.14410202316809,-13.430816474076899],[-73.14317873418199,-13.430809670391255]]]}},{"type":"Feature","properties":{"Cell_ID":31,"Area_ha":1.0,"LC":"3:0.105661,5:0.894339","XMIN":700934.86160847,"YMIN":8514365.037292942,"XMAX":701034.86160847,"YMAX":8514465.037292942},"geometry":{"type":"Polygon","coordinates":[[[-73.14317178152618,-13.431713433976036],[-73.14317873418199,-13.430809670391255],[-73.14410202316809,-13.430816474076899],[-73.14409507396458,-13.431720238136064],[-73.14317178152618,-13.431713433976036]]]}},{"type":"Feature","properties":{"Cell_ID":32,"Area_ha":1.0,"LC":"5:0.966730,7:0.033270","XMIN":700934.86160847,"YMIN":8514265.037292942,"XMAX":701034.86160847,"YMAX":8514365.037292942},"geometry":{"type":"Polygon","coordinates":[[[-73.14316482835906,-13.432617197492574],[-73.14317178152618,-13.431713433976036],[-73.14409507396458,-13.431720238136064],[-73.14408812425005,-13.432624002126994],[-73.14316482835906,-13.432617197492574]]]}},{"type":"Feature","properties":{"Cell_ID":33,"Area_ha":1.0,"LC":"5:0.621686,7:0.378314","XMIN":700934.86160847,"YMIN":8514165.037292942,"XMAX":701034.86160847,"YMAX":8514265.037292942},"geometry":{"type":"Polygon","coordinates":[[[-73.14315787468067,-13.43352096094087],[-73.14316482835906,-13.432617197492574],[-73.14408812425005,-13.432624002126994],[-73.14408117402446,-13.433527766049682],[-73.14315787468067,-13.43352096094087]]]}},{"type":"Feature","properties":{"Cell_ID":34,"Area_ha":1.0,"LC":"5:0.434330,7:0.178722,9:0.386948","XMIN":700934.86160847,"YMIN":8514065.037292942,"XMAX":701034.86160847,"YMAX":8514165.037292942},"geometry":{"type":"Polygon","coordinates":[[[-73.14315092049098,-13.434424724320909],[-73.14315787468067,-13.43352096094087],[-73.14408117402446,-13.433527766049682],[-73.14407422328784,-13.434431529904119],[-73.14315092049098,-13.434424724320909]]]}},{"type":"Feature","properties":{"Cell_ID":35,"Area_ha":1.0,"LC":"5:0.064692,7:0.016431,9:0.918877","XMIN":700934.86160847,"YMIN":8513965.037292942,"XMAX":701034.86160847,"YMAX":8514065.037292942},"geometry":{"type":"Polygon","coordinates":[[[-73.14314396578996,-13.4353284876327],[-73.14315092049098,-13.434424724320909],[-73.14407422328784,-13.434431529904119],[-73.14406727204016,-13.435335293690308],[-73.14314396578996,-13.4353284876327]]]}},{"type":"Feature","properties":{"Cell_ID":36,"Area_ha":1.0,"LC":"3:0.103849,7:0.654277,17:0.050109","XMIN":701034.86160847,"YMIN":8515665.037292942,"XMAX":701134.86160847,"YMAX":8515765.037292942},"geometry":{"type":"Polygon","coordinates":[[[-73.14233887910815,-13.419957700682815],[-73.14234582856714,-13.419053936685867],[-73.14326907218512,-13.419060737581113],[-73.14326212617514,-13.419964502052638],[-73.14233887910815,-13.419957700682815]]]}},{"type":"Feature","properties":{"Cell_ID":37,"Area_ha":1.0,"LC":"7:0.088822,9:0.089139,17:0.822038","XMIN":701034.86160847,"YMIN":8515565.037292942,"XMAX":701134.86160847,"YMAX":8515665.037292942},"geometry":{"type":"Polygon","coordinates":[[[-73.14233192913775,-13.420861464611576],[-73.14233887910815,-13.419957700682815],[-73.14326212617514,-13.419964502052638],[-73.143255179654,-13.42086826645598],[-73.14233192913775,-13.420861464611576]]]}},{"type":"Feature","properties":{"Cell_ID":38,"Area_ha":1.0,"LC":"5:0.503070,9:0.409077,17:0.087853","XMIN":701034.86160847,"YMIN":8515465.037292942,"XMAX":701134.86160847,"YMAX":8515565.037292942},"geometry":{"type":"Polygon","coordinates":[[[-73.14232497865592,-13.421765228472143],[-73.14233192913775,-13.420861464611576],[-73.143255179654,-13.42086826645598],[-73.14324823262169,-13.421772030791129],[-73.14232497865592,-13.421765228472143]]]}},{"type":"Feature","properties":{"Cell_ID":39,"Area_ha":1.0,"LC":"5:0.803260,6:0.169139,9:0.027600","XMIN":701034.86160847,"YMIN":8515365.037292942,"XMAX":701134.86160847,"YMAX":8515465.037292942},"geometry":{"type":"Polygon","coordinates":[[[-73.14231802766265,-13.42266899226451],[-73.14232497865592,-13.421765228472143],[-73.14324823262169,-13.421772030791129],[-73.14324128507819,-13.422675795058085],[-73.14231802766265,-13.42266899226451]]]}},{"type":"Feature","properties":{"Cell_ID":40,"Area_ha":1.0,"LC":"3:0.350672,5:0.127853,6:0.521475","XMIN":701034.86160847,"YMIN":8515265.037292942,"XMAX":701134.86160847,"YMAX":8515365.037292942},"geometry":{"type":"Polygon","coordinates":[[[-73.14231107615794,-13.423572755988678],[-73.14231802766265,-13.42266899226451],[-73.14324128507819,-13.422675795058085],[-73.14323433702349,-13.423579559256844],[-73.14231107615794,-13.423572755988678]]]}},{"type":"Feature","properties":{"Cell_ID":41,"Area_ha":1.0,"LC":"3:0.893205,5:0.017247,6:0.022600,9:0.066948","XMIN":701034.86160847,"YMIN":8515165.037292942,"XMAX":701134.86160847,"YMAX":8515265.037292942},"geometry":{"type":"Polygon","coordinates":[[[-73.14230412414179,-13.42447651964464],[-73.14231107615794,-13.423572755988678],[-73.14323433702349,-13.423579559256844],[-73.1432273884576,-13.4244833233874],[-73.14230412414179,-13.42447651964464]]]}},{"type":"Feature","properties":{"Cell_ID":42,"Area_ha":1.0,"LC":"3:0.280000,5:0.230826,9:0.489174","XMIN":701034.86160847,"YMIN":8515065.037292942,"XMAX":701134.86160847,"YMAX":8515165.037292942},"geometry":{"type":"Polygon","coordinates":[[[-73.14229717161416,-13.425380283232391],[-73.14230412414179,-13.42447651964464],[-73.1432273884576,-13.4244833233874],[-73.1432204393805,-13.42538708744975],[-73.14229717161416,-13.425380283232391]]]}},{"type":"Feature","properties":{"Cell_ID":43,"Area_ha":1.0,"LC":"3:0.646134,5:0.353866","XMIN":701034.86160847,"YMIN":8514965.037292942,"XMAX":701134.86160847,"YMAX":8515065.037292942},"geometry":{"type":"Polygon","coordinates":[[[-73.14229021857506,-13.426284046751928],[-73.14229717161416,-13.425380283232391],[-73.1432204393805,-13.42538708744975],[-73.14321348979217,-13.426290851443882],[-73.14229021857506,-13.426284046751928]]]}},{"type":"Feature","properties":{"Cell_ID":44,"Area_ha":1.0,"LC":"3:1.000000","XMIN":701034.86160847,"YMIN":8514865.037292942,"XMAX":701134.86160847,"YMAX":8514965.037292942},"geometry":{"type":"Polygon","coordinates":[[[-73.14228326502447,-13.427187810203245],[-73.14229021857506,-13.426284046751928],[-73.14321348979217,-13.426290851443882],[-73.14320653969264,-13.427194615369809],[-73.14228326502447,-13.427187810203245]]]}},{"type":"Feature","properties":{"Cell_ID":45,"Area_ha":1.0,"LC":"3:0.888669,5:0.111331","XMIN":701034.86160847,"YMIN":8514765.037292942,"XMAX":701134.86160847,"YMAX":8514865.037292942},"geometry":{"type":"Polygon","coordinates":[[[-73.1422763109624,-13.428091573586338],[-73.14228326502447,-13.427187810203245],[-73.14320653969264,-13.427194615369809],[-73.14319958908185,-13.42809837922751],[-73.1422763109624,-13.428091573586338]]]}},{"type":"Feature","properties":{"Cell_ID":46,"Area_ha":1.0,"LC":"3:0.746631,5:0.253369","XMIN":701034.86160847,"YMIN":8514665.037292942,"XMAX":701134.86160847,"YMAX":8514765.037292942},"geometry":{"type":"Polygon","coordinates":[[[-73.14226935638884,-13.428995336901208],[-73.1422763109624,-13.428091573586338],[-73.14319958908185,-13.42809837922751],[-73.14319263795983,-13.429002143016989],[-73.14226935638884,-13.428995336901208]]]}},{"type":"Feature","properties":{"Cell_ID":47,"Area_ha":1.0,"LC":"3:0.264539,5:0.735461","XMIN":701034.86160847,"YMIN":8514565.037292942,"XMAX":701134.86160847,"YMAX":8514665.037292942},"geometry":{"type":"Polygon","coordinates":[[[-73.14226240130375,-13.429899100147844],[-73.14226935638884,-13.428995336901208],[-73.14319263795983,-13.429002143016989],[-73.14318568632655,-13.429905906738238],[-73.14226240130375,-13.429899100147844]]]}},{"type":"Feature","properties":{"Cell_ID":48,"Area_ha":1.0,"LC":"3:0.755209,5:0.244791","XMIN":701034.86160847,"YMIN":8514465.037292942,"XMAX":701134.86160847,"YMAX":8514565.037292942},"geometry":{"type":"Polygon","coordinates":[[[-73.14225544570716,-13.430802863326239],[-73.14226240130375,-13.429899100147844],[-73.14318568632655,-13.429905906738238],[-73.14317873418199,-13.430809670391255],[-73.14225544570716,-13.430802863326239]]]}},{"type":"Feature","properties":{"Cell_ID":49,"Area_ha":1.0,"LC":"3:0.227544,5:0.772456","XMIN":701034.86160847,"YMIN":8514365.037292942,"XMAX":701134.86160847,"YMAX":8514465.037292942},"geometry":{"type":"Polygon","coordinates":[[[-73.14224848959904,-13.4317066264364],[-73.14225544570716,-13.430802863326239],[-73.14317873418199,-13.430809670391255],[-73.14317178152618,-13.431713433976036],[-73.14224848959904,-13.4317066264364]]]}},{"type":"Feature","properties":{"Cell_ID":50,"Area_ha":1.0,"LC":"5:1.000000","XMIN":701034.86160847,"YMIN":8514265.037292942,"XMAX":701134.86160847,"YMAX":8514365.037292942},"geometry":{"type":"Polygon","coordinates":[[[-73.14224153297937,-13.432610389478313],[-73.14224848959904,-13.4317066264364],[-73.14317178152618,-13.431713433976036],[-73.14316482835906,-13.432617197492574],[-73.14224153297937,-13.432610389478313]]]}},{"type":"Feature","properties":{"Cell_ID":51,"Area_ha":1.0,"LC":"5:1.000000","XMIN":701034.86160847,"YMIN":8514165.037292942,"XMAX":701134.86160847,"YMAX":8514265.037292942},"geometry":{"type":"Polygon","coordinates":[[[-73.14223457584818,-13.433514152451975],[-73.14224153297937,-13.432610389478313],[-73.14316482835906,-13.432617197492574],[-73.14315787468067,-13.43352096094087],[-73.14223457584818,-13.433514152451975]]]}},{"type":"Feature","properties":{"Cell_ID":52,"Area_ha":1.0,"LC":"5:1.000000","XMIN":701034.86160847,"YMIN":8514065.037292942,"XMAX":701134.86160847,"YMAX":8514165.037292942},"geometry":{"type":"Polygon","coordinates":[[[-73.14222761820541,-13.434417915357391],[-73.14223457584818,-13.433514152451975],[-73.14315787468067,-13.43352096094087],[-73.14315092049098,-13.434424724320909],[-73.14222761820541,-13.434417915357391]]]}},{"type":"Feature","properties":{"Cell_ID":53,"Area_ha":1.0,"LC":"5:0.866478,9:0.133522","XMIN":701034.86160847,"YMIN":8513965.037292942,"XMAX":701134.86160847,"YMAX":8514065.037292942},"geometry":{"type":"Polygon","coordinates":[[[-73.1422206600511,-13.435321678194544],[-73.14222761820541,-13.434417915357391],[-73.14315092049098,-13.434424724320909],[-73.14314396578996,-13.4353284876327],[-73.1422206600511,-13.435321678194544]]]}},{"type":"Feature","properties":{"Cell_ID":54,"Area_ha":1.0,"LC":"5:0.571169,9:0.141630,13:0.287200","XMIN":701034.86160847,"YMIN":8513865.037292942,"XMAX":701134.86160847,"YMAX":8513965.037292942},"geometry":{"type":"Polygon","coordinates":[[[-73.1422137013852,-13.436225440963435],[-73.1422206600511,-13.435321678194544],[-73.14314396578996,-13.4353284876327],[-73.14313701057763,-13.43623225087623],[-73.1422137013852,-13.436225440963435]]]}},{"type":"Feature","properties":{"Cell_ID":55,"Area_ha":1.0,"LC":"5:0.089230,13:0.832708,16:0.078061","XMIN":701034.86160847,"YMIN":8513765.037292942,"XMAX":701134.86160847,"YMAX":8513865.037292942},"geometry":{"type":"Polygon","coordinates":[[[-73.14220674220772,-13.437129203664062],[-73.1422137013852,-13.436225440963435],[-73.14313701057763,-13.43623225087623],[-73.14313005485398,-13.4371360140515],[-73.14220674220772,-13.437129203664062]]]}},{"type":"Feature","properties":{"Cell_ID":56,"Area_ha":1.0,"LC":"5:0.000561,9:0.000408,13:0.886730,16:0.112300","XMIN":701034.86160847,"YMIN":8513665.037292942,"XMAX":701134.86160847,"YMAX":8513765.037292942},"geometry":{"type":"Polygon","coordinates":[[[-73.14219978251865,-13.438032966296419],[-73.14220674220772,-13.437129203664062],[-73.14313005485398,-13.4371360140515],[-73.143123098619,-13.438039777158503],[-73.14219978251865,-13.438032966296419]]]}},{"type":"Feature","properties":{"Cell_ID":57,"Area_ha":1.0,"LC":"5:0.241848,9:0.642908,13:0.069483,16:0.045761","XMIN":701034.86160847,"YMIN":8513565.037292942,"XMAX":701134.86160847,"YMAX":8513665.037292942},"geometry":{"type":"Polygon","coordinates":[[[-73.14219282231797,-13.438936728860496],[-73.14219978251865,-13.438032966296419],[-73.143123098619,-13.438039777158503],[-73.14311614187265,-13.43894354019723],[-73.14219282231797,-13.438936728860496]]]}},{"type":"Feature","properties":{"Cell_ID":58,"Area_ha":1.0,"LC":"5:0.000108,7:0.791967,17:0.202256","XMIN":701134.86160847,"YMIN":8515565.037292942,"XMAX":701234.86160847,"YMAX":8515665.037292942},"geometry":{"type":"Polygon","coordinates":[[[-73.14140867913292,-13.4208546593904],[-73.14141563255257,-13.41995089593646],[-73.14233887910815,-13.419957700682815],[-73.14233192913775,-13.420861464611576],[-73.14140867913292,-13.4208546593904]]]}},{"type":"Feature","properties":{"Cell_ID":59,"Area_ha":1.0,"LC":"9:0.304039,17:0.695961","XMIN":701134.86160847,"YMIN":8515465.037292942,"XMAX":701234.86160847,"YMAX":8515565.037292942},"geometry":{"type":"Polygon","coordinates":[[[-73.1414017252016,-13.421758422776147],[-73.14140867913292,-13.4208546593904],[-73.14233192913775,-13.420861464611576],[-73.14232497865592,-13.421765228472143],[-73.1414017252016,-13.421758422776147]]]}},{"type":"Feature","properties":{"Cell_ID":60,"Area_ha":1.0,"LC":"5:0.016431,9:0.876938,17:0.106631","XMIN":701134.86160847,"YMIN":8515365.037292942,"XMAX":701234.86160847,"YMAX":8515465.037292942},"geometry":{"type":"Polygon","coordinates":[[[-73.14139477075858,-13.422662186093692],[-73.1414017252016,-13.421758422776147],[-73.14232497865592,-13.421765228472143],[-73.14231802766265,-13.42266899226451],[-73.14139477075858,-13.422662186093692]]]}},{"type":"Feature","properties":{"Cell_ID":61,"Area_ha":1.0,"LC":"3:0.481286,5:0.101630,9:0.417083","XMIN":701134.86160847,"YMIN":8515265.037292942,"XMAX":701234.86160847,"YMAX":8515365.037292942},"geometry":{"type":"Polygon","coordinates":[[[-73.14138781580385,-13.423565949343033],[-73.14139477075858,-13.422662186093692],[-73.14231802766265,-13.42266899226451],[-73.14231107615794,-13.423572755988678],[-73.14138781580385,-13.423565949343033]]]}},{"type":"Feature","properties":{"Cell_ID":62,"Area_ha":1.0,"LC":"3:0.915805,5:0.084195","XMIN":701134.86160847,"YMIN":8515165.037292942,"XMAX":701234.86160847,"YMAX":8515265.037292942},"geometry":{"type":"Polygon","coordinates":[[[-73.14138086033743,-13.424469712524166],[-73.14138781580385,-13.423565949343033],[-73.14231107615794,-13.423572755988678],[-73.14230412414179,-13.42447651964464],[-73.14138086033743,-13.424469712524166]]]}},{"type":"Feature","properties":{"Cell_ID":63,"Area_ha":1.0,"LC":"3:0.209547,5:0.613614,9:0.176839","XMIN":701134.86160847,"YMIN":8515065.037292942,"XMAX":701234.86160847,"YMAX":8515165.037292942},"geometry":{"type":"Polygon","coordinates":[[[-73.14137390435928,-13.425373475637084],[-73.14138086033743,-13.424469712524166],[-73.14230412414179,-13.42447651964464],[-73.14229717161416,-13.425380283232391],[-73.14137390435928,-13.425373475637084]]]}},{"type":"Feature","properties":{"Cell_ID":64,"Area_ha":1.0,"LC":"3:0.435714,5:0.023161,9:0.066478,14:0.474647","XMIN":701134.86160847,"YMIN":8514965.037292942,"XMAX":701234.86160847,"YMAX":8515065.037292942},"geometry":{"type":"Polygon","coordinates":[[[-73.14136694786943,-13.426277238681783],[-73.14137390435928,-13.425373475637084],[-73.14229717161416,-13.425380283232391],[-73.14229021857506,-13.426284046751928],[-73.14136694786943,-13.426277238681783]]]}},{"type":"Feature","properties":{"Cell_ID":65,"Area_ha":1.0,"LC":"3:0.951178,9:0.000561,14:0.048261","XMIN":701134.86160847,"YMIN":8514865.037292942,"XMAX":701234.86160847,"YMAX":8514965.037292942},"geometry":{"type":"Polygon","coordinates":[[[-73.14135999086781,-13.427181001658262],[-73.14136694786943,-13.426277238681783],[-73.14229021857506,-13.426284046751928],[-73.14228326502447,-13.427187810203245],[-73.14135999086781,-13.427181001658262]]]}},{"type":"Feature","properties":{"Cell_ID":66,"Area_ha":1.0,"LC":"3:0.982753,5:0.017247","XMIN":701134.86160847,"YMIN":8514765.037292942,"XMAX":701234.86160847,"YMAX":8514865.037292942},"geometry":{"type":"Polygon","coordinates":[[[-73.14135303335446,-13.42808476456651],[-73.14135999086781,-13.427181001658262],[-73.14228326502447,-13.427187810203245],[-73.1422763109624,-13.428091573586338],[-73.14135303335446,-13.42808476456651]]]}},{"type":"Feature","properties":{"Cell_ID":67,"Area_ha":1.0,"LC":"3:0.448205,5:0.551795","XMIN":701134.86160847,"YMIN":8514665.037292942,"XMAX":701234.86160847,"YMAX":8514765.037292942},"geometry":{"type":"Polygon","coordinates":[[[-73.14134607532937,-13.428988527406535],[-73.14135303335446,-13.42808476456651],[-73.1422763109624,-13.428091573586338],[-73.14226935638884,-13.428995336901208],[-73.14134607532937,-13.428988527406535]]]}},{"type":"Feature","properties":{"Cell_ID":68,"Area_ha":1.0,"LC":"3:0.243225,5:0.756775","XMIN":701134.86160847,"YMIN":8514565.037292942,"XMAX":701234.86160847,"YMAX":8514665.037292942},"geometry":{"type":"Polygon","coordinates":[[[-73.1413391167925,-13.42989229017832],[-73.14134607532937,-13.428988527406535],[-73.14226935638884,-13.428995336901208],[-73.14226240130375,-13.429899100147844],[-73.1413391167925,-13.42989229017832]]]}},{"type":"Feature","properties":{"Cell_ID":69,"Area_ha":1.0,"LC":"3:1.000000","XMIN":701134.86160847,"YMIN":8514465.037292942,"XMAX":701234.86160847,"YMAX":8514565.037292942},"geometry":{"type":"Polygon","coordinates":[[[-73.14133215774386,-13.430796052881863],[-73.1413391167925,-13.42989229017832],[-73.14226240130375,-13.429899100147844],[-73.14225544570716,-13.430802863326239],[-73.14133215774386,-13.430796052881863]]]}},{"type":"Feature","properties":{"Cell_ID":70,"Area_ha":1.0,"LC":"3:0.570608,5:0.429392","XMIN":701134.86160847,"YMIN":8514365.037292942,"XMAX":701234.86160847,"YMAX":8514465.037292942},"geometry":{"type":"Polygon","coordinates":[[[-73.14132519818344,-13.431699815517165],[-73.14133215774386,-13.430796052881863],[-73.14225544570716,-13.430802863326239],[-73.14224848959904,-13.4317066264364],[-73.14132519818344,-13.431699815517165]]]}},{"type":"Feature","properties":{"Cell_ID":71,"Area_ha":1.0,"LC":"3:0.191014,5:0.808986","XMIN":701134.86160847,"YMIN":8514265.037292942,"XMAX":701234.86160847,"YMAX":8514365.037292942},"geometry":{"type":"Polygon","coordinates":[[[-73.14131823811124,-13.432603578084217],[-73.14132519818344,-13.431699815517165],[-73.14224848959904,-13.4317066264364],[-73.14224153297937,-13.432610389478313],[-73.14131823811124,-13.432603578084217]]]}},{"type":"Feature","properties":{"Cell_ID":72,"Area_ha":1.0,"LC":"5:1.000000","XMIN":701134.86160847,"YMIN":8514165.037292942,"XMAX":701234.86160847,"YMAX":8514265.037292942},"geometry":{"type":"Polygon","coordinates":[[[-73.14131127752724,-13.433507340583018],[-73.14131823811124,-13.432603578084217],[-73.14224153297937,-13.432610389478313],[-73.14223457584818,-13.433514152451975],[-73.14131127752724,-13.433507340583018]]]}},{"type":"Feature","properties":{"Cell_ID":73,"Area_ha":1.0,"LC":"5:1.000000","XMIN":701134.86160847,"YMIN":8514065.037292942,"XMAX":701234.86160847,"YMAX":8514165.037292942},"geometry":{"type":"Polygon","coordinates":[[[-73.14130431643142,-13.434411103013563],[-73.14131127752724,-13.433507340583018],[-73.14223457584818,-13.433514152451975],[-73.14222761820541,-13.434417915357391],[-73.14130431643142,-13.434411103013563]]]}},{"type":"Feature","properties":{"Cell_ID":74,"Area_ha":1.0,"LC":"5:1.000000","XMIN":701134.86160847,"YMIN":8513965.037292942,"XMAX":701234.86160847,"YMAX":8514065.037292942},"geometry":{"type":"Polygon","coordinates":[[[-73.14129735482378,-13.435314865375846],[-73.14130431643142,-13.434411103013563],[-73.14222761820541,-13.434417915357391],[-73.1422206600511,-13.435321678194544],[-73.14129735482378,-13.435314865375846]]]}},{"type":"Feature","properties":{"Cell_ID":75,"Area_ha":1.0,"LC":"5:1.000000","XMIN":701134.86160847,"YMIN":8513865.037292942,"XMAX":701234.86160847,"YMAX":8513965.037292942},"geometry":{"type":"Polygon","coordinates":[[[-73.14129039270432,-13.436218627669863],[-73.14129735482378,-13.435314865375846],[-73.1422206600511,-13.435321678194544],[-73.1422137013852,-13.436225440963435],[-73.14129039270432,-13.436218627669863]]]}},{"type":"Feature","properties":{"Cell_ID":76,"Area_ha":1.0,"LC":"5:0.822753,9:0.099186,13:0.078061","XMIN":701134.86160847,"YMIN":8513765.037292942,"XMAX":701234.86160847,"YMAX":8513865.037292942},"geometry":{"type":"Polygon","coordinates":[[[-73.14128343007303,-13.437122389895613],[-73.14129039270432,-13.436218627669863],[-73.1422137013852,-13.436225440963435],[-73.14220674220772,-13.437129203664062],[-73.14128343007303,-13.437122389895613]]]}},{"type":"Feature","properties":{"Cell_ID":77,"Area_ha":1.0,"LC":"5:0.295399,9:0.548479,13:0.156122","XMIN":701134.86160847,"YMIN":8513665.037292942,"XMAX":701234.86160847,"YMAX":8513765.037292942},"geometry":{"type":"Polygon","coordinates":[[[-73.1412764669299,-13.438026152053087],[-73.14128343007303,-13.437122389895613],[-73.14220674220772,-13.437129203664062],[-73.14219978251865,-13.438032966296419],[-73.1412764669299,-13.438026152053087]]]}},{"type":"Feature","properties":{"Cell_ID":78,"Area_ha":1.0,"LC":"5:0.000561,9:0.997092,13:0.002347","XMIN":701134.86160847,"YMIN":8513565.037292942,"XMAX":701234.86160847,"YMAX":8513665.037292942},"geometry":{"type":"Polygon","coordinates":[[[-73.14126950327488,-13.438929914142284],[-73.1412764669299,-13.438026152053087],[-73.14219978251865,-13.438032966296419],[-73.14219282231797,-13.438936728860496],[-73.14126950327488,-13.438929914142284]]]}},{"type":"Feature","properties":{"Cell_ID":79,"Area_ha":1.0,"LC":"9:0.602291,13:0.397709","XMIN":701134.86160847,"YMIN":8513465.037292942,"XMAX":701234.86160847,"YMAX":8513565.037292942},"geometry":{"type":"Polygon","coordinates":[[[-73.14126253910803,-13.439833676163197],[-73.14126950327488,-13.438929914142284],[-73.14219282231797,-13.438936728860496],[-73.1421858616057,-13.4398404913563],[-73.14126253910803,-13.439833676163197]]]}},{"type":"Feature","properties":{"Cell_ID":80,"Area_ha":1.0,"LC":"3:0.477724,7:0.290925,17:0.211992","XMIN":701234.86160847,"YMIN":8515465.037292942,"XMAX":701334.86160847,"YMAX":8515565.037292942},"geometry":{"type":"Polygon","coordinates":[[[-73.14047847225896,-13.421751613703156],[-73.14048542963978,-13.420847850792464],[-73.14140867913292,-13.4208546593904],[-73.1414017252016,-13.421758422776147],[-73.14047847225896,-13.421751613703156]]]}},{"type":"Feature","properties":{"Cell_ID":81,"Area_ha":1.0,"LC":"7:0.354330,9:0.072300,17:0.573369","XMIN":701234.86160847,"YMIN":8515365.037292942,"XMAX":701334.86160847,"YMAX":8515465.037292942},"geometry":{"type":"Polygon","coordinates":[[[-73.1404715143662,-13.422655376545643],[-73.14047847225896,-13.421751613703156],[-73.1414017252016,-13.421758422776147],[-73.14139477075858,-13.422662186093692],[-73.1404715143662,-13.422655376545643]]]}},{"type":"Feature","properties":{"Cell_ID":82,"Area_ha":1.0,"LC":"3:0.016431,7:0.000561,9:0.532400,17:0.450608","XMIN":701234.86160847,"YMIN":8515265.037292942,"XMAX":701334.86160847,"YMAX":8515365.037292942},"geometry":{"type":"Polygon","coordinates":[[[-73.14046455596147,-13.423559139319922],[-73.1404715143662,-13.422655376545643],[-73.14139477075858,-13.422662186093692],[-73.14138781580385,-13.423565949343033],[-73.14046455596147,-13.423559139319922]]]}},{"type":"Feature","properties":{"Cell_ID":83,"Area_ha":1.0,"LC":"3:0.732400,5:0.050109,9:0.192800,17:0.024692","XMIN":701234.86160847,"YMIN":8515165.037292942,"XMAX":701334.86160847,"YMAX":8515265.037292942},"geometry":{"type":"Polygon","coordinates":[[[-73.1404575970448,-13.424462902025992],[-73.14046455596147,-13.423559139319922],[-73.14138781580385,-13.423565949343033],[-73.14138086033743,-13.424469712524166],[-73.1404575970448,-13.424462902025992]]]}},{"type":"Feature","properties":{"Cell_ID":84,"Area_ha":1.0,"LC":"3:0.368261,5:0.578314,9:0.053425","XMIN":701234.86160847,"YMIN":8515065.037292942,"XMAX":701334.86160847,"YMAX":8515165.037292942},"geometry":{"type":"Polygon","coordinates":[[[-73.14045063761614,-13.425366664663837],[-73.1404575970448,-13.424462902025992],[-73.14138086033743,-13.424469712524166],[-73.14137390435928,-13.425373475637084],[-73.14045063761614,-13.425366664663837]]]}},{"type":"Feature","properties":{"Cell_ID":85,"Area_ha":1.0,"LC":"3:0.000969,5:0.045761,9:0.856023,14:0.097247","XMIN":701234.86160847,"YMIN":8514965.037292942,"XMAX":701334.86160847,"YMAX":8515065.037292942},"geometry":{"type":"Polygon","coordinates":[[[-73.14044367767552,-13.426270427233465],[-73.14045063761614,-13.425366664663837],[-73.14137390435928,-13.425373475637084],[-73.14136694786943,-13.426277238681783],[-73.14044367767552,-13.426270427233465]]]}},{"type":"Feature","properties":{"Cell_ID":86,"Area_ha":1.0,"LC":"3:0.151331,9:0.585916,14:0.262753","XMIN":701234.86160847,"YMIN":8514865.037292942,"XMAX":701334.86160847,"YMAX":8514965.037292942},"geometry":{"type":"Polygon","coordinates":[[[-73.1404367172229,-13.427174189734867],[-73.14044367767552,-13.426270427233465],[-73.14136694786943,-13.426277238681783],[-73.14135999086781,-13.427181001658262],[-73.1404367172229,-13.427174189734867]]]}},{"type":"Feature","properties":{"Cell_ID":87,"Area_ha":1.0,"LC":"3:0.893369,5:0.034647,9:0.071983","XMIN":701234.86160847,"YMIN":8514765.037292942,"XMAX":701334.86160847,"YMAX":8514865.037292942},"geometry":{"type":"Polygon","coordinates":[[[-73.14042975625829,-13.42807795216804],[-73.1404367172229,-13.427174189734867],[-73.14135999086781,-13.427181001658262],[-73.14135303335446,-13.42808476456651],[-73.14042975625829,-13.42807795216804]]]}},{"type":"Feature","properties":{"Cell_ID":88,"Area_ha":1.0,"LC":"3:0.503569,5:0.496431","XMIN":701234.86160847,"YMIN":8514665.037292942,"XMAX":701334.86160847,"YMAX":8514765.037292942},"geometry":{"type":"Polygon","coordinates":[[[-73.14042279478166,-13.428981714532977],[-73.14042975625829,-13.42807795216804],[-73.14135303335446,-13.42808476456651],[-73.14134607532937,-13.428988527406535],[-73.14042279478166,-13.428981714532977]]]}},{"type":"Feature","properties":{"Cell_ID":89,"Area_ha":1.0,"LC":"3:0.306223,5:0.618722,9:0.075056","XMIN":701234.86160847,"YMIN":8514565.037292942,"XMAX":701334.86160847,"YMAX":8514665.037292942},"geometry":{"type":"Polygon","coordinates":[[[-73.14041583279301,-13.429885476829677],[-73.14042279478166,-13.428981714532977],[-73.14134607532937,-13.428988527406535],[-73.1413391167925,-13.42989229017832],[-73.14041583279301,-13.429885476829677]]]}},{"type":"Feature","properties":{"Cell_ID":90,"Area_ha":1.0,"LC":"3:0.744447,5:0.166730,9:0.088822","XMIN":701234.86160847,"YMIN":8514465.037292942,"XMAX":701334.86160847,"YMAX":8514565.037292942},"geometry":{"type":"Polygon","coordinates":[[[-73.14040887029235,-13.430789239058129],[-73.14041583279301,-13.429885476829677],[-73.1413391167925,-13.42989229017832],[-73.14133215774386,-13.430796052881863],[-73.14040887029235,-13.430789239058129]]]}},{"type":"Feature","properties":{"Cell_ID":91,"Area_ha":1.0,"LC":"3:0.487797,5:0.512203","XMIN":701234.86160847,"YMIN":8514365.037292942,"XMAX":701334.86160847,"YMAX":8514465.037292942},"geometry":{"type":"Polygon","coordinates":[[[-73.14040190727965,-13.431693001218342],[-73.14040887029235,-13.430789239058129],[-73.14133215774386,-13.430796052881863],[-73.14132519818344,-13.431699815517165],[-73.14040190727965,-13.431693001218342]]]}},{"type":"Feature","properties":{"Cell_ID":92,"Area_ha":1.0,"LC":"3:0.061630,5:0.938370","XMIN":701234.86160847,"YMIN":8514265.037292942,"XMAX":701334.86160847,"YMAX":8514365.037292942},"geometry":{"type":"Polygon","coordinates":[[[-73.1403949437549,-13.432596763310297],[-73.14040190727965,-13.431693001218342],[-73.14132519818344,-13.431699815517165],[-73.14131823811124,-13.432603578084217],[-73.1403949437549,-13.432596763310297]]]}},{"type":"Feature","properties":{"Cell_ID":93,"Area_ha":1.0,"LC":"5:1.000000","XMIN":701234.86160847,"YMIN":8514165.037292942,"XMAX":701334.86160847,"YMAX":8514265.037292942},"geometry":{"type":"Polygon","coordinates":[[[-73.1403879797181,-13.433500525333997],[-73.1403949437549,-13.432596763310297],[-73.14131823811124,-13.432603578084217],[-73.14131127752724,-13.433507340583018],[-73.1403879797181,-13.433500525333997]]]}},{"type":"Feature","properties":{"Cell_ID":94,"Area_ha":1.0,"LC":"3:0.373833,5:0.626167","XMIN":701234.86160847,"YMIN":8514065.037292942,"XMAX":701334.86160847,"YMAX":8514165.037292942},"geometry":{"type":"Polygon","coordinates":[[[-73.14038101516924,-13.43440428728944],[-73.1403879797181,-13.433500525333997],[-73.14131127752724,-13.433507340583018],[-73.14130431643142,-13.434411103013563],[-73.14038101516924,-13.43440428728944]]]}},{"type":"Feature","properties":{"Cell_ID":95,"Area_ha":1.0,"LC":"3:0.070044,5:0.929956","XMIN":701234.86160847,"YMIN":8513965.037292942,"XMAX":701334.86160847,"YMAX":8514065.037292942},"geometry":{"type":"Polygon","coordinates":[[[-73.14037405010829,-13.435308049176616],[-73.14038101516924,-13.43440428728944],[-73.14130431643142,-13.434411103013563],[-73.14129735482378,-13.435314865375846],[-73.14037405010829,-13.435308049176616]]]}},{"type":"Feature","properties":{"Cell_ID":96,"Area_ha":1.0,"LC":"3:0.115056,5:0.884944","XMIN":701234.86160847,"YMIN":8513865.037292942,"XMAX":701334.86160847,"YMAX":8513965.037292942},"geometry":{"type":"Polygon","coordinates":[[[-73.1403670845353,-13.436211810995523],[-73.14037405010829,-13.435308049176616],[-73.14129735482378,-13.435314865375846],[-73.14129039270432,-13.436218627669863],[-73.1403670845353,-13.436211810995523]]]}},{"type":"Feature","properties":{"Cell_ID":97,"Area_ha":1.0,"LC":"3:0.046883,5:0.527138,9:0.425978","XMIN":701234.86160847,"YMIN":8513765.037292942,"XMAX":701334.86160847,"YMAX":8513865.037292942},"geometry":{"type":"Polygon","coordinates":[[[-73.14036011845019,-13.43711557274616],[-73.1403670845353,-13.436211810995523],[-73.14129039270432,-13.436218627669863],[-73.14128343007303,-13.437122389895613],[-73.14036011845019,-13.43711557274616]]]}},{"type":"Feature","properties":{"Cell_ID":98,"Area_ha":1.0,"LC":"5:0.548887,9:0.451113","XMIN":701234.86160847,"YMIN":8513665.037292942,"XMAX":701334.86160847,"YMAX":8513765.037292942},"geometry":{"type":"Polygon","coordinates":[[[-73.14035315185299,-13.438019334428517],[-73.14036011845019,-13.43711557274616],[-73.14128343007303,-13.437122389895613],[-73.1412764669299,-13.438026152053087],[-73.14035315185299,-13.438019334428517]]]}},{"type":"Feature","properties":{"Cell_ID":99,"Area_ha":1.0,"LC":"5:0.438714,9:0.078469,13:0.482817","XMIN":701234.86160847,"YMIN":8513565.037292942,"XMAX":701334.86160847,"YMAX":8513665.037292942},"geometry":{"type":"Polygon","coordinates":[[[-73.14034618474368,-13.438923096042593],[-73.14035315185299,-13.438019334428517],[-73.1412764669299,-13.438026152053087],[-73.14126950327488,-13.438929914142284],[-73.14034618474368,-13.438923096042593]]]}},{"type":"Feature","properties":{"Cell_ID":100,"Area_ha":1.0,"LC":"9:0.017962,13:0.982038","XMIN":701234.86160847,"YMIN":8513465.037292942,"XMAX":701334.86160847,"YMAX":8513565.037292942},"geometry":{"type":"Polygon","coordinates":[[[-73.14033921712226,-13.439826857588384],[-73.14034618474368,-13.438923096042593],[-73.14126950327488,-13.438929914142284],[-73.14126253910803,-13.439833676163197],[-73.14033921712226,-13.439826857588384]]]}},{"type":"Feature","properties":{"Cell_ID":101,"Area_ha":1.0,"LC":"3:0.012532,7:0.728858,14:0.040735","XMIN":701334.86160847,"YMIN":8515365.037292942,"XMAX":701434.86160847,"YMAX":8515465.037292942},"geometry":{"type":"Polygon","coordinates":[[[-73.13954825848576,-13.422648563620369],[-73.13955521982828,-13.421744801253176],[-73.14047847225896,-13.421751613703156],[-73.1404715143662,-13.422655376545643],[-73.13954825848576,-13.422648563620369]]]}},{"type":"Feature","properties":{"Cell_ID":102,"Area_ha":1.0,"LC":"3:0.083878,7:0.515244,9:0.016839,17:0.383070,18:0.000969","XMIN":701334.86160847,"YMIN":8515265.037292942,"XMAX":701434.86160847,"YMAX":8515365.037292942},"geometry":{"type":"Polygon","coordinates":[[[-73.13954129663105,-13.42355232591935],[-73.13954825848576,-13.422648563620369],[-73.1404715143662,-13.422655376545643],[-73.14046455596147,-13.423559139319922],[-73.13954129663105,-13.42355232591935]]]}},{"type":"Feature","properties":{"Cell_ID":103,"Area_ha":1.0,"LC":"3:0.000561,9:0.214492,17:0.784947","XMIN":701334.86160847,"YMIN":8515165.037292942,"XMAX":701434.86160847,"YMAX":8515265.037292942},"geometry":{"type":"Polygon","coordinates":[[[-73.13953433426413,-13.424456088150114],[-73.13954129663105,-13.42355232591935],[-73.14046455596147,-13.423559139319922],[-73.1404575970448,-13.424462902025992],[-73.13953433426413,-13.424456088150114]]]}},{"type":"Feature","properties":{"Cell_ID":104,"Area_ha":1.0,"LC":"3:0.134900,9:0.357092,17:0.508008","XMIN":701334.86160847,"YMIN":8515065.037292942,"XMAX":701434.86160847,"YMAX":8515165.037292942},"geometry":{"type":"Polygon","coordinates":[[[-73.13952737138497,-13.42535985031266],[-73.13953433426413,-13.424456088150114],[-73.1404575970448,-13.424462902025992],[-73.14045063761614,-13.425366664663837],[-73.13952737138497,-13.42535985031266]]]}},{"type":"Feature","properties":{"Cell_ID":105,"Area_ha":1.0,"LC":"3:0.102192,9:0.403822,14:0.089139,17:0.404847","XMIN":701334.86160847,"YMIN":8514965.037292942,"XMAX":701434.86160847,"YMAX":8515065.037292942},"geometry":{"type":"Polygon","coordinates":[[[-73.1395204079936,-13.426263612406979],[-73.13952737138497,-13.42535985031266],[-73.14045063761614,-13.425366664663837],[-73.14044367767552,-13.426270427233465],[-73.1395204079936,-13.426263612406979]]]}},{"type":"Feature","properties":{"Cell_ID":106,"Area_ha":1.0,"LC":"9:0.544039,14:0.187952,17:0.268008","XMIN":701334.86160847,"YMIN":8514865.037292942,"XMAX":701434.86160847,"YMAX":8514965.037292942},"geometry":{"type":"Polygon","coordinates":[[[-73.13951344408997,-13.42716737443307],[-73.1395204079936,-13.426263612406979],[-73.14044367767552,-13.426270427233465],[-73.1404367172229,-13.427174189734867],[-73.13951344408997,-13.42716737443307]]]}},{"type":"Feature","properties":{"Cell_ID":107,"Area_ha":1.0,"LC":"3:0.039031,5:0.249139,9:0.523822,17:0.188008","XMIN":701334.86160847,"YMIN":8514765.037292942,"XMAX":701434.86160847,"YMAX":8514865.037292942},"geometry":{"type":"Polygon","coordinates":[[[-73.1395064796741,-13.428071136390926],[-73.13951344408997,-13.42716737443307],[-73.1404367172229,-13.427174189734867],[-73.14042975625829,-13.42807795216804],[-73.1395064796741,-13.428071136390926]]]}},{"type":"Feature","properties":{"Cell_ID":108,"Area_ha":1.0,"LC":"3:0.033270,5:0.521883,9:0.443317,17:0.001531","XMIN":701334.86160847,"YMIN":8514665.037292942,"XMAX":701434.86160847,"YMAX":8514765.037292942},"geometry":{"type":"Polygon","coordinates":[[[-73.13949951474595,-13.428974898280543],[-73.1395064796741,-13.428071136390926],[-73.14042975625829,-13.42807795216804],[-73.14042279478166,-13.428981714532977],[-73.13949951474595,-13.428974898280543]]]}},{"type":"Feature","properties":{"Cell_ID":109,"Area_ha":1.0,"LC":"3:0.242852,5:0.183161,9:0.573987","XMIN":701334.86160847,"YMIN":8514565.037292942,"XMAX":701434.86160847,"YMAX":8514665.037292942},"geometry":{"type":"Polygon","coordinates":[[[-73.13949254930556,-13.429878660101922],[-73.13949951474595,-13.428974898280543],[-73.14042279478166,-13.428981714532977],[-73.14041583279301,-13.429885476829677],[-73.13949254930556,-13.429878660101922]]]}},{"type":"Feature","properties":{"Cell_ID":110,"Area_ha":1.0,"LC":"3:0.192147,5:0.251078,9:0.556775","XMIN":701334.86160847,"YMIN":8514465.037292942,"XMAX":701434.86160847,"YMAX":8514565.037292942},"geometry":{"type":"Polygon","coordinates":[[[-73.13948558335285,-13.430782421855053],[-73.13949254930556,-13.429878660101922],[-73.14041583279301,-13.429885476829677],[-73.14040887029235,-13.430789239058129],[-73.13948558335285,-13.430782421855053]]]}},{"type":"Feature","properties":{"Cell_ID":111,"Area_ha":1.0,"LC":"3:0.328822,5:0.671178","XMIN":701334.86160847,"YMIN":8514365.037292942,"XMAX":701434.86160847,"YMAX":8514465.037292942},"geometry":{"type":"Polygon","coordinates":[[[-73.13947861688789,-13.431686183539936],[-73.13948558335285,-13.430782421855053],[-73.14040887029235,-13.430789239058129],[-73.14040190727965,-13.431693001218342],[-73.13947861688789,-13.431686183539936]]]}},{"type":"Feature","properties":{"Cell_ID":112,"Area_ha":1.0,"LC":"5:1.000000","XMIN":701334.86160847,"YMIN":8514265.037292942,"XMAX":701434.86160847,"YMAX":8514365.037292942},"geometry":{"type":"Polygon","coordinates":[[[-73.13947164991062,-13.432589945156561],[-73.13947861688789,-13.431686183539936],[-73.14040190727965,-13.431693001218342],[-73.1403949437549,-13.432596763310297],[-73.13947164991062,-13.432589945156561]]]}},{"type":"Feature","properties":{"Cell_ID":113,"Area_ha":1.0,"LC":"5:1.000000","XMIN":701334.86160847,"YMIN":8514165.037292942,"XMAX":701434.86160847,"YMAX":8514265.037292942},"geometry":{"type":"Polygon","coordinates":[[[-73.13946468242102,-13.433493706704926],[-73.13947164991062,-13.432589945156561],[-73.1403949437549,-13.432596763310297],[-73.1403879797181,-13.433500525333997],[-73.13946468242102,-13.433493706704926]]]}},{"type":"Feature","properties":{"Cell_ID":114,"Area_ha":1.0,"LC":"3:0.213522,5:0.786478","XMIN":701334.86160847,"YMIN":8514065.037292942,"XMAX":701434.86160847,"YMAX":8514165.037292942},"geometry":{"type":"Polygon","coordinates":[[[-73.13945771441912,-13.434397468185027],[-73.13946468242102,-13.433493706704926],[-73.1403879797181,-13.433500525333997],[-73.14038101516924,-13.43440428728944],[-73.13945771441912,-13.434397468185027]]]}},{"type":"Feature","properties":{"Cell_ID":115,"Area_ha":1.0,"LC":"3:0.022600,5:0.977400","XMIN":701334.86160847,"YMIN":8513965.037292942,"XMAX":701434.86160847,"YMAX":8514065.037292942},"geometry":{"type":"Polygon","coordinates":[[[-73.1394507459049,-13.435301229596861],[-73.13945771441912,-13.434397468185027],[-73.14038101516924,-13.43440428728944],[-73.14037405010829,-13.435308049176616],[-73.1394507459049,-13.435301229596861]]]}},{"type":"Feature","properties":{"Cell_ID":116,"Area_ha":1.0,"LC":"3:0.451078,5:0.548922","XMIN":701334.86160847,"YMIN":8513865.037292942,"XMAX":701434.86160847,"YMAX":8513965.037292942},"geometry":{"type":"Polygon","coordinates":[[[-73.13944377687835,-13.436204990940425],[-73.1394507459049,-13.435301229596861],[-73.14037405010829,-13.435308049176616],[-73.1403670845353,-13.436211810995523],[-73.13944377687835,-13.436204990940425]]]}},{"type":"Feature","properties":{"Cell_ID":117,"Area_ha":1.0,"LC":"3:0.068922,5:0.791892,9:0.136839,13:0.002347","XMIN":701334.86160847,"YMIN":8513765.037292942,"XMAX":701434.86160847,"YMAX":8513865.037292942},"geometry":{"type":"Polygon","coordinates":[[[-73.13943680733945,-13.437108752215712],[-73.13944377687835,-13.436204990940425],[-73.1403670845353,-13.436211810995523],[-73.14036011845019,-13.43711557274616],[-73.13943680733945,-13.437108752215712]]]}},{"type":"Feature","properties":{"Cell_ID":118,"Area_ha":1.0,"LC":"5:0.401475,9:0.440000,13:0.158525","XMIN":701334.86160847,"YMIN":8513665.037292942,"XMAX":701434.86160847,"YMAX":8513765.037292942},"geometry":{"type":"Polygon","coordinates":[[[-73.13942983728819,-13.438012513422715],[-73.13943680733945,-13.437108752215712],[-73.14036011845019,-13.43711557274616],[-73.14035315185299,-13.438019334428517],[-73.13942983728819,-13.438012513422715]]]}},{"type":"Feature","properties":{"Cell_ID":119,"Area_ha":1.0,"LC":"5:0.282852,9:0.431234,13:0.285914","XMIN":701334.86160847,"YMIN":8513565.037292942,"XMAX":701434.86160847,"YMAX":8513665.037292942},"geometry":{"type":"Polygon","coordinates":[[[-73.13942286672459,-13.438916274561434],[-73.13942983728819,-13.438012513422715],[-73.14035315185299,-13.438019334428517],[-73.14034618474368,-13.438923096042593],[-73.13942286672459,-13.438916274561434]]]}},{"type":"Feature","properties":{"Cell_ID":120,"Area_ha":1.0,"LC":"9:0.274836,13:0.725164","XMIN":701334.86160847,"YMIN":8513465.037292942,"XMAX":701434.86160847,"YMAX":8513565.037292942},"geometry":{"type":"Polygon","coordinates":[[[-73.1394158956486,-13.43982003563187],[-73.13942286672459,-13.438916274561434],[-73.14034618474368,-13.438923096042593],[-73.14033921712226,-13.439826857588384],[-73.1394158956486,-13.43982003563187]]]}},{"type":"Feature","properties":{"Cell_ID":121,"Area_ha":1.0,"LC":"7:0.096839,9:0.266127,17:0.195153,18:0.008031","XMIN":701434.86160847,"YMIN":8515065.037292942,"XMAX":701534.86160847,"YMAX":8515165.037292942},"geometry":{"type":"Polygon","coordinates":[[[-73.13860410566605,-13.425353032583558],[-73.1386110719957,-13.424449270896554],[-73.13953433426413,-13.424456088150114],[-73.13952737138497,-13.42535985031266],[-73.13860410566605,-13.425353032583558]]]}},{"type":"Feature","properties":{"Cell_ID":122,"Area_ha":1.0,"LC":"7:0.393924,9:0.129242,17:0.195153,18:0.006921","XMIN":701434.86160847,"YMIN":8514965.037292942,"XMAX":701534.86160847,"YMAX":8515065.037292942},"geometry":{"type":"Polygon","coordinates":[[[-73.13859713882393,-13.426256794202335],[-73.13860410566605,-13.425353032583558],[-73.13952737138497,-13.42535985031266],[-73.1395204079936,-13.426263612406979],[-73.13859713882393,-13.426256794202335]]]}},{"type":"Feature","properties":{"Cell_ID":123,"Area_ha":1.0,"LC":"3:0.000955,7:0.579527,17:0.331992","XMIN":701434.86160847,"YMIN":8514865.037292942,"XMAX":701534.86160847,"YMAX":8514965.037292942},"geometry":{"type":"Polygon","coordinates":[[[-73.1385901714693,-13.427160555752879],[-73.13859713882393,-13.426256794202335],[-73.1395204079936,-13.426263612406979],[-73.13951344408997,-13.42716737443307],[-73.1385901714693,-13.427160555752879]]]}},{"type":"Feature","properties":{"Cell_ID":124,"Area_ha":1.0,"LC":"3:0.002500,7:0.448669,17:0.548831","XMIN":701434.86160847,"YMIN":8514765.037292942,"XMAX":701534.86160847,"YMAX":8514865.037292942},"geometry":{"type":"Polygon","coordinates":[[[-73.13858320360218,-13.428064317235183],[-73.1385901714693,-13.427160555752879],[-73.13951344408997,-13.42716737443307],[-73.1395064796741,-13.428071136390926],[-73.13858320360218,-13.428064317235183]]]}},{"type":"Feature","properties":{"Cell_ID":125,"Area_ha":1.0,"LC":"7:0.024692,9:0.133522,17:0.841786","XMIN":701434.86160847,"YMIN":8514665.037292942,"XMAX":701534.86160847,"YMAX":8514765.037292942},"geometry":{"type":"Polygon","coordinates":[[[-73.13857623522254,-13.428968078649248],[-73.13858320360218,-13.428064317235183],[-73.1395064796741,-13.428071136390926],[-73.13949951474595,-13.428974898280543],[-73.13857623522254,-13.428968078649248]]]}},{"type":"Feature","properties":{"Cell_ID":126,"Area_ha":1.0,"LC":"5:0.149703,9:0.597092,17:0.253205","XMIN":701434.86160847,"YMIN":8514565.037292942,"XMAX":701534.86160847,"YMAX":8514665.037292942},"geometry":{"type":"Polygon","coordinates":[[[-73.13856926633036,-13.429871839995071],[-73.13857623522254,-13.428968078649248],[-73.13949951474595,-13.428974898280543],[-73.13949254930556,-13.429878660101922],[-73.13856926633036,-13.429871839995071]]]}},{"type":"Feature","properties":{"Cell_ID":127,"Area_ha":1.0,"LC":"3:0.033270,5:0.495144,9:0.471586","XMIN":701434.86160847,"YMIN":8514465.037292942,"XMAX":701534.86160847,"YMAX":8514565.037292942},"geometry":{"type":"Polygon","coordinates":[[[-73.13856229692566,-13.430775601272641],[-73.13856926633036,-13.429871839995071],[-73.13949254930556,-13.429878660101922],[-73.13948558335285,-13.430782421855053],[-73.13856229692566,-13.430775601272641]]]}},{"type":"Feature","properties":{"Cell_ID":128,"Area_ha":1.0,"LC":"3:0.123822,5:0.645164,9:0.231014","XMIN":701434.86160847,"YMIN":8514365.037292942,"XMAX":701534.86160847,"YMAX":8514465.037292942},"geometry":{"type":"Polygon","coordinates":[[[-73.13855532700842,-13.431679362481958],[-73.13856229692566,-13.430775601272641],[-73.13948558335285,-13.430782421855053],[-73.13947861688789,-13.431686183539936],[-73.13855532700842,-13.431679362481958]]]}},{"type":"Feature","properties":{"Cell_ID":129,"Area_ha":1.0,"LC":"5:1.000000","XMIN":701434.86160847,"YMIN":8514265.037292942,"XMAX":701534.86160847,"YMAX":8514365.037292942},"geometry":{"type":"Polygon","coordinates":[[[-73.13854835657862,-13.432583123623015],[-73.13855532700842,-13.431679362481958],[-73.13947861688789,-13.431686183539936],[-73.13947164991062,-13.432589945156561],[-73.13854835657862,-13.432583123623015]]]}},{"type":"Feature","properties":{"Cell_ID":130,"Area_ha":1.0,"LC":"5:1.000000","XMIN":701434.86160847,"YMIN":8514165.037292942,"XMAX":701534.86160847,"YMAX":8514265.037292942},"geometry":{"type":"Polygon","coordinates":[[[-73.13854138563627,-13.433486884695812],[-73.13854835657862,-13.432583123623015],[-73.13947164991062,-13.432589945156561],[-73.13946468242102,-13.433493706704926],[-73.13854138563627,-13.433486884695812]]]}},{"type":"Feature","properties":{"Cell_ID":131,"Area_ha":1.0,"LC":"5:1.000000","XMIN":701434.86160847,"YMIN":8514065.037292942,"XMAX":701534.86160847,"YMAX":8514165.037292942},"geometry":{"type":"Polygon","coordinates":[[[-73.13853441418135,-13.43439064570034],[-73.13854138563627,-13.433486884695812],[-73.13946468242102,-13.433493706704926],[-73.13945771441912,-13.434397468185027],[-73.13853441418135,-13.43439064570034]]]}},{"type":"Feature","properties":{"Cell_ID":132,"Area_ha":1.0,"LC":"5:1.000000","XMIN":701434.86160847,"YMIN":8513965.037292942,"XMAX":701534.86160847,"YMAX":8514065.037292942},"geometry":{"type":"Polygon","coordinates":[[[-73.13852744221383,-13.435294406636597],[-73.13853441418135,-13.43439064570034],[-73.13945771441912,-13.434397468185027],[-73.1394507459049,-13.435301229596861],[-73.13852744221383,-13.435294406636597]]]}},{"type":"Feature","properties":{"Cell_ID":133,"Area_ha":1.0,"LC":"3:0.478061,5:0.360000,6:0.161939","XMIN":701434.86160847,"YMIN":8513865.037292942,"XMAX":701534.86160847,"YMAX":8513965.037292942},"geometry":{"type":"Polygon","coordinates":[[[-73.13852046973375,-13.436198167504577],[-73.13852744221383,-13.435294406636597],[-73.1394507459049,-13.435301229596861],[-73.13944377687835,-13.436204990940425],[-73.13852046973375,-13.436198167504577]]]}},{"type":"Feature","properties":{"Cell_ID":134,"Area_ha":1.0,"LC":"5:0.335961,9:0.409547,13:0.254492","XMIN":701434.86160847,"YMIN":8513765.037292942,"XMAX":701534.86160847,"YMAX":8513865.037292942},"geometry":{"type":"Polygon","coordinates":[[[-73.13851349674106,-13.437101928304282],[-73.13852046973375,-13.436198167504577],[-73.13944377687835,-13.436204990940425],[-73.13943680733945,-13.437108752215712],[-73.13851349674106,-13.437101928304282]]]}},{"type":"Feature","properties":{"Cell_ID":135,"Area_ha":1.0,"LC":"5:0.335364,9:0.469483,13:0.195153","XMIN":701434.86160847,"YMIN":8513665.037292942,"XMAX":701534.86160847,"YMAX":8513765.037292942},"geometry":{"type":"Polygon","coordinates":[[[-73.13850652323576,-13.438005689035695],[-73.13851349674106,-13.437101928304282],[-73.13943680733945,-13.437108752215712],[-73.13942983728819,-13.438012513422715],[-73.13850652323576,-13.438005689035695]]]}},{"type":"Feature","properties":{"Cell_ID":136,"Area_ha":1.0,"LC":"5:0.531169,9:0.446231,13:0.022600","XMIN":701434.86160847,"YMIN":8513565.037292942,"XMAX":701534.86160847,"YMAX":8513665.037292942},"geometry":{"type":"Polygon","coordinates":[[[-73.13849954921785,-13.438909449698825],[-73.13850652323576,-13.438005689035695],[-73.13942983728819,-13.438012513422715],[-73.13942286672459,-13.438916274561434],[-73.13849954921785,-13.438909449698825]]]}},{"type":"Feature","properties":{"Cell_ID":137,"Area_ha":1.0,"LC":"5:0.209792,9:0.567138,13:0.223070","XMIN":701434.86160847,"YMIN":8513465.037292942,"XMAX":701534.86160847,"YMAX":8513565.037292942},"geometry":{"type":"Polygon","coordinates":[[[-73.1384925746873,-13.439813210293659],[-73.13849954921785,-13.438909449698825],[-73.13942286672459,-13.438916274561434],[-73.1394158956486,-13.43982003563187],[-73.1384925746873,-13.439813210293659]]]}},{"type":"Feature","properties":{"Cell_ID":138,"Area_ha":1.0,"LC":"5:0.016431,9:0.414395,13:0.569174","XMIN":701434.86160847,"YMIN":8513365.037292942,"XMAX":701534.86160847,"YMAX":8513465.037292942},"geometry":{"type":"Polygon","coordinates":[[[-73.13848559964414,-13.440716970820201],[-73.1384925746873,-13.439813210293659],[-73.1394158956486,-13.43982003563187],[-73.13940892406022,-13.440723796634009],[-73.13848559964414,-13.440716970820201]]]}},{"type":"Feature","properties":{"Cell_ID":139,"Area_ha":1.0,"LC":"5:0.686078,9:0.313922","XMIN":701434.86160847,"YMIN":8513265.037292942,"XMAX":701534.86160847,"YMAX":8513365.037292942},"geometry":{"type":"Polygon","coordinates":[[[-73.13847862408834,-13.441620731278439],[-73.13848559964414,-13.440716970820201],[-73.13940892406022,-13.440723796634009],[-73.13940195195947,-13.441627557567845],[-73.13847862408834,-13.441620731278439]]]}},{"type":"Feature","properties":{"Cell_ID":140,"Area_ha":1.0,"LC":"5:0.317746,7:0.376686,14:0.121939,17:0.167200","XMIN":701534.86160847,"YMIN":8514665.037292942,"XMAX":701634.86160847,"YMAX":8514765.037292942},"geometry":{"type":"Polygon","coordinates":[[[-73.13765295621162,-13.428961255639097],[-73.13765992804277,-13.42805749470082],[-73.13858320360218,-13.428064317235183],[-73.13857623522254,-13.428968078649248],[-73.13765295621162,-13.428961255639097]]]}},{"type":"Feature","properties":{"Cell_ID":141,"Area_ha":1.0,"LC":"5:0.111331,7:0.087853,9:0.328986,17:0.471830","XMIN":701534.86160847,"YMIN":8514565.037292942,"XMAX":701634.86160847,"YMAX":8514665.037292942},"geometry":{"type":"Polygon","coordinates":[[[-73.13764598386771,-13.429865016509128],[-73.13765295621162,-13.428961255639097],[-73.13857623522254,-13.428968078649248],[-73.13856926633036,-13.429871839995071],[-73.13764598386771,-13.429865016509128]]]}},{"type":"Feature","properties":{"Cell_ID":142,"Area_ha":1.0,"LC":"5:0.524791,9:0.475209","XMIN":701534.86160847,"YMIN":8514465.037292942,"XMAX":701634.86160847,"YMAX":8514565.037292942},"geometry":{"type":"Polygon","coordinates":[[[-73.13763901101102,-13.430768777310897],[-73.13764598386771,-13.429865016509128],[-73.13856926633036,-13.429871839995071],[-73.13856229692566,-13.430775601272641],[-73.13763901101102,-13.430768777310897]]]}},{"type":"Feature","properties":{"Cell_ID":143,"Area_ha":1.0,"LC":"5:0.765164,9:0.234836","XMIN":701534.86160847,"YMIN":8514365.037292942,"XMAX":701634.86160847,"YMAX":8514465.037292942},"geometry":{"type":"Polygon","coordinates":[[[-73.13763203764151,-13.431672538044417],[-73.13763901101102,-13.430768777310897],[-73.13856229692566,-13.430775601272641],[-73.13855532700842,-13.431679362481958],[-73.13763203764151,-13.431672538044417]]]}},{"type":"Feature","properties":{"Cell_ID":144,"Area_ha":1.0,"LC":"5:0.918061,9:0.081939","XMIN":701534.86160847,"YMIN":8514265.037292942,"XMAX":701634.86160847,"YMAX":8514365.037292942},"geometry":{"type":"Polygon","coordinates":[[[-73.1376250637592,-13.432576298709671],[-73.13763203764151,-13.431672538044417],[-73.13855532700842,-13.431679362481958],[-73.13854835657862,-13.432583123623015],[-73.1376250637592,-13.432576298709671]]]}},{"type":"Feature","properties":{"Cell_ID":145,"Area_ha":1.0,"LC":"5:1.000000","XMIN":701534.86160847,"YMIN":8514165.037292942,"XMAX":701634.86160847,"YMAX":8514265.037292942},"geometry":{"type":"Polygon","coordinates":[[[-73.13761808936408,-13.433480059306657],[-73.1376250637592,-13.432576298709671],[-73.13854835657862,-13.432583123623015],[-73.13854138563627,-13.433486884695812],[-73.13761808936408,-13.433480059306657]]]}},{"type":"Feature","properties":{"Cell_ID":146,"Area_ha":1.0,"LC":"5:1.000000","XMIN":701534.86160847,"YMIN":8514065.037292942,"XMAX":701634.86160847,"YMAX":8514165.037292942},"geometry":{"type":"Polygon","coordinates":[[[-73.13761111445613,-13.434383819835377],[-73.13761808936408,-13.433480059306657],[-73.13854138563627,-13.433486884695812],[-73.13853441418135,-13.43439064570034],[-73.13761111445613,-13.434383819835377]]]}},{"type":"Feature","properties":{"Cell_ID":147,"Area_ha":1.0,"LC":"5:0.786167,6:0.113678,9:0.100156","XMIN":701534.86160847,"YMIN":8513965.037292942,"XMAX":701634.86160847,"YMAX":8514065.037292942},"geometry":{"type":"Polygon","coordinates":[[[-73.13760413903536,-13.435287580295823],[-73.13761111445613,-13.434383819835377],[-73.13853441418135,-13.43439064570034],[-73.13852744221383,-13.435294406636597],[-73.13760413903536,-13.435287580295823]]]}},{"type":"Feature","properties":{"Cell_ID":148,"Area_ha":1.0,"LC":"5:0.413931,6:0.204383,9:0.161531,13:0.220156","XMIN":701534.86160847,"YMIN":8513865.037292942,"XMAX":701634.86160847,"YMAX":8513965.037292942},"geometry":{"type":"Polygon","coordinates":[[[-73.13759716310174,-13.436191340687987],[-73.13760413903536,-13.435287580295823],[-73.13852744221383,-13.435294406636597],[-73.13852046973375,-13.436198167504577],[-73.13759716310174,-13.436191340687987]]]}},{"type":"Feature","properties":{"Cell_ID":149,"Area_ha":1.0,"LC":"5:0.595153,9:0.297247,13:0.107600","XMIN":701534.86160847,"YMIN":8513765.037292942,"XMAX":701634.86160847,"YMAX":8513865.037292942},"geometry":{"type":"Polygon","coordinates":[[[-73.13759018665527,-13.437095101011868],[-73.13759716310174,-13.436191340687987],[-73.13852046973375,-13.436198167504577],[-73.13851349674106,-13.437101928304282],[-73.13759018665527,-13.437095101011868]]]}},{"type":"Feature","properties":{"Cell_ID":150,"Area_ha":1.0,"LC":"5:0.872147,9:0.127853","XMIN":701534.86160847,"YMIN":8513665.037292942,"XMAX":701634.86160847,"YMAX":8513765.037292942},"geometry":{"type":"Polygon","coordinates":[[[-73.13758320969595,-13.437998861267461],[-73.13759018665527,-13.437095101011868],[-73.13851349674106,-13.437101928304282],[-73.13850652323576,-13.438005689035695],[-73.13758320969595,-13.437998861267461]]]}},{"type":"Feature","properties":{"Cell_ID":151,"Area_ha":1.0,"LC":"5:1.000000","XMIN":701534.86160847,"YMIN":8513565.037292942,"XMAX":701634.86160847,"YMAX":8513665.037292942},"geometry":{"type":"Polygon","coordinates":[[[-73.13757623222375,-13.438902621454764],[-73.13758320969595,-13.437998861267461],[-73.13850652323576,-13.438005689035695],[-73.13849954921785,-13.438909449698825],[-73.13757623222375,-13.438902621454764]]]}},{"type":"Feature","properties":{"Cell_ID":152,"Area_ha":1.0,"LC":"5:0.910861,9:0.055461,13:0.033678","XMIN":701534.86160847,"YMIN":8513465.037292942,"XMAX":701634.86160847,"YMAX":8513565.037292942},"geometry":{"type":"Polygon","coordinates":[[[-73.13756925423867,-13.43980638157377],[-73.13757623222375,-13.438902621454764],[-73.13849954921785,-13.438909449698825],[-73.1384925746873,-13.439813210293659],[-73.13756925423867,-13.43980638157377]]]}},{"type":"Feature","properties":{"Cell_ID":153,"Area_ha":1.0,"LC":"5:0.086883,9:0.349800,13:0.563317","XMIN":701534.86160847,"YMIN":8513365.037292942,"XMAX":701634.86160847,"YMAX":8513465.037292942},"geometry":{"type":"Polygon","coordinates":[[[-73.1375622757407,-13.440710141624477],[-73.13756925423867,-13.43980638157377],[-73.1384925746873,-13.439813210293659],[-73.13848559964414,-13.440716970820201],[-73.1375622757407,-13.440710141624477]]]}},{"type":"Feature","properties":{"Cell_ID":154,"Area_ha":1.0,"LC":"7:0.509891,9:0.016431,14:0.047853,17:0.425825","XMIN":701634.86160847,"YMIN":8514565.037292942,"XMAX":701734.86160847,"YMAX":8514665.037292942},"geometry":{"type":"Polygon","coordinates":[[[-73.13672270191786,-13.429858189644095],[-73.1367296777135,-13.428954429250096],[-73.13765295621162,-13.428961255639097],[-73.13764598386771,-13.429865016509128],[-73.13672270191786,-13.429858189644095]]]}},{"type":"Feature","properties":{"Cell_ID":155,"Area_ha":1.0,"LC":"5:0.158061,9:0.665825,17:0.176114","XMIN":701634.86160847,"YMIN":8514465.037292942,"XMAX":701734.86160847,"YMAX":8514565.037292942},"geometry":{"type":"Polygon","coordinates":[[[-73.13671572560915,-13.430761949969837],[-73.13672270191786,-13.429858189644095],[-73.13764598386771,-13.429865016509128],[-73.13763901101102,-13.430768777310897],[-73.13671572560915,-13.430761949969837]]]}},{"type":"Feature","properties":{"Cell_ID":156,"Area_ha":1.0,"LC":"5:0.656431,9:0.343569","XMIN":701634.86160847,"YMIN":8514365.037292942,"XMAX":701734.86160847,"YMAX":8514465.037292942},"geometry":{"type":"Polygon","coordinates":[[[-73.13670874878741,-13.43166571022732],[-73.13671572560915,-13.430761949969837],[-73.13763901101102,-13.430768777310897],[-73.13763203764151,-13.431672538044417],[-73.13670874878741,-13.43166571022732]]]}},{"type":"Feature","properties":{"Cell_ID":157,"Area_ha":1.0,"LC":"5:0.288017,9:0.711983","XMIN":701634.86160847,"YMIN":8514265.037292942,"XMAX":701734.86160847,"YMAX":8514365.037292942},"geometry":{"type":"Polygon","coordinates":[[[-73.13670177145259,-13.432569470416537],[-73.13670874878741,-13.43166571022732],[-73.13763203764151,-13.431672538044417],[-73.1376250637592,-13.432576298709671],[-73.13670177145259,-13.432569470416537]]]}},{"type":"Feature","properties":{"Cell_ID":158,"Area_ha":1.0,"LC":"5:0.976839,9:0.023161","XMIN":701634.86160847,"YMIN":8514165.037292942,"XMAX":701734.86160847,"YMAX":8514265.037292942},"geometry":{"type":"Polygon","coordinates":[[[-73.13669479360473,-13.433473230537482],[-73.13670177145259,-13.432569470416537],[-73.1376250637592,-13.432576298709671],[-73.13761808936408,-13.433480059306657],[-73.13669479360473,-13.433473230537482]]]}},{"type":"Feature","properties":{"Cell_ID":159,"Area_ha":1.0,"LC":"5:1.000000","XMIN":701634.86160847,"YMIN":8514065.037292942,"XMAX":701734.86160847,"YMAX":8514165.037292942},"geometry":{"type":"Polygon","coordinates":[[[-73.13668781524376,-13.434376990590154],[-73.13669479360473,-13.433473230537482],[-73.13761808936408,-13.433480059306657],[-73.13761111445613,-13.434383819835377],[-73.13668781524376,-13.434376990590154]]]}},{"type":"Feature","properties":{"Cell_ID":160,"Area_ha":1.0,"LC":"5:0.436775,9:0.563225","XMIN":701634.86160847,"YMIN":8513965.037292942,"XMAX":701734.86160847,"YMAX":8514065.037292942},"geometry":{"type":"Polygon","coordinates":[[[-73.13668083636973,-13.435280750574552],[-73.13668781524376,-13.434376990590154],[-73.13761111445613,-13.434383819835377],[-73.13760413903536,-13.435287580295823],[-73.13668083636973,-13.435280750574552]]]}},{"type":"Feature","properties":{"Cell_ID":161,"Area_ha":1.0,"LC":"9:0.608669,13:0.391331","XMIN":701634.86160847,"YMIN":8513865.037292942,"XMAX":701734.86160847,"YMAX":8513965.037292942},"geometry":{"type":"Polygon","coordinates":[[[-73.13667385698258,-13.436184510490664],[-73.13668083636973,-13.435280750574552],[-73.13760413903536,-13.435287580295823],[-73.13759716310174,-13.436191340687987],[-73.13667385698258,-13.436184510490664]]]}},{"type":"Feature","properties":{"Cell_ID":162,"Area_ha":1.0,"LC":"9:0.166883,13:0.833117","XMIN":701634.86160847,"YMIN":8513765.037292942,"XMAX":701734.86160847,"YMAX":8513865.037292942},"geometry":{"type":"Polygon","coordinates":[[[-73.13666687708236,-13.43708827033849],[-73.13667385698258,-13.436184510490664],[-73.13759716310174,-13.436191340687987],[-73.13759018665527,-13.437095101011868],[-73.13666687708236,-13.43708827033849]]]}},{"type":"Feature","properties":{"Cell_ID":163,"Area_ha":1.0,"LC":"5:0.200878,9:0.506478,13:0.292644","XMIN":701634.86160847,"YMIN":8513665.037292942,"XMAX":701734.86160847,"YMAX":8513765.037292942},"geometry":{"type":"Polygon","coordinates":[[[-73.136659896669,-13.437992030118023],[-73.13666687708236,-13.43708827033849],[-73.13759018665527,-13.437095101011868],[-73.13758320969595,-13.437998861267461],[-73.136659896669,-13.437992030118023]]]}},{"type":"Feature","properties":{"Cell_ID":164,"Area_ha":1.0,"LC":"5:0.999439,9:0.000561","XMIN":701634.86160847,"YMIN":8513565.037292942,"XMAX":701734.86160847,"YMAX":8513665.037292942},"geometry":{"type":"Polygon","coordinates":[[[-73.13665291574252,-13.438895789829264],[-73.136659896669,-13.437992030118023],[-73.13758320969595,-13.437998861267461],[-73.13757623222375,-13.438902621454764],[-73.13665291574252,-13.438895789829264]]]}},{"type":"Feature","properties":{"Cell_ID":165,"Area_ha":1.0,"LC":"5:1.000000","XMIN":701634.86160847,"YMIN":8513465.037292942,"XMAX":701734.86160847,"YMAX":8513565.037292942},"geometry":{"type":"Polygon","coordinates":[[[-73.1366459343029,-13.439799549472204],[-73.13665291574252,-13.438895789829264],[-73.13757623222375,-13.438902621454764],[-73.13756925423867,-13.43980638157377],[-73.1366459343029,-13.439799549472204]]]}},{"type":"Feature","properties":{"Cell_ID":166,"Area_ha":1.0,"LC":"3:0.001378,7:0.488559,14:0.165785,17:0.072300","XMIN":701734.86160847,"YMIN":8514565.037292942,"XMAX":701834.86160847,"YMAX":8514665.037292942},"geometry":{"type":"Polygon","coordinates":[[[-73.13579942048104,-13.429851359399992],[-73.13580639972841,-13.428947599482257],[-73.1367296777135,-13.428954429250096],[-73.13672270191786,-13.429858189644095],[-73.13579942048104,-13.429851359399992]]]}},{"type":"Feature","properties":{"Cell_ID":167,"Area_ha":1.0,"LC":"3:0.001531,7:0.189483,9:0.162817,17:0.646169","XMIN":701734.86160847,"YMIN":8514465.037292942,"XMAX":701834.86160847,"YMAX":8514565.037292942},"geometry":{"type":"Polygon","coordinates":[[[-73.13579244072035,-13.430755119249465],[-73.13579942048104,-13.429851359399992],[-73.13672270191786,-13.429858189644095],[-73.13671572560915,-13.430761949969837],[-73.13579244072035,-13.430755119249465]]]}},{"type":"Feature","properties":{"Cell_ID":168,"Area_ha":1.0,"LC":"5:0.436122,9:0.560969,13:0.001378,17:0.001531","XMIN":701734.86160847,"YMIN":8514365.037292942,"XMAX":701834.86160847,"YMAX":8514465.037292942},"geometry":{"type":"Polygon","coordinates":[[[-73.13578546044636,-13.431658879030676],[-73.13579244072035,-13.430755119249465],[-73.13671572560915,-13.430761949969837],[-73.13670874878741,-13.43166571022732],[-73.13578546044636,-13.431658879030676]]]}},{"type":"Feature","properties":{"Cell_ID":169,"Area_ha":1.0,"LC":"5:0.050109,9:0.632743,13:0.317148","XMIN":701734.86160847,"YMIN":8514265.037292942,"XMAX":701834.86160847,"YMAX":8514365.037292942},"geometry":{"type":"Polygon","coordinates":[[[-73.13577847965907,-13.43256263874362],[-73.13578546044636,-13.431658879030676],[-73.13670874878741,-13.43166571022732],[-73.13670177145259,-13.432569470416537],[-73.13577847965907,-13.43256263874362]]]}},{"type":"Feature","properties":{"Cell_ID":170,"Area_ha":1.0,"LC":"5:0.595153,9:0.101686,13:0.303161","XMIN":701734.86160847,"YMIN":8514165.037292942,"XMAX":701834.86160847,"YMAX":8514265.037292942},"geometry":{"type":"Polygon","coordinates":[[[-73.13577149835844,-13.433466398388289],[-73.13577847965907,-13.43256263874362],[-73.13670177145259,-13.432569470416537],[-73.13669479360473,-13.433473230537482],[-73.13577149835844,-13.433466398388289]]]}},{"type":"Feature","properties":{"Cell_ID":171,"Area_ha":1.0,"LC":"5:0.635153,9:0.301686,13:0.063161","XMIN":701734.86160847,"YMIN":8514065.037292942,"XMAX":701834.86160847,"YMAX":8514165.037292942},"geometry":{"type":"Polygon","coordinates":[[[-73.13576451654448,-13.43437015796468],[-73.13577149835844,-13.433466398388289],[-73.13669479360473,-13.433473230537482],[-73.13668781524376,-13.434376990590154],[-73.13576451654448,-13.43437015796468]]]}},{"type":"Feature","properties":{"Cell_ID":172,"Area_ha":1.0,"LC":"5:0.146983,9:0.853017","XMIN":701734.86160847,"YMIN":8513965.037292942,"XMAX":701834.86160847,"YMAX":8514065.037292942},"geometry":{"type":"Polygon","coordinates":[[[-73.13575753421719,-13.435273917472792],[-73.13576451654448,-13.43437015796468],[-73.13668781524376,-13.434376990590154],[-73.13668083636973,-13.435280750574552],[-73.13575753421719,-13.435273917472792]]]}},{"type":"Feature","properties":{"Cell_ID":173,"Area_ha":1.0,"LC":"9:0.750453,13:0.249547","XMIN":701734.86160847,"YMIN":8513865.037292942,"XMAX":701834.86160847,"YMAX":8513965.037292942},"geometry":{"type":"Polygon","coordinates":[[[-73.13575055137655,-13.436177676912616],[-73.13575753421719,-13.435273917472792],[-73.13668083636973,-13.435280750574552],[-73.13667385698258,-13.436184510490664],[-73.13575055137655,-13.436177676912616]]]}},{"type":"Feature","properties":{"Cell_ID":174,"Area_ha":1.0,"LC":"9:0.134395,13:0.865605","XMIN":701734.86160847,"YMIN":8513765.037292942,"XMAX":701834.86160847,"YMAX":8513865.037292942},"geometry":{"type":"Polygon","coordinates":[[[-73.13574356802255,-13.437081436284151],[-73.13575055137655,-13.436177676912616],[-73.13667385698258,-13.436184510490664],[-73.13666687708236,-13.43708827033849],[-73.13574356802255,-13.437081436284151]]]}},{"type":"Feature","properties":{"Cell_ID":175,"Area_ha":1.0,"LC":"5:0.572456,9:0.427544","XMIN":701734.86160847,"YMIN":8513665.037292942,"XMAX":701834.86160847,"YMAX":8513765.037292942},"geometry":{"type":"Polygon","coordinates":[[[-73.13573658415518,-13.437985195587391],[-73.13574356802255,-13.437081436284151],[-73.13666687708236,-13.43708827033849],[-73.136659896669,-13.437992030118023],[-73.13573658415518,-13.437985195587391]]]}},{"type":"Feature","properties":{"Cell_ID":176,"Area_ha":1.0,"LC":"5:0.709392,9:0.290608","XMIN":701734.86160847,"YMIN":8513565.037292942,"XMAX":701834.86160847,"YMAX":8513665.037292942},"geometry":{"type":"Polygon","coordinates":[[[-73.13572959977444,-13.43888895482233],[-73.13573658415518,-13.437985195587391],[-73.136659896669,-13.437992030118023],[-73.13665291574252,-13.438895789829264],[-73.13572959977444,-13.43888895482233]]]}},{"type":"Feature","properties":{"Cell_ID":177,"Area_ha":1.0,"LC":"5:0.938314,9:0.061686","XMIN":701734.86160847,"YMIN":8513465.037292942,"XMAX":701834.86160847,"YMAX":8513565.037292942},"geometry":{"type":"Polygon","coordinates":[[[-73.1357226148803,-13.439792713988972],[-73.13572959977444,-13.43888895482233],[-73.13665291574252,-13.438895789829264],[-73.1366459343029,-13.439799549472204],[-73.1357226148803,-13.439792713988972]]]}},{"type":"Feature","properties":{"Cell_ID":178,"Area_ha":1.0,"LC":"3:0.404022,5:0.098217,14:0.050543,17:0.304039","XMIN":701834.86160847,"YMIN":8514465.037292942,"XMAX":701934.86160847,"YMAX":8514565.037292942},"geometry":{"type":"Polygon","coordinates":[[[-73.13486915634485,-13.430748285149791],[-73.13487613955749,-13.42984452577682],[-73.13579942048104,-13.429851359399992],[-73.13579244072035,-13.430755119249465],[-73.13486915634485,-13.430748285149791]]]}},{"type":"Feature","properties":{"Cell_ID":179,"Area_ha":1.0,"LC":"5:0.023722,9:0.168578,13:0.135461,17:0.672238","XMIN":701834.86160847,"YMIN":8514365.037292942,"XMAX":701934.86160847,"YMAX":8514465.037292942},"geometry":{"type":"Polygon","coordinates":[[[-73.13486217261863,-13.431652044454497],[-73.13486915634485,-13.430748285149791],[-73.13579244072035,-13.430755119249465],[-73.13578546044636,-13.431658879030676],[-73.13486217261863,-13.431652044454497]]]}},{"type":"Feature","properties":{"Cell_ID":180,"Area_ha":1.0,"LC":"5:0.016839,9:0.697808,13:0.259691,17:0.025661","XMIN":701834.86160847,"YMIN":8514265.037292942,"XMAX":701934.86160847,"YMAX":8514365.037292942},"geometry":{"type":"Polygon","coordinates":[[[-73.13485518837884,-13.43255580369093],[-73.13486217261863,-13.431652044454497],[-73.13578546044636,-13.431658879030676],[-73.13577847965907,-13.43256263874362],[-73.13485518837884,-13.43255580369093]]]}},{"type":"Feature","properties":{"Cell_ID":181,"Area_ha":1.0,"LC":"5:0.227039,9:0.722036,13:0.050925","XMIN":701834.86160847,"YMIN":8514165.037292942,"XMAX":701934.86160847,"YMAX":8514265.037292942},"geometry":{"type":"Polygon","coordinates":[[[-73.13484820362548,-13.433459562859086],[-73.13485518837884,-13.43255580369093],[-73.13577847965907,-13.43256263874362],[-73.13577149835844,-13.433466398388289],[-73.13484820362548,-13.433459562859086]]]}},{"type":"Feature","properties":{"Cell_ID":182,"Area_ha":1.0,"LC":"9:0.491992,13:0.508008","XMIN":701834.86160847,"YMIN":8514065.037292942,"XMAX":701934.86160847,"YMAX":8514165.037292942},"geometry":{"type":"Polygon","coordinates":[[[-73.13484121835855,-13.434363321958958],[-73.13484820362548,-13.433459562859086],[-73.13577149835844,-13.433466398388289],[-73.13576451654448,-13.43437015796468],[-73.13484121835855,-13.434363321958958]]]}},{"type":"Feature","properties":{"Cell_ID":183,"Area_ha":1.0,"LC":"9:0.953117,13:0.046883","XMIN":701834.86160847,"YMIN":8513965.037292942,"XMAX":701934.86160847,"YMAX":8514065.037292942},"geometry":{"type":"Polygon","coordinates":[[[-73.134834232578,-13.43526708099055],[-73.13484121835855,-13.434363321958958],[-73.13576451654448,-13.43437015796468],[-73.13575753421719,-13.435273917472792],[-73.134834232578,-13.43526708099055]]]}},{"type":"Feature","properties":{"Cell_ID":184,"Area_ha":1.0,"LC":"5:0.196995,9:0.803005","XMIN":701834.86160847,"YMIN":8513865.037292942,"XMAX":701934.86160847,"YMAX":8513965.037292942},"geometry":{"type":"Polygon","coordinates":[[[-73.13482724628386,-13.436170839953855],[-73.134834232578,-13.43526708099055],[-73.13575753421719,-13.435273917472792],[-73.13575055137655,-13.436177676912616],[-73.13482724628386,-13.436170839953855]]]}},{"type":"Feature","properties":{"Cell_ID":185,"Area_ha":1.0,"LC":"5:0.169792,9:0.830208","XMIN":701834.86160847,"YMIN":8513765.037292942,"XMAX":701934.86160847,"YMAX":8513865.037292942},"geometry":{"type":"Polygon","coordinates":[[[-73.1348202594761,-13.437074598848863],[-73.13482724628386,-13.436170839953855],[-73.13575055137655,-13.436177676912616],[-73.13574356802255,-13.437081436284151],[-73.1348202594761,-13.437074598848863]]]}},{"type":"Feature","properties":{"Cell_ID":186,"Area_ha":1.0,"LC":"5:0.158061,9:0.823722,16:0.018217","XMIN":701834.86160847,"YMIN":8513665.037292942,"XMAX":701934.86160847,"YMAX":8513765.037292942},"geometry":{"type":"Polygon","coordinates":[[[-73.13481327215473,-13.437978357675568],[-73.1348202594761,-13.437074598848863],[-73.13574356802255,-13.437081436284151],[-73.13573658415518,-13.437985195587391],[-73.13481327215473,-13.437978357675568]]]}},{"type":"Feature","properties":{"Cell_ID":187,"Area_ha":1.0,"LC":"9:0.934339,16:0.065661","XMIN":701834.86160847,"YMIN":8513565.037292942,"XMAX":701934.86160847,"YMAX":8513665.037292942},"geometry":{"type":"Polygon","coordinates":[[[-73.13480628431972,-13.438882116433977],[-73.13481327215473,-13.437978357675568],[-73.13573658415518,-13.437985195587391],[-73.13572959977444,-13.43888895482233],[-73.13480628431972,-13.438882116433977]]]}},{"type":"Feature","properties":{"Cell_ID":188,"Area_ha":1.0,"LC":"9:1.000000","XMIN":701834.86160847,"YMIN":8513465.037292942,"XMAX":701934.86160847,"YMAX":8513565.037292942},"geometry":{"type":"Polygon","coordinates":[[[-73.13479929597106,-13.43978587512408],[-73.13480628431972,-13.438882116433977],[-73.13572959977444,-13.43888895482233],[-73.1357226148803,-13.439792713988972],[-73.13479929597106,-13.43978587512408]]]}},{"type":"Feature","properties":{"Cell_ID":189,"Area_ha":1.0,"LC":"3:0.001378,5:0.186235,14:0.219731,17:0.439909","XMIN":701934.86160847,"YMIN":8514365.037292942,"XMAX":702034.86160847,"YMAX":8514465.037292942},"geometry":{"type":"Polygon","coordinates":[[[-73.13393888530446,-13.43164520649879],[-73.1339458724829,-13.430741447670826],[-73.13486915634485,-13.430748285149791],[-73.13486217261863,-13.431652044454497],[-73.13393888530446,-13.43164520649879]]]}},{"type":"Feature","properties":{"Cell_ID":190,"Area_ha":1.0,"LC":"3:0.000561,9:0.094492,16:0.056839,17:0.848108","XMIN":701934.86160847,"YMIN":8514265.037292942,"XMAX":702034.86160847,"YMAX":8514365.037292942},"geometry":{"type":"Polygon","coordinates":[[[-73.1339318976122,-13.432548965258478],[-73.13393888530446,-13.43164520649879],[-73.13486217261863,-13.431652044454497],[-73.13485518837884,-13.43255580369093],[-73.1339318976122,-13.432548965258478]]]}},{"type":"Feature","properties":{"Cell_ID":191,"Area_ha":1.0,"LC":"5:0.349800,9:0.022600,13:0.016431,16:0.296839,17:0.314330","XMIN":701934.86160847,"YMIN":8514165.037292942,"XMAX":702034.86160847,"YMAX":8514265.037292942},"geometry":{"type":"Polygon","coordinates":[[[-73.13392490940612,-13.433452723949884],[-73.1339318976122,-13.432548965258478],[-73.13485518837884,-13.43255580369093],[-73.13484820362548,-13.433459562859086],[-73.13392490940612,-13.433452723949884]]]}},{"type":"Feature","properties":{"Cell_ID":192,"Area_ha":1.0,"LC":"5:0.046322,13:0.451992,16:0.370200,17:0.000561,18:0.130925","XMIN":701934.86160847,"YMIN":8514065.037292942,"XMAX":702034.86160847,"YMAX":8514165.037292942},"geometry":{"type":"Polygon","coordinates":[[[-73.13391792068619,-13.434356482573005],[-73.13392490940612,-13.433452723949884],[-73.13484820362548,-13.433459562859086],[-73.13484121835855,-13.434363321958958],[-73.13391792068619,-13.434356482573005]]]}},{"type":"Feature","properties":{"Cell_ID":193,"Area_ha":1.0,"LC":"9:0.850109,13:0.079847,18:0.070044","XMIN":701934.86160847,"YMIN":8513965.037292942,"XMAX":702034.86160847,"YMAX":8514065.037292942},"geometry":{"type":"Polygon","coordinates":[[[-73.13391093145242,-13.435260241127843],[-73.13391792068619,-13.434356482573005],[-73.13484121835855,-13.434363321958958],[-73.134834232578,-13.43526708099055],[-73.13391093145242,-13.435260241127843]]]}},{"type":"Feature","properties":{"Cell_ID":194,"Area_ha":1.0,"LC":"5:0.327200,9:0.189330,13:0.466631,16:0.016839","XMIN":701934.86160847,"YMIN":8513865.037292942,"XMAX":702034.86160847,"YMAX":8513965.037292942},"geometry":{"type":"Polygon","coordinates":[[[-73.13390394170479,-13.436163999614383],[-73.13391093145242,-13.435260241127843],[-73.134834232578,-13.43526708099055],[-73.13482724628386,-13.436170839953855],[-73.13390394170479,-13.436163999614383]]]}},{"type":"Feature","properties":{"Cell_ID":195,"Area_ha":1.0,"LC":"5:0.266013,9:0.056023,13:0.613425,16:0.064539","XMIN":701934.86160847,"YMIN":8513765.037292942,"XMAX":702034.86160847,"YMAX":8513865.037292942},"geometry":{"type":"Polygon","coordinates":[[[-73.13389695144329,-13.437067758032628],[-73.13390394170479,-13.436163999614383],[-73.13482724628386,-13.436170839953855],[-73.1348202594761,-13.437074598848863],[-73.13389695144329,-13.437067758032628]]]}},{"type":"Feature","properties":{"Cell_ID":196,"Area_ha":1.0,"LC":"9:0.221069,13:0.212644,16:0.566287","XMIN":701934.86160847,"YMIN":8513665.037292942,"XMAX":702034.86160847,"YMAX":8513765.037292942},"geometry":{"type":"Polygon","coordinates":[[[-73.13388996066791,-13.437971516382571],[-73.13389695144329,-13.437067758032628],[-73.1348202594761,-13.437074598848863],[-73.13481327215473,-13.437978357675568],[-73.13388996066791,-13.437971516382571]]]}},{"type":"Feature","properties":{"Cell_ID":197,"Area_ha":1.0,"LC":"5:0.252864,9:0.433831,16:0.313305","XMIN":701934.86160847,"YMIN":8513565.037292942,"XMAX":702034.86160847,"YMAX":8513665.037292942},"geometry":{"type":"Polygon","coordinates":[[[-73.13388296937865,-13.438875274664213],[-73.13388996066791,-13.437971516382571],[-73.13481327215473,-13.437978357675568],[-73.13480628431972,-13.438882116433977],[-73.13388296937865,-13.438875274664213]]]}},{"type":"Feature","properties":{"Cell_ID":198,"Area_ha":1.0,"LC":"5:0.151014,9:0.848986","XMIN":701934.86160847,"YMIN":8513465.037292942,"XMAX":702034.86160847,"YMAX":8513565.037292942},"geometry":{"type":"Polygon","coordinates":[[[-73.1338759775755,-13.439779032877539],[-73.13388296937865,-13.438875274664213],[-73.13480628431972,-13.438882116433977],[-73.13479929597106,-13.43978587512408],[-73.1338759775755,-13.439779032877539]]]}},{"type":"Feature","properties":{"Cell_ID":199,"Area_ha":1.0,"LC":"3:0.198321,17:0.393006","XMIN":702034.86160847,"YMIN":8514265.037292942,"XMAX":702134.86160847,"YMAX":8514365.037292942},"geometry":{"type":"Polygon","coordinates":[[[-73.13300860735939,-13.432542123446266],[-73.13301559850412,-13.431638365163561],[-73.13393888530446,-13.43164520649879],[-73.1339318976122,-13.432548965258478],[-73.13300860735939,-13.432542123446266]]]}},{"type":"Feature","properties":{"Cell_ID":200,"Area_ha":1.0,"LC":"3:0.002530,17:0.995138","XMIN":702034.86160847,"YMIN":8514165.037292942,"XMAX":702134.86160847,"YMAX":8514265.037292942},"geometry":{"type":"Polygon","coordinates":[[[-73.13300161570058,-13.433445881660692],[-73.13300860735939,-13.432542123446266],[-73.1339318976122,-13.432548965258478],[-73.13392490940612,-13.433452723949884],[-73.13300161570058,-13.433445881660692]]]}},{"type":"Feature","properties":{"Cell_ID":201,"Area_ha":1.0,"LC":"3:0.000561,16:0.236122,17:0.673208,18:0.090109","XMIN":702034.86160847,"YMIN":8514065.037292942,"XMAX":702134.86160847,"YMAX":8514165.037292942},"geometry":{"type":"Polygon","coordinates":[[[-73.13299462352768,-13.434349639806824],[-73.13300161570058,-13.433445881660692],[-73.13392490940612,-13.433452723949884],[-73.13391792068619,-13.434356482573005],[-73.13299462352768,-13.434349639806824]]]}},{"type":"Feature","properties":{"Cell_ID":202,"Area_ha":1.0,"LC":"9:0.528986,13:0.073270,17:0.088822,18:0.308922","XMIN":702034.86160847,"YMIN":8513965.037292942,"XMAX":702134.86160847,"YMAX":8514065.037292942},"geometry":{"type":"Polygon","coordinates":[[[-73.13298763084069,-13.435253397884667],[-73.13299462352768,-13.434349639806824],[-73.13391792068619,-13.434356482573005],[-73.13391093145242,-13.435260241127843],[-73.13298763084069,-13.435253397884667]]]}},{"type":"Feature","properties":{"Cell_ID":203,"Area_ha":1.0,"LC":"9:0.677148,13:0.322852","XMIN":702034.86160847,"YMIN":8513865.037292942,"XMAX":702134.86160847,"YMAX":8513965.037292942},"geometry":{"type":"Polygon","coordinates":[[[-73.13298063763958,-13.436157155894215],[-73.13298763084069,-13.435253397884667],[-73.13391093145242,-13.435260241127843],[-73.13390394170479,-13.436163999614383],[-73.13298063763958,-13.436157155894215]]]}},{"type":"Feature","properties":{"Cell_ID":204,"Area_ha":1.0,"LC":"9:0.196775,13:0.117092,16:0.686134","XMIN":702034.86160847,"YMIN":8513765.037292942,"XMAX":702134.86160847,"YMAX":8513865.037292942},"geometry":{"type":"Polygon","coordinates":[[[-73.13297364392434,-13.437060913835461],[-73.13298063763958,-13.436157155894215],[-73.13390394170479,-13.436163999614383],[-73.13389695144329,-13.437067758032628],[-73.13297364392434,-13.437060913835461]]]}},{"type":"Feature","properties":{"Cell_ID":205,"Area_ha":1.0,"LC":"9:0.486134,16:0.513866","XMIN":702034.86160847,"YMIN":8513665.037292942,"XMAX":702134.86160847,"YMAX":8513765.037292942},"geometry":{"type":"Polygon","coordinates":[[[-73.13296664969499,-13.437964671708405],[-73.13297364392434,-13.437060913835461],[-73.13389695144329,-13.437067758032628],[-73.13388996066791,-13.437971516382571],[-73.13296664969499,-13.437964671708405]]]}},{"type":"Feature","properties":{"Cell_ID":206,"Area_ha":1.0,"LC":"3:0.034086,5:0.176431,9:0.789483","XMIN":702034.86160847,"YMIN":8513565.037292942,"XMAX":702134.86160847,"YMAX":8513665.037292942},"geometry":{"type":"Polygon","coordinates":[[[-73.13295965495149,-13.438868429513036],[-73.13296664969499,-13.437964671708405],[-73.13388996066791,-13.437971516382571],[-73.13388296937865,-13.438875274664213],[-73.13295965495149,-13.438868429513036]]]}},{"type":"Feature","properties":{"Cell_ID":207,"Area_ha":1.0,"LC":"3:0.388008,5:0.061630,9:0.550361","XMIN":702034.86160847,"YMIN":8513465.037292942,"XMAX":702134.86160847,"YMAX":8513565.037292942},"geometry":{"type":"Polygon","coordinates":[[[-73.13295265969383,-13.439772187249357],[-73.13295965495149,-13.438868429513036],[-73.13388296937865,-13.438875274664213],[-73.1338759775755,-13.439779032877539],[-73.13295265969383,-13.439772187249357]]]}},{"type":"Feature","properties":{"Cell_ID":208,"Area_ha":1.0,"LC":"3:0.566047,7:0.000969,17:0.383070","XMIN":702134.86160847,"YMIN":8514065.037292942,"XMAX":702234.86160847,"YMAX":8514165.037292942},"geometry":{"type":"Polygon","coordinates":[[[-73.13207132688329,-13.434342793660424],[-73.13207832250914,-13.43343903599151],[-73.13300161570058,-13.433445881660692],[-73.13299462352768,-13.434349639806824],[-73.13207132688329,-13.434342793660424]]]}},{"type":"Feature","properties":{"Cell_ID":209,"Area_ha":1.0,"LC":"3:0.065661,9:0.208170,17:0.726169","XMIN":702134.86160847,"YMIN":8513965.037292942,"XMAX":702234.86160847,"YMAX":8514065.037292942},"geometry":{"type":"Polygon","coordinates":[[[-73.13206433074306,-13.435246551261042],[-73.13207132688329,-13.434342793660424],[-73.13299462352768,-13.434349639806824],[-73.13298763084069,-13.435253397884667],[-73.13206433074306,-13.435246551261042]]]}},{"type":"Feature","properties":{"Cell_ID":210,"Area_ha":1.0,"LC":"9:0.870208,17:0.129792","XMIN":702134.86160847,"YMIN":8513865.037292942,"XMAX":702234.86160847,"YMAX":8513965.037292942},"geometry":{"type":"Polygon","coordinates":[[[-73.13205733408849,-13.436150308793357],[-73.13206433074306,-13.435246551261042],[-73.13298763084069,-13.435253397884667],[-73.13298063763958,-13.436157155894215],[-73.13205733408849,-13.436150308793357]]]}},{"type":"Feature","properties":{"Cell_ID":211,"Area_ha":1.0,"LC":"9:0.785100,16:0.213522,18:0.001378","XMIN":702134.86160847,"YMIN":8513765.037292942,"XMAX":702234.86160847,"YMAX":8513865.037292942},"geometry":{"type":"Polygon","coordinates":[[[-73.13205033691953,-13.437054066257371],[-73.13205733408849,-13.436150308793357],[-73.13298063763958,-13.436157155894215],[-73.13297364392434,-13.437060913835461],[-73.13205033691953,-13.437054066257371]]]}},{"type":"Feature","properties":{"Cell_ID":212,"Area_ha":1.0,"LC":"9:0.936839,16:0.061630,18:0.001531","XMIN":702134.86160847,"YMIN":8513665.037292942,"XMAX":702234.86160847,"YMAX":8513765.037292942},"geometry":{"type":"Polygon","coordinates":[[[-73.1320433392362,-13.437957823653075],[-73.13205033691953,-13.437054066257371],[-73.13297364392434,-13.437060913835461],[-73.13296664969499,-13.437964671708405],[-73.1320433392362,-13.437957823653075]]]}},{"type":"Feature","properties":{"Cell_ID":213,"Area_ha":1.0,"LC":"3:0.084195,5:0.441939,9:0.473866","XMIN":702134.86160847,"YMIN":8513565.037292942,"XMAX":702234.86160847,"YMAX":8513665.037292942},"geometry":{"type":"Polygon","coordinates":[[[-73.13203634103847,-13.438861580980468],[-73.1320433392362,-13.437957823653075],[-73.13296664969499,-13.437964671708405],[-73.13295965495149,-13.438868429513036],[-73.13203634103847,-13.438861580980468]]]}},{"type":"Feature","properties":{"Cell_ID":214,"Area_ha":1.0,"LC":"3:0.606075,7:0.168466,17:0.094492","XMIN":702234.86160847,"YMIN":8513965.037292942,"XMAX":702334.86160847,"YMAX":8514065.037292942},"geometry":{"type":"Polygon","coordinates":[[[-73.13114103115981,-13.435239701256968],[-73.13114803075324,-13.434335944133812],[-73.13207132688329,-13.434342793660424],[-73.13206433074306,-13.435246551261042],[-73.13114103115981,-13.435239701256968]]]}},{"type":"Feature","properties":{"Cell_ID":215,"Area_ha":1.0,"LC":"3:0.081531,7:0.375553,9:0.072300,17:0.470616","XMIN":702234.86160847,"YMIN":8513865.037292942,"XMAX":702334.86160847,"YMAX":8513965.037292942},"geometry":{"type":"Polygon","coordinates":[[[-73.13113403105179,-13.43614345831182],[-73.13114103115981,-13.435239701256968],[-73.13206433074306,-13.435246551261042],[-73.13205733408849,-13.436150308793357],[-73.13113403105179,-13.43614345831182]]]}},{"type":"Feature","properties":{"Cell_ID":216,"Area_ha":1.0,"LC":"9:0.202852,17:0.231983,18:0.565164","XMIN":702234.86160847,"YMIN":8513765.037292942,"XMAX":702334.86160847,"YMAX":8513865.037292942},"geometry":{"type":"Polygon","coordinates":[[[-73.1311270304291,-13.437047215298364],[-73.13113403105179,-13.43614345831182],[-73.13205733408849,-13.436150308793357],[-73.13205033691953,-13.437054066257371],[-73.1311270304291,-13.437047215298364]]]}},{"type":"Feature","properties":{"Cell_ID":217,"Area_ha":1.0,"LC":"5:0.130925,9:0.634239,18:0.234836","XMIN":702234.86160847,"YMIN":8513665.037292942,"XMAX":702334.86160847,"YMAX":8513765.037292942},"geometry":{"type":"Polygon","coordinates":[[[-73.1311200292918,-13.437950972216596],[-73.1311270304291,-13.437047215298364],[-73.13205033691953,-13.437054066257371],[-73.1320433392362,-13.437957823653075],[-73.1311200292918,-13.437950972216596]]]}},{"type":"Feature","properties":{"Cell_ID":218,"Area_ha":1.0,"LC":"3:0.579714,7:0.318061,17:0.084195","XMIN":702334.86160847,"YMIN":8513865.037292942,"XMAX":702434.86160847,"YMAX":8513965.037292942},"geometry":{"type":"Polygon","coordinates":[[[-73.13021072852969,-13.436136604449606],[-73.13021773209118,-13.435232847872461],[-73.13114103115981,-13.435239701256968],[-73.13113403105179,-13.43614345831182],[-73.13021072852969,-13.436136604449606]]]}},{"type":"Feature","properties":{"Cell_ID":219,"Area_ha":1.0,"LC":"16:0.115056,17:0.676775,18:0.208170","XMIN":702334.86160847,"YMIN":8513765.037292942,"XMAX":702434.86160847,"YMAX":8513865.037292942},"geometry":{"type":"Polygon","coordinates":[[[-73.13020372445332,-13.43704036095845],[-73.13021072852969,-13.436136604449606],[-73.13113403105179,-13.43614345831182],[-73.1311270304291,-13.437047215298364],[-73.13020372445332,-13.43704036095845]]]}},{"type":"Feature","properties":{"Cell_ID":220,"Area_ha":1.0,"LC":"3:0.118535,7:0.220073,9:0.343761,17:0.106948","XMIN":702434.86160847,"YMIN":8513865.037292942,"XMAX":702534.86160847,"YMAX":8513965.037292942},"geometry":{"type":"Polygon","coordinates":[[[-73.12928742652248,-13.436129747206737],[-73.12929443353742,-13.435225991107526],[-73.13021773209118,-13.435232847872461],[-73.13021072852969,-13.436136604449606],[-73.12928742652248,-13.436129747206737]]]}}]}