{"type":"FeatureCollection","features":[{"type":"Feature","properties":{"Cell_ID":1,"Area_ha":1.0,"LC":"9:0.417281,13:0.062847","XMIN":711783.2126783924,"YMIN":8501597.815531649,"XMAX":711883.2126783924,"YMAX":8501697.815531649},"geometry":{"type":"Polygon","coordinates":[[[-73.04207296797534,-13.546333413515363],[-73.04208036396444,-13.545429711588648],[-73.04300403869395,-13.545436945686761],[-73.04299664618858,-13.546340648113878],[-73.04207296797534,-13.546333413515363]]]}},{"type":"Feature","properties":{"Cell_ID":2,"Area_ha":1.0,"LC":"9:0.457076,13:0.222567,16:0.087558","XMIN":711783.2126783924,"YMIN":8501497.815531649,"XMAX":711883.2126783924,"YMAX":8501597.815531649},"geometry":{"type":"Polygon","coordinates":[[[-73.0420655714462,-13.547237115372909],[-73.04207296797534,-13.546333413515363],[-73.04299664618858,-13.546340648113878],[-73.04298925314342,-13.547244350471829],[-73.0420655714462,-13.547237115372909]]]}},{"type":"Feature","properties":{"Cell_ID":3,"Area_ha":1.0,"LC":"5:0.045103,9:0.243255,16:0.645951","XMIN":711783.2126783924,"YMIN":8501397.815531649,"XMAX":711883.2126783924,"YMAX":8501497.815531649},"geometry":{"type":"Polygon","coordinates":[[[-73.04205817437699,-13.548140817161277],[-73.0420655714462,-13.547237115372909],[-73.04298925314342,-13.547244350471829],[-73.04298185955845,-13.548148052760602],[-73.04205817437699,-13.548140817161277]]]}}]}