{"type":"FeatureCollection","features":[{"type":"Feature","properties":{"Cell_ID":1,"Area_ha":1.0,"LC":"9:0.322556,16:0.229162,18:0.154840","XMIN":711660.3384899372,"YMIN":8501143.59738907,"XMAX":711760.3384899372,"YMAX":8501243.59738907},"geometry":{"type":"Polygon","coordinates":[[[-73.04317434888496,-13.550447082518518],[-73.0431817430451,-13.549543380291182],[-73.04410543426366,-13.549550612472753],[-73.0440980435884,-13.550454315200218],[-73.04317434888496,-13.550447082518518]]]}},{"type":"Feature","properties":{"Cell_ID":2,"Area_ha":1.0,"LC":"5:0.403565,6:0.077520,9:0.383539,16:0.098531","XMIN":711660.3384899372,"YMIN":8501043.59738907,"XMAX":711760.3384899372,"YMAX":8501143.59738907},"geometry":{"type":"Polygon","coordinates":[[[-73.04316695418503,-13.551350784676668],[-73.04317434888496,-13.550447082518518],[-73.0440980435884,-13.550454315200218],[-73.04409065237363,-13.551358017858501],[-73.04316695418503,-13.551350784676668]]]}},{"type":"Feature","properties":{"Cell_ID":3,"Area_ha":1.0,"LC":"5:0.427210,6:0.114020,9:0.389607","XMIN":711660.3384899372,"YMIN":8500943.59738907,"XMAX":711760.3384899372,"YMAX":8501043.59738907},"geometry":{"type":"Polygon","coordinates":[[[-73.0431595589453,-13.552254486765623],[-73.04316695418503,-13.551350784676668],[-73.04409065237363,-13.551358017858501],[-73.04408326061929,-13.552261720447596],[-73.0431595589453,-13.552254486765623]]]}},{"type":"Feature","properties":{"Cell_ID":4,"Area_ha":1.0,"LC":"5:0.465710,9:0.222830","XMIN":711660.3384899372,"YMIN":8500843.59738907,"XMAX":711760.3384899372,"YMAX":8500943.59738907},"geometry":{"type":"Polygon","coordinates":[[[-73.04315216316579,-13.55315818878538],[-73.0431595589453,-13.552254486765623],[-73.04408326061929,-13.552261720447596],[-73.04407586832544,-13.55316542296749],[-73.04315216316579,-13.55315818878538]]]}},{"type":"Feature","properties":{"Cell_ID":5,"Area_ha":1.0,"LC":"5:0.041648,9:0.078543,16:0.666993","XMIN":711760.3384899372,"YMIN":8501343.59738907,"XMAX":711860.3384899372,"YMAX":8501443.59738907},"geometry":{"type":"Polygon","coordinates":[[[-73.04226544947133,-13.548632442903875],[-73.04227284603633,-13.547728741038533],[-73.0431965297461,-13.54773597562896],[-73.04318913666549,-13.548639677994663],[-73.04226544947133,-13.548632442903875]]]}},{"type":"Feature","properties":{"Cell_ID":6,"Area_ha":1.0,"LC":"5:0.099054,9:0.589060,16:0.300844","XMIN":711760.3384899372,"YMIN":8501243.59738907,"XMAX":711860.3384899372,"YMAX":8501343.59738907},"geometry":{"type":"Polygon","coordinates":[[[-73.04225805236632,-13.549536144700037],[-73.04226544947133,-13.548632442903875],[-73.04318913666549,-13.548639677994663],[-73.0431817430451,-13.549543380291182],[-73.04225805236632,-13.549536144700037]]]}},{"type":"Feature","properties":{"Cell_ID":7,"Area_ha":1.0,"LC":"5:0.418531,9:0.386721,16:0.194747","XMIN":711760.3384899372,"YMIN":8501143.59738907,"XMAX":711860.3384899372,"YMAX":8501243.59738907},"geometry":{"type":"Polygon","coordinates":[[[-73.04225065472129,-13.550439846427006],[-73.04225805236632,-13.549536144700037],[-73.0431817430451,-13.549543380291182],[-73.04317434888496,-13.550447082518518],[-73.04225065472129,-13.550439846427006]]]}},{"type":"Feature","properties":{"Cell_ID":8,"Area_ha":1.0,"LC":"5:0.096154,6:0.161355,9:0.269162,16:0.473329","XMIN":711760.3384899372,"YMIN":8501043.59738907,"XMAX":711860.3384899372,"YMAX":8501143.59738907},"geometry":{"type":"Polygon","coordinates":[[[-73.04224325653622,-13.55134354808479],[-73.04225065472129,-13.550439846427006],[-73.04317434888496,-13.550447082518518],[-73.04316695418503,-13.551350784676668],[-73.04224325653622,-13.55134354808479]]]}},{"type":"Feature","properties":{"Cell_ID":9,"Area_ha":1.0,"LC":"5:0.220972,6:0.732421,9:0.046608","XMIN":711760.3384899372,"YMIN":8500943.59738907,"XMAX":711860.3384899372,"YMAX":8501043.59738907},"geometry":{"type":"Polygon","coordinates":[[[-73.04223585781111,-13.552247249673371],[-73.04224325653622,-13.55134354808479],[-73.04316695418503,-13.551350784676668],[-73.0431595589453,-13.552254486765623],[-73.04223585781111,-13.552247249673371]]]}},{"type":"Feature","properties":{"Cell_ID":10,"Area_ha":1.0,"LC":"5:0.732588,6:0.046608,9:0.220804","XMIN":711760.3384899372,"YMIN":8500843.59738907,"XMAX":711860.3384899372,"YMAX":8500943.59738907},"geometry":{"type":"Polygon","coordinates":[[[-73.04222845854594,-13.553150951192753],[-73.04223585781111,-13.552247249673371],[-73.0431595589453,-13.552254486765623],[-73.04315216316579,-13.55315818878538],[-73.04222845854594,-13.553150951192753]]]}},{"type":"Feature","properties":{"Cell_ID":11,"Area_ha":1.0,"LC":"5:0.143949,9:0.856051","XMIN":711760.3384899372,"YMIN":8500743.59738907,"XMAX":711860.3384899372,"YMAX":8500843.59738907},"geometry":{"type":"Polygon","coordinates":[[[-73.04222105874071,-13.55405465264293],[-73.04222845854594,-13.553150951192753],[-73.04315216316579,-13.55315818878538],[-73.04314476684645,-13.554061890735936],[-73.04222105874071,-13.55405465264293]]]}},{"type":"Feature","properties":{"Cell_ID":12,"Area_ha":1.0,"LC":"5:0.339028,9:0.660972","XMIN":711760.3384899372,"YMIN":8500643.59738907,"XMAX":711860.3384899372,"YMAX":8500743.59738907},"geometry":{"type":"Polygon","coordinates":[[[-73.04221365839541,-13.5549583540239],[-73.04222105874071,-13.55405465264293],[-73.04314476684645,-13.554061890735936],[-73.0431373699873,-13.554965592617288],[-73.04221365839541,-13.5549583540239]]]}},{"type":"Feature","properties":{"Cell_ID":13,"Area_ha":1.0,"LC":"9:0.721246,17:0.038250,18:0.149724","XMIN":711860.3384899372,"YMIN":8501643.59738907,"XMAX":711960.3384899372,"YMAX":8501743.59738907},"geometry":{"type":"Polygon","coordinates":[[[-73.0413639613445,-13.545914100101966],[-73.04137135977311,-13.545010398529683],[-73.04229503249131,-13.545017635027445],[-73.04228763754631,-13.545921337100314],[-73.0413639613445,-13.545914100101966]]]}},{"type":"Feature","properties":{"Cell_ID":14,"Area_ha":1.0,"LC":"9:0.993955,18:0.006045","XMIN":711860.3384899372,"YMIN":8501543.59738907,"XMAX":711960.3384899372,"YMAX":8501643.59738907},"geometry":{"type":"Polygon","coordinates":[[[-73.04135656237565,-13.54681780160508],[-73.0413639613445,-13.545914100101966],[-73.04228763754631,-13.545921337100314],[-73.04228024206131,-13.54682503910401],[-73.04135656237565,-13.54681780160508]]]}},{"type":"Feature","properties":{"Cell_ID":15,"Area_ha":1.0,"LC":"5:0.300804,9:0.699196","XMIN":711860.3384899372,"YMIN":8501443.59738907,"XMAX":711960.3384899372,"YMAX":8501543.59738907},"geometry":{"type":"Polygon","coordinates":[[[-73.04134916286655,-13.54772150303901],[-73.04135656237565,-13.54681780160508],[-73.04228024206131,-13.54682503910401],[-73.04227284603633,-13.547728741038533],[-73.04134916286655,-13.54772150303901]]]}},{"type":"Feature","properties":{"Cell_ID":16,"Area_ha":1.0,"LC":"5:0.897406,9:0.102594","XMIN":711860.3384899372,"YMIN":8501343.59738907,"XMAX":711960.3384899372,"YMAX":8501443.59738907},"geometry":{"type":"Polygon","coordinates":[[[-73.0413417628172,-13.548625204403763],[-73.04134916286655,-13.54772150303901],[-73.04227284603633,-13.547728741038533],[-73.04226544947133,-13.548632442903875],[-73.0413417628172,-13.548625204403763]]]}},{"type":"Feature","properties":{"Cell_ID":17,"Area_ha":1.0,"LC":"5:1.000000","XMIN":711860.3384899372,"YMIN":8501243.59738907,"XMAX":711960.3384899372,"YMAX":8501343.59738907},"geometry":{"type":"Polygon","coordinates":[[[-73.04133436222756,-13.549528905699326],[-73.0413417628172,-13.548625204403763],[-73.04226544947133,-13.548632442903875],[-73.04225805236632,-13.549536144700037],[-73.04133436222756,-13.549528905699326]]]}},{"type":"Feature","properties":{"Cell_ID":18,"Area_ha":1.0,"LC":"5:0.289483,9:0.676957,16:0.033560","XMIN":711860.3384899372,"YMIN":8501143.59738907,"XMAX":711960.3384899372,"YMAX":8501243.59738907},"geometry":{"type":"Polygon","coordinates":[[[-73.04132696109767,-13.550432606925694],[-73.04133436222756,-13.549528905699326],[-73.04225805236632,-13.549536144700037],[-73.04225065472129,-13.550439846427006],[-73.04132696109767,-13.550432606925694]]]}},{"type":"Feature","properties":{"Cell_ID":19,"Area_ha":1.0,"LC":"9:0.519605,13:0.189724,16:0.290671","XMIN":711860.3384899372,"YMIN":8501043.59738907,"XMAX":711960.3384899372,"YMAX":8501143.59738907},"geometry":{"type":"Polygon","coordinates":[[[-73.04131955942745,-13.551336308082874],[-73.04132696109767,-13.550432606925694],[-73.04225065472129,-13.550439846427006],[-73.04224325653622,-13.55134354808479],[-73.04131955942745,-13.551336308082874]]]}},{"type":"Feature","properties":{"Cell_ID":20,"Area_ha":1.0,"LC":"5:0.631182,6:0.013841,9:0.255361,13:0.069892,16:0.029724","XMIN":711860.3384899372,"YMIN":8500943.59738907,"XMAX":711960.3384899372,"YMAX":8501043.59738907},"geometry":{"type":"Polygon","coordinates":[[[-73.04131215721696,-13.552240009170848],[-73.04131955942745,-13.551336308082874],[-73.04224325653622,-13.55134354808479],[-73.04223585781111,-13.552247249673371],[-73.04131215721696,-13.552240009170848]]]}},{"type":"Feature","properties":{"Cell_ID":21,"Area_ha":1.0,"LC":"5:0.666721,6:0.014236,9:0.277228,16:0.041815","XMIN":711860.3384899372,"YMIN":8500843.59738907,"XMAX":711960.3384899372,"YMAX":8500943.59738907},"geometry":{"type":"Polygon","coordinates":[[[-73.04130475446615,-13.553143710189618],[-73.04131215721696,-13.552240009170848],[-73.04223585781111,-13.552247249673371],[-73.04222845854594,-13.553150951192753],[-73.04130475446615,-13.553143710189618]]]}},{"type":"Feature","properties":{"Cell_ID":22,"Area_ha":1.0,"LC":"5:0.026327,9:0.844230,16:0.129443","XMIN":711860.3384899372,"YMIN":8500743.59738907,"XMAX":711960.3384899372,"YMAX":8500843.59738907},"geometry":{"type":"Polygon","coordinates":[[[-73.04129735117505,-13.554047411139184],[-73.04130475446615,-13.553143710189618],[-73.04222845854594,-13.553150951192753],[-73.04222105874071,-13.55405465264293],[-73.04129735117505,-13.554047411139184]]]}},{"type":"Feature","properties":{"Cell_ID":23,"Area_ha":1.0,"LC":"9:0.933673,16:0.066327","XMIN":711860.3384899372,"YMIN":8500643.59738907,"XMAX":711960.3384899372,"YMAX":8500743.59738907},"geometry":{"type":"Polygon","coordinates":[[[-73.04128994734359,-13.55495111201953],[-73.04129735117505,-13.554047411139184],[-73.04222105874071,-13.55405465264293],[-73.04221365839541,-13.5549583540239],[-73.04128994734359,-13.55495111201953]]]}},{"type":"Feature","properties":{"Cell_ID":24,"Area_ha":1.0,"LC":"9:0.755770,16:0.103846,17:0.140384","XMIN":711960.3384899372,"YMIN":8501743.59738907,"XMAX":712060.3384899372,"YMAX":8501843.59738907},"geometry":{"type":"Polygon","coordinates":[[[-73.04044768759515,-13.545003158623542],[-73.04045508896687,-13.544099457482902],[-73.04137875766149,-13.544106696888228],[-73.04137135977311,-13.545010398529683],[-73.04044768759515,-13.545003158623542]]]}},{"type":"Feature","properties":{"Cell_ID":25,"Area_ha":1.0,"LC":"9:0.271017,17:0.519832,18:0.209151","XMIN":711960.3384899372,"YMIN":8501643.59738907,"XMAX":712060.3384899372,"YMAX":8501743.59738907},"geometry":{"type":"Polygon","coordinates":[[[-73.04044028568293,-13.545906859695009],[-73.04044768759515,-13.545003158623542],[-73.04137135977311,-13.545010398529683],[-73.0413639613445,-13.545914100101966],[-73.04044028568293,-13.545906859695009]]]}},{"type":"Feature","properties":{"Cell_ID":26,"Area_ha":1.0,"LC":"9:0.246148,13:0.348599,17:0.026327,18:0.378926","XMIN":711960.3384899372,"YMIN":8501543.59738907,"XMAX":712060.3384899372,"YMAX":8501643.59738907},"geometry":{"type":"Polygon","coordinates":[[[-73.04043288323024,-13.546810560697299],[-73.04044028568293,-13.545906859695009],[-73.0413639613445,-13.545914100101966],[-73.04135656237565,-13.54681780160508],[-73.04043288323024,-13.546810560697299]]]}},{"type":"Feature","properties":{"Cell_ID":27,"Area_ha":1.0,"LC":"5:0.277790,9:0.060114,13:0.662096","XMIN":711960.3384899372,"YMIN":8501443.59738907,"XMAX":712060.3384899372,"YMAX":8501543.59738907},"geometry":{"type":"Polygon","coordinates":[[[-73.04042548023703,-13.547714261630404],[-73.04043288323024,-13.546810560697299],[-73.04135656237565,-13.54681780160508],[-73.04134916286655,-13.54772150303901],[-73.04042548023703,-13.547714261630404]]]}},{"type":"Feature","properties":{"Cell_ID":28,"Area_ha":1.0,"LC":"5:0.520103,9:0.419054,13:0.060844","XMIN":711960.3384899372,"YMIN":8501343.59738907,"XMAX":712060.3384899372,"YMAX":8501443.59738907},"geometry":{"type":"Polygon","coordinates":[[[-73.04041807670332,-13.548617962494328],[-73.04042548023703,-13.547714261630404],[-73.04134916286655,-13.54772150303901],[-73.0413417628172,-13.548625204403763],[-73.04041807670332,-13.548617962494328]]]}},{"type":"Feature","properties":{"Cell_ID":29,"Area_ha":1.0,"LC":"5:0.420946,9:0.386327,13:0.192727","XMIN":711960.3384899372,"YMIN":8501243.59738907,"XMAX":712060.3384899372,"YMAX":8501343.59738907},"geometry":{"type":"Polygon","coordinates":[[[-73.0404106726291,-13.54952166328906],[-73.04041807670332,-13.548617962494328],[-73.0413417628172,-13.548625204403763],[-73.04133436222756,-13.549528905699326],[-73.0404106726291,-13.54952166328906]]]}},{"type":"Feature","properties":{"Cell_ID":30,"Area_ha":1.0,"LC":"5:0.014236,9:0.665304,13:0.320460","XMIN":711960.3384899372,"YMIN":8501143.59738907,"XMAX":712060.3384899372,"YMAX":8501243.59738907},"geometry":{"type":"Polygon","coordinates":[[[-73.04040326801432,-13.550425364014593],[-73.0404106726291,-13.54952166328906],[-73.04133436222756,-13.549528905699326],[-73.04132696109767,-13.550432606925694],[-73.04040326801432,-13.550425364014593]]]}},{"type":"Feature","properties":{"Cell_ID":31,"Area_ha":1.0,"LC":"9:0.904241,13:0.095759","XMIN":711960.3384899372,"YMIN":8501043.59738907,"XMAX":712060.3384899372,"YMAX":8501143.59738907},"geometry":{"type":"Polygon","coordinates":[[[-73.040395862859,-13.551329064670929],[-73.04040326801432,-13.550425364014593],[-73.04132696109767,-13.550432606925694],[-73.04131955942745,-13.551336308082874],[-73.040395862859,-13.551329064670929]]]}},{"type":"Feature","properties":{"Cell_ID":32,"Area_ha":1.0,"LC":"9:0.090736,13:0.410671,16:0.498594","XMIN":711960.3384899372,"YMIN":8500943.59738907,"XMAX":712060.3384899372,"YMAX":8501043.59738907},"geometry":{"type":"Polygon","coordinates":[[[-73.04038845716313,-13.552232765258061],[-73.040395862859,-13.551329064670929],[-73.04131955942745,-13.551336308082874],[-73.04131215721696,-13.552240009170848],[-73.04038845716313,-13.552232765258061]]]}},{"type":"Feature","properties":{"Cell_ID":33,"Area_ha":1.0,"LC":"5:0.121355,16:0.878645","XMIN":711960.3384899372,"YMIN":8500843.59738907,"XMAX":712060.3384899372,"YMAX":8500943.59738907},"geometry":{"type":"Polygon","coordinates":[[[-73.0403810509267,-13.553136465775983],[-73.04038845716313,-13.552232765258061],[-73.04131215721696,-13.552240009170848],[-73.04130475446615,-13.553143710189618],[-73.0403810509267,-13.553136465775983]]]}},{"type":"Feature","properties":{"Cell_ID":34,"Area_ha":1.0,"LC":"5:0.134798,9:0.499156,13:0.017801,16:0.348244","XMIN":711960.3384899372,"YMIN":8500743.59738907,"XMAX":712060.3384899372,"YMAX":8500843.59738907},"geometry":{"type":"Polygon","coordinates":[[[-73.0403736441497,-13.554040166224697],[-73.0403810509267,-13.553136465775983],[-73.04130475446615,-13.553143710189618],[-73.04129735117505,-13.554047411139184],[-73.0403736441497,-13.554040166224697]]]}},{"type":"Feature","properties":{"Cell_ID":35,"Area_ha":1.0,"LC":"9:0.363668,13:0.151017,16:0.485315","XMIN":712060.3384899372,"YMIN":8501743.59738907,"XMAX":712160.3384899372,"YMAX":8501843.59738907},"geometry":{"type":"Polygon","coordinates":[[[-73.03952401595765,-13.544995915309034],[-73.03953142081271,-13.544092214669446],[-73.04045508896687,-13.544099457482902],[-73.04044768759515,-13.545003158623542],[-73.03952401595765,-13.544995915309034]]]}},{"type":"Feature","properties":{"Cell_ID":36,"Area_ha":1.0,"LC":"9:0.299028,16:0.390454,17:0.310517","XMIN":712060.3384899372,"YMIN":8501643.59738907,"XMAX":712160.3384899372,"YMAX":8501743.59738907},"geometry":{"type":"Polygon","coordinates":[[[-73.03951661056188,-13.545899615879447],[-73.03952401595765,-13.544995915309034],[-73.04044768759515,-13.545003158623542],[-73.04044028568293,-13.545906859695009],[-73.03951661056188,-13.545899615879447]]]}},{"type":"Feature","properties":{"Cell_ID":37,"Area_ha":1.0,"LC":"5:0.241085,13:0.069995,16:0.531361,17:0.101406,18:0.056154","XMIN":712060.3384899372,"YMIN":8501543.59738907,"XMAX":712160.3384899372,"YMAX":8501643.59738907},"geometry":{"type":"Polygon","coordinates":[[[-73.03950920462535,-13.54680331638068],[-73.03951661056188,-13.545899615879447],[-73.04044028568293,-13.545906859695009],[-73.04043288323024,-13.546810560697299],[-73.03950920462535,-13.54680331638068]]]}},{"type":"Feature","properties":{"Cell_ID":38,"Area_ha":1.0,"LC":"5:0.260179,9:0.360793,13:0.098466,16:0.280562","XMIN":712060.3384899372,"YMIN":8501443.59738907,"XMAX":712160.3384899372,"YMAX":8501543.59738907},"geometry":{"type":"Polygon","coordinates":[[[-73.03950179814805,-13.547707016812726],[-73.03950920462535,-13.54680331638068],[-73.04043288323024,-13.546810560697299],[-73.04042548023703,-13.547714261630404],[-73.03950179814805,-13.547707016812726]]]}},{"type":"Feature","properties":{"Cell_ID":39,"Area_ha":1.0,"LC":"5:0.059616,9:0.940384","XMIN":712060.3384899372,"YMIN":8501343.59738907,"XMAX":712160.3384899372,"YMAX":8501443.59738907},"geometry":{"type":"Polygon","coordinates":[[[-73.03949439112998,-13.548610717175585],[-73.03950179814805,-13.547707016812726],[-73.04042548023703,-13.547714261630404],[-73.04041807670332,-13.548617962494328],[-73.03949439112998,-13.548610717175585]]]}},{"type":"Feature","properties":{"Cell_ID":40,"Area_ha":1.0,"LC":"5:0.119335,9:0.574798,13:0.305867","XMIN":712060.3384899372,"YMIN":8501243.59738907,"XMAX":712160.3384899372,"YMAX":8501343.59738907},"geometry":{"type":"Polygon","coordinates":[[[-73.03948698357114,-13.549514417469245],[-73.03949439112998,-13.548610717175585],[-73.04041807670332,-13.548617962494328],[-73.0404106726291,-13.54952166328906],[-73.03948698357114,-13.549514417469245]]]}},{"type":"Feature","properties":{"Cell_ID":41,"Area_ha":1.0,"LC":"5:0.050173,9:0.410005,13:0.539821","XMIN":712060.3384899372,"YMIN":8501143.59738907,"XMAX":712160.3384899372,"YMAX":8501243.59738907},"geometry":{"type":"Polygon","coordinates":[[[-73.03947957547152,-13.550418117693708],[-73.03948698357114,-13.549514417469245],[-73.0404106726291,-13.54952166328906],[-73.04040326801432,-13.550425364014593],[-73.03947957547152,-13.550418117693708]]]}},{"type":"Feature","properties":{"Cell_ID":42,"Area_ha":1.0,"LC":"9:0.343554,13:0.656446","XMIN":712060.3384899372,"YMIN":8501043.59738907,"XMAX":712160.3384899372,"YMAX":8501143.59738907},"geometry":{"type":"Polygon","coordinates":[[[-73.03947216683109,-13.551321817848967],[-73.03947957547152,-13.550418117693708],[-73.04040326801432,-13.550425364014593],[-73.040395862859,-13.551329064670929],[-73.03947216683109,-13.551321817848967]]]}},{"type":"Feature","properties":{"Cell_ID":43,"Area_ha":1.0,"LC":"9:0.652880,13:0.078250,16:0.268870","XMIN":712060.3384899372,"YMIN":8500943.59738907,"XMAX":712160.3384899372,"YMAX":8501043.59738907},"geometry":{"type":"Polygon","coordinates":[[[-73.03946475764985,-13.552225517935021],[-73.03947216683109,-13.551321817848967],[-73.040395862859,-13.551329064670929],[-73.04038845716313,-13.552232765258061],[-73.03946475764985,-13.552225517935021]]]}},{"type":"Feature","properties":{"Cell_ID":44,"Area_ha":1.0,"LC":"9:0.006045,16:0.993955","XMIN":712060.3384899372,"YMIN":8500843.59738907,"XMAX":712160.3384899372,"YMAX":8500943.59738907},"geometry":{"type":"Polygon","coordinates":[[[-73.03945734792781,-13.553129217951861],[-73.03946475764985,-13.552225517935021],[-73.04038845716313,-13.552232765258061],[-73.0403810509267,-13.553136465775983],[-73.03945734792781,-13.553129217951861]]]}},{"type":"Feature","properties":{"Cell_ID":45,"Area_ha":1.0,"LC":"9:0.056154,13:0.356563,16:0.587284","XMIN":712060.3384899372,"YMIN":8500743.59738907,"XMAX":712160.3384899372,"YMAX":8500843.59738907},"geometry":{"type":"Polygon","coordinates":[[[-73.03944993766493,-13.554032917899487],[-73.03945734792781,-13.553129217951861],[-73.0403810509267,-13.553136465775983],[-73.0403736441497,-13.554040166224697],[-73.03944993766493,-13.554032917899487]]]}},{"type":"Feature","properties":{"Cell_ID":46,"Area_ha":1.0,"LC":"9:0.590517,13:0.311514,16:0.097969","XMIN":712060.3384899372,"YMIN":8500643.59738907,"XMAX":712160.3384899372,"YMAX":8500743.59738907},"geometry":{"type":"Polygon","coordinates":[[[-73.03944252686124,-13.554936617777892],[-73.03944993766493,-13.554032917899487],[-73.0403736441497,-13.554040166224697],[-73.04036623683211,-13.55494386660419],[-73.03944252686124,-13.554936617777892]]]}},{"type":"Feature","properties":{"Cell_ID":47,"Area_ha":1.0,"LC":"13:0.230389,16:0.769611","XMIN":712160.3384899372,"YMIN":8501743.59738907,"XMAX":712260.3384899372,"YMAX":8501843.59738907},"geometry":{"type":"Polygon","coordinates":[[[-73.03860034486091,-13.544988668586166],[-73.03860775319927,-13.544084968447864],[-73.03953142081271,-13.544092214669446],[-73.03952401595765,-13.544995915309034],[-73.03860034486091,-13.544988668586166]]]}},{"type":"Feature","properties":{"Cell_ID":48,"Area_ha":1.0,"LC":"6:0.019719,16:0.750849,17:0.229432","XMIN":712160.3384899372,"YMIN":8501643.59738907,"XMAX":712260.3384899372,"YMAX":8501743.59738907},"geometry":{"type":"Polygon","coordinates":[[[-73.03859293598155,-13.545892368655293],[-73.03860034486091,-13.544988668586166],[-73.03952401595765,-13.544995915309034],[-73.03951661056188,-13.545899615879447],[-73.03859293598155,-13.545892368655293]]]}},{"type":"Feature","properties":{"Cell_ID":49,"Area_ha":1.0,"LC":"5:0.098071,6:0.293571,7:0.139719,16:0.054403,17:0.414236","XMIN":712160.3384899372,"YMIN":8501543.59738907,"XMAX":712260.3384899372,"YMAX":8501643.59738907},"geometry":{"type":"Polygon","coordinates":[[[-73.03858552656119,-13.546796068655231],[-73.03859293598155,-13.545892368655293],[-73.03951661056188,-13.545899615879447],[-73.03950920462535,-13.54680331638068],[-73.03858552656119,-13.546796068655231]]]}},{"type":"Feature","properties":{"Cell_ID":50,"Area_ha":1.0,"LC":"5:0.240103,6:0.130173,7:0.200000,16:0.029724,17:0.400000","XMIN":712160.3384899372,"YMIN":8501443.59738907,"XMAX":712260.3384899372,"YMAX":8501543.59738907},"geometry":{"type":"Polygon","coordinates":[[[-73.03857811659982,-13.54769976858598],[-73.03858552656119,-13.546796068655231],[-73.03950920462535,-13.54680331638068],[-73.03950179814805,-13.547707016812726],[-73.03857811659982,-13.54769976858598]]]}},{"type":"Feature","properties":{"Cell_ID":51,"Area_ha":1.0,"LC":"5:0.334236,7:0.259719,16:0.006045,17:0.400000","XMIN":712160.3384899372,"YMIN":8501343.59738907,"XMAX":712260.3384899372,"YMAX":8501443.59738907},"geometry":{"type":"Polygon","coordinates":[[[-73.03857070609742,-13.548603468447535],[-73.03857811659982,-13.54769976858598],[-73.03950179814805,-13.547707016812726],[-73.03949439112998,-13.548610717175585],[-73.03857070609742,-13.548603468447535]]]}},{"type":"Feature","properties":{"Cell_ID":52,"Area_ha":1.0,"LC":"5:0.206148,7:0.393852,17:0.400000","XMIN":712160.3384899372,"YMIN":8501243.59738907,"XMAX":712260.3384899372,"YMAX":8501343.59738907},"geometry":{"type":"Polygon","coordinates":[[[-73.03856329505399,-13.549507168239895],[-73.03857070609742,-13.548603468447535],[-73.03949439112998,-13.548610717175585],[-73.03948698357114,-13.549514417469245],[-73.03856329505399,-13.549507168239895]]]}},{"type":"Feature","properties":{"Cell_ID":53,"Area_ha":1.0,"LC":"5:0.280395,7:0.229892,9:0.089713,17:0.400000","XMIN":712160.3384899372,"YMIN":8501143.59738907,"XMAX":712260.3384899372,"YMAX":8501243.59738907},"geometry":{"type":"Polygon","coordinates":[[[-73.03855588346951,-13.55041086796305],[-73.03856329505399,-13.549507168239895],[-73.03948698357114,-13.549514417469245],[-73.03947957547152,-13.550418117693708],[-73.03855588346951,-13.55041086796305]]]}},{"type":"Feature","properties":{"Cell_ID":54,"Area_ha":1.0,"LC":"5:0.017969,7:0.020281,9:0.242313,13:0.098071,17:0.621366","XMIN":712160.3384899372,"YMIN":8501043.59738907,"XMAX":712260.3384899372,"YMAX":8501143.59738907},"geometry":{"type":"Polygon","coordinates":[[[-73.03854847134399,-13.551314567616998],[-73.03855588346951,-13.55041086796305],[-73.03947957547152,-13.550418117693708],[-73.03947216683109,-13.551321817848967],[-73.03854847134399,-13.551314567616998]]]}},{"type":"Feature","properties":{"Cell_ID":55,"Area_ha":1.0,"LC":"9:0.417509,13:0.042313,17:0.540179","XMIN":712160.3384899372,"YMIN":8500943.59738907,"XMAX":712260.3384899372,"YMAX":8501043.59738907},"geometry":{"type":"Polygon","coordinates":[[[-73.03854105867741,-13.552218267201738],[-73.03854847134399,-13.551314567616998],[-73.03947216683109,-13.551321817848967],[-73.03946475764985,-13.552225517935021],[-73.03854105867741,-13.552218267201738]]]}},{"type":"Feature","properties":{"Cell_ID":56,"Area_ha":1.0,"LC":"7:0.049443,9:0.574798,16:0.325586,17:0.050173","XMIN":712160.3384899372,"YMIN":8500843.59738907,"XMAX":712260.3384899372,"YMAX":8500943.59738907},"geometry":{"type":"Polygon","coordinates":[[[-73.03853364546976,-13.553121966717258],[-73.03854105867741,-13.552218267201738],[-73.03946475764985,-13.552225517935021],[-73.03945734792781,-13.553129217951861],[-73.03853364546976,-13.553121966717258]]]}},{"type":"Feature","properties":{"Cell_ID":57,"Area_ha":1.0,"LC":"7:0.130173,9:0.100281,13:0.164230,16:0.605315","XMIN":712160.3384899372,"YMIN":8500743.59738907,"XMAX":712260.3384899372,"YMAX":8500843.59738907},"geometry":{"type":"Polygon","coordinates":[[[-73.03852623172101,-13.554025666163561],[-73.03853364546976,-13.553121966717258],[-73.03945734792781,-13.553129217951861],[-73.03944993766493,-13.554032917899487],[-73.03852623172101,-13.554025666163561]]]}},{"type":"Feature","properties":{"Cell_ID":58,"Area_ha":1.0,"LC":"9:0.217509,16:0.782491","XMIN":712160.3384899372,"YMIN":8500643.59738907,"XMAX":712260.3384899372,"YMAX":8500743.59738907},"geometry":{"type":"Polygon","coordinates":[[[-73.03851881743118,-13.554929365540639],[-73.03852623172101,-13.554025666163561],[-73.03944993766493,-13.554032917899487],[-73.03944252686124,-13.554936617777892],[-73.03851881743118,-13.554929365540639]]]}},{"type":"Feature","properties":{"Cell_ID":59,"Area_ha":1.0,"LC":"9:0.513329,16:0.486671","XMIN":712260.3384899372,"YMIN":8501843.59738907,"XMAX":712360.3384899372,"YMAX":8501943.59738907},"geometry":{"type":"Polygon","coordinates":[[[-73.03768408612684,-13.54407771881817],[-73.03769149740727,-13.543174019112207],[-73.03861516099666,-13.543181268240383],[-73.03860775319927,-13.544084968447864],[-73.03768408612684,-13.54407771881817]]]}},{"type":"Feature","properties":{"Cell_ID":60,"Area_ha":1.0,"LC":"16:1.000000","XMIN":712260.3384899372,"YMIN":8501743.59738907,"XMAX":712360.3384899372,"YMAX":8501843.59738907},"geometry":{"type":"Polygon","coordinates":[[[-73.03767667430516,-13.544981418454952],[-73.03768408612684,-13.54407771881817],[-73.03860775319927,-13.544084968447864],[-73.03860034486091,-13.544988668586166],[-73.03767667430516,-13.544981418454952]]]}},{"type":"Feature","properties":{"Cell_ID":61,"Area_ha":1.0,"LC":"16:1.000000","XMIN":712260.3384899372,"YMIN":8501643.59738907,"XMAX":712360.3384899372,"YMAX":8501743.59738907},"geometry":{"type":"Polygon","coordinates":[[[-73.03766926194223,-13.545885118022552],[-73.03767667430516,-13.544981418454952],[-73.03860034486091,-13.544988668586166],[-73.03859293598155,-13.545892368655293],[-73.03766926194223,-13.545885118022552]]]}},{"type":"Feature","properties":{"Cell_ID":62,"Area_ha":1.0,"LC":"6:0.185867,13:0.119438,16:0.694696","XMIN":712260.3384899372,"YMIN":8501543.59738907,"XMAX":712360.3384899372,"YMAX":8501643.59738907},"geometry":{"type":"Polygon","coordinates":[[[-73.03766184903806,-13.54678881752096],[-73.03766926194223,-13.545885118022552],[-73.03859293598155,-13.545892368655293],[-73.03858552656119,-13.546796068655231],[-73.03766184903806,-13.54678881752096]]]}},{"type":"Feature","properties":{"Cell_ID":63,"Area_ha":1.0,"LC":"6:0.170671,9:0.185597,13:0.248255,16:0.395478","XMIN":712260.3384899372,"YMIN":8501443.59738907,"XMAX":712360.3384899372,"YMAX":8501543.59738907},"geometry":{"type":"Polygon","coordinates":[[[-73.03765443559261,-13.547692516950178],[-73.03766184903806,-13.54678881752096],[-73.03858552656119,-13.546796068655231],[-73.03857811659982,-13.54769976858598],[-73.03765443559261,-13.547692516950178]]]}},{"type":"Feature","properties":{"Cell_ID":64,"Area_ha":1.0,"LC":"5:0.485586,9:0.353457,14:0.005878,16:0.155079","XMIN":712260.3384899372,"YMIN":8501343.59738907,"XMAX":712360.3384899372,"YMAX":8501443.59738907},"geometry":{"type":"Polygon","coordinates":[[[-73.03764702160588,-13.548596216310196],[-73.03765443559261,-13.547692516950178],[-73.03857811659982,-13.54769976858598],[-73.03857070609742,-13.548603468447535],[-73.03764702160588,-13.548596216310196]]]}},{"type":"Feature","properties":{"Cell_ID":65,"Area_ha":1.0,"LC":"5:0.414236,7:0.126148,9:0.220281,14:0.239335","XMIN":712260.3384899372,"YMIN":8501243.59738907,"XMAX":712360.3384899372,"YMAX":8501343.59738907},"geometry":{"type":"Polygon","coordinates":[[[-73.03763960707788,-13.549499915601015],[-73.03764702160588,-13.548596216310196],[-73.03857070609742,-13.548603468447535],[-73.03856329505399,-13.549507168239895],[-73.03763960707788,-13.549499915601015]]]}},{"type":"Feature","properties":{"Cell_ID":66,"Area_ha":1.0,"LC":"5:0.330276,7:0.070389,9:0.399438,14:0.199897","XMIN":712260.3384899372,"YMIN":8501143.59738907,"XMAX":712360.3384899372,"YMAX":8501243.59738907},"geometry":{"type":"Polygon","coordinates":[[[-73.03763219200857,-13.550403614822626],[-73.03763960707788,-13.549499915601015],[-73.03856329505399,-13.549507168239895],[-73.03855588346951,-13.55041086796305],[-73.03763219200857,-13.550403614822626]]]}},{"type":"Feature","properties":{"Cell_ID":67,"Area_ha":1.0,"LC":"5:0.242313,9:0.180844,14:0.006045,16:0.099719,17:0.098071,18:0.373008","XMIN":712260.3384899372,"YMIN":8501043.59738907,"XMAX":712360.3384899372,"YMAX":8501143.59738907},"geometry":{"type":"Polygon","coordinates":[[[-73.03762477639796,-13.551307313975027],[-73.03763219200857,-13.550403614822626],[-73.03855588346951,-13.55041086796305],[-73.03854847134399,-13.551314567616998],[-73.03762477639796,-13.551307313975027]]]}},{"type":"Feature","properties":{"Cell_ID":68,"Area_ha":1.0,"LC":"5:0.020281,16:0.549162,17:0.240103,18:0.190454","XMIN":712260.3384899372,"YMIN":8500943.59738907,"XMAX":712360.3384899372,"YMAX":8501043.59738907},"geometry":{"type":"Polygon","coordinates":[[[-73.03761736024603,-13.552211013058216],[-73.03762477639796,-13.551307313975027],[-73.03854847134399,-13.551314567616998],[-73.03854105867741,-13.552218267201738],[-73.03761736024603,-13.552211013058216]]]}},{"type":"Feature","properties":{"Cell_ID":69,"Area_ha":1.0,"LC":"7:0.069995,16:0.460179,17:0.469827","XMIN":712260.3384899372,"YMIN":8500843.59738907,"XMAX":712360.3384899372,"YMAX":8500943.59738907},"geometry":{"type":"Polygon","coordinates":[[[-73.03760994355278,-13.553114712072182],[-73.03761736024603,-13.552211013058216],[-73.03854105867741,-13.552218267201738],[-73.03853364546976,-13.553121966717258],[-73.03760994355278,-13.553114712072182]]]}},{"type":"Feature","properties":{"Cell_ID":70,"Area_ha":1.0,"LC":"7:0.230389,16:0.468767,17:0.300844","XMIN":712260.3384899372,"YMIN":8500743.59738907,"XMAX":712360.3384899372,"YMAX":8500843.59738907},"geometry":{"type":"Polygon","coordinates":[[[-73.03760252631818,-13.554018411016928],[-73.03760994355278,-13.553114712072182],[-73.03853364546976,-13.553121966717258],[-73.03852623172101,-13.554025666163561],[-73.03760252631818,-13.554018411016928]]]}},{"type":"Feature","properties":{"Cell_ID":71,"Area_ha":1.0,"LC":"9:0.385034,16:0.614966","XMIN":712260.3384899372,"YMIN":8500643.59738907,"XMAX":712360.3384899372,"YMAX":8500743.59738907},"geometry":{"type":"Polygon","coordinates":[[[-73.03759510854225,-13.554922109892447],[-73.03760252631818,-13.554018411016928],[-73.03852623172101,-13.554025666163561],[-73.03851881743118,-13.554929365540639],[-73.03759510854225,-13.554922109892447]]]}},{"type":"Feature","properties":{"Cell_ID":72,"Area_ha":1.0,"LC":"5:0.026327,6:0.378363,9:0.577509,16:0.017801","XMIN":712360.3384899372,"YMIN":8501943.59738907,"XMAX":712460.3384899372,"YMAX":8502043.59738907},"geometry":{"type":"Polygon","coordinates":[[[-73.03676783435911,-13.543166766576162],[-73.03677524858111,-13.542263067302775],[-73.03769890814648,-13.542270319337065],[-73.03769149740727,-13.543174019112207],[-73.03676783435911,-13.543166766576162]]]}},{"type":"Feature","properties":{"Cell_ID":73,"Area_ha":1.0,"LC":"9:0.499591,16:0.494531,18:0.005878","XMIN":712360.3384899372,"YMIN":8501843.59738907,"XMAX":712460.3384899372,"YMAX":8501943.59738907},"geometry":{"type":"Polygon","coordinates":[[[-73.03676041959562,-13.544070465780372],[-73.03676783435911,-13.543166766576162],[-73.03769149740727,-13.543174019112207],[-73.03768408612684,-13.54407771881817],[-73.03676041959562,-13.544070465780372]]]}},{"type":"Feature","properties":{"Cell_ID":74,"Area_ha":1.0,"LC":"9:0.039438,16:0.620946,18:0.339616","XMIN":712360.3384899372,"YMIN":8501743.59738907,"XMAX":712460.3384899372,"YMAX":8501843.59738907},"geometry":{"type":"Polygon","coordinates":[[[-73.03675300429066,-13.544974164915397],[-73.03676041959562,-13.544070465780372],[-73.03768408612684,-13.54407771881817],[-73.03767667430516,-13.544981418454952],[-73.03675300429066,-13.544974164915397]]]}},{"type":"Feature","properties":{"Cell_ID":75,"Area_ha":1.0,"LC":"9:0.376051,16:0.540384,18:0.083565","XMIN":712360.3384899372,"YMIN":8501643.59738907,"XMAX":712460.3384899372,"YMAX":8501743.59738907},"geometry":{"type":"Polygon","coordinates":[[[-73.03674558844418,-13.545877863981234],[-73.03675300429066,-13.544974164915397],[-73.03767667430516,-13.544981418454952],[-73.03766926194223,-13.545885118022552],[-73.03674558844418,-13.545877863981234]]]}},{"type":"Feature","properties":{"Cell_ID":76,"Area_ha":1.0,"LC":"5:0.079438,9:0.250005,16:0.540384,18:0.130173","XMIN":712360.3384899372,"YMIN":8501543.59738907,"XMAX":712460.3384899372,"YMAX":8501643.59738907},"geometry":{"type":"Polygon","coordinates":[[[-73.03673817205619,-13.546781562977879],[-73.03674558844418,-13.545877863981234],[-73.03766926194223,-13.545885118022552],[-73.03766184903806,-13.54678881752096],[-73.03673817205619,-13.546781562977879]]]}},{"type":"Feature","properties":{"Cell_ID":77,"Area_ha":1.0,"LC":"5:0.418363,9:0.298762,13:0.112307,16:0.170568","XMIN":712360.3384899372,"YMIN":8501443.59738907,"XMAX":712460.3384899372,"YMAX":8501543.59738907},"geometry":{"type":"Polygon","coordinates":[[[-73.03673075512668,-13.547685261905327],[-73.03673817205619,-13.546781562977879],[-73.03766184903806,-13.54678881752096],[-73.03765443559261,-13.547692516950178],[-73.03673075512668,-13.547685261905327]]]}},{"type":"Feature","properties":{"Cell_ID":78,"Area_ha":1.0,"LC":"5:0.059616,9:0.926543,14:0.013841","XMIN":712360.3384899372,"YMIN":8501343.59738907,"XMAX":712460.3384899372,"YMAX":8501443.59738907},"geometry":{"type":"Polygon","coordinates":[[[-73.03672333765564,-13.548588960763576],[-73.03673075512668,-13.547685261905327],[-73.03765443559261,-13.547692516950178],[-73.03764702160588,-13.548596216310196],[-73.03672333765564,-13.548588960763576]]]}},{"type":"Feature","properties":{"Cell_ID":79,"Area_ha":1.0,"LC":"5:0.006045,9:0.833852,14:0.160103","XMIN":712360.3384899372,"YMIN":8501243.59738907,"XMAX":712460.3384899372,"YMAX":8501343.59738907},"geometry":{"type":"Polygon","coordinates":[[[-73.03671591964306,-13.549492659552618],[-73.03672333765564,-13.548588960763576],[-73.03764702160588,-13.548596216310196],[-73.03763960707788,-13.549499915601015],[-73.03671591964306,-13.549492659552618]]]}},{"type":"Feature","properties":{"Cell_ID":80,"Area_ha":1.0,"LC":"9:0.278250,14:0.340384,16:0.381366","XMIN":712360.3384899372,"YMIN":8501143.59738907,"XMAX":712460.3384899372,"YMAX":8501243.59738907},"geometry":{"type":"Polygon","coordinates":[[[-73.03670850108892,-13.550396358272451],[-73.03671591964306,-13.549492659552618],[-73.03763960707788,-13.549499915601015],[-73.03763219200857,-13.550403614822626],[-73.03670850108892,-13.550396358272451]]]}},{"type":"Feature","properties":{"Cell_ID":81,"Area_ha":1.0,"LC":"9:0.318082,14:0.114517,16:0.241815,18:0.325586","XMIN":712360.3384899372,"YMIN":8501043.59738907,"XMAX":712460.3384899372,"YMAX":8501143.59738907},"geometry":{"type":"Polygon","coordinates":[[[-73.03670108199323,-13.551300056923068],[-73.03670850108892,-13.550396358272451],[-73.03763219200857,-13.550403614822626],[-73.03762477639796,-13.551307313975027],[-73.03670108199323,-13.551300056923068]]]}},{"type":"Feature","properties":{"Cell_ID":82,"Area_ha":1.0,"LC":"9:0.358773,16:0.450276,18:0.190952","XMIN":712360.3384899372,"YMIN":8500943.59738907,"XMAX":712460.3384899372,"YMAX":8501043.59738907},"geometry":{"type":"Polygon","coordinates":[[[-73.03669366235597,-13.55220375550447],[-73.03670108199323,-13.551300056923068],[-73.03762477639796,-13.551307313975027],[-73.03761736024603,-13.552211013058216],[-73.03669366235597,-13.55220375550447]]]}},{"type":"Feature","properties":{"Cell_ID":83,"Area_ha":1.0,"LC":"9:0.317687,13:0.078250,14:0.077520,16:0.487105,17:0.039438","XMIN":712360.3384899372,"YMIN":8500643.59738907,"XMAX":712460.3384899372,"YMAX":8500743.59738907},"geometry":{"type":"Polygon","coordinates":[[[-73.03667140019466,-13.554914850833319],[-73.0366788214567,-13.554011152459596],[-73.03760252631818,-13.554018411016928],[-73.03759510854225,-13.554922109892447],[-73.03667140019466,-13.554914850833319]]]}},{"type":"Feature","properties":{"Cell_ID":84,"Area_ha":1.0,"LC":"5:0.160103,16:0.839897","XMIN":712460.3384899372,"YMIN":8502043.59738907,"XMAX":712560.3384899372,"YMAX":8502143.59738907},"geometry":{"type":"Polygon","coordinates":[[[-73.03585158955721,-13.542255811860853],[-73.03585900672027,-13.541352113020274],[-73.03678266226163,-13.541359367960208],[-73.03677524858111,-13.542263067302775],[-73.03585158955721,-13.542255811860853]]]}},{"type":"Feature","properties":{"Cell_ID":85,"Area_ha":1.0,"LC":"5:0.114517,6:0.084230,16:0.775656,18:0.025597","XMIN":712460.3384899372,"YMIN":8501943.59738907,"XMAX":712560.3384899372,"YMAX":8502043.59738907},"geometry":{"type":"Polygon","coordinates":[[[-73.03584417185243,-13.543159510632258],[-73.03585158955721,-13.542255811860853],[-73.03677524858111,-13.542263067302775],[-73.03676783435911,-13.543166766576162],[-73.03584417185243,-13.543159510632258]]]}},{"type":"Feature","properties":{"Cell_ID":86,"Area_ha":1.0,"LC":"9:0.131923,16:0.611233,18:0.256844","XMIN":712460.3384899372,"YMIN":8501843.59738907,"XMAX":712560.3384899372,"YMAX":8501943.59738907},"geometry":{"type":"Polygon","coordinates":[[[-73.03583675360592,-13.544063209334478],[-73.03584417185243,-13.543159510632258],[-73.03676783435911,-13.543166766576162],[-73.03676041959562,-13.544070465780372],[-73.03583675360592,-13.544063209334478]]]}},{"type":"Feature","properties":{"Cell_ID":87,"Area_ha":1.0,"LC":"9:0.045315,13:0.051923,18:0.902761","XMIN":712460.3384899372,"YMIN":8501743.59738907,"XMAX":712560.3384899372,"YMAX":8501843.59738907},"geometry":{"type":"Polygon","coordinates":[[[-73.03582933481765,-13.54496690796751],[-73.03583675360592,-13.544063209334478],[-73.03676041959562,-13.544070465780372],[-73.03675300429066,-13.544974164915397],[-73.03582933481765,-13.54496690796751]]]}},{"type":"Feature","properties":{"Cell_ID":88,"Area_ha":1.0,"LC":"9:0.803565,18:0.196435","XMIN":712460.3384899372,"YMIN":8501643.59738907,"XMAX":712560.3384899372,"YMAX":8501743.59738907},"geometry":{"type":"Polygon","coordinates":[[[-73.03582191548763,-13.545870606531349],[-73.03582933481765,-13.54496690796751],[-73.03675300429066,-13.544974164915397],[-73.03674558844418,-13.545877863981234],[-73.03582191548763,-13.545870606531349]]]}},{"type":"Feature","properties":{"Cell_ID":89,"Area_ha":1.0,"LC":"9:0.469329,18:0.530671","XMIN":712460.3384899372,"YMIN":8501543.59738907,"XMAX":712560.3384899372,"YMAX":8501643.59738907},"geometry":{"type":"Polygon","coordinates":[[[-73.03581449561585,-13.546774305025995],[-73.03582191548763,-13.545870606531349],[-73.03674558844418,-13.545877863981234],[-73.03673817205619,-13.546781562977879],[-73.03581449561585,-13.546774305025995]]]}},{"type":"Feature","properties":{"Cell_ID":90,"Area_ha":1.0,"LC":"5:0.061637,9:0.146721,13:0.247693,16:0.543949","XMIN":712460.3384899372,"YMIN":8501443.59738907,"XMAX":712560.3384899372,"YMAX":8501543.59738907},"geometry":{"type":"Polygon","coordinates":[[[-73.03580707520227,-13.547678003451441],[-73.03581449561585,-13.546774305025995],[-73.03673817205619,-13.546781562977879],[-73.03673075512668,-13.547685261905327],[-73.03580707520227,-13.547678003451441]]]}},{"type":"Feature","properties":{"Cell_ID":91,"Area_ha":1.0,"LC":"5:0.480103,9:0.459616,16:0.060281","XMIN":712460.3384899372,"YMIN":8501343.59738907,"XMAX":712560.3384899372,"YMAX":8501443.59738907},"geometry":{"type":"Polygon","coordinates":[[[-73.03579965424693,-13.54858170180768],[-73.03580707520227,-13.547678003451441],[-73.03673075512668,-13.547685261905327],[-73.03672333765564,-13.548588960763576],[-73.03579965424693,-13.54858170180768]]]}},{"type":"Feature","properties":{"Cell_ID":92,"Area_ha":1.0,"LC":"5:0.054798,9:0.919605,16:0.025597","XMIN":712460.3384899372,"YMIN":8501243.59738907,"XMAX":712560.3384899372,"YMAX":8501343.59738907},"geometry":{"type":"Polygon","coordinates":[[[-73.03579223274978,-13.54948540009471],[-73.03579965424693,-13.54858170180768],[-73.03672333765564,-13.548588960763576],[-73.03671591964306,-13.549492659552618],[-73.03579223274978,-13.54948540009471]]]}},{"type":"Feature","properties":{"Cell_ID":93,"Area_ha":1.0,"LC":"9:0.320957,16:0.679043","XMIN":712460.3384899372,"YMIN":8501143.59738907,"XMAX":712560.3384899372,"YMAX":8501243.59738907},"geometry":{"type":"Polygon","coordinates":[[[-73.03578481071084,-13.550389098312527],[-73.03579223274978,-13.54948540009471],[-73.03671591964306,-13.549492659552618],[-73.03670850108892,-13.550396358272451],[-73.03578481071084,-13.550389098312527]]]}},{"type":"Feature","properties":{"Cell_ID":94,"Area_ha":1.0,"LC":"9:0.460409,16:0.539591","XMIN":712460.3384899372,"YMIN":8501043.59738907,"XMAX":712560.3384899372,"YMAX":8501143.59738907},"geometry":{"type":"Polygon","coordinates":[[[-73.03577738813007,-13.55129279646113],[-73.03578481071084,-13.550389098312527],[-73.03670850108892,-13.550396358272451],[-73.03670108199323,-13.551300056923068],[-73.03577738813007,-13.55129279646113]]]}},{"type":"Feature","properties":{"Cell_ID":95,"Area_ha":1.0,"LC":"9:0.200562,13:0.142096,16:0.657341","XMIN":712560.3384899372,"YMIN":8502143.59738907,"XMAX":712660.3384899372,"YMAX":8502243.59738907},"geometry":{"type":"Polygon","coordinates":[[[-73.0349353517206,-13.54134485467296],[-73.0349427718242,-13.54044115626542],[-73.0358664233416,-13.54044841411052],[-73.03585900672027,-13.541352113020274],[-73.0349353517206,-13.54134485467296]]]}},{"type":"Feature","properties":{"Cell_ID":96,"Area_ha":1.0,"LC":"16:1.000000","XMIN":712560.3384899372,"YMIN":8502043.59738907,"XMAX":712660.3384899372,"YMAX":8502143.59738907},"geometry":{"type":"Polygon","coordinates":[[[-73.03492793107505,-13.542248553011323],[-73.0349353517206,-13.54134485467296],[-73.03585900672027,-13.541352113020274],[-73.03585158955721,-13.542255811860853],[-73.03492793107505,-13.542248553011323]]]}},{"type":"Feature","properties":{"Cell_ID":97,"Area_ha":1.0,"LC":"16:0.966440,18:0.033560","XMIN":712560.3384899372,"YMIN":8501943.59738907,"XMAX":712660.3384899372,"YMAX":8502043.59738907},"geometry":{"type":"Polygon","coordinates":[[[-73.0349205098875,-13.543152251280501],[-73.03492793107505,-13.542248553011323],[-73.03585158955721,-13.542255811860853],[-73.03584417185243,-13.543159510632258],[-73.0349205098875,-13.543152251280501]]]}},{"type":"Feature","properties":{"Cell_ID":98,"Area_ha":1.0,"LC":"9:0.227514,16:0.443043,18:0.329443","XMIN":712560.3384899372,"YMIN":8501843.59738907,"XMAX":712660.3384899372,"YMAX":8501943.59738907},"geometry":{"type":"Polygon","coordinates":[[[-73.03491308815795,-13.5440559494805],[-73.0349205098875,-13.543152251280501],[-73.03584417185243,-13.543159510632258],[-73.03583675360592,-13.544063209334478],[-73.03491308815795,-13.5440559494805]]]}},{"type":"Feature","properties":{"Cell_ID":99,"Area_ha":1.0,"LC":"9:0.187974,13:0.506952,18:0.305074","XMIN":712560.3384899372,"YMIN":8501743.59738907,"XMAX":712660.3384899372,"YMAX":8501843.59738907},"geometry":{"type":"Polygon","coordinates":[[[-73.0349056658864,-13.5449596476113],[-73.03491308815795,-13.5440559494805],[-73.03583675360592,-13.544063209334478],[-73.03582933481765,-13.54496690796751],[-73.0349056658864,-13.5449596476113]]]}},{"type":"Feature","properties":{"Cell_ID":100,"Area_ha":1.0,"LC":"9:0.615029,13:0.384971","XMIN":712560.3384899372,"YMIN":8501643.59738907,"XMAX":712660.3384899372,"YMAX":8501743.59738907},"geometry":{"type":"Polygon","coordinates":[[[-73.03489824307285,-13.545863345672911],[-73.0349056658864,-13.5449596476113],[-73.03582933481765,-13.54496690796751],[-73.03582191548763,-13.545870606531349],[-73.03489824307285,-13.545863345672911]]]}},{"type":"Feature","properties":{"Cell_ID":101,"Area_ha":1.0,"LC":"9:1.000000","XMIN":712560.3384899372,"YMIN":8501543.59738907,"XMAX":712660.3384899372,"YMAX":8501643.59738907},"geometry":{"type":"Polygon","coordinates":[[[-73.03489081971726,-13.54676704366532],[-73.03489824307285,-13.545863345672911],[-73.03582191548763,-13.545870606531349],[-73.03581449561585,-13.546774305025995],[-73.03489081971726,-13.54676704366532]]]}},{"type":"Feature","properties":{"Cell_ID":102,"Area_ha":1.0,"LC":"9:0.346889,13:0.453673,16:0.199438","XMIN":712560.3384899372,"YMIN":8501443.59738907,"XMAX":712660.3384899372,"YMAX":8501543.59738907},"geometry":{"type":"Polygon","coordinates":[[[-73.03488339581966,-13.54767074158852],[-73.03489081971726,-13.54676704366532],[-73.03581449561585,-13.546774305025995],[-73.03580707520227,-13.547678003451441],[-73.03488339581966,-13.54767074158852]]]}},{"type":"Feature","properties":{"Cell_ID":103,"Area_ha":1.0,"LC":"5:0.279438,9:0.240665,13:0.038250,16:0.441648","XMIN":712560.3384899372,"YMIN":8501343.59738907,"XMAX":712660.3384899372,"YMAX":8501443.59738907},"geometry":{"type":"Polygon","coordinates":[[[-73.03487597138003,-13.54857443944252],[-73.03488339581966,-13.54767074158852],[-73.03580707520227,-13.547678003451441],[-73.03579965424693,-13.54858170180768],[-73.03487597138003,-13.54857443944252]]]}},{"type":"Feature","properties":{"Cell_ID":104,"Area_ha":1.0,"LC":"5:0.200562,9:0.126543,16:0.575656,18:0.097239","XMIN":712560.3384899372,"YMIN":8501243.59738907,"XMAX":712660.3384899372,"YMAX":8501343.59738907},"geometry":{"type":"Polygon","coordinates":[[[-73.03486854639833,-13.549478137227304],[-73.03487597138003,-13.54857443944252],[-73.03579965424693,-13.54858170180768],[-73.03579223274978,-13.54948540009471],[-73.03486854639833,-13.549478137227304]]]}},{"type":"Feature","properties":{"Cell_ID":105,"Area_ha":1.0,"LC":"5:0.091923,9:0.041918,13:0.057239,16:0.418466,18:0.390454","XMIN":712560.3384899372,"YMIN":8501143.59738907,"XMAX":712660.3384899372,"YMAX":8501243.59738907},"geometry":{"type":"Polygon","coordinates":[[[-73.03486112087457,-13.55038183494287],[-73.03486854639833,-13.549478137227304],[-73.03579223274978,-13.54948540009471],[-73.03578481071084,-13.550389098312527],[-73.03486112087457,-13.55038183494287]]]}},{"type":"Feature","properties":{"Cell_ID":106,"Area_ha":1.0,"LC":"13:0.079897,16:0.920103","XMIN":712660.3384899372,"YMIN":8501943.59738907,"XMAX":712760.3384899372,"YMAX":8502043.59738907},"geometry":{"type":"Polygon","coordinates":[[[-73.03399684846454,-13.543144988520911],[-73.03400427313484,-13.542241290754186],[-73.03492793107505,-13.542248553011323],[-73.0349205098875,-13.543152251280501],[-73.03399684846454,-13.543144988520911]]]}},{"type":"Feature","properties":{"Cell_ID":107,"Area_ha":1.0,"LC":"9:0.117520,13:0.081815,16:0.175361,18:0.625304","XMIN":712660.3384899372,"YMIN":8501843.59738907,"XMAX":712760.3384899372,"YMAX":8501943.59738907},"geometry":{"type":"Polygon","coordinates":[[[-73.03398942325198,-13.544048686218442],[-73.03399684846454,-13.543144988520911],[-73.0349205098875,-13.543152251280501],[-73.03491308815795,-13.5440559494805],[-73.03398942325198,-13.544048686218442]]]}},{"type":"Feature","properties":{"Cell_ID":108,"Area_ha":1.0,"LC":"9:0.595478,13:0.249443,18:0.155079","XMIN":712660.3384899372,"YMIN":8501743.59738907,"XMAX":712760.3384899372,"YMAX":8501843.59738907},"geometry":{"type":"Polygon","coordinates":[[[-73.03398199749716,-13.544952383846777],[-73.03398942325198,-13.544048686218442],[-73.03491308815795,-13.5440559494805],[-73.0349056658864,-13.5449596476113],[-73.03398199749716,-13.544952383846777]]]}},{"type":"Feature","properties":{"Cell_ID":109,"Area_ha":1.0,"LC":"9:0.584511,13:0.415489","XMIN":712660.3384899372,"YMIN":8501643.59738907,"XMAX":712760.3384899372,"YMAX":8501743.59738907},"geometry":{"type":"Polygon","coordinates":[[[-73.03397457120009,-13.545856081405923],[-73.03398199749716,-13.544952383846777],[-73.0349056658864,-13.5449596476113],[-73.03489824307285,-13.545863345672911],[-73.03397457120009,-13.545856081405923]]]}},{"type":"Feature","properties":{"Cell_ID":110,"Area_ha":1.0,"LC":"9:0.953392,13:0.046608","XMIN":712660.3384899372,"YMIN":8501543.59738907,"XMAX":712760.3384899372,"YMAX":8501643.59738907},"geometry":{"type":"Polygon","coordinates":[[[-73.03396714436073,-13.546759778895858],[-73.03397457120009,-13.545856081405923],[-73.03489824307285,-13.545863345672911],[-73.03489081971726,-13.54676704366532],[-73.03396714436073,-13.546759778895858]]]}},{"type":"Feature","properties":{"Cell_ID":111,"Area_ha":1.0,"LC":"9:0.642772,13:0.357228","XMIN":712660.3384899372,"YMIN":8501443.59738907,"XMAX":712760.3384899372,"YMAX":8501543.59738907},"geometry":{"type":"Polygon","coordinates":[[[-73.03395971697908,-13.547663476316588],[-73.03396714436073,-13.546759778895858],[-73.03489081971726,-13.54676704366532],[-73.03488339581966,-13.54767074158852],[-73.03395971697908,-13.547663476316588]]]}},{"type":"Feature","properties":{"Cell_ID":112,"Area_ha":1.0,"LC":"9:0.678773,13:0.223156,16:0.098071","XMIN":712660.3384899372,"YMIN":8501343.59738907,"XMAX":712760.3384899372,"YMAX":8501443.59738907},"geometry":{"type":"Polygon","coordinates":[[[-73.03395228905516,-13.548567173668104],[-73.03395971697908,-13.547663476316588],[-73.03488339581966,-13.54767074158852],[-73.03487597138003,-13.54857443944252],[-73.03395228905516,-13.548567173668104]]]}},{"type":"Feature","properties":{"Cell_ID":113,"Area_ha":1.0,"LC":"9:0.642378,13:0.099719,14:0.117520,16:0.098466,18:0.041918","XMIN":712660.3384899372,"YMIN":8501243.59738907,"XMAX":712760.3384899372,"YMAX":8501343.59738907},"geometry":{"type":"Polygon","coordinates":[[[-73.03394486058892,-13.549470870950405],[-73.03395228905516,-13.548567173668104],[-73.03487597138003,-13.54857443944252],[-73.03486854639833,-13.549478137227304],[-73.03394486058892,-13.549470870950405]]]}},{"type":"Feature","properties":{"Cell_ID":114,"Area_ha":1.0,"LC":"9:0.849443,13:0.150557","XMIN":712760.3384899372,"YMIN":8501743.59738907,"XMAX":712860.3384899372,"YMAX":8501843.59738907},"geometry":{"type":"Polygon","coordinates":[[[-73.0330583296502,-13.544945116673954],[-73.03306575888827,-13.544041419548318],[-73.03398942325198,-13.544048686218442],[-73.03398199749716,-13.544952383846777],[-73.0330583296502,-13.544945116673954]]]}},{"type":"Feature","properties":{"Cell_ID":115,"Area_ha":1.0,"LC":"9:0.641815,13:0.358185","XMIN":712760.3384899372,"YMIN":8501643.59738907,"XMAX":712860.3384899372,"YMAX":8501743.59738907},"geometry":{"type":"Polygon","coordinates":[[[-73.03305089986961,-13.545848813730393],[-73.0330583296502,-13.544945116673954],[-73.03398199749716,-13.544952383846777],[-73.03397457120009,-13.545856081405923],[-73.03305089986961,-13.545848813730393]]]}},{"type":"Feature","properties":{"Cell_ID":116,"Area_ha":1.0,"LC":"9:0.905867,13:0.094133","XMIN":712760.3384899372,"YMIN":8501543.59738907,"XMAX":712860.3384899372,"YMAX":8501643.59738907},"geometry":{"type":"Polygon","coordinates":[[[-73.03304346954648,-13.546752510717623],[-73.03305089986961,-13.545848813730393],[-73.03397457120009,-13.545856081405923],[-73.03396714436073,-13.546759778895858],[-73.03304346954648,-13.546752510717623]]]}},{"type":"Feature","properties":{"Cell_ID":117,"Area_ha":1.0,"LC":"9:0.760665,13:0.239335","XMIN":712760.3384899372,"YMIN":8501443.59738907,"XMAX":712860.3384899372,"YMAX":8501543.59738907},"geometry":{"type":"Polygon","coordinates":[[[-73.03303603868082,-13.54765620763564],[-73.03304346954648,-13.546752510717623],[-73.03396714436073,-13.546759778895858],[-73.03395971697908,-13.547663476316588],[-73.03303603868082,-13.54765620763564]]]}}]}