{"type":"FeatureCollection","features":[{"type":"Feature","properties":{"Cell_ID":1,"Area_ha":1.0,"LC":"5:0.028962,9:0.799371,13:0.000002","XMIN":711765.7400203245,"YMIN":8500513.59738907,"XMAX":711865.7400203245,"YMAX":8500613.59738907},"geometry":{"type":"Polygon","coordinates":[[[-73.04215414234731,-13.556132774588615],[-73.04216154358305,-13.555229073324664],[-73.04308525619167,-13.555236312252415],[-73.04307785844243,-13.556140014016771],[-73.04215414234731,-13.556132774588615]]]}},{"type":"Feature","properties":{"Cell_ID":2,"Area_ha":1.0,"LC":"9:0.335904,13:0.203172","XMIN":711765.7400203245,"YMIN":8500413.59738907,"XMAX":711865.7400203245,"YMAX":8500513.59738907},"geometry":{"type":"Polygon","coordinates":[[[-73.04214674057147,-13.557036475783352],[-73.04215414234731,-13.556132774588615],[-73.04307785844243,-13.556140014016771],[-73.04307046015333,-13.55704371571191],[-73.04214674057147,-13.557036475783352]]]}},{"type":"Feature","properties":{"Cell_ID":3,"Area_ha":1.0,"LC":"5:0.056871,9:0.942848,16:0.000281","XMIN":711865.7400203245,"YMIN":8500613.59738907,"XMAX":711965.7400203245,"YMAX":8500713.59738907},"geometry":{"type":"Polygon","coordinates":[[[-73.04123783151452,-13.55522183098586],[-73.04124523569638,-13.55431813015332],[-73.04216894427869,-13.554325371991492],[-73.04216154358305,-13.555229073324664],[-73.04123783151452,-13.55522183098586]]]}},{"type":"Feature","properties":{"Cell_ID":4,"Area_ha":1.0,"LC":"5:0.377114,9:0.622886","XMIN":711865.7400203245,"YMIN":8500513.59738907,"XMAX":711965.7400203245,"YMAX":8500613.59738907},"geometry":{"type":"Polygon","coordinates":[[[-73.04123042679231,-13.556125531749174],[-73.04123783151452,-13.55522183098586],[-73.04216154358305,-13.555229073324664],[-73.04215414234731,-13.556132774588615],[-73.04123042679231,-13.556125531749174]]]}},{"type":"Feature","properties":{"Cell_ID":5,"Area_ha":1.0,"LC":"5:0.080562,9:0.731821,16:0.068179,18:0.119438","XMIN":711865.7400203245,"YMIN":8500413.59738907,"XMAX":711965.7400203245,"YMAX":8500513.59738907},"geometry":{"type":"Polygon","coordinates":[[[-73.04122302152973,-13.557029232443275],[-73.04123042679231,-13.556125531749174],[-73.04215414234731,-13.556132774588615],[-73.04214674057147,-13.557036475783352],[-73.04122302152973,-13.557029232443275]]]}},{"type":"Feature","properties":{"Cell_ID":6,"Area_ha":1.0,"LC":"9:0.366528,18:0.633472","XMIN":711865.7400203245,"YMIN":8500313.59738907,"XMAX":711965.7400203245,"YMAX":8500413.59738907},"geometry":{"type":"Polygon","coordinates":[[[-73.04121561572678,-13.557932933068141],[-73.04122302152973,-13.557029232443275],[-73.04214674057147,-13.557036475783352],[-73.0421393382555,-13.557940176908863],[-73.04121561572678,-13.557932933068141]]]}},{"type":"Feature","properties":{"Cell_ID":7,"Area_ha":1.0,"LC":"9:0.115231,16:0.585302,18:0.297996","XMIN":711865.7400203245,"YMIN":8500213.59738907,"XMAX":711965.7400203245,"YMAX":8500313.59738907},"geometry":{"type":"Polygon","coordinates":[[[-73.04120820938346,-13.558836633623775],[-73.04121561572678,-13.557932933068141],[-73.0421393382555,-13.557940176908863],[-73.04213193539941,-13.558843877965144],[-73.04120820938346,-13.558836633623775]]]}},{"type":"Feature","properties":{"Cell_ID":8,"Area_ha":1.0,"LC":"16:0.894858","XMIN":711865.7400203245,"YMIN":8500113.59738907,"XMAX":711965.7400203245,"YMAX":8500213.59738907},"geometry":{"type":"Polygon","coordinates":[[[-73.04120080249972,-13.559740334110176],[-73.04120820938346,-13.558836633623775],[-73.04213193539941,-13.558843877965144],[-73.04212453200317,-13.559747578952196],[-73.04120080249972,-13.559740334110176]]]}},{"type":"Feature","properties":{"Cell_ID":9,"Area_ha":1.0,"LC":"9:0.119719,16:0.746982","XMIN":711865.7400203245,"YMIN":8500013.59738907,"XMAX":711965.7400203245,"YMAX":8500113.59738907},"geometry":{"type":"Polygon","coordinates":[[[-73.0411933950756,-13.560644034527336],[-73.04120080249972,-13.559740334110176],[-73.04212453200317,-13.559747578952196],[-73.04211712806679,-13.56065127987001],[-73.0411933950756,-13.560644034527336]]]}},{"type":"Feature","properties":{"Cell_ID":10,"Area_ha":1.0,"LC":"9:0.744166,16:0.000941,17:0.126941","XMIN":711865.7400203245,"YMIN":8499913.59738907,"XMAX":711965.7400203245,"YMAX":8500013.59738907},"geometry":{"type":"Polygon","coordinates":[[[-73.04118598711105,-13.561547734875251],[-73.0411933950756,-13.560644034527336],[-73.04211712806679,-13.56065127987001],[-73.04210972359026,-13.561554980718583],[-73.04118598711105,-13.561547734875251]]]}},{"type":"Feature","properties":{"Cell_ID":11,"Area_ha":1.0,"LC":"9:0.664565,13:0.125012,16:0.022726,17:0.065094","XMIN":711865.7400203245,"YMIN":8499813.59738907,"XMAX":711965.7400203245,"YMAX":8499913.59738907},"geometry":{"type":"Polygon","coordinates":[[[-73.0411785786061,-13.562451435153916],[-73.04118598711105,-13.561547734875251],[-73.04210972359026,-13.561554980718583],[-73.04210231857354,-13.562458681497912],[-73.0411785786061,-13.562451435153916]]]}},{"type":"Feature","properties":{"Cell_ID":12,"Area_ha":1.0,"LC":"9:0.954547,13:0.045453","XMIN":711965.7400203245,"YMIN":8500613.59738907,"XMAX":712065.7400203245,"YMAX":8500713.59738907},"geometry":{"type":"Polygon","coordinates":[[[-73.04031411998635,-13.555214585236014],[-73.04032152765441,-13.554310884904348],[-73.04124523569638,-13.55431813015332],[-73.04123783151452,-13.55522183098586],[-73.04031411998635,-13.555214585236014]]]}},{"type":"Feature","properties":{"Cell_ID":13,"Area_ha":1.0,"LC":"9:0.567493,13:0.432507","XMIN":711965.7400203245,"YMIN":8500513.59738907,"XMAX":712065.7400203245,"YMAX":8500613.59738907},"geometry":{"type":"Polygon","coordinates":[[[-73.04030671177767,-13.556118285498462],[-73.04031411998635,-13.555214585236014],[-73.04123783151452,-13.55522183098586],[-73.04123042679231,-13.556125531749174],[-73.04030671177767,-13.556118285498462]]]}},{"type":"Feature","properties":{"Cell_ID":14,"Area_ha":1.0,"LC":"9:0.096833,13:0.384011,16:0.519156","XMIN":711965.7400203245,"YMIN":8500413.59738907,"XMAX":712065.7400203245,"YMAX":8500513.59738907},"geometry":{"type":"Polygon","coordinates":[[[-73.04029930302838,-13.557021985691682],[-73.04030671177767,-13.556118285498462],[-73.04123042679231,-13.556125531749174],[-73.04122302152973,-13.557029232443275],[-73.04029930302838,-13.557021985691682]]]}},{"type":"Feature","properties":{"Cell_ID":15,"Area_ha":1.0,"LC":"9:0.268019,16:0.206296,18:0.525685","XMIN":711965.7400203245,"YMIN":8500313.59738907,"XMAX":712065.7400203245,"YMAX":8500413.59738907},"geometry":{"type":"Polygon","coordinates":[[[-73.04029189373844,-13.557925685815668],[-73.04029930302838,-13.557021985691682],[-73.04122302152973,-13.557029232443275],[-73.04121561572678,-13.557932933068141],[-73.04029189373844,-13.557925685815668]]]}},{"type":"Feature","properties":{"Cell_ID":16,"Area_ha":1.0,"LC":"9:0.690784,16:0.308532,18:0.000684","XMIN":711965.7400203245,"YMIN":8500213.59738907,"XMAX":712065.7400203245,"YMAX":8500313.59738907},"geometry":{"type":"Polygon","coordinates":[[[-73.04028448390788,-13.558829385870421],[-73.04029189373844,-13.557925685815668],[-73.04121561572678,-13.557932933068141],[-73.04120820938346,-13.558836633623775],[-73.04028448390788,-13.558829385870421]]]}},{"type":"Feature","properties":{"Cell_ID":17,"Area_ha":1.0,"LC":"9:0.451027,16:0.548973","XMIN":711965.7400203245,"YMIN":8500113.59738907,"XMAX":712065.7400203245,"YMAX":8500213.59738907},"geometry":{"type":"Polygon","coordinates":[[[-73.04027707353667,-13.559733085855937],[-73.04028448390788,-13.558829385870421],[-73.04120820938346,-13.558836633623775],[-73.04120080249972,-13.559740334110176],[-73.04027707353667,-13.559733085855937]]]}},{"type":"Feature","properties":{"Cell_ID":18,"Area_ha":1.0,"LC":"9:0.400160,16:0.599840","XMIN":711965.7400203245,"YMIN":8500013.59738907,"XMAX":712065.7400203245,"YMAX":8500113.59738907},"geometry":{"type":"Polygon","coordinates":[[[-73.04026966262481,-13.560636785772205],[-73.04027707353667,-13.559733085855937],[-73.04120080249972,-13.559740334110176],[-73.0411933950756,-13.560644034527336],[-73.04026966262481,-13.560636785772205]]]}},{"type":"Feature","properties":{"Cell_ID":19,"Area_ha":1.0,"LC":"9:0.686247,16:0.313753","XMIN":711965.7400203245,"YMIN":8499913.59738907,"XMAX":712065.7400203245,"YMAX":8500013.59738907},"geometry":{"type":"Polygon","coordinates":[[[-73.04026225117228,-13.561540485619226],[-73.04026966262481,-13.560636785772205],[-73.0411933950756,-13.560644034527336],[-73.04118598711105,-13.561547734875251],[-73.04026225117228,-13.561540485619226]]]}},{"type":"Feature","properties":{"Cell_ID":20,"Area_ha":1.0,"LC":"9:0.035231,13:0.193301,16:0.771468","XMIN":711965.7400203245,"YMIN":8499813.59738907,"XMAX":712065.7400203245,"YMAX":8499913.59738907},"geometry":{"type":"Polygon","coordinates":[[[-73.04025483917906,-13.562444185396995],[-73.04026225117228,-13.561540485619226],[-73.04118598711105,-13.561547734875251],[-73.0411785786061,-13.562451435153916],[-73.04025483917906,-13.562444185396995]]]}},{"type":"Feature","properties":{"Cell_ID":21,"Area_ha":1.0,"LC":"7:0.039719,9:0.233427,13:0.453067,16:0.273350","XMIN":711965.7400203245,"YMIN":8499713.59738907,"XMAX":712065.7400203245,"YMAX":8499813.59738907},"geometry":{"type":"Polygon","coordinates":[[[-73.04024742664517,-13.563347885105504],[-73.04025483917906,-13.562444185396995],[-73.0411785786061,-13.562451435153916],[-73.04117116956068,-13.563355135363327],[-73.04024742664517,-13.563347885105504]]]}},{"type":"Feature","properties":{"Cell_ID":22,"Area_ha":1.0,"LC":"7:0.444833,9:0.036106,16:0.023167","XMIN":711965.7400203245,"YMIN":8499613.59738907,"XMAX":712065.7400203245,"YMAX":8499713.59738907},"geometry":{"type":"Polygon","coordinates":[[[-73.04024001357057,-13.564251584744754],[-73.04024742664517,-13.563347885105504],[-73.04117116956068,-13.563355135363327],[-73.04116375997485,-13.564258835503484],[-73.04024001357057,-13.564251584744754]]]}},{"type":"Feature","properties":{"Cell_ID":23,"Area_ha":1.0,"LC":"9:0.702726,13:0.296551,16:0.000722","XMIN":712065.7400203245,"YMIN":8500613.59738907,"XMAX":712165.7400203245,"YMAX":8500713.59738907},"geometry":{"type":"Polygon","coordinates":[[[-73.03939040899877,-13.555207336075139],[-73.03939782015306,-13.554303636244573],[-73.04032152765441,-13.554310884904348],[-73.04031411998635,-13.555214585236014],[-73.03939040899877,-13.555207336075139]]]}},{"type":"Feature","properties":{"Cell_ID":24,"Area_ha":1.0,"LC":"13:0.150379,16:0.238875,18:0.610745","XMIN":712065.7400203245,"YMIN":8500513.59738907,"XMAX":712165.7400203245,"YMAX":8500613.59738907},"geometry":{"type":"Polygon","coordinates":[[[-73.03938299730365,-13.556111035836476],[-73.03939040899877,-13.555207336075139],[-73.04031411998635,-13.555214585236014],[-73.04030671177767,-13.556118285498462],[-73.03938299730365,-13.556111035836476]]]}},{"type":"Feature","properties":{"Cell_ID":25,"Area_ha":1.0,"LC":"9:0.221320,13:0.017395,16:0.572946,18:0.188339","XMIN":712065.7400203245,"YMIN":8500413.59738907,"XMAX":712165.7400203245,"YMAX":8500513.59738907},"geometry":{"type":"Polygon","coordinates":[[[-73.03937558506763,-13.557014735528586],[-73.03938299730365,-13.556111035836476],[-73.04030671177767,-13.556118285498462],[-73.04029930302838,-13.557021985691682],[-73.03937558506763,-13.557014735528586]]]}},{"type":"Feature","properties":{"Cell_ID":26,"Area_ha":1.0,"LC":"9:0.845453,16:0.154547","XMIN":712065.7400203245,"YMIN":8500313.59738907,"XMAX":712165.7400203245,"YMAX":8500413.59738907},"geometry":{"type":"Polygon","coordinates":[[[-73.03936817229074,-13.557918435151459],[-73.03937558506763,-13.557014735528586],[-73.04029930302838,-13.557021985691682],[-73.04029189373844,-13.557925685815668],[-73.03936817229074,-13.557918435151459]]]}},{"type":"Feature","properties":{"Cell_ID":27,"Area_ha":1.0,"LC":"9:0.463973,13:0.399719,16:0.136309","XMIN":712065.7400203245,"YMIN":8500213.59738907,"XMAX":712165.7400203245,"YMAX":8500313.59738907},"geometry":{"type":"Polygon","coordinates":[[[-73.03936075897296,-13.558822134705094],[-73.03936817229074,-13.557918435151459],[-73.04029189373844,-13.557925685815668],[-73.04028448390788,-13.558829385870421],[-73.03936075897296,-13.558822134705094]]]}},{"type":"Feature","properties":{"Cell_ID":28,"Area_ha":1.0,"LC":"5:0.045453,9:0.411297,13:0.120281,16:0.422969","XMIN":712065.7400203245,"YMIN":8500113.59738907,"XMAX":712165.7400203245,"YMAX":8500213.59738907},"geometry":{"type":"Polygon","coordinates":[[[-73.03935334511428,-13.559725834189486],[-73.03936075897296,-13.558822134705094],[-73.04028448390788,-13.558829385870421],[-73.04027707353667,-13.559733085855937],[-73.03935334511428,-13.559725834189486]]]}},{"type":"Feature","properties":{"Cell_ID":29,"Area_ha":1.0,"LC":"9:0.479840,16:0.520160","XMIN":712065.7400203245,"YMIN":8500013.59738907,"XMAX":712165.7400203245,"YMAX":8500113.59738907},"geometry":{"type":"Polygon","coordinates":[[[-73.03934593071467,-13.560629533604631],[-73.03935334511428,-13.559725834189486],[-73.04027707353667,-13.559733085855937],[-73.04026966262481,-13.560636785772205],[-73.03934593071467,-13.560629533604631]]]}},{"type":"Feature","properties":{"Cell_ID":30,"Area_ha":1.0,"LC":"9:0.080844,16:0.919156","XMIN":712065.7400203245,"YMIN":8499913.59738907,"XMAX":712165.7400203245,"YMAX":8500013.59738907},"geometry":{"type":"Polygon","coordinates":[[[-73.03933851577416,-13.56153323295052],[-73.03934593071467,-13.560629533604631],[-73.04026966262481,-13.560636785772205],[-73.04026225117228,-13.561540485619226],[-73.03933851577416,-13.56153323295052]]]}},{"type":"Feature","properties":{"Cell_ID":31,"Area_ha":1.0,"LC":"9:0.353472,16:0.646528","XMIN":712065.7400203245,"YMIN":8499813.59738907,"XMAX":712165.7400203245,"YMAX":8499913.59738907},"geometry":{"type":"Polygon","coordinates":[[[-73.03933110029273,-13.562436932227156],[-73.03933851577416,-13.56153323295052],[-73.04026225117228,-13.561540485619226],[-73.04025483917906,-13.562444185396995],[-73.03933110029273,-13.562436932227156]]]}},{"type":"Feature","properties":{"Cell_ID":32,"Area_ha":1.0,"LC":"5:0.142285,9:0.165612,13:0.205453,16:0.486650","XMIN":712065.7400203245,"YMIN":8499713.59738907,"XMAX":712165.7400203245,"YMAX":8499813.59738907},"geometry":{"type":"Polygon","coordinates":[[[-73.03932368427033,-13.56334063143453],[-73.03933110029273,-13.562436932227156],[-73.04025483917906,-13.562444185396995],[-73.04024742664517,-13.563347885105504],[-73.03932368427033,-13.56334063143453]]]}},{"type":"Feature","properties":{"Cell_ID":33,"Area_ha":1.0,"LC":"5:0.023167,7:0.343321,16:0.628422","XMIN":712065.7400203245,"YMIN":8499613.59738907,"XMAX":712165.7400203245,"YMAX":8499713.59738907},"geometry":{"type":"Polygon","coordinates":[[[-73.03931626770698,-13.564244330572642],[-73.03932368427033,-13.56334063143453],[-73.04024742664517,-13.563347885105504],[-73.04024001357057,-13.564251584744754],[-73.03931626770698,-13.564244330572642]]]}},{"type":"Feature","properties":{"Cell_ID":34,"Area_ha":1.0,"LC":"9:0.229095,13:0.017152,16:0.572311,18:0.181442","XMIN":712165.7400203245,"YMIN":8500613.59738907,"XMAX":712265.7400203245,"YMAX":8500713.59738907},"geometry":{"type":"Polygon","coordinates":[[[-73.03846669855207,-13.555200083503241],[-73.03847411319254,-13.554296384174016],[-73.03939782015306,-13.554303636244573],[-73.03939040899877,-13.555207336075139],[-73.03846669855207,-13.555200083503241]]]}},{"type":"Feature","properties":{"Cell_ID":35,"Area_ha":1.0,"LC":"9:0.313191,13:0.017395,18:0.669414","XMIN":712165.7400203245,"YMIN":8500513.59738907,"XMAX":712265.7400203245,"YMAX":8500613.59738907},"geometry":{"type":"Polygon","coordinates":[[[-73.0384592833705,-13.556103782763238],[-73.03846669855207,-13.555200083503241],[-73.03939040899877,-13.555207336075139],[-73.03938299730365,-13.556111035836476],[-73.0384592833705,-13.556103782763238]]]}},{"type":"Feature","properties":{"Cell_ID":36,"Area_ha":1.0,"LC":"5:0.272909,9:0.394305,18:0.332786","XMIN":712165.7400203245,"YMIN":8500413.59738907,"XMAX":712265.7400203245,"YMAX":8500513.59738907},"geometry":{"type":"Polygon","coordinates":[[[-73.0384518676478,-13.557007481954],[-73.0384592833705,-13.556103782763238],[-73.03938299730365,-13.556111035836476],[-73.03937558506763,-13.557014735528586],[-73.0384518676478,-13.557007481954]]]}},{"type":"Feature","properties":{"Cell_ID":37,"Area_ha":1.0,"LC":"5:0.103449,9:0.896551","XMIN":712165.7400203245,"YMIN":8500313.59738907,"XMAX":712265.7400203245,"YMAX":8500413.59738907},"geometry":{"type":"Polygon","coordinates":[[[-73.03844445138394,-13.557911181075523],[-73.0384518676478,-13.557007481954],[-73.03937558506763,-13.557014735528586],[-73.03936817229074,-13.557918435151459],[-73.03844445138394,-13.557911181075523]]]}},{"type":"Feature","properties":{"Cell_ID":38,"Area_ha":1.0,"LC":"5:0.387457,9:0.493106,16:0.119438","XMIN":712165.7400203245,"YMIN":8500213.59738907,"XMAX":712265.7400203245,"YMAX":8500313.59738907},"geometry":{"type":"Polygon","coordinates":[[[-73.03843703457895,-13.5588148801278],[-73.03844445138394,-13.557911181075523],[-73.03936817229074,-13.557918435151459],[-73.03936075897296,-13.558822134705094],[-73.03843703457895,-13.5588148801278]]]}},{"type":"Feature","properties":{"Cell_ID":39,"Area_ha":1.0,"LC":"5:0.217996,9:0.017395,16:0.764609","XMIN":712165.7400203245,"YMIN":8500113.59738907,"XMAX":712265.7400203245,"YMAX":8500213.59738907},"geometry":{"type":"Polygon","coordinates":[[[-73.0384296172328,-13.559718579110834],[-73.03843703457895,-13.5588148801278],[-73.03936075897296,-13.558822134705094],[-73.03935334511428,-13.559725834189486],[-73.0384296172328,-13.559718579110834]]]}},{"type":"Feature","properties":{"Cell_ID":40,"Area_ha":1.0,"LC":"5:0.519156,13:0.022567,16:0.458277","XMIN":712165.7400203245,"YMIN":8500013.59738907,"XMAX":712265.7400203245,"YMAX":8500113.59738907},"geometry":{"type":"Polygon","coordinates":[[[-73.03842219934548,-13.560622278024615],[-73.0384296172328,-13.559718579110834],[-73.03935334511428,-13.559725834189486],[-73.03934593071467,-13.560629533604631],[-73.03842219934548,-13.560622278024615]]]}},{"type":"Feature","properties":{"Cell_ID":41,"Area_ha":1.0,"LC":"5:0.062726,9:0.547689,16:0.389585","XMIN":712165.7400203245,"YMIN":8499813.59738907,"XMAX":712265.7400203245,"YMAX":8499913.59738907},"geometry":{"type":"Polygon","coordinates":[[[-73.03840736194732,-13.56242967564441],[-73.038414780917,-13.561525976869143],[-73.03933851577416,-13.56153323295052],[-73.03933110029273,-13.562436932227156],[-73.03840736194732,-13.56242967564441]]]}},{"type":"Feature","properties":{"Cell_ID":42,"Area_ha":1.0,"LC":"5:0.124890,9:0.401406,13:0.473704","XMIN":712165.7400203245,"YMIN":8499713.59738907,"XMAX":712265.7400203245,"YMAX":8499813.59738907},"geometry":{"type":"Polygon","coordinates":[[[-73.03839994243644,-13.563333374350412],[-73.03840736194732,-13.56242967564441],[-73.03933110029273,-13.562436932227156],[-73.03932368427033,-13.56334063143453],[-73.03839994243644,-13.563333374350412]]]}},{"type":"Feature","properties":{"Cell_ID":43,"Area_ha":1.0,"LC":"5:0.503289,13:0.000844,16:0.495868","XMIN":712165.7400203245,"YMIN":8499613.59738907,"XMAX":712265.7400203245,"YMAX":8499713.59738907},"geometry":{"type":"Polygon","coordinates":[[[-73.03839252238437,-13.564237072987146],[-73.03839994243644,-13.563333374350412],[-73.03932368427033,-13.56334063143453],[-73.03931626770698,-13.564244330572642],[-73.03839252238437,-13.564237072987146]]]}},{"type":"Feature","properties":{"Cell_ID":44,"Area_ha":1.0,"LC":"9:0.564730,16:0.378399,18:0.056871","XMIN":712265.7400203245,"YMIN":8500613.59738907,"XMAX":712365.7400203245,"YMAX":8500713.59738907},"geometry":{"type":"Polygon","coordinates":[[[-73.03754298864649,-13.555192827520331],[-73.03755040677314,-13.554289128692682],[-73.03847411319254,-13.554296384174016],[-73.03846669855207,-13.555200083503241],[-73.03754298864649,-13.555192827520331]]]}},{"type":"Feature","properties":{"Cell_ID":45,"Area_ha":1.0,"LC":"5:0.479156,9:0.367250,17:0.153191,18:0.000403","XMIN":712265.7400203245,"YMIN":8500513.59738907,"XMAX":712365.7400203245,"YMAX":8500613.59738907},"geometry":{"type":"Polygon","coordinates":[[[-73.03753556997847,-13.556096526278749],[-73.03754298864649,-13.555192827520331],[-73.03846669855207,-13.555200083503241],[-73.0384592833705,-13.556103782763238],[-73.03753556997847,-13.556096526278749]]]}},{"type":"Feature","properties":{"Cell_ID":46,"Area_ha":1.0,"LC":"5:0.166258,9:0.811016,13:0.022726","XMIN":712265.7400203245,"YMIN":8500313.59738907,"XMAX":712365.7400203245,"YMAX":8500413.59738907},"geometry":{"type":"Polygon","coordinates":[[[-73.03752073101828,-13.557903923587864],[-73.03752815076908,-13.557000224967927],[-73.0384518676478,-13.557007481954],[-73.03844445138394,-13.557911181075523],[-73.03752073101828,-13.557903923587864]]]}},{"type":"Feature","properties":{"Cell_ID":47,"Area_ha":1.0,"LC":"5:0.302848,9:0.001285,13:0.285012,16:0.410856","XMIN":712265.7400203245,"YMIN":8499613.59738907,"XMAX":712365.7400203245,"YMAX":8499713.59738907},"geometry":{"type":"Polygon","coordinates":[[[-73.03746877760297,-13.56422981198828],[-73.03747620114376,-13.563326113853156],[-73.03839994243644,-13.563333374350412],[-73.03839252238437,-13.564237072987146],[-73.03746877760297,-13.56422981198828]]]}}]}