{"type":"FeatureCollection","features":[{"type":"Feature","properties":{"Cell_ID":1,"Area_ha":1.0,"LC":"5:0.579719,13:0.052276,16:0.368005","XMIN":712164.86160847,"YMIN":8499983.59738907,"XMAX":712264.86160847,"YMAX":8500083.59738907},"geometry":{"type":"Polygon","coordinates":[[[-73.03842808804644,-13.560893451435298],[-73.03843550606548,-13.55998975253789],[-73.039359234998,-13.559997007736975],[-73.03935182046676,-13.560900707135742],[-73.03842808804644,-13.560893451435298]]]}},{"type":"Feature","properties":{"Cell_ID":2,"Area_ha":1.0,"LC":"5:0.361125,9:0.048131,13:0.052571,16:0.538173","XMIN":712164.86160847,"YMIN":8499883.59738907,"XMAX":712264.86160847,"YMAX":8499983.59738907},"geometry":{"type":"Polygon","coordinates":[[[-73.03842066948624,-13.561797150263452],[-73.03842808804644,-13.560893451435298],[-73.03935182046676,-13.560900707135742],[-73.0393444053946,-13.561804406465262],[-73.03842066948624,-13.561797150263452]]]}},{"type":"Feature","properties":{"Cell_ID":3,"Area_ha":1.0,"LC":"5:0.961251,9:0.009649,16:0.029100","XMIN":712264.86160847,"YMIN":8500183.59738907,"XMAX":712364.86160847,"YMAX":8500283.59738907},"geometry":{"type":"Polygon","coordinates":[[[-73.03751919863952,-13.559078795461472],[-73.0375266190635,-13.558175096927146],[-73.03845034048005,-13.558182354535312],[-73.03844292354333,-13.559086053571228],[-73.03751919863952,-13.559078795461472]]]}},{"type":"Feature","properties":{"Cell_ID":4,"Area_ha":1.0,"LC":"5:0.743597,9:0.020969,16:0.235434","XMIN":712264.86160847,"YMIN":8500083.59738907,"XMAX":712364.86160847,"YMAX":8500183.59738907},"geometry":{"type":"Polygon","coordinates":[[[-73.03751177767413,-13.559982493926542],[-73.03751919863952,-13.559078795461472],[-73.03844292354333,-13.559086053571228],[-73.03843550606548,-13.55998975253789],[-73.03751177767413,-13.559982493926542]]]}},{"type":"Feature","properties":{"Cell_ID":5,"Area_ha":1.0,"LC":"5:0.171757,13:0.501095,16:0.327148","XMIN":712264.86160847,"YMIN":8499983.59738907,"XMAX":712364.86160847,"YMAX":8500083.59738907},"geometry":{"type":"Polygon","coordinates":[[[-73.0375043561673,-13.560886192322355],[-73.03751177767413,-13.559982493926542],[-73.03843550606548,-13.55998975253789],[-73.03842808804644,-13.560893451435298],[-73.0375043561673,-13.560886192322355]]]}},{"type":"Feature","properties":{"Cell_ID":6,"Area_ha":1.0,"LC":"5:0.030056,13:0.439874,16:0.530070","XMIN":712264.86160847,"YMIN":8499883.59738907,"XMAX":712364.86160847,"YMAX":8499983.59738907},"geometry":{"type":"Polygon","coordinates":[[[-73.03749693411906,-13.561789890648908],[-73.0375043561673,-13.560886192322355],[-73.03842808804644,-13.560893451435298],[-73.03842066948624,-13.561797150263452],[-73.03749693411906,-13.561789890648908]]]}},{"type":"Feature","properties":{"Cell_ID":7,"Area_ha":1.0,"LC":"5:0.411883,9:0.378594,16:0.209523","XMIN":712264.86160847,"YMIN":8499783.59738907,"XMAX":712364.86160847,"YMAX":8499883.59738907},"geometry":{"type":"Polygon","coordinates":[[[-73.03748951152937,-13.562693588906198],[-73.03749693411906,-13.561789890648908],[-73.03842066948624,-13.561797150263452],[-73.03841325038485,-13.562700849022349],[-73.03748951152937,-13.562693588906198]]]}},{"type":"Feature","properties":{"Cell_ID":8,"Area_ha":1.0,"LC":"5:0.296529,9:0.644315,13:0.059156","XMIN":712264.86160847,"YMIN":8499683.59738907,"XMAX":712364.86160847,"YMAX":8499783.59738907},"geometry":{"type":"Polygon","coordinates":[[[-73.03748208839824,-13.563597287094217],[-73.03748951152937,-13.562693588906198],[-73.03841325038485,-13.562700849022349],[-73.03840583074226,-13.563604547711973],[-73.03748208839824,-13.563597287094217]]]}},{"type":"Feature","properties":{"Cell_ID":9,"Area_ha":1.0,"LC":"9:0.804004,16:0.195996","XMIN":712364.86160847,"YMIN":8500883.59738907,"XMAX":712464.86160847,"YMAX":8500983.59738907},"geometry":{"type":"Polygon","coordinates":[[[-73.03664743028142,-13.55274564625809],[-73.03665485040126,-13.551841947740927],[-73.03757854687268,-13.551849205248203],[-73.03757113023829,-13.552752904267164],[-73.03664743028142,-13.55274564625809]]]}},{"type":"Feature","properties":{"Cell_ID":10,"Area_ha":1.0,"LC":"9:0.653696,13:0.210463,14:0.020969,16:0.114871","XMIN":712364.86160847,"YMIN":8500783.59738907,"XMAX":712464.86160847,"YMAX":8500883.59738907},"geometry":{"type":"Polygon","coordinates":[[[-73.03664000961996,-13.55364934470603],[-73.03664743028142,-13.55274564625809],[-73.03757113023829,-13.552752904267164],[-73.03756371306258,-13.553656603216908],[-73.03664000961996,-13.55364934470603]]]}},{"type":"Feature","properties":{"Cell_ID":11,"Area_ha":1.0,"LC":"9:0.401251,14:0.121939,16:0.149242,17:0.327568","XMIN":712364.86160847,"YMIN":8500583.59738907,"XMAX":712464.86160847,"YMAX":8500683.59738907},"geometry":{"type":"Polygon","coordinates":[[[-73.0366251666722,-13.55545674139422],[-73.03663258841688,-13.554553043084741],[-73.03755629534551,-13.554560302097428],[-73.03754887708708,-13.555464000908712],[-73.0366251666722,-13.55545674139422]]]}},{"type":"Feature","properties":{"Cell_ID":12,"Area_ha":1.0,"LC":"5:0.098594,9:0.030913,17:0.870493","XMIN":712364.86160847,"YMIN":8500483.59738907,"XMAX":712464.86160847,"YMAX":8500583.59738907},"geometry":{"type":"Polygon","coordinates":[[[-73.0366177443859,-13.556360439634457],[-73.0366251666722,-13.55545674139422],[-73.03754887708708,-13.555464000908712],[-73.03754145828727,-13.556367699650764],[-73.0366177443859,-13.556360439634457]]]}},{"type":"Feature","properties":{"Cell_ID":13,"Area_ha":1.0,"LC":"5:0.522376,9:0.197624,13:0.280000","XMIN":712364.86160847,"YMIN":8500383.59738907,"XMAX":712464.86160847,"YMAX":8500483.59738907},"geometry":{"type":"Polygon","coordinates":[[[-73.03661032155793,-13.557264137805452],[-73.0366177443859,-13.556360439634457],[-73.03754145828727,-13.556367699650764],[-73.03753403894608,-13.55727139832358],[-73.03661032155793,-13.557264137805452]]]}},{"type":"Feature","properties":{"Cell_ID":14,"Area_ha":1.0,"LC":"5:0.797624,9:0.202376","XMIN":712364.86160847,"YMIN":8500283.59738907,"XMAX":712464.86160847,"YMAX":8500383.59738907},"geometry":{"type":"Polygon","coordinates":[[[-73.03660289818835,-13.5581678359072],[-73.03661032155793,-13.557264137805452],[-73.03753403894608,-13.55727139832358],[-73.0375266190635,-13.558175096927146],[-73.03660289818835,-13.5581678359072]]]}},{"type":"Feature","properties":{"Cell_ID":15,"Area_ha":1.0,"LC":"5:0.880562,9:0.119438","XMIN":712364.86160847,"YMIN":8500183.59738907,"XMAX":712464.86160847,"YMAX":8500283.59738907},"geometry":{"type":"Polygon","coordinates":[[[-73.03659547427709,-13.559071533939699],[-73.03660289818835,-13.5581678359072],[-73.0375266190635,-13.558175096927146],[-73.03751919863952,-13.559078795461472],[-73.03659547427709,-13.559071533939699]]]}},{"type":"Feature","properties":{"Cell_ID":16,"Area_ha":1.0,"LC":"5:0.420969,9:0.559312,13:0.019719","XMIN":712364.86160847,"YMIN":8500083.59738907,"XMAX":712464.86160847,"YMAX":8500183.59738907},"geometry":{"type":"Polygon","coordinates":[[[-73.03658804982419,-13.55997523190294],[-73.03659547427709,-13.559071533939699],[-73.03751919863952,-13.559078795461472],[-73.03751177767413,-13.559982493926542],[-73.03658804982419,-13.55997523190294]]]}},{"type":"Feature","properties":{"Cell_ID":17,"Area_ha":1.0,"LC":"5:0.600000,9:0.154496,13:0.245504","XMIN":712364.86160847,"YMIN":8499983.59738907,"XMAX":712464.86160847,"YMAX":8500083.59738907},"geometry":{"type":"Polygon","coordinates":[[[-73.0365806248296,-13.560878929796923],[-73.03658804982419,-13.55997523190294],[-73.03751177767413,-13.559982493926542],[-73.0375043561673,-13.560886192322355],[-73.0365806248296,-13.560878929796923]]]}},{"type":"Feature","properties":{"Cell_ID":18,"Area_ha":1.0,"LC":"5:0.070225,9:0.099845,13:0.229930,16:0.600000","XMIN":712364.86160847,"YMIN":8499883.59738907,"XMAX":712464.86160847,"YMAX":8499983.59738907},"geometry":{"type":"Polygon","coordinates":[[[-73.03657319929333,-13.561782627621643],[-73.0365806248296,-13.560878929796923],[-73.0375043561673,-13.560886192322355],[-73.03749693411906,-13.561789890648908],[-73.03657319929333,-13.561782627621643]]]}},{"type":"Feature","properties":{"Cell_ID":19,"Area_ha":1.0,"LC":"5:0.580800,9:0.419200","XMIN":712364.86160847,"YMIN":8499783.59738907,"XMAX":712464.86160847,"YMAX":8499883.59738907},"geometry":{"type":"Polygon","coordinates":[[[-73.03656577321536,-13.56268632537709],[-73.03657319929333,-13.561782627621643],[-73.03749693411906,-13.561789890648908],[-73.03748951152937,-13.562693588906198],[-73.03656577321536,-13.56268632537709]]]}},{"type":"Feature","properties":{"Cell_ID":20,"Area_ha":1.0,"LC":"5:0.274103,9:0.725897","XMIN":712364.86160847,"YMIN":8499683.59738907,"XMAX":712464.86160847,"YMAX":8499783.59738907},"geometry":{"type":"Polygon","coordinates":[[[-73.03655834659568,-13.563590023063266],[-73.03656577321536,-13.56268632537709],[-73.03748951152937,-13.562693588906198],[-73.03748208839824,-13.563597287094217],[-73.03655834659568,-13.563590023063266]]]}},{"type":"Feature","properties":{"Cell_ID":21,"Area_ha":1.0,"LC":"5:0.738765,9:0.060844,13:0.105955,16:0.003308","XMIN":712364.86160847,"YMIN":8499583.59738907,"XMAX":712464.86160847,"YMAX":8499683.59738907},"geometry":{"type":"Polygon","coordinates":[[[-73.03655091943429,-13.564493720680167],[-73.03655834659568,-13.563590023063266],[-73.03748208839824,-13.563597287094217],[-73.03747466472565,-13.564500985212964],[-73.03655091943429,-13.564493720680167]]]}},{"type":"Feature","properties":{"Cell_ID":22,"Area_ha":1.0,"LC":"9:0.897512,14:0.052276,16:0.050211","XMIN":712464.86160847,"YMIN":8500983.59738907,"XMAX":712564.86160847,"YMAX":8501083.59738907},"geometry":{"type":"Polygon","coordinates":[[[-73.03573115447145,-13.551834686823529],[-73.03573857753496,-13.550930988739175],[-73.03666226997954,-13.55093824915454],[-73.03665485040126,-13.551841947740927],[-73.03573115447145,-13.551834686823529]]]}},{"type":"Feature","properties":{"Cell_ID":23,"Area_ha":1.0,"LC":"9:0.989368,14:0.010632","XMIN":712464.86160847,"YMIN":8500883.59738907,"XMAX":712564.86160847,"YMAX":8500983.59738907},"geometry":{"type":"Polygon","coordinates":[[[-73.03572373086612,-13.552738384838657],[-73.03573115447145,-13.551834686823529],[-73.03665485040126,-13.551841947740927],[-73.03664743028142,-13.55274564625809],[-73.03572373086612,-13.552738384838657]]]}},{"type":"Feature","properties":{"Cell_ID":24,"Area_ha":1.0,"LC":"9:0.511743,13:0.088131,14:0.400126","XMIN":712464.86160847,"YMIN":8500783.59738907,"XMAX":712564.86160847,"YMAX":8500883.59738907},"geometry":{"type":"Polygon","coordinates":[[[-73.03571630671894,-13.55364208278456],[-73.03572373086612,-13.552738384838657],[-73.03664743028142,-13.55274564625809],[-73.03664000961996,-13.55364934470603],[-73.03571630671894,-13.55364208278456]]]}},{"type":"Feature","properties":{"Cell_ID":25,"Area_ha":1.0,"LC":"9:0.412697,13:0.247022,14:0.340281","XMIN":712464.86160847,"YMIN":8500683.59738907,"XMAX":712564.86160847,"YMAX":8500783.59738907},"geometry":{"type":"Polygon","coordinates":[[[-73.03570888202987,-13.554545780661227],[-73.03571630671894,-13.55364208278456],[-73.03664000961996,-13.55364934470603],[-73.03663258841688,-13.554553043084741],[-73.03570888202987,-13.554545780661227]]]}},{"type":"Feature","properties":{"Cell_ID":26,"Area_ha":1.0,"LC":"9:0.761377,14:0.238623","XMIN":712464.86160847,"YMIN":8500583.59738907,"XMAX":712564.86160847,"YMAX":8500683.59738907},"geometry":{"type":"Polygon","coordinates":[[[-73.03570145679896,-13.555449478468656],[-73.03570888202987,-13.554545780661227],[-73.03663258841688,-13.554553043084741],[-73.0366251666722,-13.55545674139422],[-73.03570145679896,-13.555449478468656]]]}},{"type":"Feature","properties":{"Cell_ID":27,"Area_ha":1.0,"LC":"5:0.069100,9:0.351869,17:0.579031","XMIN":712464.86160847,"YMIN":8500483.59738907,"XMAX":712564.86160847,"YMAX":8500583.59738907},"geometry":{"type":"Polygon","coordinates":[[[-73.03569403102615,-13.556353176206846],[-73.03570145679896,-13.555449478468656],[-73.0366251666722,-13.55545674139422],[-73.0366177443859,-13.556360439634457],[-73.03569403102615,-13.556353176206846]]]}},{"type":"Feature","properties":{"Cell_ID":28,"Area_ha":1.0,"LC":"5:0.640268,9:0.181827,13:0.177906","XMIN":712464.86160847,"YMIN":8500383.59738907,"XMAX":712564.86160847,"YMAX":8500483.59738907},"geometry":{"type":"Polygon","coordinates":[[[-73.03568660471146,-13.55725687387579],[-73.03569403102615,-13.556353176206846],[-73.0366177443859,-13.556360439634457],[-73.03661032155793,-13.557264137805452],[-73.03568660471146,-13.55725687387579]]]}},{"type":"Feature","properties":{"Cell_ID":29,"Area_ha":1.0,"LC":"5:0.730196,9:0.108680,13:0.161125","XMIN":712464.86160847,"YMIN":8500283.59738907,"XMAX":712564.86160847,"YMAX":8500383.59738907},"geometry":{"type":"Polygon","coordinates":[[[-73.03567917785486,-13.558160571475481],[-73.03568660471146,-13.55725687387579],[-73.03661032155793,-13.557264137805452],[-73.03660289818835,-13.5581678359072],[-73.03567917785486,-13.558160571475481]]]}},{"type":"Feature","properties":{"Cell_ID":30,"Area_ha":1.0,"LC":"5:0.546347,9:0.453653","XMIN":712464.86160847,"YMIN":8500183.59738907,"XMAX":712564.86160847,"YMAX":8500283.59738907},"geometry":{"type":"Polygon","coordinates":[[[-73.03567175045634,-13.559064269005917],[-73.03567917785486,-13.558160571475481],[-73.03660289818835,-13.5581678359072],[-73.03659547427709,-13.559071533939699],[-73.03567175045634,-13.559064269005917]]]}},{"type":"Feature","properties":{"Cell_ID":31,"Area_ha":1.0,"LC":"5:0.948805,9:0.051195","XMIN":712464.86160847,"YMIN":8500083.59738907,"XMAX":712564.86160847,"YMAX":8500183.59738907},"geometry":{"type":"Polygon","coordinates":[[[-73.03566432251593,-13.559967966467093],[-73.03567175045634,-13.559064269005917],[-73.03659547427709,-13.559071533939699],[-73.03658804982419,-13.55997523190294],[-73.03566432251593,-13.559967966467093]]]}},{"type":"Feature","properties":{"Cell_ID":32,"Area_ha":1.0,"LC":"5:0.261406,9:0.444941,13:0.293653","XMIN":712464.86160847,"YMIN":8499983.59738907,"XMAX":712564.86160847,"YMAX":8500083.59738907},"geometry":{"type":"Polygon","coordinates":[[[-73.03565689403358,-13.560871663859011],[-73.03566432251593,-13.559967966467093],[-73.03658804982419,-13.55997523190294],[-73.0365806248296,-13.560878929796923],[-73.03565689403358,-13.560871663859011]]]}},{"type":"Feature","properties":{"Cell_ID":33,"Area_ha":1.0,"LC":"5:0.112683,9:0.160562,13:0.150225,16:0.576529","XMIN":712464.86160847,"YMIN":8499883.59738907,"XMAX":712564.86160847,"YMAX":8499983.59738907},"geometry":{"type":"Polygon","coordinates":[[[-73.03564946500927,-13.561775361181656],[-73.03565689403358,-13.560871663859011],[-73.0365806248296,-13.560878929796923],[-73.03657319929333,-13.561782627621643],[-73.03564946500927,-13.561775361181656]]]}},{"type":"Feature","properties":{"Cell_ID":34,"Area_ha":1.0,"LC":"5:0.949789,9:0.009649,16:0.040562","XMIN":712464.86160847,"YMIN":8499783.59738907,"XMAX":712564.86160847,"YMAX":8499883.59738907},"geometry":{"type":"Polygon","coordinates":[[[-73.03564203544303,-13.562679058435032],[-73.03564946500927,-13.561775361181656],[-73.03657319929333,-13.561782627621643],[-73.03656577321536,-13.56268632537709],[-73.03564203544303,-13.562679058435032]]]}},{"type":"Feature","properties":{"Cell_ID":35,"Area_ha":1.0,"LC":"5:1.000000","XMIN":712464.86160847,"YMIN":8499683.59738907,"XMAX":712564.86160847,"YMAX":8499783.59738907},"geometry":{"type":"Polygon","coordinates":[[[-73.03563460533483,-13.563582755619128],[-73.03564203544303,-13.562679058435032],[-73.03656577321536,-13.56268632537709],[-73.03655834659568,-13.563590023063266],[-73.03563460533483,-13.563582755619128]]]}},{"type":"Feature","properties":{"Cell_ID":36,"Area_ha":1.0,"LC":"5:0.803401","XMIN":712464.86160847,"YMIN":8499583.59738907,"XMAX":712564.86160847,"YMAX":8499683.59738907},"geometry":{"type":"Polygon","coordinates":[[[-73.03562717468466,-13.564486452733945],[-73.03563460533483,-13.563582755619128],[-73.03655834659568,-13.563590023063266],[-73.03655091943429,-13.564493720680167],[-73.03562717468466,-13.564486452733945]]]}},{"type":"Feature","properties":{"Cell_ID":37,"Area_ha":1.0,"LC":"5:0.030913,9:0.185222,13:0.433934,16:0.149930,18:0.200000","XMIN":712564.86160847,"YMIN":8501083.59738907,"XMAX":712664.86160847,"YMAX":8501183.59738907},"geometry":{"type":"Polygon","coordinates":[[[-73.0348148856322,-13.550923724913929],[-73.03482231163882,-13.550020027262619],[-73.03574600005662,-13.550027290585597],[-73.03573857753496,-13.550930988739175],[-73.0348148856322,-13.550923724913929]]]}},{"type":"Feature","properties":{"Cell_ID":38,"Area_ha":1.0,"LC":"5:0.041939,9:0.347991,13:0.030913,14:0.226599,18:0.352557","XMIN":712564.86160847,"YMIN":8500983.59738907,"XMAX":712664.86160847,"YMAX":8501083.59738907},"geometry":{"type":"Polygon","coordinates":[[[-73.03480745908348,-13.551827422496018],[-73.0348148856322,-13.550923724913929],[-73.03573857753496,-13.550930988739175],[-73.03573115447145,-13.551834686823529],[-73.03480745908348,-13.551827422496018]]]}},{"type":"Feature","properties":{"Cell_ID":39,"Area_ha":1.0,"LC":"9:0.305222,14:0.663864,18:0.030913","XMIN":712564.86160847,"YMIN":8500883.59738907,"XMAX":712664.86160847,"YMAX":8500983.59738907},"geometry":{"type":"Polygon","coordinates":[[[-73.03480003199267,-13.552731120008875],[-73.03480745908348,-13.551827422496018],[-73.03573115447145,-13.551834686823529],[-73.03572373086612,-13.552738384838657],[-73.03480003199267,-13.552731120008875]]]}},{"type":"Feature","properties":{"Cell_ID":40,"Area_ha":1.0,"LC":"9:0.157373,14:0.842627","XMIN":712564.86160847,"YMIN":8500783.59738907,"XMAX":712664.86160847,"YMAX":8500883.59738907},"geometry":{"type":"Polygon","coordinates":[[[-73.03479260435977,-13.553634817452505],[-73.03480003199267,-13.552731120008875],[-73.03572373086612,-13.552738384838657],[-73.03571630671894,-13.55364208278456],[-73.03479260435977,-13.553634817452505]]]}},{"type":"Feature","properties":{"Cell_ID":41,"Area_ha":1.0,"LC":"9:0.306178,14:0.693822","XMIN":712564.86160847,"YMIN":8500683.59738907,"XMAX":712664.86160847,"YMAX":8500783.59738907},"geometry":{"type":"Polygon","coordinates":[[[-73.03478517618474,-13.554538514826895],[-73.03479260435977,-13.553634817452505],[-73.03571630671894,-13.55364208278456],[-73.03570888202987,-13.554545780661227],[-73.03478517618474,-13.554538514826895]]]}},{"type":"Feature","properties":{"Cell_ID":42,"Area_ha":1.0,"LC":"9:0.168005,14:0.831995","XMIN":712564.86160847,"YMIN":8500583.59738907,"XMAX":712664.86160847,"YMAX":8500683.59738907},"geometry":{"type":"Polygon","coordinates":[[[-73.03477774746759,-13.555442212132043],[-73.03478517618474,-13.554538514826895],[-73.03570888202987,-13.554545780661227],[-73.03570145679896,-13.555449478468656],[-73.03477774746759,-13.555442212132043]]]}},{"type":"Feature","properties":{"Cell_ID":43,"Area_ha":1.0,"LC":"9:0.378468,14:0.293696,17:0.327836","XMIN":712564.86160847,"YMIN":8500483.59738907,"XMAX":712664.86160847,"YMAX":8500583.59738907},"geometry":{"type":"Polygon","coordinates":[[[-73.0347703182083,-13.556345909367943],[-73.03477774746759,-13.555442212132043],[-73.03570145679896,-13.555449478468656],[-73.03569403102615,-13.556353176206846],[-73.0347703182083,-13.556345909367943]]]}},{"type":"Feature","properties":{"Cell_ID":44,"Area_ha":1.0,"LC":"5:0.698594,9:0.250211,17:0.051195","XMIN":712564.86160847,"YMIN":8500383.59738907,"XMAX":712664.86160847,"YMAX":8500483.59738907},"geometry":{"type":"Polygon","coordinates":[[[-73.03476288840687,-13.557249606534599],[-73.0347703182083,-13.556345909367943],[-73.03569403102615,-13.556353176206846],[-73.03568660471146,-13.55725687387579],[-73.03476288840687,-13.557249606534599]]]}},{"type":"Feature","properties":{"Cell_ID":45,"Area_ha":1.0,"LC":"5:1.000000","XMIN":712564.86160847,"YMIN":8500283.59738907,"XMAX":712664.86160847,"YMAX":8500383.59738907},"geometry":{"type":"Polygon","coordinates":[[[-73.03475545806327,-13.558153303631999],[-73.03476288840687,-13.557249606534599],[-73.03568660471146,-13.55725687387579],[-73.03567917785486,-13.558160571475481],[-73.03475545806327,-13.558153303631999]]]}},{"type":"Feature","properties":{"Cell_ID":46,"Area_ha":1.0,"LC":"5:0.774778,9:0.225222","XMIN":712564.86160847,"YMIN":8500183.59738907,"XMAX":712664.86160847,"YMAX":8500283.59738907},"geometry":{"type":"Polygon","coordinates":[[[-73.03474802717753,-13.559057000660138],[-73.03475545806327,-13.558153303631999],[-73.03567917785486,-13.558160571475481],[-73.03567175045634,-13.559064269005917],[-73.03474802717753,-13.559057000660138]]]}},{"type":"Feature","properties":{"Cell_ID":47,"Area_ha":1.0,"LC":"5:0.779325,9:0.129649,13:0.091026","XMIN":712564.86160847,"YMIN":8500083.59738907,"XMAX":712664.86160847,"YMAX":8500183.59738907},"geometry":{"type":"Polygon","coordinates":[[[-73.0347405957496,-13.559960697619015],[-73.03474802717753,-13.559057000660138],[-73.03567175045634,-13.559064269005917],[-73.03566432251593,-13.559967966467093],[-73.0347405957496,-13.559960697619015]]]}},{"type":"Feature","properties":{"Cell_ID":48,"Area_ha":1.0,"LC":"5:0.320956,9:0.379719,13:0.299325","XMIN":712564.86160847,"YMIN":8499983.59738907,"XMAX":712664.86160847,"YMAX":8500083.59738907},"geometry":{"type":"Polygon","coordinates":[[[-73.03473316377948,-13.560864394508627],[-73.0347405957496,-13.559960697619015],[-73.03566432251593,-13.559967966467093],[-73.03565689403358,-13.560871663859011],[-73.03473316377948,-13.560864394508627]]]}},{"type":"Feature","properties":{"Cell_ID":49,"Area_ha":1.0,"LC":"5:0.890758,9:0.099593,13:0.009649","XMIN":712564.86160847,"YMIN":8499883.59738907,"XMAX":712664.86160847,"YMAX":8499983.59738907},"geometry":{"type":"Polygon","coordinates":[[[-73.03472573126719,-13.561768091328966],[-73.03473316377948,-13.560864394508627],[-73.03565689403358,-13.560871663859011],[-73.03564946500927,-13.561775361181656],[-73.03472573126719,-13.561768091328966]]]}},{"type":"Feature","properties":{"Cell_ID":50,"Area_ha":1.0,"LC":"5:1.000000","XMIN":712564.86160847,"YMIN":8499783.59738907,"XMAX":712664.86160847,"YMAX":8499883.59738907},"geometry":{"type":"Polygon","coordinates":[[[-73.03471829821267,-13.562671788080028],[-73.03472573126719,-13.561768091328966],[-73.03564946500927,-13.561775361181656],[-73.03564203544303,-13.562679058435032],[-73.03471829821267,-13.562671788080028]]]}},{"type":"Feature","properties":{"Cell_ID":51,"Area_ha":1.0,"LC":"5:1.000000","XMIN":712564.86160847,"YMIN":8499683.59738907,"XMAX":712664.86160847,"YMAX":8499783.59738907},"geometry":{"type":"Polygon","coordinates":[[[-73.03471086461595,-13.563575484761813],[-73.03471829821267,-13.562671788080028],[-73.03564203544303,-13.562679058435032],[-73.03563460533483,-13.563582755619128],[-73.03471086461595,-13.563575484761813]]]}},{"type":"Feature","properties":{"Cell_ID":52,"Area_ha":1.0,"LC":"5:0.029100,9:0.211195,13:0.390744,14:0.203190,16:0.009649,18:0.156122","XMIN":712664.86160847,"YMIN":8501183.59738907,"XMAX":712764.86160847,"YMAX":8501283.59738907},"geometry":{"type":"Polygon","coordinates":[[[-73.0338986237631,-13.550012760530006],[-73.03390605271234,-13.549109063311972],[-73.03482973710337,-13.549116329542088],[-73.03482231163882,-13.550020027262619],[-73.0338986237631,-13.550012760530006]]]}},{"type":"Feature","properties":{"Cell_ID":53,"Area_ha":1.0,"LC":"5:0.209649,13:0.790351","XMIN":712664.86160847,"YMIN":8501083.59738907,"XMAX":712764.86160847,"YMAX":8501183.59738907},"geometry":{"type":"Polygon","coordinates":[[[-73.03389119427152,-13.55091645767882],[-73.0338986237631,-13.550012760530006],[-73.03482231163882,-13.550020027262619],[-73.0348148856322,-13.550923724913929],[-73.03389119427152,-13.55091645767882]]]}},{"type":"Feature","properties":{"Cell_ID":54,"Area_ha":1.0,"LC":"5:0.138342,13:0.535340,18:0.326318","XMIN":712664.86160847,"YMIN":8500983.59738907,"XMAX":712764.86160847,"YMAX":8501083.59738907},"geometry":{"type":"Polygon","coordinates":[[[-73.0338837642376,-13.551820154758408],[-73.03389119427152,-13.55091645767882],[-73.0348148856322,-13.550923724913929],[-73.03480745908348,-13.551827422496018],[-73.0338837642376,-13.551820154758408]]]}},{"type":"Feature","properties":{"Cell_ID":55,"Area_ha":1.0,"LC":"13:0.010632,14:0.616655,18:0.372713","XMIN":712664.86160847,"YMIN":8500883.59738907,"XMAX":712764.86160847,"YMAX":8500983.59738907},"geometry":{"type":"Polygon","coordinates":[[[-73.03387633366135,-13.552723851768755],[-73.0338837642376,-13.551820154758408],[-73.03480745908348,-13.551827422496018],[-73.03480003199267,-13.552731120008875],[-73.03387633366135,-13.552723851768755]]]}},{"type":"Feature","properties":{"Cell_ID":56,"Area_ha":1.0,"LC":"9:0.091026,14:0.908974","XMIN":712664.86160847,"YMIN":8500783.59738907,"XMAX":712764.86160847,"YMAX":8500883.59738907},"geometry":{"type":"Polygon","coordinates":[[[-73.03386890254272,-13.553627548709875],[-73.03387633366135,-13.552723851768755],[-73.03480003199267,-13.552731120008875],[-73.03479260435977,-13.553634817452505],[-73.03386890254272,-13.553627548709875]]]}},{"type":"Feature","properties":{"Cell_ID":57,"Area_ha":1.0,"LC":"9:0.312416,14:0.687584","XMIN":712664.86160847,"YMIN":8500683.59738907,"XMAX":712764.86160847,"YMAX":8500783.59738907},"geometry":{"type":"Polygon","coordinates":[[[-73.03386147088173,-13.55453124558175],[-73.03386890254272,-13.553627548709875],[-73.03479260435977,-13.553634817452505],[-73.03478517618474,-13.554538514826895],[-73.03386147088173,-13.55453124558175]]]}},{"type":"Feature","properties":{"Cell_ID":58,"Area_ha":1.0,"LC":"5:0.049775,9:0.259467,14:0.690758","XMIN":712664.86160847,"YMIN":8500583.59738907,"XMAX":712764.86160847,"YMAX":8500683.59738907},"geometry":{"type":"Polygon","coordinates":[[[-73.03385403867836,-13.55543494238438],[-73.03386147088173,-13.55453124558175],[-73.03478517618474,-13.554538514826895],[-73.03477774746759,-13.555442212132043],[-73.03385403867836,-13.55543494238438]]]}},{"type":"Feature","properties":{"Cell_ID":59,"Area_ha":1.0,"LC":"5:0.051195,9:0.200000,14:0.450211,17:0.298594","XMIN":712664.86160847,"YMIN":8500483.59738907,"XMAX":712764.86160847,"YMAX":8500583.59738907},"geometry":{"type":"Polygon","coordinates":[[[-73.0338466059326,-13.55633863911776],[-73.03385403867836,-13.55543494238438],[-73.03477774746759,-13.555442212132043],[-73.0347703182083,-13.556345909367943],[-73.0338466059326,-13.55633863911776]]]}},{"type":"Feature","properties":{"Cell_ID":60,"Area_ha":1.0,"LC":"5:0.639438,9:0.200000,13:0.059156,17:0.101406","XMIN":712664.86160847,"YMIN":8500383.59738907,"XMAX":712764.86160847,"YMAX":8500483.59738907},"geometry":{"type":"Polygon","coordinates":[[[-73.03383917264443,-13.557242335781892],[-73.0338466059326,-13.55633863911776],[-73.0347703182083,-13.556345909367943],[-73.03476288840687,-13.557249606534599],[-73.03383917264443,-13.557242335781892]]]}},{"type":"Feature","properties":{"Cell_ID":61,"Area_ha":1.0,"LC":"5:0.657217,13:0.342783","XMIN":712664.86160847,"YMIN":8500283.59738907,"XMAX":712764.86160847,"YMAX":8500383.59738907},"geometry":{"type":"Polygon","coordinates":[[[-73.03383173881386,-13.55814603237676],[-73.03383917264443,-13.557242335781892],[-73.03476288840687,-13.557249606534599],[-73.03475545806327,-13.558153303631999],[-73.03383173881386,-13.55814603237676]]]}},{"type":"Feature","properties":{"Cell_ID":62,"Area_ha":1.0,"LC":"5:1.000000","XMIN":712664.86160847,"YMIN":8500183.59738907,"XMAX":712764.86160847,"YMAX":8500283.59738907},"geometry":{"type":"Polygon","coordinates":[[[-73.03382430444087,-13.55904972890237],[-73.03383173881386,-13.55814603237676],[-73.03475545806327,-13.558153303631999],[-73.03474802717753,-13.559057000660138],[-73.03382430444087,-13.55904972890237]]]}},{"type":"Feature","properties":{"Cell_ID":63,"Area_ha":1.0,"LC":"5:0.519186,13:0.480814","XMIN":712664.86160847,"YMIN":8500083.59738907,"XMAX":712764.86160847,"YMAX":8500183.59738907},"geometry":{"type":"Polygon","coordinates":[[[-73.03381686952545,-13.55995342535871],[-73.03382430444087,-13.55904972890237],[-73.03474802717753,-13.559057000660138],[-73.0347405957496,-13.559960697619015],[-73.03381686952545,-13.55995342535871]]]}},{"type":"Feature","properties":{"Cell_ID":64,"Area_ha":1.0,"LC":"5:0.621784,13:0.378216","XMIN":712664.86160847,"YMIN":8499983.59738907,"XMAX":712764.86160847,"YMAX":8500083.59738907},"geometry":{"type":"Polygon","coordinates":[[[-73.03380943406759,-13.56085712174578],[-73.03381686952545,-13.55995342535871],[-73.0347405957496,-13.559960697619015],[-73.03473316377948,-13.560864394508627],[-73.03380943406759,-13.56085712174578]]]}},{"type":"Feature","properties":{"Cell_ID":65,"Area_ha":1.0,"LC":"5:1.000000","XMIN":712664.86160847,"YMIN":8499883.59738907,"XMAX":712764.86160847,"YMAX":8499983.59738907},"geometry":{"type":"Polygon","coordinates":[[[-73.03380199806729,-13.561760818063577],[-73.03380943406759,-13.56085712174578],[-73.03473316377948,-13.560864394508627],[-73.03472573126719,-13.561768091328966],[-73.03380199806729,-13.561760818063577]]]}},{"type":"Feature","properties":{"Cell_ID":66,"Area_ha":1.0,"LC":"5:1.000000","XMIN":712664.86160847,"YMIN":8499783.59738907,"XMAX":712764.86160847,"YMAX":8499883.59738907},"geometry":{"type":"Polygon","coordinates":[[[-73.03379456152453,-13.562664514312097],[-73.03380199806729,-13.561760818063577],[-73.03472573126719,-13.561768091328966],[-73.03471829821267,-13.562671788080028],[-73.03379456152453,-13.562664514312097]]]}},{"type":"Feature","properties":{"Cell_ID":67,"Area_ha":1.0,"LC":"5:0.973464","XMIN":712664.86160847,"YMIN":8499683.59738907,"XMAX":712764.86160847,"YMAX":8499783.59738907},"geometry":{"type":"Polygon","coordinates":[[[-73.03378712443929,-13.563568210491326],[-73.03379456152453,-13.562664514312097],[-73.03471829821267,-13.562671788080028],[-73.03471086461595,-13.563575484761813],[-73.03378712443929,-13.563568210491326]]]}},{"type":"Feature","properties":{"Cell_ID":68,"Area_ha":1.0,"LC":"9:0.765209,13:0.234791","XMIN":712764.86160847,"YMIN":8501383.59738907,"XMAX":712864.86160847,"YMAX":8501483.59738907},"geometry":{"type":"Polygon","coordinates":[[[-73.03298980075498,-13.54819809688794],[-73.03299723210375,-13.547294400034197],[-73.03392090898386,-13.547301668668249],[-73.03391348111926,-13.548205366024714],[-73.03298980075498,-13.54819809688794]]]}},{"type":"Feature","properties":{"Cell_ID":69,"Area_ha":1.0,"LC":"9:0.630225,14:0.369775","XMIN":712764.86160847,"YMIN":8501283.59738907,"XMAX":712864.86160847,"YMAX":8501383.59738907},"geometry":{"type":"Polygon","coordinates":[[[-73.03298236886361,-13.549101793672468],[-73.03298980075498,-13.54819809688794],[-73.03391348111926,-13.548205366024714],[-73.03390605271234,-13.549109063311972],[-73.03298236886361,-13.549101793672468]]]}},{"type":"Feature","properties":{"Cell_ID":70,"Area_ha":1.0,"LC":"9:0.240956,13:0.067850,14:0.691195","XMIN":712764.86160847,"YMIN":8501183.59738907,"XMAX":712864.86160847,"YMAX":8501283.59738907},"geometry":{"type":"Polygon","coordinates":[[[-73.0329749364297,-13.550005490387774],[-73.03298236886361,-13.549101793672468],[-73.03390605271234,-13.549109063311972],[-73.0338986237631,-13.550012760530006],[-73.0329749364297,-13.550005490387774]]]}},{"type":"Feature","properties":{"Cell_ID":71,"Area_ha":1.0,"LC":"9:0.145410,13:0.854590","XMIN":712764.86160847,"YMIN":8501083.59738907,"XMAX":712864.86160847,"YMAX":8501183.59738907},"geometry":{"type":"Polygon","coordinates":[[[-73.03296750345318,-13.55090918703385],[-73.0329749364297,-13.550005490387774],[-73.0338986237631,-13.550012760530006],[-73.03389119427152,-13.55091645767882],[-73.03296750345318,-13.55090918703385]]]}},{"type":"Feature","properties":{"Cell_ID":72,"Area_ha":1.0,"LC":"9:0.052571,13:0.947429","XMIN":712764.86160847,"YMIN":8500983.59738907,"XMAX":712864.86160847,"YMAX":8501083.59738907},"geometry":{"type":"Polygon","coordinates":[[[-73.03296006993409,-13.551812883610697],[-73.03296750345318,-13.55090918703385],[-73.03389119427152,-13.55091645767882],[-73.0338837642376,-13.551820154758408],[-73.03296006993409,-13.551812883610697]]]}},{"type":"Feature","properties":{"Cell_ID":73,"Area_ha":1.0,"LC":"13:0.221406,14:0.740533,18:0.038061","XMIN":712764.86160847,"YMIN":8500883.59738907,"XMAX":712864.86160847,"YMAX":8500983.59738907},"geometry":{"type":"Polygon","coordinates":[[[-73.03295263587238,-13.552716580118304],[-73.03296006993409,-13.551812883610697],[-73.0338837642376,-13.551820154758408],[-73.03387633366135,-13.552723851768755],[-73.03295263587238,-13.552716580118304]]]}},{"type":"Feature","properties":{"Cell_ID":74,"Area_ha":1.0,"LC":"9:0.281502,14:0.718498","XMIN":712764.86160847,"YMIN":8500783.59738907,"XMAX":712864.86160847,"YMAX":8500883.59738907},"geometry":{"type":"Polygon","coordinates":[[[-73.03294520126805,-13.553620276556677],[-73.03295263587238,-13.552716580118304],[-73.03387633366135,-13.552723851768755],[-73.03386890254272,-13.553627548709875],[-73.03294520126805,-13.553620276556677]]]}},{"type":"Feature","properties":{"Cell_ID":75,"Area_ha":1.0,"LC":"9:1.000000","XMIN":712764.86160847,"YMIN":8500683.59738907,"XMAX":712864.86160847,"YMAX":8500783.59738907},"geometry":{"type":"Polygon","coordinates":[[[-73.03293776612111,-13.554523972925802],[-73.03294520126805,-13.553620276556677],[-73.03386890254272,-13.553627548709875],[-73.03386147088173,-13.55453124558175],[-73.03293776612111,-13.554523972925802]]]}},{"type":"Feature","properties":{"Cell_ID":76,"Area_ha":1.0,"LC":"5:0.331446,9:0.312432,14:0.356122","XMIN":712764.86160847,"YMIN":8500583.59738907,"XMAX":712864.86160847,"YMAX":8500683.59738907},"geometry":{"type":"Polygon","coordinates":[[[-73.03293033043153,-13.55542766922568],[-73.03293776612111,-13.554523972925802],[-73.03386147088173,-13.55453124558175],[-73.03385403867836,-13.55543494238438],[-73.03293033043153,-13.55542766922568]]]}},{"type":"Feature","properties":{"Cell_ID":77,"Area_ha":1.0,"LC":"5:0.070493,9:0.472852,14:0.158061,17:0.298594","XMIN":712764.86160847,"YMIN":8500483.59738907,"XMAX":712864.86160847,"YMAX":8500583.59738907},"geometry":{"type":"Polygon","coordinates":[[[-73.03292289419929,-13.556331365456304],[-73.03293033043153,-13.55542766922568],[-73.03385403867836,-13.55543494238438],[-73.0338466059326,-13.55633863911776],[-73.03292289419929,-13.556331365456304]]]}},{"type":"Feature","properties":{"Cell_ID":78,"Area_ha":1.0,"LC":"5:0.286192,9:0.612402,17:0.101406","XMIN":712764.86160847,"YMIN":8500383.59738907,"XMAX":712864.86160847,"YMAX":8500483.59738907},"geometry":{"type":"Polygon","coordinates":[[[-73.03291545742441,-13.557235061617671],[-73.03292289419929,-13.556331365456304],[-73.0338466059326,-13.55633863911776],[-73.03383917264443,-13.557242335781892],[-73.03291545742441,-13.557235061617671]]]}},{"type":"Feature","properties":{"Cell_ID":79,"Area_ha":1.0,"LC":"5:0.207148,9:0.353415,13:0.439438","XMIN":712764.86160847,"YMIN":8500283.59738907,"XMAX":712864.86160847,"YMAX":8500383.59738907},"geometry":{"type":"Polygon","coordinates":[[[-73.03290802010686,-13.558138757709779],[-73.03291545742441,-13.557235061617671],[-73.03383917264443,-13.557242335781892],[-73.03383173881386,-13.55814603237676],[-73.03290802010686,-13.558138757709779]]]}},{"type":"Feature","properties":{"Cell_ID":80,"Area_ha":1.0,"LC":"5:0.648005,13:0.351995","XMIN":712764.86160847,"YMIN":8500183.59738907,"XMAX":712864.86160847,"YMAX":8500283.59738907},"geometry":{"type":"Polygon","coordinates":[[[-73.03290058224664,-13.559042453732621],[-73.03290802010686,-13.558138757709779],[-73.03383173881386,-13.55814603237676],[-73.03382430444087,-13.55904972890237],[-73.03290058224664,-13.559042453732621]]]}},{"type":"Feature","properties":{"Cell_ID":81,"Area_ha":1.0,"LC":"5:0.782051,13:0.217949","XMIN":712764.86160847,"YMIN":8500083.59738907,"XMAX":712864.86160847,"YMAX":8500183.59738907},"geometry":{"type":"Polygon","coordinates":[[[-73.03289314384374,-13.559946149686189],[-73.03290058224664,-13.559042453732621],[-73.03382430444087,-13.55904972890237],[-73.03381686952545,-13.55995342535871],[-73.03289314384374,-13.559946149686189]]]}},{"type":"Feature","properties":{"Cell_ID":82,"Area_ha":1.0,"LC":"5:0.990351,13:0.009649","XMIN":712764.86160847,"YMIN":8499983.59738907,"XMAX":712864.86160847,"YMAX":8500083.59738907},"geometry":{"type":"Polygon","coordinates":[[[-73.03288570489815,-13.560849845570482],[-73.03289314384374,-13.559946149686189],[-73.03381686952545,-13.55995342535871],[-73.03380943406759,-13.56085712174578],[-73.03288570489815,-13.560849845570482]]]}},{"type":"Feature","properties":{"Cell_ID":83,"Area_ha":1.0,"LC":"5:0.928005,6:0.071995","XMIN":712764.86160847,"YMIN":8499883.59738907,"XMAX":712864.86160847,"YMAX":8499983.59738907},"geometry":{"type":"Polygon","coordinates":[[[-73.03287826540985,-13.561753541385503],[-73.03288570489815,-13.560849845570482],[-73.03380943406759,-13.56085712174578],[-73.03380199806729,-13.561760818063577],[-73.03287826540985,-13.561753541385503]]]}},{"type":"Feature","properties":{"Cell_ID":84,"Area_ha":1.0,"LC":"5:0.847148,6:0.152852","XMIN":712764.86160847,"YMIN":8499783.59738907,"XMAX":712864.86160847,"YMAX":8499883.59738907},"geometry":{"type":"Polygon","coordinates":[[[-73.03287082537885,-13.562657237131237],[-73.03287826540985,-13.561753541385503],[-73.03380199806729,-13.561760818063577],[-73.03379456152453,-13.562664514312097],[-73.03287082537885,-13.562657237131237]]]}},{"type":"Feature","properties":{"Cell_ID":85,"Area_ha":1.0,"LC":"5:0.598560","XMIN":712764.86160847,"YMIN":8499683.59738907,"XMAX":712864.86160847,"YMAX":8499783.59738907},"geometry":{"type":"Polygon","coordinates":[[[-73.03286338480511,-13.563560932807684],[-73.03287082537885,-13.562657237131237],[-73.03379456152453,-13.562664514312097],[-73.03378712443929,-13.563568210491326],[-73.03286338480511,-13.563560932807684]]]}},{"type":"Feature","properties":{"Cell_ID":86,"Area_ha":1.0,"LC":"9:0.423597,13:0.296966,14:0.279438","XMIN":712864.86160847,"YMIN":8501383.59738907,"XMAX":712964.86160847,"YMAX":8501483.59738907},"geometry":{"type":"Polygon","coordinates":[[[-73.03206612093325,-13.548190824342024],[-73.0320735557662,-13.547287127991238],[-73.03299723210375,-13.547294400034197],[-73.03298980075498,-13.54819809688794],[-73.03206612093325,-13.548190824342024]]]}},{"type":"Feature","properties":{"Cell_ID":87,"Area_ha":1.0,"LC":"9:0.317935,14:0.682065","XMIN":712864.86160847,"YMIN":8501283.59738907,"XMAX":712964.86160847,"YMAX":8501383.59738907},"geometry":{"type":"Polygon","coordinates":[[[-73.03205868555749,-13.549094520623585],[-73.03206612093325,-13.548190824342024],[-73.03298980075498,-13.54819809688794],[-73.03298236886361,-13.549101793672468],[-73.03205868555749,-13.549094520623585]]]}},{"type":"Feature","properties":{"Cell_ID":88,"Area_ha":1.0,"LC":"9:0.227850,13:0.211714,14:0.560437","XMIN":712864.86160847,"YMIN":8501183.59738907,"XMAX":712964.86160847,"YMAX":8501283.59738907},"geometry":{"type":"Polygon","coordinates":[[[-73.0320512496389,-13.549998216835926],[-73.03205868555749,-13.549094520623585],[-73.03298236886361,-13.549101793672468],[-73.0329749364297,-13.550005490387774],[-73.0320512496389,-13.549998216835926]]]}},{"type":"Feature","properties":{"Cell_ID":89,"Area_ha":1.0,"LC":"9:0.784927,13:0.215073","XMIN":712864.86160847,"YMIN":8501083.59738907,"XMAX":712964.86160847,"YMAX":8501183.59738907},"geometry":{"type":"Polygon","coordinates":[[[-73.03204381317745,-13.55090191297903],[-73.0320512496389,-13.549998216835926],[-73.0329749364297,-13.550005490387774],[-73.03296750345318,-13.55090918703385],[-73.03204381317745,-13.55090191297903]]]}},{"type":"Feature","properties":{"Cell_ID":90,"Area_ha":1.0,"LC":"5:0.201939,9:0.611462,13:0.047443,14:0.139156","XMIN":712864.86160847,"YMIN":8500983.59738907,"XMAX":712964.86160847,"YMAX":8501083.59738907},"geometry":{"type":"Polygon","coordinates":[[[-73.03203637617317,-13.551805609052904],[-73.03204381317745,-13.55090191297903],[-73.03296750345318,-13.55090918703385],[-73.03296006993409,-13.551812883610697],[-73.03203637617317,-13.551805609052904]]]}},{"type":"Feature","properties":{"Cell_ID":91,"Area_ha":1.0,"LC":"9:0.464285,13:0.009649,14:0.526066","XMIN":712864.86160847,"YMIN":8500883.59738907,"XMAX":712964.86160847,"YMAX":8500983.59738907},"geometry":{"type":"Polygon","coordinates":[[[-73.03202893862601,-13.552709305057533],[-73.03203637617317,-13.551805609052904],[-73.03296006993409,-13.551812883610697],[-73.03295263587238,-13.552716580118304],[-73.03202893862601,-13.552709305057533]]]}},{"type":"Feature","properties":{"Cell_ID":92,"Area_ha":1.0,"LC":"9:0.970070,14:0.029930","XMIN":712864.86160847,"YMIN":8500783.59738907,"XMAX":712964.86160847,"YMAX":8500883.59738907},"geometry":{"type":"Polygon","coordinates":[[[-73.032021500536,-13.553613000992923],[-73.03202893862601,-13.552709305057533],[-73.03295263587238,-13.552716580118304],[-73.03294520126805,-13.553620276556677],[-73.032021500536,-13.553613000992923]]]}},{"type":"Feature","properties":{"Cell_ID":93,"Area_ha":1.0,"LC":"9:0.676122,13:0.323878","XMIN":712864.86160847,"YMIN":8500683.59738907,"XMAX":712964.86160847,"YMAX":8500783.59738907},"geometry":{"type":"Polygon","coordinates":[[[-73.03201406190311,-13.554516696859064],[-73.032021500536,-13.553613000992923],[-73.03294520126805,-13.553620276556677],[-73.03293776612111,-13.554523972925802],[-73.03201406190311,-13.554516696859064]]]}},{"type":"Feature","properties":{"Cell_ID":94,"Area_ha":1.0,"LC":"5:0.057092,9:0.851883,17:0.091026","XMIN":712864.86160847,"YMIN":8500583.59738907,"XMAX":712964.86160847,"YMAX":8500683.59738907},"geometry":{"type":"Polygon","coordinates":[[[-73.03200662272732,-13.55542039265595],[-73.03201406190311,-13.554516696859064],[-73.03293776612111,-13.554523972925802],[-73.03293033043153,-13.55542766922568],[-73.03200662272732,-13.55542039265595]]]}},{"type":"Feature","properties":{"Cell_ID":95,"Area_ha":1.0,"LC":"9:0.578736,17:0.421264","XMIN":712864.86160847,"YMIN":8500483.59738907,"XMAX":712964.86160847,"YMAX":8500583.59738907},"geometry":{"type":"Polygon","coordinates":[[[-73.03199918300864,-13.556324088383583],[-73.03200662272732,-13.55542039265595],[-73.03293033043153,-13.55542766922568],[-73.03292289419929,-13.556331365456304],[-73.03199918300864,-13.556324088383583]]]}},{"type":"Feature","properties":{"Cell_ID":96,"Area_ha":1.0,"LC":"9:0.938075,14:0.052276,17:0.009649","XMIN":712864.86160847,"YMIN":8500383.59738907,"XMAX":712964.86160847,"YMAX":8500483.59738907},"geometry":{"type":"Polygon","coordinates":[[[-73.03199174274704,-13.557227784041956],[-73.03199918300864,-13.556324088383583],[-73.03292289419929,-13.556331365456304],[-73.03291545742441,-13.557235061617671],[-73.03199174274704,-13.557227784041956]]]}},{"type":"Feature","properties":{"Cell_ID":97,"Area_ha":1.0,"LC":"5:0.109100,9:0.448835,13:0.237499,14:0.204566","XMIN":712864.86160847,"YMIN":8500283.59738907,"XMAX":712964.86160847,"YMAX":8500383.59738907},"geometry":{"type":"Polygon","coordinates":[[[-73.03198430194254,-13.558131479631061],[-73.03199174274704,-13.557227784041956],[-73.03291545742441,-13.557235061617671],[-73.03290802010686,-13.558138757709779],[-73.03198430194254,-13.558131479631061]]]}},{"type":"Feature","properties":{"Cell_ID":98,"Area_ha":1.0,"LC":"5:0.387429,13:0.307724,14:0.304847","XMIN":712864.86160847,"YMIN":8500183.59738907,"XMAX":712964.86160847,"YMAX":8500283.59738907},"geometry":{"type":"Polygon","coordinates":[[[-73.03197686059511,-13.5590351751509],[-73.03198430194254,-13.558131479631061],[-73.03290802010686,-13.558138757709779],[-73.03290058224664,-13.559042453732621],[-73.03197686059511,-13.5590351751509]]]}},{"type":"Feature","properties":{"Cell_ID":99,"Area_ha":1.0,"LC":"5:0.485504,9:0.079438,13:0.149930,14:0.285129","XMIN":712864.86160847,"YMIN":8500083.59738907,"XMAX":712964.86160847,"YMAX":8500183.59738907},"geometry":{"type":"Polygon","coordinates":[[[-73.03196941870473,-13.559938870601462],[-73.03197686059511,-13.5590351751509],[-73.03290058224664,-13.559042453732621],[-73.03289314384374,-13.559946149686189],[-73.03196941870473,-13.559938870601462]]]}},{"type":"Feature","properties":{"Cell_ID":100,"Area_ha":1.0,"LC":"5:0.495153,6:0.099719,9:0.373527,14:0.031602","XMIN":712864.86160847,"YMIN":8499983.59738907,"XMAX":712964.86160847,"YMAX":8500083.59738907},"geometry":{"type":"Polygon","coordinates":[[[-73.03196197627142,-13.560842565982746],[-73.03196941870473,-13.559938870601462],[-73.03289314384374,-13.559946149686189],[-73.03288570489815,-13.560849845570482],[-73.03196197627142,-13.560842565982746]]]}},{"type":"Feature","properties":{"Cell_ID":101,"Area_ha":1.0,"LC":"5:0.307991,6:0.387161,9:0.304847","XMIN":712864.86160847,"YMIN":8499883.59738907,"XMAX":712964.86160847,"YMAX":8499983.59738907},"geometry":{"type":"Polygon","coordinates":[[[-73.03195453329513,-13.561746261294749],[-73.03196197627142,-13.560842565982746],[-73.03288570489815,-13.560849845570482],[-73.03287826540985,-13.561753541385503],[-73.03195453329513,-13.561746261294749]]]}},{"type":"Feature","properties":{"Cell_ID":102,"Area_ha":1.0,"LC":"5:0.533545,6:0.328273,9:0.112852","XMIN":712864.86160847,"YMIN":8499783.59738907,"XMAX":712964.86160847,"YMAX":8499883.59738907},"geometry":{"type":"Polygon","coordinates":[[[-73.03194708977588,-13.562649956537465],[-73.03195453329513,-13.561746261294749],[-73.03287826540985,-13.561753541385503],[-73.03287082537885,-13.562657237131237],[-73.03194708977588,-13.562649956537465]]]}},{"type":"Feature","properties":{"Cell_ID":103,"Area_ha":1.0,"LC":"9:0.619424,13:0.214384,14:0.166192","XMIN":712964.86160847,"YMIN":8501283.59738907,"XMAX":713064.86160847,"YMAX":8501383.59738907},"geometry":{"type":"Polygon","coordinates":[[[-73.03113500279417,-13.549087244165337],[-73.03114244165437,-13.548183548386973],[-73.03206612093325,-13.548190824342024],[-73.03205868555749,-13.549094520623585],[-73.03113500279417,-13.549087244165337]]]}},{"type":"Feature","properties":{"Cell_ID":104,"Area_ha":1.0,"LC":"9:0.293822,13:0.438187,14:0.267991","XMIN":712964.86160847,"YMIN":8501183.59738907,"XMAX":713064.86160847,"YMAX":8501283.59738907},"geometry":{"type":"Polygon","coordinates":[[[-73.03112756339091,-13.549990939874471],[-73.03113500279417,-13.549087244165337],[-73.03205868555749,-13.549094520623585],[-73.0320512496389,-13.549998216835926],[-73.03112756339091,-13.549990939874471]]]}},{"type":"Feature","properties":{"Cell_ID":105,"Area_ha":1.0,"LC":"9:0.450632,13:0.549368","XMIN":712964.86160847,"YMIN":8501083.59738907,"XMAX":713064.86160847,"YMAX":8501183.59738907},"geometry":{"type":"Polygon","coordinates":[[[-73.03112012344457,-13.550894635514371],[-73.03112756339091,-13.549990939874471],[-73.0320512496389,-13.549998216835926],[-73.03204381317745,-13.55090191297903],[-73.03112012344457,-13.550894635514371]]]}},{"type":"Feature","properties":{"Cell_ID":106,"Area_ha":1.0,"LC":"5:0.157499,9:0.689087,13:0.153415","XMIN":712964.86160847,"YMIN":8500983.59738907,"XMAX":713064.86160847,"YMAX":8501083.59738907},"geometry":{"type":"Polygon","coordinates":[[[-73.03111268295511,-13.551798331085037],[-73.03112012344457,-13.550894635514371],[-73.03204381317745,-13.55090191297903],[-73.03203637617317,-13.551805609052904],[-73.03111268295511,-13.551798331085037]]]}},{"type":"Feature","properties":{"Cell_ID":107,"Area_ha":1.0,"LC":"5:0.260281,9:0.739719","XMIN":712964.86160847,"YMIN":8500883.59738907,"XMAX":713064.86160847,"YMAX":8500983.59738907},"geometry":{"type":"Polygon","coordinates":[[[-73.03110524192252,-13.55270202658645],[-73.03111268295511,-13.551798331085037],[-73.03203637617317,-13.551805609052904],[-73.03202893862601,-13.552709305057533],[-73.03110524192252,-13.55270202658645]]]}},{"type":"Feature","properties":{"Cell_ID":108,"Area_ha":1.0,"LC":"5:0.111307,9:0.745785,14:0.142908","XMIN":712964.86160847,"YMIN":8500783.59738907,"XMAX":713064.86160847,"YMAX":8500883.59738907},"geometry":{"type":"Polygon","coordinates":[[[-73.03109780034683,-13.553605722018624],[-73.03110524192252,-13.55270202658645],[-73.03202893862601,-13.552709305057533],[-73.032021500536,-13.553613000992923],[-73.03109780034683,-13.553605722018624]]]}},{"type":"Feature","properties":{"Cell_ID":109,"Area_ha":1.0,"LC":"5:0.112852,9:0.099593,13:0.375841,18:0.411714","XMIN":712964.86160847,"YMIN":8500683.59738907,"XMAX":713064.86160847,"YMAX":8500783.59738907},"geometry":{"type":"Polygon","coordinates":[[[-73.031090358228,-13.554509417381544],[-73.03109780034683,-13.553605722018624],[-73.032021500536,-13.553613000992923],[-73.03201406190311,-13.554516696859064],[-73.031090358228,-13.554509417381544]]]}},{"type":"Feature","properties":{"Cell_ID":110,"Area_ha":1.0,"LC":"9:0.087022,13:0.462220,17:0.298594,18:0.152164","XMIN":712964.86160847,"YMIN":8500583.59738907,"XMAX":713064.86160847,"YMAX":8500683.59738907},"geometry":{"type":"Polygon","coordinates":[[[-73.03108291556603,-13.555413112675208],[-73.031090358228,-13.554509417381544],[-73.03201406190311,-13.554516696859064],[-73.03200662272732,-13.55542039265595],[-73.03108291556603,-13.555413112675208]]]}},{"type":"Feature","properties":{"Cell_ID":111,"Area_ha":1.0,"LC":"9:0.587287,13:0.052276,17:0.360437","XMIN":712964.86160847,"YMIN":8500483.59738907,"XMAX":713064.86160847,"YMAX":8500583.59738907},"geometry":{"type":"Polygon","coordinates":[[[-73.0310754723609,-13.55631680789961],[-73.03108291556603,-13.555413112675208],[-73.03200662272732,-13.55542039265595],[-73.03199918300864,-13.556324088383583],[-73.0310754723609,-13.55631680789961]]]}},{"type":"Feature","properties":{"Cell_ID":112,"Area_ha":1.0,"LC":"9:0.680956,13:0.031602,14:0.287443","XMIN":712964.86160847,"YMIN":8500383.59738907,"XMAX":713064.86160847,"YMAX":8500483.59738907},"geometry":{"type":"Polygon","coordinates":[[[-73.03106802861261,-13.557220503054747],[-73.0310754723609,-13.55631680789961],[-73.03199918300864,-13.556324088383583],[-73.03199174274704,-13.557227784041956],[-73.03106802861261,-13.557220503054747]]]}},{"type":"Feature","properties":{"Cell_ID":113,"Area_ha":1.0,"LC":"9:0.841939,13:0.062908,14:0.095153","XMIN":712964.86160847,"YMIN":8500283.59738907,"XMAX":713064.86160847,"YMAX":8500383.59738907},"geometry":{"type":"Polygon","coordinates":[[[-73.03106058432114,-13.558124198140618],[-73.03106802861261,-13.557220503054747],[-73.03199174274704,-13.557227784041956],[-73.03198430194254,-13.558131479631061],[-73.03106058432114,-13.558124198140618]]]}},{"type":"Feature","properties":{"Cell_ID":114,"Area_ha":1.0,"LC":"7:0.161939,9:0.742908,14:0.095153","XMIN":712964.86160847,"YMIN":8500183.59738907,"XMAX":713064.86160847,"YMAX":8500283.59738907},"geometry":{"type":"Polygon","coordinates":[[[-73.0310531394865,-13.559027893157214],[-73.03106058432114,-13.558124198140618],[-73.03198430194254,-13.558131479631061],[-73.03197686059511,-13.5590351751509],[-73.0310531394865,-13.559027893157214]]]}},{"type":"Feature","properties":{"Cell_ID":115,"Area_ha":1.0,"LC":"3:0.059719,7:0.271995,9:0.373696,14:0.294590","XMIN":712964.86160847,"YMIN":8500083.59738907,"XMAX":713064.86160847,"YMAX":8500183.59738907},"geometry":{"type":"Polygon","coordinates":[[[-73.03104569410867,-13.559931588104536],[-73.0310531394865,-13.559027893157214],[-73.03197686059511,-13.5590351751509],[-73.03196941870473,-13.559938870601462],[-73.03104569410867,-13.559931588104536]]]}},{"type":"Feature","properties":{"Cell_ID":116,"Area_ha":1.0,"LC":"3:0.571026,7:0.093822,9:0.066473,13:0.039438,14:0.229242","XMIN":712964.86160847,"YMIN":8499983.59738907,"XMAX":713064.86160847,"YMAX":8500083.59738907},"geometry":{"type":"Polygon","coordinates":[[[-73.03103824818763,-13.560835282982572],[-73.03104569410867,-13.559931588104536],[-73.03196941870473,-13.559938870601462],[-73.03196197627142,-13.560842565982746],[-73.03103824818763,-13.560835282982572]]]}},{"type":"Feature","properties":{"Cell_ID":117,"Area_ha":1.0,"LC":"3:0.051195,9:0.266866,13:0.600000,18:0.081939","XMIN":712964.86160847,"YMIN":8499883.59738907,"XMAX":713064.86160847,"YMAX":8499983.59738907},"geometry":{"type":"Polygon","coordinates":[[[-73.03103080172339,-13.561738977791325],[-73.03103824818763,-13.560835282982572],[-73.03196197627142,-13.560842565982746],[-73.03195453329513,-13.561746261294749],[-73.03103080172339,-13.561738977791325]]]}},{"type":"Feature","properties":{"Cell_ID":118,"Area_ha":1.0,"LC":"5:0.029922,9:0.496569,13:0.120562","XMIN":712964.86160847,"YMIN":8499783.59738907,"XMAX":713064.86160847,"YMAX":8499883.59738907},"geometry":{"type":"Polygon","coordinates":[[[-73.03102335471591,-13.562642672530787],[-73.03103080172339,-13.561738977791325],[-73.03195453329513,-13.561746261294749],[-73.03194708977588,-13.562649956537465],[-73.03102335471591,-13.562642672530787]]]}},{"type":"Feature","properties":{"Cell_ID":119,"Area_ha":1.0,"LC":"5:0.193934,6:0.030913,9:0.599312,13:0.175841","XMIN":713064.86160847,"YMIN":8501083.59738907,"XMAX":713164.86160847,"YMAX":8501183.59738907},"geometry":{"type":"Polygon","coordinates":[[[-73.03019643425478,-13.550887354639883],[-73.03020387768605,-13.549983659503424],[-73.03112756339091,-13.549990939874471],[-73.03112012344457,-13.550894635514371],[-73.03019643425478,-13.550887354639883]]]}},{"type":"Feature","properties":{"Cell_ID":120,"Area_ha":1.0,"LC":"5:0.030913,9:0.800126,13:0.168961","XMIN":713064.86160847,"YMIN":8500983.59738907,"XMAX":713164.86160847,"YMAX":8501083.59738907},"geometry":{"type":"Polygon","coordinates":[[[-73.03018899028015,-13.551791049707097],[-73.03019643425478,-13.550887354639883],[-73.03112012344457,-13.550894635514371],[-73.03111268295511,-13.551798331085037],[-73.03018899028015,-13.551791049707097]]]}},{"type":"Feature","properties":{"Cell_ID":121,"Area_ha":1.0,"LC":"9:0.820844,14:0.179156","XMIN":713064.86160847,"YMIN":8500883.59738907,"XMAX":713164.86160847,"YMAX":8500983.59738907},"geometry":{"type":"Polygon","coordinates":[[[-73.03018154576216,-13.552694744705065],[-73.03018899028015,-13.551791049707097],[-73.03111268295511,-13.551798331085037],[-73.03110524192252,-13.55270202658645],[-73.03018154576216,-13.552694744705065]]]}},{"type":"Feature","properties":{"Cell_ID":122,"Area_ha":1.0,"LC":"5:0.028412,9:0.453527,14:0.518061","XMIN":713064.86160847,"YMIN":8500783.59738907,"XMAX":713164.86160847,"YMAX":8500883.59738907},"geometry":{"type":"Polygon","coordinates":[[[-73.03017410070079,-13.553598439633783],[-73.03018154576216,-13.552694744705065],[-73.03110524192252,-13.55270202658645],[-73.03109780034683,-13.553605722018624],[-73.03017410070079,-13.553598439633783]]]}},{"type":"Feature","properties":{"Cell_ID":123,"Area_ha":1.0,"LC":"5:0.307429,9:0.072852,14:0.422783,18:0.196936","XMIN":713064.86160847,"YMIN":8500683.59738907,"XMAX":713164.86160847,"YMAX":8500783.59738907},"geometry":{"type":"Polygon","coordinates":[[[-73.03016665509602,-13.554502134493246],[-73.03017410070079,-13.553598439633783],[-73.03109780034683,-13.553605722018624],[-73.031090358228,-13.554509417381544],[-73.03016665509602,-13.554502134493246]]]}},{"type":"Feature","properties":{"Cell_ID":124,"Area_ha":1.0,"LC":"5:0.020281,9:0.081939,13:0.078061,17:0.479563,18:0.340155","XMIN":713064.86160847,"YMIN":8500583.59738907,"XMAX":713164.86160847,"YMAX":8500683.59738907},"geometry":{"type":"Polygon","coordinates":[[[-73.03015920894788,-13.555405829283448],[-73.03016665509602,-13.554502134493246],[-73.031090358228,-13.554509417381544],[-73.03108291556603,-13.555413112675208],[-73.03015920894788,-13.555405829283448]]]}},{"type":"Feature","properties":{"Cell_ID":125,"Area_ha":1.0,"LC":"9:0.380969,13:0.286880,16:0.211714,17:0.120437","XMIN":713064.86160847,"YMIN":8500483.59738907,"XMAX":713164.86160847,"YMAX":8500583.59738907},"geometry":{"type":"Polygon","coordinates":[[[-73.03015176225631,-13.556309524004389],[-73.03015920894788,-13.555405829283448],[-73.03108291556603,-13.555413112675208],[-73.0310754723609,-13.55631680789961],[-73.03015176225631,-13.556309524004389]]]}},{"type":"Feature","properties":{"Cell_ID":126,"Area_ha":1.0,"LC":"9:0.066473,13:0.168961,16:0.764566","XMIN":713064.86160847,"YMIN":8500383.59738907,"XMAX":713164.86160847,"YMAX":8500483.59738907},"geometry":{"type":"Polygon","coordinates":[[[-73.03014431502135,-13.55721321865606],[-73.03015176225631,-13.556309524004389],[-73.0310754723609,-13.55631680789961],[-73.03106802861261,-13.557220503054747],[-73.03014431502135,-13.55721321865606]]]}},{"type":"Feature","properties":{"Cell_ID":127,"Area_ha":1.0,"LC":"7:0.273934,9:0.038061,13:0.396810,16:0.291195","XMIN":713064.86160847,"YMIN":8500283.59738907,"XMAX":713164.86160847,"YMAX":8500383.59738907},"geometry":{"type":"Polygon","coordinates":[[[-73.03013686724293,-13.558116913238457],[-73.03014431502135,-13.55721321865606],[-73.03106802861261,-13.557220503054747],[-73.03106058432114,-13.558124198140618],[-73.03013686724293,-13.558116913238457]]]}},{"type":"Feature","properties":{"Cell_ID":128,"Area_ha":1.0,"LC":"7:0.349100,9:0.337092,13:0.220281,16:0.093527","XMIN":713064.86160847,"YMIN":8500183.59738907,"XMAX":713164.86160847,"YMAX":8500283.59738907},"geometry":{"type":"Polygon","coordinates":[[[-73.03012941892109,-13.55902060775158],[-73.03013686724293,-13.558116913238457],[-73.03106058432114,-13.558124198140618],[-73.0310531394865,-13.559027893157214],[-73.03012941892109,-13.55902060775158]]]}},{"type":"Feature","properties":{"Cell_ID":129,"Area_ha":1.0,"LC":"5:0.110056,7:0.567443,9:0.127710,13:0.163190,16:0.031602","XMIN":713064.86160847,"YMIN":8500083.59738907,"XMAX":713164.86160847,"YMAX":8500183.59738907},"geometry":{"type":"Polygon","coordinates":[[[-73.0301219700558,-13.559924302195423],[-73.03012941892109,-13.55902060775158],[-73.0310531394865,-13.559027893157214],[-73.03104569410867,-13.559931588104536],[-73.0301219700558,-13.559924302195423]]]}},{"type":"Feature","properties":{"Cell_ID":130,"Area_ha":1.0,"LC":"3:0.028412,5:0.114791,7:0.837078,18:0.019719","XMIN":713064.86160847,"YMIN":8499983.59738907,"XMAX":713164.86160847,"YMAX":8500083.59738907},"geometry":{"type":"Polygon","coordinates":[[[-73.03011452064706,-13.560827996569973],[-73.0301219700558,-13.559924302195423],[-73.03104569410867,-13.559931588104536],[-73.03103824818763,-13.560835282982572],[-73.03011452064706,-13.560827996569973]]]}},{"type":"Feature","properties":{"Cell_ID":131,"Area_ha":1.0,"LC":"3:0.009649,7:0.485691,9:0.126318,18:0.378342","XMIN":713064.86160847,"YMIN":8499883.59738907,"XMAX":713164.86160847,"YMAX":8499983.59738907},"geometry":{"type":"Polygon","coordinates":[[[-73.03010707069485,-13.561731690875243],[-73.03011452064706,-13.560827996569973],[-73.03103824818763,-13.560835282982572],[-73.03103080172339,-13.561738977791325],[-73.03010707069485,-13.561731690875243]]]}},{"type":"Feature","properties":{"Cell_ID":132,"Area_ha":1.0,"LC":"9:0.980969,14:0.019031","XMIN":713164.86160847,"YMIN":8500783.59738907,"XMAX":713264.86160847,"YMAX":8500883.59738907},"geometry":{"type":"Polygon","coordinates":[[[-73.02925040159815,-13.553591153838417],[-73.02925785014517,-13.552687459413386],[-73.03018154576216,-13.552694744705065],[-73.03017410070079,-13.553598439633783],[-73.02925040159815,-13.553591153838417]]]}},{"type":"Feature","properties":{"Cell_ID":133,"Area_ha":1.0,"LC":"9:0.833120,14:0.038061,18:0.128819","XMIN":713164.86160847,"YMIN":8500683.59738907,"XMAX":713264.86160847,"YMAX":8500783.59738907},"geometry":{"type":"Polygon","coordinates":[[[-73.02924295250747,-13.554494848194187],[-73.02925040159815,-13.553591153838417],[-73.03017410070079,-13.553598439633783],[-73.03016665509602,-13.554502134493246],[-73.02924295250747,-13.554494848194187]]]}},{"type":"Feature","properties":{"Cell_ID":134,"Area_ha":1.0,"LC":"9:0.451195,17:0.498594,18:0.050211","XMIN":713164.86160847,"YMIN":8500583.59738907,"XMAX":713264.86160847,"YMAX":8500683.59738907},"geometry":{"type":"Polygon","coordinates":[[[-73.02923550287314,-13.55539854248069],[-73.02924295250747,-13.554494848194187],[-73.03016665509602,-13.554502134493246],[-73.03015920894788,-13.555405829283448],[-73.02923550287314,-13.55539854248069]]]}},{"type":"Feature","properties":{"Cell_ID":135,"Area_ha":1.0,"LC":"9:0.400000,16:0.498594,17:0.101406","XMIN":713164.86160847,"YMIN":8500483.59738907,"XMAX":713264.86160847,"YMAX":8500583.59738907},"geometry":{"type":"Polygon","coordinates":[[[-73.02922805269515,-13.556302236697931],[-73.02923550287314,-13.55539854248069],[-73.03015920894788,-13.555405829283448],[-73.03015176225631,-13.556309524004389],[-73.02922805269515,-13.556302236697931]]]}},{"type":"Feature","properties":{"Cell_ID":136,"Area_ha":1.0,"LC":"13:0.349494,16:0.650506","XMIN":713164.86160847,"YMIN":8500383.59738907,"XMAX":713264.86160847,"YMAX":8500483.59738907},"geometry":{"type":"Polygon","coordinates":[[[-73.02922060197349,-13.5572059308459],[-73.02922805269515,-13.556302236697931],[-73.03015176225631,-13.556309524004389],[-73.03014431502135,-13.55721321865606],[-73.02922060197349,-13.5572059308459]]]}},{"type":"Feature","properties":{"Cell_ID":137,"Area_ha":1.0,"LC":"7:0.085504,13:0.704847,16:0.209649","XMIN":713164.86160847,"YMIN":8500283.59738907,"XMAX":713264.86160847,"YMAX":8500383.59738907},"geometry":{"type":"Polygon","coordinates":[[[-73.02921315070816,-13.55810962492459],[-73.02922060197349,-13.5572059308459],[-73.03014431502135,-13.55721321865606],[-73.03013686724293,-13.558116913238457],[-73.02921315070816,-13.55810962492459]]]}},{"type":"Feature","properties":{"Cell_ID":138,"Area_ha":1.0,"LC":"7:0.028680,13:0.525691,16:0.445629","XMIN":713164.86160847,"YMIN":8500183.59738907,"XMAX":713264.86160847,"YMAX":8500283.59738907},"geometry":{"type":"Polygon","coordinates":[[[-73.02920569889913,-13.559013318934],[-73.02921315070816,-13.55810962492459],[-73.03013686724293,-13.558116913238457],[-73.03012941892109,-13.55902060775158],[-73.02920569889913,-13.559013318934]]]}},{"type":"Feature","properties":{"Cell_ID":139,"Area_ha":1.0,"LC":"5:0.009381,6:0.059156,13:0.208693,16:0.722769","XMIN":713164.86160847,"YMIN":8500083.59738907,"XMAX":713264.86160847,"YMAX":8500183.59738907},"geometry":{"type":"Polygon","coordinates":[[[-73.02919824654639,-13.559917012874127],[-73.02920569889913,-13.559013318934],[-73.03012941892109,-13.55902060775158],[-73.0301219700558,-13.559924302195423],[-73.02919824654639,-13.559917012874127]]]}},{"type":"Feature","properties":{"Cell_ID":140,"Area_ha":1.0,"LC":"5:0.468680,6:0.400000,7:0.009381,13:0.091026,16:0.030913","XMIN":713164.86160847,"YMIN":8499983.59738907,"XMAX":713264.86160847,"YMAX":8500083.59738907},"geometry":{"type":"Polygon","coordinates":[[[-73.02919079364996,-13.560820706744966],[-73.02919824654639,-13.559917012874127],[-73.0301219700558,-13.559924302195423],[-73.03011452064706,-13.560827996569973],[-73.02919079364996,-13.560820706744966]]]}},{"type":"Feature","properties":{"Cell_ID":141,"Area_ha":1.0,"LC":"6:0.100844,7:0.759776,13:0.112852","XMIN":713164.86160847,"YMIN":8499883.59738907,"XMAX":713264.86160847,"YMAX":8499983.59738907},"geometry":{"type":"Polygon","coordinates":[[[-73.02918334020978,-13.561724400546506],[-73.02919079364996,-13.560820706744966],[-73.03011452064706,-13.560827996569973],[-73.03010707069485,-13.561731690875243],[-73.02918334020978,-13.561724400546506]]]}},{"type":"Feature","properties":{"Cell_ID":142,"Area_ha":1.0,"LC":"9:0.778342,13:0.031602,16:0.190056","XMIN":713264.86160847,"YMIN":8500683.59738907,"XMAX":713364.86160847,"YMAX":8500783.59738907},"geometry":{"type":"Polygon","coordinates":[[[-73.02831925046256,-13.55448755848437],[-73.02832670303913,-13.553583864632527],[-73.02925040159815,-13.553591153838417],[-73.02924295250747,-13.554494848194187],[-73.02831925046256,-13.55448755848437]]]}},{"type":"Feature","properties":{"Cell_ID":143,"Area_ha":1.0,"LC":"6:0.060969,9:0.508554,16:0.133822,17:0.296655","XMIN":713264.86160847,"YMIN":8500583.59738907,"XMAX":713364.86160847,"YMAX":8500683.59738907},"geometry":{"type":"Polygon","coordinates":[[[-73.02831179734207,-13.555391252266944],[-73.02831925046256,-13.55448755848437],[-73.02924295250747,-13.554494848194187],[-73.02923550287314,-13.55539854248069],[-73.02831179734207,-13.555391252266944]]]}},{"type":"Feature","properties":{"Cell_ID":144,"Area_ha":1.0,"LC":"9:0.158061,16:0.498594,17:0.343345","XMIN":713264.86160847,"YMIN":8500483.59738907,"XMAX":713364.86160847,"YMAX":8500583.59738907},"geometry":{"type":"Polygon","coordinates":[[[-73.02830434367766,-13.556294945980245],[-73.02831179734207,-13.555391252266944],[-73.02923550287314,-13.55539854248069],[-73.02922805269515,-13.556302236697931],[-73.02830434367766,-13.556294945980245]]]}},{"type":"Feature","properties":{"Cell_ID":145,"Area_ha":1.0,"LC":"13:0.009381,16:0.990619","XMIN":713264.86160847,"YMIN":8500383.59738907,"XMAX":713364.86160847,"YMAX":8500483.59738907},"geometry":{"type":"Polygon","coordinates":[[[-73.02829688946933,-13.557198639624275],[-73.02830434367766,-13.556294945980245],[-73.02922805269515,-13.556302236697931],[-73.02922060197349,-13.5572059308459],[-73.02829688946933,-13.557198639624275]]]}},{"type":"Feature","properties":{"Cell_ID":146,"Area_ha":1.0,"LC":"13:0.574028,16:0.425972","XMIN":713264.86160847,"YMIN":8500283.59738907,"XMAX":713364.86160847,"YMAX":8500383.59738907},"geometry":{"type":"Polygon","coordinates":[[[-73.02828943471707,-13.558102333199024],[-73.02829688946933,-13.557198639624275],[-73.02922060197349,-13.5572059308459],[-73.02921315070816,-13.55810962492459],[-73.02828943471707,-13.558102333199024]]]}},{"type":"Feature","properties":{"Cell_ID":147,"Area_ha":1.0,"LC":"13:0.905490,16:0.094510","XMIN":713264.86160847,"YMIN":8500183.59738907,"XMAX":713364.86160847,"YMAX":8500283.59738907},"geometry":{"type":"Polygon","coordinates":[[[-73.02828197942085,-13.559006026704488],[-73.02828943471707,-13.558102333199024],[-73.02921315070816,-13.55810962492459],[-73.02920569889913,-13.559013318934],[-73.02828197942085,-13.559006026704488]]]}},{"type":"Feature","properties":{"Cell_ID":148,"Area_ha":1.0,"LC":"5:0.111995,13:0.821532,16:0.066473","XMIN":713264.86160847,"YMIN":8500083.59738907,"XMAX":713364.86160847,"YMAX":8500183.59738907},"geometry":{"type":"Polygon","coordinates":[[[-73.02827452358069,-13.559909720140663],[-73.02828197942085,-13.559006026704488],[-73.02920569889913,-13.559013318934],[-73.02919824654639,-13.559917012874127],[-73.02827452358069,-13.559909720140663]]]}},{"type":"Feature","properties":{"Cell_ID":149,"Area_ha":1.0,"LC":"5:0.801377,13:0.188974,16:0.009649","XMIN":713264.86160847,"YMIN":8499983.59738907,"XMAX":713364.86160847,"YMAX":8500083.59738907},"geometry":{"type":"Polygon","coordinates":[[[-73.02826706719657,-13.560813413507544],[-73.02827452358069,-13.559909720140663],[-73.02919824654639,-13.559917012874127],[-73.02919079364996,-13.560820706744966],[-73.02826706719657,-13.560813413507544]]]}},{"type":"Feature","properties":{"Cell_ID":150,"Area_ha":1.0,"LC":"5:0.172445,7:0.035784,13:0.364529","XMIN":713264.86160847,"YMIN":8499883.59738907,"XMAX":713364.86160847,"YMAX":8499983.59738907},"geometry":{"type":"Polygon","coordinates":[[[-73.02825961026846,-13.561717106805133],[-73.02826706719657,-13.560813413507544],[-73.02919079364996,-13.560820706744966],[-73.02918334020978,-13.561724400546506],[-73.02825961026846,-13.561717106805133]]]}},{"type":"Feature","properties":{"Cell_ID":151,"Area_ha":1.0,"LC":"6:0.248524,9:0.121939,16:0.487584,17:0.029100,18:0.112852","XMIN":713364.86160847,"YMIN":8500583.59738907,"XMAX":713464.86160847,"YMAX":8500683.59738907},"geometry":{"type":"Polygon","coordinates":[[[-73.0273880923549,-13.555383958642214],[-73.02739554896154,-13.554480265363807],[-73.02831925046256,-13.55448755848437],[-73.02831179734207,-13.555391252266944],[-73.0273880923549,-13.555383958642214]]]}},{"type":"Feature","properties":{"Cell_ID":152,"Area_ha":1.0,"LC":"6:0.132445,16:0.498594,17:0.368961","XMIN":713364.86160847,"YMIN":8500483.59738907,"XMAX":713464.86160847,"YMAX":8500583.59738907},"geometry":{"type":"Polygon","coordinates":[[[-73.0273806352041,-13.556287651851346],[-73.0273880923549,-13.555383958642214],[-73.02831179734207,-13.555391252266944],[-73.02830434367766,-13.556294945980245],[-73.0273806352041,-13.556287651851346]]]}},{"type":"Feature","properties":{"Cell_ID":153,"Area_ha":1.0,"LC":"16:1.000000","XMIN":713364.86160847,"YMIN":8500383.59738907,"XMAX":713464.86160847,"YMAX":8500483.59738907},"geometry":{"type":"Polygon","coordinates":[[[-73.0273731775091,-13.557191344991198],[-73.0273806352041,-13.556287651851346],[-73.02830434367766,-13.556294945980245],[-73.02829688946933,-13.557198639624275],[-73.0273731775091,-13.557191344991198]]]}},{"type":"Feature","properties":{"Cell_ID":154,"Area_ha":1.0,"LC":"16:1.000000","XMIN":713364.86160847,"YMIN":8500283.59738907,"XMAX":713464.86160847,"YMAX":8500383.59738907},"geometry":{"type":"Polygon","coordinates":[[[-73.02736571926992,-13.558095038061769],[-73.0273731775091,-13.557191344991198],[-73.02829688946933,-13.557198639624275],[-73.02828943471707,-13.558102333199024],[-73.02736571926992,-13.558095038061769]]]}},{"type":"Feature","properties":{"Cell_ID":155,"Area_ha":1.0,"LC":"5:0.059156,13:0.009381,16:0.931462","XMIN":713364.86160847,"YMIN":8500183.59738907,"XMAX":713464.86160847,"YMAX":8500283.59738907},"geometry":{"type":"Polygon","coordinates":[[[-73.02735826048655,-13.55899873106305],[-73.02736571926992,-13.558095038061769],[-73.02828943471707,-13.558102333199024],[-73.02828197942085,-13.559006026704488],[-73.02735826048655,-13.55899873106305]]]}},{"type":"Feature","properties":{"Cell_ID":156,"Area_ha":1.0,"LC":"5:0.428974,13:0.508805,16:0.062220","XMIN":713364.86160847,"YMIN":8500083.59738907,"XMAX":713464.86160847,"YMAX":8500183.59738907},"geometry":{"type":"Polygon","coordinates":[[[-73.02735080115897,-13.559902423995037],[-73.02735826048655,-13.55899873106305],[-73.02828197942085,-13.559006026704488],[-73.02827452358069,-13.559909720140663],[-73.02735080115897,-13.559902423995037]]]}},{"type":"Feature","properties":{"Cell_ID":157,"Area_ha":1.0,"LC":"5:0.572118,13:0.299969,16:0.085714","XMIN":713364.86160847,"YMIN":8499983.59738907,"XMAX":713464.86160847,"YMAX":8500083.59738907},"geometry":{"type":"Polygon","coordinates":[[[-73.02734334128716,-13.56080611685773],[-73.02735080115897,-13.559902423995037],[-73.02827452358069,-13.559909720140663],[-73.02826706719657,-13.560813413507544],[-73.02734334128716,-13.56080611685773]]]}},{"type":"Feature","properties":{"Cell_ID":158,"Area_ha":1.0,"LC":"6:0.028680,16:0.580533,17:0.390788","XMIN":713464.86160847,"YMIN":8500483.59738907,"XMAX":713564.86160847,"YMAX":8500583.59738907},"geometry":{"type":"Polygon","coordinates":[[[-73.02645692727471,-13.556280354311237],[-73.02646438791191,-13.555376661606513],[-73.0273880923549,-13.555383958642214],[-73.0273806352041,-13.556287651851346],[-73.02645692727471,-13.556280354311237]]]}}]}