{"type":"FeatureCollection","features":[{"type":"Feature","properties":{"Cell_ID":1,"Area_ha":1.0,"LC":"13:0.752907","XMIN":732114.86160847,"YMIN":8504792.4658597,"XMAX":732214.86160847,"YMAX":8504892.4658597},"geometry":{"type":"Polygon","coordinates":[[[-72.85454413420216,-13.515924968226324],[-72.8545522193835,-13.51502137070293],[-72.85547566799193,-13.515029280093675],[-72.85546758628409,-13.515932878165259],[-72.85454413420216,-13.515924968226324]]]}},{"type":"Feature","properties":{"Cell_ID":2,"Area_ha":1.0,"LC":"13:0.864667","XMIN":732114.86160847,"YMIN":8504692.4658597,"XMAX":732214.86160847,"YMAX":8504792.4658597},"geometry":{"type":"Polygon","coordinates":[[[-72.8545360484294,-13.516828565679907],[-72.85454413420216,-13.515924968226324],[-72.85546758628409,-13.515932878165259],[-72.85545950398514,-13.516836476167038],[-72.8545360484294,-13.516828565679907]]]}},{"type":"Feature","properties":{"Cell_ID":3,"Area_ha":1.0,"LC":"13:0.899156","XMIN":732114.86160847,"YMIN":8504592.4658597,"XMAX":732214.86160847,"YMAX":8504692.4658597},"geometry":{"type":"Polygon","coordinates":[[[-72.85452796206525,-13.517732163063684],[-72.8545360484294,-13.516828565679907],[-72.85545950398514,-13.516836476167038],[-72.85545142109503,-13.517740074099015],[-72.85452796206525,-13.517732163063684]]]}},{"type":"Feature","properties":{"Cell_ID":4,"Area_ha":1.0,"LC":"13:0.839591","XMIN":732114.86160847,"YMIN":8504492.4658597,"XMAX":732214.86160847,"YMAX":8504592.4658597},"geometry":{"type":"Polygon","coordinates":[[[-72.85451987510966,-13.518635760377645],[-72.85452796206525,-13.517732163063684],[-72.85545142109503,-13.517740074099015],[-72.85544333761375,-13.518643671961177],[-72.85451987510966,-13.518635760377645]]]}},{"type":"Feature","properties":{"Cell_ID":5,"Area_ha":1.0,"LC":"13:0.749182","XMIN":732114.86160847,"YMIN":8504392.4658597,"XMAX":732214.86160847,"YMAX":8504492.4658597},"geometry":{"type":"Polygon","coordinates":[[[-72.85451178756264,-13.519539357621781],[-72.85451987510966,-13.518635760377645],[-72.85544333761375,-13.518643671961177],[-72.85543525354129,-13.519547269753522],[-72.85451178756264,-13.519539357621781]]]}},{"type":"Feature","properties":{"Cell_ID":6,"Area_ha":1.0,"LC":"13:0.658805","XMIN":732114.86160847,"YMIN":8504292.4658597,"XMAX":732214.86160847,"YMAX":8504392.4658597},"geometry":{"type":"Polygon","coordinates":[[[-72.8545036994242,-13.520442954796096],[-72.85451178756264,-13.519539357621781],[-72.85543525354129,-13.519547269753522],[-72.85542716887764,-13.520450867476049],[-72.8545036994242,-13.520442954796096]]]}},{"type":"Feature","properties":{"Cell_ID":7,"Area_ha":1.0,"LC":"13:0.568463","XMIN":732114.86160847,"YMIN":8504192.4658597,"XMAX":732214.86160847,"YMAX":8504292.4658597},"geometry":{"type":"Polygon","coordinates":[[[-72.85449561069429,-13.521346551900582],[-72.8545036994242,-13.520442954796096],[-72.85542716887764,-13.520450867476049],[-72.8554190836228,-13.52135446512875],[-72.85449561069429,-13.521346551900582]]]}}]}