{"type":"FeatureCollection","features":[{"type":"Feature","properties":{"Cell_ID":1,"Area_ha":1.0,"LC":"13:0.542105,16:0.128273","XMIN":733104.86160847,"YMIN":8508143.59738907,"XMAX":733204.86160847,"YMAX":8508243.59738907},"geometry":{"type":"Polygon","coordinates":[[[-72.84567376450467,-13.485565879195214],[-72.84568186417683,-13.484662284773517],[-72.84660519066685,-13.484670209367511],[-72.84659709445958,-13.485573804339598],[-72.84567376450467,-13.485565879195214]]]}},{"type":"Feature","properties":{"Cell_ID":2,"Area_ha":1.0,"LC":"13:1.000000","XMIN":733204.86160847,"YMIN":8508643.59738907,"XMAX":733304.86160847,"YMAX":8508743.59738907},"geometry":{"type":"Polygon","coordinates":[[[-72.84479094489083,-13.48103998060729],[-72.84479904505903,-13.480136386387773],[-72.84572235363474,-13.480144311619709],[-72.8457142569302,-13.481047906389836],[-72.84479094489083,-13.48103998060729]]]}},{"type":"Feature","properties":{"Cell_ID":3,"Area_ha":1.0,"LC":"13:1.000000","XMIN":733204.86160847,"YMIN":8508543.59738907,"XMAX":733304.86160847,"YMAX":8508643.59738907},"geometry":{"type":"Polygon","coordinates":[[[-72.84478284412889,-13.481943574757128],[-72.84479094489083,-13.48103998060729],[-72.8457142569302,-13.481047906389836],[-72.84570615963213,-13.481951501090283],[-72.84478284412889,-13.481943574757128]]]}},{"type":"Feature","properties":{"Cell_ID":4,"Area_ha":1.0,"LC":"13:0.987379","XMIN":733204.86160847,"YMIN":8508443.59738907,"XMAX":733304.86160847,"YMAX":8508543.59738907},"geometry":{"type":"Polygon","coordinates":[[[-72.84477474277315,-13.482847168837282],[-72.84478284412889,-13.481943574757128],[-72.84570615963213,-13.481951501090283],[-72.84569806174055,-13.48285509572105],[-72.84477474277315,-13.482847168837282]]]}},{"type":"Feature","properties":{"Cell_ID":5,"Area_ha":1.0,"LC":"13:0.624168","XMIN":733204.86160847,"YMIN":8508343.59738907,"XMAX":733304.86160847,"YMAX":8508443.59738907},"geometry":{"type":"Polygon","coordinates":[[[-72.84476664082365,-13.483750762847743],[-72.84477474277315,-13.482847168837282],[-72.84569806174055,-13.48285509572105],[-72.84568996325547,-13.483758690282132],[-72.84476664082365,-13.483750762847743]]]}},{"type":"Feature","properties":{"Cell_ID":6,"Area_ha":1.0,"LC":"13:0.793666,16:0.206334","XMIN":733304.86160847,"YMIN":8508843.59738907,"XMAX":733404.86160847,"YMAX":8508943.59738907},"geometry":{"type":"Polygon","coordinates":[[[-72.8438838401149,-13.479224864027646],[-72.84389194255876,-13.478321270219611],[-72.8448152436142,-13.478329197739704],[-72.84480714463349,-13.479232792098575],[-72.8438838401149,-13.479224864027646]]]}},{"type":"Feature","properties":{"Cell_ID":7,"Area_ha":1.0,"LC":"13:1.000000","XMIN":733304.86160847,"YMIN":8508743.59738907,"XMAX":733404.86160847,"YMAX":8508843.59738907},"geometry":{"type":"Polygon","coordinates":[[[-72.84387573707707,-13.480128457766007],[-72.8438838401149,-13.479224864027646],[-72.84480714463349,-13.479232792098575],[-72.84479904505903,-13.480136386387773],[-72.84387573707707,-13.480128457766007]]]}},{"type":"Feature","properties":{"Cell_ID":8,"Area_ha":1.0,"LC":"13:0.694069","XMIN":733304.86160847,"YMIN":8508643.59738907,"XMAX":733404.86160847,"YMAX":8508743.59738907},"geometry":{"type":"Polygon","coordinates":[[[-72.84386763344524,-13.481032051434683],[-72.84387573707707,-13.480128457766007],[-72.84479904505903,-13.480136386387773],[-72.84479094489083,-13.48103998060729],[-72.84386763344524,-13.481032051434683]]]}},{"type":"Feature","properties":{"Cell_ID":9,"Area_ha":1.0,"LC":"13:0.663723,16:0.336277","XMIN":733404.86160847,"YMIN":8509043.59738907,"XMAX":733504.86160847,"YMAX":8509143.59738907},"geometry":{"type":"Polygon","coordinates":[[[-72.84297674741,-13.477409745983525],[-72.84298485212851,-13.476506152587211],[-72.84390814566453,-13.476514082394523],[-72.84390004440863,-13.477417676341902],[-72.84297674741,-13.477409745983525]]]}},{"type":"Feature","properties":{"Cell_ID":10,"Area_ha":1.0,"LC":"13:0.971320,16:0.028680","XMIN":733404.86160847,"YMIN":8508943.59738907,"XMAX":733504.86160847,"YMAX":8509043.59738907},"geometry":{"type":"Polygon","coordinates":[[[-72.84296864209728,-13.47831333931017],[-72.84297674741,-13.477409745983525],[-72.84390004440863,-13.477417676341902],[-72.84389194255876,-13.478321270219611],[-72.84296864209728,-13.47831333931017]]]}},{"type":"Feature","properties":{"Cell_ID":11,"Area_ha":1.0,"LC":"13:0.889848","XMIN":733404.86160847,"YMIN":8508843.59738907,"XMAX":733504.86160847,"YMAX":8508943.59738907},"geometry":{"type":"Polygon","coordinates":[[[-72.84296053619032,-13.479216932567136],[-72.84296864209728,-13.47831333931017],[-72.84389194255876,-13.478321270219611],[-72.8438838401149,-13.479224864027646],[-72.84296053619032,-13.479216932567136]]]}},{"type":"Feature","properties":{"Cell_ID":12,"Area_ha":1.0,"LC":"13:0.948805,16:0.051195","XMIN":733504.86160847,"YMIN":8509043.59738907,"XMAX":733604.86160847,"YMAX":8509143.59738907},"geometry":{"type":"Polygon","coordinates":[[[-72.84205345100561,-13.477401812236048],[-72.84206155918672,-13.47649821939103],[-72.84298485212851,-13.476506152587211],[-72.84297674741,-13.477409745983525],[-72.84205345100561,-13.477401812236048]]]}},{"type":"Feature","properties":{"Cell_ID":13,"Area_ha":1.0,"LC":"13:0.819873","XMIN":733504.86160847,"YMIN":8508943.59738907,"XMAX":733604.86160847,"YMAX":8509043.59738907},"geometry":{"type":"Polygon","coordinates":[[[-72.84204534223004,-13.478305405011392],[-72.84205345100561,-13.477401812236048],[-72.84297674741,-13.477409745983525],[-72.84296864209728,-13.47831333931017],[-72.84204534223004,-13.478305405011392]]]}},{"type":"Feature","properties":{"Cell_ID":14,"Area_ha":1.0,"LC":"13:0.527126,16:0.219918","XMIN":733604.86160847,"YMIN":8509043.59738907,"XMAX":733704.86160847,"YMAX":8509143.59738907},"geometry":{"type":"Polygon","coordinates":[[[-72.84113015519569,-13.477393875099482],[-72.84113826683938,-13.476490282805996],[-72.84206155918672,-13.47649821939103],[-72.84205345100561,-13.477401812236048],[-72.84113015519569,-13.477393875099482]]]}}]}