{"type":"FeatureCollection","features":[{"type":"Feature","properties":{"Cell_ID":1,"Area_ha":1.0,"LC":"13:1.000000","XMIN":731544.86160847,"YMIN":8505913.59738907,"XMAX":731644.86160847,"YMAX":8506013.59738907},"geometry":{"type":"Polygon","coordinates":[[[-72.85989820875753,-13.505839453621668],[-72.85990626752618,-13.504935852194663],[-72.86082968057443,-13.504943736080252],[-72.86082162527651,-13.505847338054059],[-72.85989820875753,-13.505839453621668]]]}},{"type":"Feature","properties":{"Cell_ID":2,"Area_ha":1.0,"LC":"13:0.299992,14:0.700008","XMIN":731644.86160847,"YMIN":8506213.59738907,"XMAX":731744.86160847,"YMAX":8506313.59738907},"geometry":{"type":"Polygon","coordinates":[[[-72.85899897777632,-13.503120762943523],[-72.85900703824552,-13.502217161854361],[-72.85993044029324,-13.502225047495278],[-72.85992238329402,-13.503128649131462],[-72.85899897777632,-13.503120762943523]]]}},{"type":"Feature","properties":{"Cell_ID":3,"Area_ha":1.0,"LC":"5:0.100260,9:0.163878,13:0.518771,14:0.217092","XMIN":731644.86160847,"YMIN":8506113.59738907,"XMAX":731744.86160847,"YMAX":8506213.59738907},"geometry":{"type":"Polygon","coordinates":[[[-72.85899091671708,-13.504024363962953],[-72.85899897777632,-13.503120762943523],[-72.85992238329402,-13.503128649131462],[-72.859914325705,-13.504032250697925],[-72.85899091671708,-13.504024363962953]]]}},{"type":"Feature","properties":{"Cell_ID":4,"Area_ha":1.0,"LC":"5:0.624847,13:0.375153","XMIN":731644.86160847,"YMIN":8506013.59738907,"XMAX":731744.86160847,"YMAX":8506113.59738907},"geometry":{"type":"Polygon","coordinates":[[[-72.85898285506775,-13.504927964912655],[-72.85899091671708,-13.504024363962953],[-72.859914325705,-13.504032250697925],[-72.85990626752618,-13.504935852194663],[-72.85898285506775,-13.504927964912655]]]}},{"type":"Feature","properties":{"Cell_ID":5,"Area_ha":1.0,"LC":"5:0.000710,13:0.999290","XMIN":731644.86160847,"YMIN":8505913.59738907,"XMAX":731744.86160847,"YMAX":8506013.59738907},"geometry":{"type":"Polygon","coordinates":[[[-72.85897479282836,-13.505831565792617],[-72.85898285506775,-13.504927964912655],[-72.85990626752618,-13.504935852194663],[-72.85989820875753,-13.505839453621668],[-72.85897479282836,-13.505831565792617]]]}},{"type":"Feature","properties":{"Cell_ID":6,"Area_ha":1.0,"LC":"13:1.000000","XMIN":731644.86160847,"YMIN":8505813.59738907,"XMAX":731744.86160847,"YMAX":8505913.59738907},"geometry":{"type":"Polygon","coordinates":[[[-72.8589667299989,-13.506735166602844],[-72.85897479282836,-13.505831565792617],[-72.85989820875753,-13.505839453621668],[-72.85989014939905,-13.506743054978942],[-72.8589667299989,-13.506735166602844]]]}},{"type":"Feature","properties":{"Cell_ID":7,"Area_ha":1.0,"LC":"9:0.121939,13:0.878061","XMIN":731644.86160847,"YMIN":8505713.59738907,"XMAX":731744.86160847,"YMAX":8505813.59738907},"geometry":{"type":"Polygon","coordinates":[[[-72.85895866657933,-13.507638767343328],[-72.8589667299989,-13.506735166602844],[-72.85989014939905,-13.506743054978942],[-72.85988208945072,-13.507646656266472],[-72.85895866657933,-13.507638767343328]]]}},{"type":"Feature","properties":{"Cell_ID":8,"Area_ha":1.0,"LC":"13:0.761623","XMIN":731644.86160847,"YMIN":8505613.59738907,"XMAX":731744.86160847,"YMAX":8505713.59738907},"geometry":{"type":"Polygon","coordinates":[[[-72.85895060256964,-13.508542368014064],[-72.85895866657933,-13.507638767343328],[-72.85988208945072,-13.507646656266472],[-72.85987402891254,-13.508550257484258],[-72.85895060256964,-13.508542368014064]]]}},{"type":"Feature","properties":{"Cell_ID":9,"Area_ha":1.0,"LC":"9:0.304847,13:0.695153","XMIN":731744.86160847,"YMIN":8506313.59738907,"XMAX":731844.86160847,"YMAX":8506413.59738907},"geometry":{"type":"Polygon","coordinates":[[[-72.85808363678785,-13.502209272817742],[-72.8580917001367,-13.501305672206128],[-72.85901509812467,-13.501313560695484],[-72.85900703824552,-13.502217161854361],[-72.85808363678785,-13.502209272817742]]]}},{"type":"Feature","properties":{"Cell_ID":10,"Area_ha":1.0,"LC":"5:0.201229,9:0.503056,13:0.177935,14:0.117780","XMIN":731744.86160847,"YMIN":8506213.59738907,"XMAX":731844.86160847,"YMAX":8506313.59738907},"geometry":{"type":"Polygon","coordinates":[[[-72.85807557284868,-13.503112873359639],[-72.85808363678785,-13.502209272817742],[-72.85900703824552,-13.502217161854361],[-72.85899897777632,-13.503120762943523],[-72.85807557284868,-13.503112873359639]]]}},{"type":"Feature","properties":{"Cell_ID":11,"Area_ha":1.0,"LC":"5:0.604307,9:0.395278,13:0.000134,14:0.000281","XMIN":731744.86160847,"YMIN":8506113.59738907,"XMAX":731844.86160847,"YMAX":8506213.59738907},"geometry":{"type":"Polygon","coordinates":[[[-72.8580675083192,-13.504016473831802],[-72.85807557284868,-13.503112873359639],[-72.85899897777632,-13.503120762943523],[-72.85899091671708,-13.504024363962953],[-72.8580675083192,-13.504016473831802]]]}},{"type":"Feature","properties":{"Cell_ID":12,"Area_ha":1.0,"LC":"5:0.254738,9:0.745262","XMIN":731744.86160847,"YMIN":8506013.59738907,"XMAX":731844.86160847,"YMAX":8506113.59738907},"geometry":{"type":"Polygon","coordinates":[[[-72.85805944319941,-13.504920074234231],[-72.8580675083192,-13.504016473831802],[-72.85899091671708,-13.504024363962953],[-72.85898285506775,-13.504927964912655],[-72.85805944319941,-13.504920074234231]]]}},{"type":"Feature","properties":{"Cell_ID":13,"Area_ha":1.0,"LC":"5:0.080696,9:0.345129,13:0.574175","XMIN":731744.86160847,"YMIN":8505913.59738907,"XMAX":731844.86160847,"YMAX":8506013.59738907},"geometry":{"type":"Polygon","coordinates":[[[-72.8580513774893,-13.50582367456692],[-72.85805944319941,-13.504920074234231],[-72.85898285506775,-13.504927964912655],[-72.85897479282836,-13.505831565792617],[-72.8580513774893,-13.50582367456692]]]}},{"type":"Feature","properties":{"Cell_ID":14,"Area_ha":1.0,"LC":"9:0.027264,13:0.734608","XMIN":731744.86160847,"YMIN":8505813.59738907,"XMAX":731844.86160847,"YMAX":8505913.59738907},"geometry":{"type":"Polygon","coordinates":[[[-72.85804331118884,-13.506727274829867],[-72.8580513774893,-13.50582367456692],[-72.85897479282836,-13.505831565792617],[-72.8589667299989,-13.506735166602844],[-72.85804331118884,-13.506727274829867]]]}},{"type":"Feature","properties":{"Cell_ID":15,"Area_ha":1.0,"LC":"5:0.238875,9:0.495434,13:0.265691","XMIN":731844.86160847,"YMIN":8506313.59738907,"XMAX":731944.86160847,"YMAX":8506413.59738907},"geometry":{"type":"Polygon","coordinates":[[[-72.85716023592046,-13.50220138038543],[-72.85716830273903,-13.501297780321307],[-72.8580917001367,-13.501305672206128],[-72.85808363678785,-13.502209272817742],[-72.85716023592046,-13.50220138038543]]]}},{"type":"Feature","properties":{"Cell_ID":16,"Area_ha":1.0,"LC":"5:0.661117,9:0.217225,13:0.000147,14:0.121510","XMIN":731844.86160847,"YMIN":8506213.59738907,"XMAX":731944.86160847,"YMAX":8506313.59738907},"geometry":{"type":"Polygon","coordinates":[[[-72.85715216851135,-13.503104980379822],[-72.85716023592046,-13.50220138038543],[-72.85808363678785,-13.502209272817742],[-72.85807557284868,-13.503112873359639],[-72.85715216851135,-13.503104980379822]]]}},{"type":"Feature","properties":{"Cell_ID":17,"Area_ha":1.0,"LC":"5:0.936810,14:0.063190","XMIN":731844.86160847,"YMIN":8506113.59738907,"XMAX":731944.86160847,"YMAX":8506213.59738907},"geometry":{"type":"Polygon","coordinates":[[[-72.85714410051165,-13.504008580304484],[-72.85715216851135,-13.503104980379822],[-72.85807557284868,-13.503112873359639],[-72.8580675083192,-13.504016473831802],[-72.85714410051165,-13.504008580304484]]]}},{"type":"Feature","properties":{"Cell_ID":18,"Area_ha":1.0,"LC":"5:0.260412,6:0.046856,9:0.454738,14:0.000147","XMIN":731844.86160847,"YMIN":8506013.59738907,"XMAX":731944.86160847,"YMAX":8506113.59738907},"geometry":{"type":"Polygon","coordinates":[[[-72.8571360319214,-13.504912180159407],[-72.85714410051165,-13.504008580304484],[-72.8580675083192,-13.504016473831802],[-72.85805944319941,-13.504920074234231],[-72.8571360319214,-13.504912180159407]]]}},{"type":"Feature","properties":{"Cell_ID":19,"Area_ha":1.0,"LC":"13:1.000000","XMIN":731944.86160847,"YMIN":8506413.59738907,"XMAX":732044.86160847,"YMAX":8506513.59738907},"geometry":{"type":"Polygon","coordinates":[[[-72.8562449059319,-13.501289885041036],[-72.85625297562937,-13.500386285454914],[-72.85717636896706,-13.500394180187454],[-72.85716830273903,-13.501297780321307],[-72.8562449059319,-13.501289885041036]]]}},{"type":"Feature","properties":{"Cell_ID":20,"Area_ha":1.0,"LC":"13:0.497092,14:0.502908","XMIN":731944.86160847,"YMIN":8506313.59738907,"XMAX":732044.86160847,"YMAX":8506413.59738907},"geometry":{"type":"Polygon","coordinates":[[[-72.85623683564363,-13.502193484557427],[-72.8562449059319,-13.501289885041036],[-72.85716830273903,-13.501297780321307],[-72.85716023592046,-13.50220138038543],[-72.85623683564363,-13.502193484557427]]]}},{"type":"Feature","properties":{"Cell_ID":21,"Area_ha":1.0,"LC":"5:0.814028,13:0.062376,14:0.117365","XMIN":731944.86160847,"YMIN":8506213.59738907,"XMAX":732044.86160847,"YMAX":8506313.59738907},"geometry":{"type":"Polygon","coordinates":[[[-72.85622876476455,-13.503097084004086],[-72.85623683564363,-13.502193484557427],[-72.85716023592046,-13.50220138038543],[-72.85715216851135,-13.503104980379822],[-72.85622876476455,-13.503097084004086]]]}},{"type":"Feature","properties":{"Cell_ID":22,"Area_ha":1.0,"LC":"9:0.203449,13:0.717113,14:0.079438","XMIN":732044.86160847,"YMIN":8506413.59738907,"XMAX":732144.86160847,"YMAX":8506513.59738907},"geometry":{"type":"Polygon","coordinates":[[[-72.85532150971557,-13.501281986365326],[-72.85532958288246,-13.500378387327165],[-72.85625297562937,-13.500386285454914],[-72.8562449059319,-13.501289885041036],[-72.85532150971557,-13.501281986365326]]]}},{"type":"Feature","properties":{"Cell_ID":23,"Area_ha":1.0,"LC":"5:0.300230,9:0.061398,13:0.197780,14:0.417654","XMIN":732044.86160847,"YMIN":8506313.59738907,"XMAX":732144.86160847,"YMAX":8506413.59738907},"geometry":{"type":"Polygon","coordinates":[[[-72.85531343595761,-13.50218558533375],[-72.85532150971557,-13.501281986365326],[-72.8562449059319,-13.501289885041036],[-72.85623683564363,-13.502193484557427],[-72.85531343595761,-13.50218558533375]]]}},{"type":"Feature","properties":{"Cell_ID":24,"Area_ha":1.0,"LC":"9:0.118061,13:0.881939","XMIN":732144.86160847,"YMIN":8506513.59738907,"XMAX":732244.86160847,"YMAX":8506613.59738907},"geometry":{"type":"Polygon","coordinates":[[[-72.85440619072658,-13.50037048580422],[-72.8544142667716,-13.499466887244528],[-72.85533765545831,-13.499474788219278],[-72.85532958288246,-13.500378387327165],[-72.85440619072658,-13.50037048580422]]]}},{"type":"Feature","properties":{"Cell_ID":25,"Area_ha":1.0,"LC":"6:0.054865,9:0.435100,13:0.180437,14:0.279438","XMIN":732144.86160847,"YMIN":8506413.59738907,"XMAX":732244.86160847,"YMAX":8506513.59738907},"geometry":{"type":"Polygon","coordinates":[[[-72.85439811409026,-13.501274084294183],[-72.85440619072658,-13.50037048580422],[-72.85532958288246,-13.500378387327165],[-72.85532150971557,-13.501281986365326],[-72.85439811409026,-13.501274084294183]]]}},{"type":"Feature","properties":{"Cell_ID":26,"Area_ha":1.0,"LC":"6:0.100260,9:0.538616,13:0.361125","XMIN":732244.86160847,"YMIN":8506813.59738907,"XMAX":732344.86160847,"YMAX":8506913.59738907},"geometry":{"type":"Polygon","coordinates":[[[-72.85350703592994,-13.49765178664311],[-72.85351511366954,-13.496748188422657],[-72.85443849135903,-13.496756091147093],[-72.85443041708783,-13.49765968991596],[-72.85350703592994,-13.49765178664311]]]}},{"type":"Feature","properties":{"Cell_ID":27,"Area_ha":1.0,"LC":"6:0.584566,9:0.295153,13:0.120281","XMIN":732244.86160847,"YMIN":8506713.59738907,"XMAX":732344.86160847,"YMAX":8506813.59738907},"geometry":{"type":"Polygon","coordinates":[[[-72.85349895759882,-13.49855538479383],[-72.85350703592994,-13.49765178664311],[-72.85443041708783,-13.49765968991596],[-72.85442234222535,-13.498563288615104],[-72.85349895759882,-13.49855538479383]]]}},{"type":"Feature","properties":{"Cell_ID":28,"Area_ha":1.0,"LC":"6:0.263900,9:0.379298,13:0.356802","XMIN":732244.86160847,"YMIN":8506613.59738907,"XMAX":732344.86160847,"YMAX":8506713.59738907},"geometry":{"type":"Polygon","coordinates":[[[-72.85349087867617,-13.499458982874824],[-72.85349895759882,-13.49855538479383],[-72.85442234222535,-13.498563288615104],[-72.8544142667716,-13.499466887244528],[-72.85349087867617,-13.499458982874824]]]}},{"type":"Feature","properties":{"Cell_ID":29,"Area_ha":1.0,"LC":"9:0.122086,13:0.790012","XMIN":732244.86160847,"YMIN":8506513.59738907,"XMAX":732344.86160847,"YMAX":8506613.59738907},"geometry":{"type":"Polygon","coordinates":[[[-72.853482799162,-13.50036258088609],[-72.85349087867617,-13.499458982874824],[-72.8544142667716,-13.499466887244528],[-72.85440619072658,-13.50037048580422],[-72.853482799162,-13.50036258088609]]]}},{"type":"Feature","properties":{"Cell_ID":30,"Area_ha":1.0,"LC":"9:0.703042,13:0.296958","XMIN":732344.86160847,"YMIN":8506913.59738907,"XMAX":732444.86160847,"YMAX":8507013.59738907},"geometry":{"type":"Polygon","coordinates":[[[-72.85259173657155,-13.496740282303993],[-72.85259981718778,-13.495836684562475],[-72.85352319081765,-13.495844590132489],[-72.85351511366954,-13.496748188422657],[-72.85259173657155,-13.496740282303993]]]}},{"type":"Feature","properties":{"Cell_ID":31,"Area_ha":1.0,"LC":"6:0.320533,9:0.480710,13:0.198757","XMIN":732344.86160847,"YMIN":8506813.59738907,"XMAX":732444.86160847,"YMAX":8506913.59738907},"geometry":{"type":"Polygon","coordinates":[[[-72.85258365536356,-13.497643879975787],[-72.85259173657155,-13.496740282303993],[-72.85351511366954,-13.496748188422657],[-72.85350703592994,-13.49765178664311],[-72.85258365536356,-13.497643879975787]]]}},{"type":"Feature","properties":{"Cell_ID":32,"Area_ha":1.0,"LC":"6:0.979031,7:0.020969","XMIN":732344.86160847,"YMIN":8506713.59738907,"XMAX":732444.86160847,"YMAX":8506813.59738907},"geometry":{"type":"Polygon","coordinates":[[[-72.85257557356381,-13.498547477577853],[-72.85258365536356,-13.497643879975787],[-72.85350703592994,-13.49765178664311],[-72.85349895759882,-13.49855538479383],[-72.85257557356381,-13.498547477577853]]]}},{"type":"Feature","properties":{"Cell_ID":33,"Area_ha":1.0,"LC":"6:0.646875,9:0.216967","XMIN":732344.86160847,"YMIN":8506613.59738907,"XMAX":732444.86160847,"YMAX":8506713.59738907},"geometry":{"type":"Polygon","coordinates":[[[-72.85256749117228,-13.499451075110189],[-72.85257557356381,-13.498547477577853],[-72.85349895759882,-13.49855538479383],[-72.85349087867617,-13.499458982874824],[-72.85256749117228,-13.499451075110189]]]}},{"type":"Feature","properties":{"Cell_ID":34,"Area_ha":1.0,"LC":"9:0.501917,13:0.498083","XMIN":732444.86160847,"YMIN":8507013.59738907,"XMAX":732544.86160847,"YMAX":8507113.59738907},"geometry":{"type":"Polygon","coordinates":[[[-72.85167644414967,-13.495828775598468],[-72.85168452764202,-13.49492517833611],[-72.85260789721228,-13.494933086751235],[-72.85259981718778,-13.495836684562475],[-72.85167644414967,-13.495828775598468]]]}},{"type":"Feature","properties":{"Cell_ID":35,"Area_ha":1.0,"LC":"6:0.039719,9:0.780983,13:0.179298","XMIN":732444.86160847,"YMIN":8506913.59738907,"XMAX":732544.86160847,"YMAX":8507013.59738907},"geometry":{"type":"Polygon","coordinates":[[[-72.85166836006533,-13.4967323727911],[-72.85167644414967,-13.495828775598468],[-72.85259981718778,-13.495836684562475],[-72.85259173657155,-13.496740282303993],[-72.85166836006533,-13.4967323727911]]]}},{"type":"Feature","properties":{"Cell_ID":36,"Area_ha":1.0,"LC":"6:0.619845,9:0.359038,13:0.021117","XMIN":732444.86160847,"YMIN":8506813.59738907,"XMAX":732544.86160847,"YMAX":8506913.59738907},"geometry":{"type":"Polygon","coordinates":[[[-72.85166027538897,-13.497635969914008],[-72.85166836006533,-13.4967323727911],[-72.85259173657155,-13.496740282303993],[-72.85258365536356,-13.497643879975787],[-72.85166027538897,-13.497635969914008]]]}},{"type":"Feature","properties":{"Cell_ID":37,"Area_ha":1.0,"LC":"6:0.604218,7:0.323265","XMIN":732444.86160847,"YMIN":8506713.59738907,"XMAX":732544.86160847,"YMAX":8506813.59738907},"geometry":{"type":"Polygon","coordinates":[[[-72.85165219012059,-13.49853956696718],[-72.85166027538897,-13.497635969914008],[-72.85258365536356,-13.497643879975787],[-72.85257557356381,-13.498547477577853],[-72.85165219012059,-13.49853956696718]]]}},{"type":"Feature","properties":{"Cell_ID":38,"Area_ha":1.0,"LC":"9:0.136958,13:0.863042","XMIN":732544.86160847,"YMIN":8507013.59738907,"XMAX":732644.86160847,"YMAX":8507113.59738907},"geometry":{"type":"Polygon","coordinates":[[[-72.85075307170355,-13.495820863240485],[-72.85076115866376,-13.494917266527244],[-72.85168452764202,-13.49492517833611],[-72.85167644414967,-13.495828775598468],[-72.85075307170355,-13.495820863240485]]]}},{"type":"Feature","properties":{"Cell_ID":39,"Area_ha":1.0,"LC":"9:0.116256,13:0.883744","XMIN":732544.86160847,"YMIN":8506913.59738907,"XMAX":732644.86160847,"YMAX":8507013.59738907},"geometry":{"type":"Polygon","coordinates":[[[-72.8507449841511,-13.496724459884],[-72.85075307170355,-13.495820863240485],[-72.85167644414967,-13.495828775598468],[-72.85166836006533,-13.4967323727911],[-72.8507449841511,-13.496724459884]]]}},{"type":"Feature","properties":{"Cell_ID":40,"Area_ha":1.0,"LC":"6:0.435145,13:0.564855","XMIN":732544.86160847,"YMIN":8506813.59738907,"XMAX":732644.86160847,"YMAX":8506913.59738907},"geometry":{"type":"Polygon","coordinates":[[[-72.8507368960064,-13.49762805645778],[-72.8507449841511,-13.496724459884],[-72.85166836006533,-13.4967323727911],[-72.85166027538897,-13.497635969914008],[-72.8507368960064,-13.49762805645778]]]}},{"type":"Feature","properties":{"Cell_ID":41,"Area_ha":1.0,"LC":"6:0.680405,13:0.061398","XMIN":732544.86160847,"YMIN":8506713.59738907,"XMAX":732644.86160847,"YMAX":8506813.59738907},"geometry":{"type":"Polygon","coordinates":[[[-72.85072880726939,-13.498531652961825],[-72.8507368960064,-13.49762805645778],[-72.85166027538897,-13.497635969914008],[-72.85165219012059,-13.49853956696718],[-72.85072880726939,-13.498531652961825]]]}},{"type":"Feature","properties":{"Cell_ID":42,"Area_ha":1.0,"LC":"13:1.000000","XMIN":732644.86160847,"YMIN":8507113.59738907,"XMAX":732744.86160847,"YMAX":8507213.59738907},"geometry":{"type":"Polygon","coordinates":[[[-72.84983779027775,-13.494909351324646],[-72.84984588011329,-13.494005755091033],[-72.85076924503171,-13.494013669744284],[-72.85076115866376,-13.494917266527244],[-72.84983779027775,-13.494909351324646]]]}},{"type":"Feature","properties":{"Cell_ID":43,"Area_ha":1.0,"LC":"13:1.000000","XMIN":732644.86160847,"YMIN":8507013.59738907,"XMAX":732744.86160847,"YMAX":8507113.59738907},"geometry":{"type":"Polygon","coordinates":[[[-72.8498296998497,-13.495812947488538],[-72.84983779027775,-13.494909351324646],[-72.85076115866376,-13.494917266527244],[-72.85075307170355,-13.495820863240485],[-72.8498296998497,-13.495812947488538]]]}},{"type":"Feature","properties":{"Cell_ID":44,"Area_ha":1.0,"LC":"13:1.000000","XMIN":732644.86160847,"YMIN":8506913.59738907,"XMAX":732744.86160847,"YMAX":8507013.59738907},"geometry":{"type":"Polygon","coordinates":[[[-72.84982160882916,-13.496716543582691],[-72.8498296998497,-13.495812947488538],[-72.85075307170355,-13.495820863240485],[-72.8507449841511,-13.496724459884],[-72.84982160882916,-13.496716543582691]]]}},{"type":"Feature","properties":{"Cell_ID":45,"Area_ha":1.0,"LC":"5:0.300260,13:0.699740","XMIN":732644.86160847,"YMIN":8506813.59738907,"XMAX":732744.86160847,"YMAX":8506913.59738907},"geometry":{"type":"Polygon","coordinates":[[[-72.84981351721609,-13.497620139607115],[-72.84982160882916,-13.496716543582691],[-72.8507449841511,-13.496724459884],[-72.8507368960064,-13.49762805645778],[-72.84981351721609,-13.497620139607115]]]}},{"type":"Feature","properties":{"Cell_ID":46,"Area_ha":1.0,"LC":"5:0.101679,6:0.376791,13:0.099727","XMIN":732644.86160847,"YMIN":8506713.59738907,"XMAX":732744.86160847,"YMAX":8506813.59738907},"geometry":{"type":"Polygon","coordinates":[[[-72.84980542501049,-13.498523735561795],[-72.84981351721609,-13.497620139607115],[-72.8507368960064,-13.49762805645778],[-72.85072880726939,-13.498531652961825],[-72.84980542501049,-13.498523735561795]]]}},{"type":"Feature","properties":{"Cell_ID":47,"Area_ha":1.0,"LC":"5:0.119438,6:0.163449,9:0.141679,13:0.575434","XMIN":732744.86160847,"YMIN":8507213.59738907,"XMAX":732844.86160847,"YMAX":8507313.59738907},"geometry":{"type":"Polygon","coordinates":[[[-72.84892251578735,-13.493997837044297],[-72.84893060849772,-13.493094241290542],[-72.84985396935635,-13.4931021587877],[-72.84984588011329,-13.494005755091033],[-72.84892251578735,-13.493997837044297]]]}},{"type":"Feature","properties":{"Cell_ID":48,"Area_ha":1.0,"LC":"5:0.320000,6:0.464566,13:0.215434","XMIN":732744.86160847,"YMIN":8507113.59738907,"XMAX":732844.86160847,"YMAX":8507213.59738907},"geometry":{"type":"Polygon","coordinates":[[[-72.84891442248423,-13.494901432728327],[-72.84892251578735,-13.493997837044297],[-72.84984588011329,-13.494005755091033],[-72.84983779027775,-13.494909351324646],[-72.84891442248423,-13.494901432728327]]]}},{"type":"Feature","properties":{"Cell_ID":49,"Area_ha":1.0,"LC":"5:0.519719,6:0.185410,13:0.294871","XMIN":732744.86160847,"YMIN":8507013.59738907,"XMAX":732844.86160847,"YMAX":8507113.59738907},"geometry":{"type":"Polygon","coordinates":[[[-72.84890632858836,-13.495805028342627],[-72.84891442248423,-13.494901432728327],[-72.84983779027775,-13.494909351324646],[-72.8498296998497,-13.495812947488538],[-72.84890632858836,-13.495805028342627]]]}},{"type":"Feature","properties":{"Cell_ID":50,"Area_ha":1.0,"LC":"5:0.505262,6:0.000147,13:0.494590","XMIN":732744.86160847,"YMIN":8506913.59738907,"XMAX":732844.86160847,"YMAX":8507013.59738907},"geometry":{"type":"Polygon","coordinates":[[[-72.84889823409972,-13.496708623887194],[-72.84890632858836,-13.495805028342627],[-72.8498296998497,-13.495812947488538],[-72.84982160882916,-13.496716543582691],[-72.84889823409972,-13.496708623887194]]]}},{"type":"Feature","properties":{"Cell_ID":51,"Area_ha":1.0,"LC":"5:0.340983,6:0.121658,9:0.020822,13:0.516537","XMIN":732744.86160847,"YMIN":8506813.59738907,"XMAX":732844.86160847,"YMAX":8506913.59738907},"geometry":{"type":"Polygon","coordinates":[[[-72.84889013901831,-13.497612219362017],[-72.84889823409972,-13.496708623887194],[-72.84982160882916,-13.496716543582691],[-72.84981351721609,-13.497620139607115],[-72.84889013901831,-13.497612219362017]]]}},{"type":"Feature","properties":{"Cell_ID":52,"Area_ha":1.0,"LC":"9:0.264419,13:0.735581","XMIN":732844.86160847,"YMIN":8507513.59738907,"XMAX":732944.86160847,"YMAX":8507613.59738907},"geometry":{"type":"Polygon","coordinates":[[[-72.84802343880827,-13.49127912978309],[-72.84803153320703,-13.490375534369981],[-72.84895488307252,-13.490383453610962],[-72.8489467921403,-13.491287049573867],[-72.84802343880827,-13.49127912978309]]]}},{"type":"Feature","properties":{"Cell_ID":53,"Area_ha":1.0,"LC":"6:0.203449,9:0.101398,13:0.695153","XMIN":732844.86160847,"YMIN":8507413.59738907,"XMAX":732944.86160847,"YMAX":8507513.59738907},"geometry":{"type":"Polygon","coordinates":[[[-72.84801534381654,-13.492182725126474],[-72.84802343880827,-13.49127912978309],[-72.8489467921403,-13.491287049573867],[-72.84893870061536,-13.49219064546706],[-72.84801534381654,-13.492182725126474]]]}},{"type":"Feature","properties":{"Cell_ID":54,"Area_ha":1.0,"LC":"6:0.304847,9:0.435145,13:0.260008","XMIN":732844.86160847,"YMIN":8507313.59738907,"XMAX":732944.86160847,"YMAX":8507413.59738907},"geometry":{"type":"Polygon","coordinates":[[[-72.84800724823182,-13.493086320400144],[-72.84801534381654,-13.492182725126474],[-72.84893870061536,-13.49219064546706],[-72.84893060849772,-13.493094241290542],[-72.84800724823182,-13.493086320400144]]]}},{"type":"Feature","properties":{"Cell_ID":55,"Area_ha":1.0,"LC":"6:0.819992,9:0.180008","XMIN":732844.86160847,"YMIN":8507213.59738907,"XMAX":732944.86160847,"YMAX":8507313.59738907},"geometry":{"type":"Polygon","coordinates":[[[-72.84799915205414,-13.493989915604082],[-72.84800724823182,-13.493086320400144],[-72.84893060849772,-13.493094241290542],[-72.84892251578735,-13.493997837044297],[-72.84799915205414,-13.493989915604082]]]}},{"type":"Feature","properties":{"Cell_ID":56,"Area_ha":1.0,"LC":"6:1.000000","XMIN":732844.86160847,"YMIN":8507113.59738907,"XMAX":732944.86160847,"YMAX":8507213.59738907},"geometry":{"type":"Polygon","coordinates":[[[-72.84799105528346,-13.494893510738294],[-72.84799915205414,-13.493989915604082],[-72.84892251578735,-13.493997837044297],[-72.84891442248423,-13.494901432728327],[-72.84799105528346,-13.494893510738294]]]}},{"type":"Feature","properties":{"Cell_ID":57,"Area_ha":1.0,"LC":"6:1.000000","XMIN":732844.86160847,"YMIN":8507013.59738907,"XMAX":732944.86160847,"YMAX":8507113.59738907},"geometry":{"type":"Polygon","coordinates":[[[-72.84798295791975,-13.49579710580277],[-72.84799105528346,-13.494893510738294],[-72.84891442248423,-13.494901432728327],[-72.84890632858836,-13.495805028342627],[-72.84798295791975,-13.49579710580277]]]}},{"type":"Feature","properties":{"Cell_ID":58,"Area_ha":1.0,"LC":"5:0.414456,6:0.585544","XMIN":732844.86160847,"YMIN":8506913.59738907,"XMAX":732944.86160847,"YMAX":8507013.59738907},"geometry":{"type":"Polygon","coordinates":[[[-72.84797485996306,-13.496700700797513],[-72.84798295791975,-13.49579710580277],[-72.84890632858836,-13.495805028342627],[-72.84889823409972,-13.496708623887194],[-72.84797485996306,-13.496700700797513]]]}},{"type":"Feature","properties":{"Cell_ID":59,"Area_ha":1.0,"LC":"5:0.118757,6:0.782908,9:0.098334","XMIN":732844.86160847,"YMIN":8506813.59738907,"XMAX":732944.86160847,"YMAX":8506913.59738907},"geometry":{"type":"Polygon","coordinates":[[[-72.84796676141332,-13.497604295722505],[-72.84797485996306,-13.496700700797513],[-72.84889823409972,-13.496708623887194],[-72.84889013901831,-13.497612219362017],[-72.84796676141332,-13.497604295722505]]]}},{"type":"Feature","properties":{"Cell_ID":60,"Area_ha":1.0,"LC":"9:0.597632,13:0.402368","XMIN":732944.86160847,"YMIN":8507713.59738907,"XMAX":733044.86160847,"YMAX":8507813.59738907},"geometry":{"type":"Polygon","coordinates":[[[-72.84711628120662,-13.489464016803698],[-72.84712437788555,-13.488560421801207],[-72.84804772022574,-13.488568343334641],[-72.84803962701287,-13.489471938887165],[-72.84711628120662,-13.489464016803698]]]}},{"type":"Feature","properties":{"Cell_ID":61,"Area_ha":1.0,"LC":"6:0.260126,9:0.162635,13:0.577239","XMIN":732944.86160847,"YMIN":8507613.59738907,"XMAX":733044.86160847,"YMAX":8507713.59738907},"geometry":{"type":"Polygon","coordinates":[[[-72.84710818393452,-13.49036761173648],[-72.84711628120662,-13.489464016803698],[-72.84803962701287,-13.489471938887165],[-72.84803153320703,-13.490375534369981],[-72.84710818393452,-13.49036761173648]]]}},{"type":"Feature","properties":{"Cell_ID":62,"Area_ha":1.0,"LC":"6:0.744700,9:0.254885,13:0.000415","XMIN":732944.86160847,"YMIN":8507513.59738907,"XMAX":733044.86160847,"YMAX":8507613.59738907},"geometry":{"type":"Polygon","coordinates":[[[-72.84710008606922,-13.491271206599547],[-72.84710818393452,-13.49036761173648],[-72.84803153320703,-13.490375534369981],[-72.84802343880827,-13.49127912978309],[-72.84710008606922,-13.491271206599547]]]}},{"type":"Feature","properties":{"Cell_ID":63,"Area_ha":1.0,"LC":"3:0.441377,6:0.539178,9:0.019446","XMIN":732944.86160847,"YMIN":8507413.59738907,"XMAX":733044.86160847,"YMAX":8507513.59738907},"geometry":{"type":"Polygon","coordinates":[[[-72.84709198761068,-13.492174801392894],[-72.84710008606922,-13.491271206599547],[-72.84802343880827,-13.49127912978309],[-72.84801534381654,-13.492182725126474],[-72.84709198761068,-13.492174801392894]]]}},{"type":"Feature","properties":{"Cell_ID":64,"Area_ha":1.0,"LC":"3:0.040562,5:0.020822,6:0.938616","XMIN":732944.86160847,"YMIN":8507313.59738907,"XMAX":733044.86160847,"YMAX":8507413.59738907},"geometry":{"type":"Polygon","coordinates":[[[-72.84708388855893,-13.493078396116514],[-72.84709198761068,-13.492174801392894],[-72.84801534381654,-13.492182725126474],[-72.84800724823182,-13.493086320400144],[-72.84708388855893,-13.493078396116514]]]}},{"type":"Feature","properties":{"Cell_ID":65,"Area_ha":1.0,"LC":"5:0.224566,6:0.775434","XMIN":732944.86160847,"YMIN":8507213.59738907,"XMAX":733044.86160847,"YMAX":8507313.59738907},"geometry":{"type":"Polygon","coordinates":[[[-72.84707578891393,-13.493981990770404],[-72.84708388855893,-13.493078396116514],[-72.84800724823182,-13.493086320400144],[-72.84799915205414,-13.493989915604082],[-72.84707578891393,-13.493981990770404]]]}},{"type":"Feature","properties":{"Cell_ID":66,"Area_ha":1.0,"LC":"5:0.105129,6:0.894871","XMIN":732944.86160847,"YMIN":8507113.59738907,"XMAX":733044.86160847,"YMAX":8507213.59738907},"geometry":{"type":"Polygon","coordinates":[[[-72.8470676886757,-13.494885585354561],[-72.84707578891393,-13.493981990770404],[-72.84799915205414,-13.493989915604082],[-72.84799105528346,-13.494893510738294],[-72.8470676886757,-13.494885585354561]]]}},{"type":"Feature","properties":{"Cell_ID":67,"Area_ha":1.0,"LC":"5:0.000147,6:0.999853","XMIN":732944.86160847,"YMIN":8507013.59738907,"XMAX":733044.86160847,"YMAX":8507113.59738907},"geometry":{"type":"Polygon","coordinates":[[[-72.84705958784419,-13.495789179868979],[-72.8470676886757,-13.494885585354561],[-72.84799105528346,-13.494893510738294],[-72.84798295791975,-13.49579710580277],[-72.84705958784419,-13.495789179868979]]]}},{"type":"Feature","properties":{"Cell_ID":68,"Area_ha":1.0,"LC":"5:0.222627,6:0.756551,9:0.020822","XMIN":732944.86160847,"YMIN":8506913.59738907,"XMAX":733044.86160847,"YMAX":8507013.59738907},"geometry":{"type":"Polygon","coordinates":[[[-72.84705148641942,-13.496692774313658],[-72.84705958784419,-13.495789179868979],[-72.84798295791975,-13.49579710580277],[-72.84797485996306,-13.496700700797513],[-72.84705148641942,-13.496692774313658]]]}},{"type":"Feature","properties":{"Cell_ID":69,"Area_ha":1.0,"LC":"5:0.080233,6:0.585633,9:0.054876","XMIN":732944.86160847,"YMIN":8506813.59738907,"XMAX":733044.86160847,"YMAX":8506913.59738907},"geometry":{"type":"Polygon","coordinates":[[[-72.84704338440136,-13.497596368688585],[-72.84705148641942,-13.496692774313658],[-72.84797485996306,-13.496700700797513],[-72.84796676141332,-13.497604295722505],[-72.84704338440136,-13.497596368688585]]]}},{"type":"Feature","properties":{"Cell_ID":70,"Area_ha":1.0,"LC":"6:0.019031,9:0.157646,13:0.530784","XMIN":733044.86160847,"YMIN":8507613.59738907,"XMAX":733144.86160847,"YMAX":8507713.59738907},"geometry":{"type":"Polygon","coordinates":[[[-72.8461848352552,-13.490359685710466],[-72.84619293599359,-13.489456091327952],[-72.84711628120662,-13.489464016803698],[-72.84710818393452,-13.49036761173648],[-72.8461848352552,-13.490359685710466]]]}},{"type":"Feature","properties":{"Cell_ID":71,"Area_ha":1.0,"LC":"5:0.119719,6:0.095019,9:0.591485,13:0.063074","XMIN":733044.86160847,"YMIN":8507513.59738907,"XMAX":733144.86160847,"YMAX":8507613.59738907},"geometry":{"type":"Polygon","coordinates":[[[-72.84617673392337,-13.49126328002326],[-72.8461848352552,-13.490359685710466],[-72.84710818393452,-13.49036761173648],[-72.84710008606922,-13.491271206599547],[-72.84617673392337,-13.49126328002326]]]}},{"type":"Feature","properties":{"Cell_ID":72,"Area_ha":1.0,"LC":"3:0.038061,5:0.319719,6:0.176810,9:0.456553","XMIN":733044.86160847,"YMIN":8507413.59738907,"XMAX":733144.86160847,"YMAX":8507513.59738907},"geometry":{"type":"Polygon","coordinates":[[[-72.84616863199805,-13.492166874266326],[-72.84617673392337,-13.49126328002326],[-72.84710008606922,-13.491271206599547],[-72.84709198761068,-13.492174801392894],[-72.84616863199805,-13.492166874266326]]]}},{"type":"Feature","properties":{"Cell_ID":73,"Area_ha":1.0,"LC":"5:0.179178,6:0.356537,9:0.359585,13:0.104700","XMIN":733044.86160847,"YMIN":8507313.59738907,"XMAX":733144.86160847,"YMAX":8507413.59738907},"geometry":{"type":"Polygon","coordinates":[[[-72.84616052947926,-13.493070468439665],[-72.84616863199805,-13.492166874266326],[-72.84709198761068,-13.492174801392894],[-72.84708388855893,-13.493078396116514],[-72.84616052947926,-13.493070468439665]]]}},{"type":"Feature","properties":{"Cell_ID":74,"Area_ha":1.0,"LC":"5:0.755841,6:0.180260,9:0.000844,13:0.063056","XMIN":733044.86160847,"YMIN":8507213.59738907,"XMAX":733144.86160847,"YMAX":8507313.59738907},"geometry":{"type":"Polygon","coordinates":[[[-72.84615242636698,-13.493974062543268],[-72.84616052947926,-13.493070468439665],[-72.84708388855893,-13.493078396116514],[-72.84707578891393,-13.493981990770404],[-72.84615242636698,-13.493974062543268]]]}},{"type":"Feature","properties":{"Cell_ID":75,"Area_ha":1.0,"LC":"5:0.675693,6:0.324307","XMIN":733044.86160847,"YMIN":8507113.59738907,"XMAX":733144.86160847,"YMAX":8507213.59738907},"geometry":{"type":"Polygon","coordinates":[[[-72.84614432266119,-13.494877656577135],[-72.84615242636698,-13.493974062543268],[-72.84707578891393,-13.493981990770404],[-72.8470676886757,-13.494885585354561],[-72.84614432266119,-13.494877656577135]]]}},{"type":"Feature","properties":{"Cell_ID":76,"Area_ha":1.0,"LC":"5:0.347011,6:0.495075","XMIN":733044.86160847,"YMIN":8507013.59738907,"XMAX":733144.86160847,"YMAX":8507113.59738907},"geometry":{"type":"Polygon","coordinates":[[[-72.84613621836188,-13.49578125054126],[-72.84614432266119,-13.494877656577135],[-72.8470676886757,-13.494885585354561],[-72.84705958784419,-13.495789179868979],[-72.84613621836188,-13.49578125054126]]]}}]}