{"type":"FeatureCollection","features":[{"type":"Feature","properties":{"Cell_ID":1,"Area_ha":1.0,"LC":"5:0.038390,9:0.275114,16:0.179031,17:0.339040","XMIN":705844.86160847,"YMIN":8512341.649698474,"XMAX":705944.86160847,"YMAX":8512441.649698474},"geometry":{"type":"Polygon","coordinates":[[[-73.09769453537484,-13.449661341523894],[-73.09770166812703,-13.448757602906287],[-73.09862500160376,-13.448764582342163],[-73.09861787230855,-13.449668321445793],[-73.09769453537484,-13.449661341523894]]]}},{"type":"Feature","properties":{"Cell_ID":2,"Area_ha":1.0,"LC":"9:0.718071,16:0.200000,17:0.081929","XMIN":705844.86160847,"YMIN":8512241.649698474,"XMAX":705944.86160847,"YMAX":8512341.649698474},"geometry":{"type":"Polygon","coordinates":[[[-73.09768740209871,-13.450565080073009],[-73.09769453537484,-13.449661341523894],[-73.09861787230855,-13.449668321445793],[-73.09861074248967,-13.45057206048093],[-73.09768740209871,-13.450565080073009]]]}},{"type":"Feature","properties":{"Cell_ID":3,"Area_ha":1.0,"LC":"5:0.468775,9:0.531225","XMIN":705844.86160847,"YMIN":8512141.649698474,"XMAX":705944.86160847,"YMAX":8512241.649698474},"geometry":{"type":"Polygon","coordinates":[[[-73.09768026829862,-13.451468818553614],[-73.09768740209871,-13.450565080073009],[-73.09861074248967,-13.45057206048093],[-73.0986036121471,-13.45147579944757],[-73.09768026829862,-13.451468818553614]]]}},{"type":"Feature","properties":{"Cell_ID":4,"Area_ha":1.0,"LC":"5:0.354005,7:0.428904,9:0.217092","XMIN":705844.86160847,"YMIN":8512041.649698474,"XMAX":705944.86160847,"YMAX":8512141.649698474},"geometry":{"type":"Polygon","coordinates":[[[-73.0976731339746,-13.452372556965713],[-73.09768026829862,-13.451468818553614],[-73.0986036121471,-13.45147579944757],[-73.09859648128082,-13.452379538345705],[-73.0976731339746,-13.452372556965713]]]}},{"type":"Feature","properties":{"Cell_ID":5,"Area_ha":1.0,"LC":"5:0.052769,9:0.365266,17:0.479433","XMIN":705944.86160847,"YMIN":8512341.649698474,"XMAX":706044.86160847,"YMAX":8512441.649698474},"geometry":{"type":"Polygon","coordinates":[[[-73.09677119896504,-13.449654358218051],[-73.09677833517424,-13.448750620086706],[-73.09770166812703,-13.448757602906287],[-73.09769453537484,-13.449661341523894],[-73.09677119896504,-13.449654358218051]]]}},{"type":"Feature","properties":{"Cell_ID":6,"Area_ha":1.0,"LC":"5:0.035994,9:0.904408,16:0.019031,17:0.040567","XMIN":705944.86160847,"YMIN":8512241.649698474,"XMAX":706044.86160847,"YMAX":8512341.649698474},"geometry":{"type":"Polygon","coordinates":[[[-73.09676406223167,-13.4505580962809],[-73.09677119896504,-13.449654358218051],[-73.09769453537484,-13.449661341523894],[-73.09768740209871,-13.450565080073009],[-73.09676406223167,-13.4505580962809]]]}},{"type":"Feature","properties":{"Cell_ID":7,"Area_ha":1.0,"LC":"5:0.276788,9:0.723212","XMIN":705944.86160847,"YMIN":8512141.649698474,"XMAX":706044.86160847,"YMAX":8512241.649698474},"geometry":{"type":"Polygon","coordinates":[[[-73.0967569249741,-13.451461834275243],[-73.09676406223167,-13.4505580962809],[-73.09768740209871,-13.450565080073009],[-73.09768026829862,-13.451468818553614],[-73.0967569249741,-13.451461834275243]]]}},{"type":"Feature","properties":{"Cell_ID":8,"Area_ha":1.0,"LC":"5:0.927228,9:0.072772","XMIN":705944.86160847,"YMIN":8512041.649698474,"XMAX":706044.86160847,"YMAX":8512141.649698474},"geometry":{"type":"Polygon","coordinates":[[[-73.09674978719234,-13.45236557220107],[-73.0967569249741,-13.451461834275243],[-73.09768026829862,-13.451468818553614],[-73.0976731339746,-13.452372556965713],[-73.09674978719234,-13.45236557220107]]]}},{"type":"Feature","properties":{"Cell_ID":9,"Area_ha":1.0,"LC":"5:0.693870,9:0.023614,13:0.138902,14:0.143614","XMIN":705944.86160847,"YMIN":8511941.649698474,"XMAX":706044.86160847,"YMAX":8512041.649698474},"geometry":{"type":"Polygon","coordinates":[[[-73.09674264888635,-13.453269310058388],[-73.09674978719234,-13.45236557220107],[-73.0976731339746,-13.452372556965713],[-73.0976659991266,-13.453276295309303],[-73.09674264888635,-13.453269310058388]]]}},{"type":"Feature","properties":{"Cell_ID":10,"Area_ha":1.0,"LC":"5:0.040493,9:0.479433,17:0.480000","XMIN":706044.86160847,"YMIN":8512341.649698474,"XMAX":706144.86160847,"YMAX":8512441.649698474},"geometry":{"type":"Polygon","coordinates":[[[-73.09584786307944,-13.449647371528277],[-73.0958550027456,-13.448743633883424],[-73.09677833517424,-13.448750620086706],[-73.09677119896504,-13.449654358218051],[-73.09584786307944,-13.449647371528277]]]}},{"type":"Feature","properties":{"Cell_ID":11,"Area_ha":1.0,"LC":"5:0.318071,9:0.681929","XMIN":706044.86160847,"YMIN":8512241.649698474,"XMAX":706144.86160847,"YMAX":8512341.649698474},"geometry":{"type":"Polygon","coordinates":[[[-73.09584072288884,-13.450551109104625],[-73.09584786307944,-13.449647371528277],[-73.09677119896504,-13.449654358218051],[-73.09676406223167,-13.4505580962809],[-73.09584072288884,-13.450551109104625]]]}},{"type":"Feature","properties":{"Cell_ID":12,"Area_ha":1.0,"LC":"5:0.900969,9:0.099031","XMIN":706044.86160847,"YMIN":8512141.649698474,"XMAX":706144.86160847,"YMAX":8512241.649698474},"geometry":{"type":"Polygon","coordinates":[[[-73.09583358217378,-13.451454846612465],[-73.09584072288884,-13.450551109104625],[-73.09676406223167,-13.4505580962809],[-73.0967569249741,-13.451461834275243],[-73.09583358217378,-13.451454846612465]]]}},{"type":"Feature","properties":{"Cell_ID":13,"Area_ha":1.0,"LC":"5:1.000000","XMIN":706044.86160847,"YMIN":8512041.649698474,"XMAX":706144.86160847,"YMAX":8512141.649698474},"geometry":{"type":"Polygon","coordinates":[[[-73.09582644093427,-13.452358584051789],[-73.09583358217378,-13.451454846612465],[-73.0967569249741,-13.451461834275243],[-73.09674978719234,-13.45236557220107],[-73.09582644093427,-13.452358584051789]]]}},{"type":"Feature","properties":{"Cell_ID":14,"Area_ha":1.0,"LC":"5:0.383476,13:0.616524","XMIN":706044.86160847,"YMIN":8511941.649698474,"XMAX":706144.86160847,"YMAX":8512041.649698474},"geometry":{"type":"Polygon","coordinates":[[[-73.0958192991703,-13.453262321422596],[-73.09582644093427,-13.452358584051789],[-73.09674978719234,-13.45236557220107],[-73.09674264888635,-13.453269310058388],[-73.0958192991703,-13.453262321422596]]]}},{"type":"Feature","properties":{"Cell_ID":15,"Area_ha":1.0,"LC":"9:0.515994,16:0.020969,17:0.463037","XMIN":706144.86160847,"YMIN":8512341.649698474,"XMAX":706244.86160847,"YMAX":8512441.649698474},"geometry":{"type":"Polygon","coordinates":[[[-73.09492452771828,-13.449640381454573],[-73.09493167084142,-13.448736644296453],[-73.0958550027456,-13.448743633883424],[-73.09584786307944,-13.449647371528277],[-73.09492452771828,-13.449640381454573]]]}},{"type":"Feature","properties":{"Cell_ID":16,"Area_ha":1.0,"LC":"5:0.034849,9:0.965151","XMIN":706144.86160847,"YMIN":8512241.649698474,"XMAX":706244.86160847,"YMAX":8512341.649698474},"geometry":{"type":"Polygon","coordinates":[[[-73.09491738407046,-13.450544118544189],[-73.09492452771828,-13.449640381454573],[-73.09584786307944,-13.449647371528277],[-73.09584072288884,-13.450551109104625],[-73.09491738407046,-13.450544118544189]]]}},{"type":"Feature","properties":{"Cell_ID":17,"Area_ha":1.0,"LC":"5:0.741675,9:0.258325","XMIN":706144.86160847,"YMIN":8512141.649698474,"XMAX":706244.86160847,"YMAX":8512241.649698474},"geometry":{"type":"Polygon","coordinates":[[[-73.09491023989794,-13.45144785556529],[-73.09491738407046,-13.450544118544189],[-73.09584072288884,-13.450551109104625],[-73.09583358217378,-13.451454846612465],[-73.09491023989794,-13.45144785556529]]]}},{"type":"Feature","properties":{"Cell_ID":18,"Area_ha":1.0,"LC":"5:0.836699,9:0.163301","XMIN":706144.86160847,"YMIN":8512041.649698474,"XMAX":706244.86160847,"YMAX":8512141.649698474},"geometry":{"type":"Polygon","coordinates":[[[-73.0949030952007,-13.452351592517871],[-73.09491023989794,-13.45144785556529],[-73.09583358217378,-13.451454846612465],[-73.09582644093427,-13.452358584051789],[-73.0949030952007,-13.452351592517871]]]}},{"type":"Feature","properties":{"Cell_ID":19,"Area_ha":1.0,"LC":"5:0.980969,13:0.019031","XMIN":706144.86160847,"YMIN":8511941.649698474,"XMAX":706244.86160847,"YMAX":8512041.649698474},"geometry":{"type":"Polygon","coordinates":[[[-73.09489594997873,-13.453255329401934],[-73.0949030952007,-13.452351592517871],[-73.09582644093427,-13.452358584051789],[-73.0958192991703,-13.453262321422596],[-73.09489594997873,-13.453255329401934]]]}},{"type":"Feature","properties":{"Cell_ID":20,"Area_ha":1.0,"LC":"5:0.627482,9:0.103614,13:0.268904","XMIN":706144.86160847,"YMIN":8511841.649698474,"XMAX":706244.86160847,"YMAX":8511941.649698474},"geometry":{"type":"Polygon","coordinates":[[[-73.09488880423204,-13.45415906621747],[-73.09489594997873,-13.453255329401934],[-73.0958192991703,-13.453262321422596],[-73.09581215688183,-13.45416605872488],[-73.09488880423204,-13.45415906621747]]]}},{"type":"Feature","properties":{"Cell_ID":21,"Area_ha":1.0,"LC":"5:0.115994,9:0.640000,13:0.244006","XMIN":706144.86160847,"YMIN":8511741.649698474,"XMAX":706244.86160847,"YMAX":8511841.649698474},"geometry":{"type":"Polygon","coordinates":[[[-73.0948816579606,-13.455062802964477],[-73.09488880423204,-13.45415906621747],[-73.09581215688183,-13.45416605872488],[-73.0958050140689,-13.455069795958638],[-73.0948816579606,-13.455062802964477]]]}},{"type":"Feature","properties":{"Cell_ID":22,"Area_ha":1.0,"LC":"5:0.050044,9:0.344832,17:0.360010","XMIN":706244.86160847,"YMIN":8512441.649698474,"XMAX":706344.86160847,"YMAX":8512541.649698474},"geometry":{"type":"Polygon","coordinates":[[[-73.09400833946191,-13.448729651325799],[-73.09401548551703,-13.447825914586137],[-73.09493881343984,-13.447832907069827],[-73.09493167084142,-13.448736644296453],[-73.09400833946191,-13.448729651325799]]]}},{"type":"Feature","properties":{"Cell_ID":23,"Area_ha":1.0,"LC":"9:0.169296,16:0.689744,17:0.140960","XMIN":706244.86160847,"YMIN":8512341.649698474,"XMAX":706344.86160847,"YMAX":8512441.649698474},"geometry":{"type":"Polygon","coordinates":[[[-73.09400119288182,-13.449633387996954],[-73.09400833946191,-13.448729651325799],[-73.09493167084142,-13.448736644296453],[-73.09492452771828,-13.449640381454573],[-73.09400119288182,-13.449633387996954]]]}},{"type":"Feature","properties":{"Cell_ID":24,"Area_ha":1.0,"LC":"5:0.482516,9:0.262381,16:0.255103","XMIN":706244.86160847,"YMIN":8512241.649698474,"XMAX":706344.86160847,"YMAX":8512341.649698474},"geometry":{"type":"Polygon","coordinates":[[[-73.09399404577678,-13.4505371245996],[-73.09400119288182,-13.449633387996954],[-73.09492452771828,-13.449640381454573],[-73.09491738407046,-13.450544118544189],[-73.09399404577678,-13.4505371245996]]]}},{"type":"Feature","properties":{"Cell_ID":25,"Area_ha":1.0,"LC":"5:0.275416,9:0.724584","XMIN":706244.86160847,"YMIN":8512141.649698474,"XMAX":706344.86160847,"YMAX":8512241.649698474},"geometry":{"type":"Polygon","coordinates":[[[-73.09398689814681,-13.451440861133726],[-73.09399404577678,-13.4505371245996],[-73.09491738407046,-13.450544118544189],[-73.09491023989794,-13.45144785556529],[-73.09398689814681,-13.451440861133726]]]}},{"type":"Feature","properties":{"Cell_ID":26,"Area_ha":1.0,"LC":"5:0.664986,9:0.335014","XMIN":706244.86160847,"YMIN":8512041.649698474,"XMAX":706344.86160847,"YMAX":8512141.649698474},"geometry":{"type":"Polygon","coordinates":[[[-73.09397974999185,-13.45234459759933],[-73.09398689814681,-13.451440861133726],[-73.09491023989794,-13.45144785556529],[-73.0949030952007,-13.452351592517871],[-73.09397974999185,-13.45234459759933]]]}},{"type":"Feature","properties":{"Cell_ID":27,"Area_ha":1.0,"LC":"5:0.966651,9:0.033349","XMIN":706244.86160847,"YMIN":8511941.649698474,"XMAX":706344.86160847,"YMAX":8512041.649698474},"geometry":{"type":"Polygon","coordinates":[[[-73.0939726013119,-13.453248333996413],[-73.09397974999185,-13.45234459759933],[-73.0949030952007,-13.452351592517871],[-73.09489594997873,-13.453255329401934],[-73.0939726013119,-13.453248333996413]]]}},{"type":"Feature","properties":{"Cell_ID":28,"Area_ha":1.0,"LC":"5:0.610431,9:0.389569","XMIN":706244.86160847,"YMIN":8511841.649698474,"XMAX":706344.86160847,"YMAX":8511941.649698474},"geometry":{"type":"Polygon","coordinates":[[[-73.093965452107,-13.454152070324966],[-73.0939726013119,-13.453248333996413],[-73.09489594997873,-13.453255329401934],[-73.09488880423204,-13.45415906621747],[-73.093965452107,-13.454152070324966]]]}},{"type":"Feature","properties":{"Cell_ID":29,"Area_ha":1.0,"LC":"5:0.434720,9:0.565280","XMIN":706244.86160847,"YMIN":8511741.649698474,"XMAX":706344.86160847,"YMAX":8511841.649698474},"geometry":{"type":"Polygon","coordinates":[[[-73.09395830237708,-13.455055806584985],[-73.093965452107,-13.454152070324966],[-73.09488880423204,-13.45415906621747],[-73.0948816579606,-13.455062802964477],[-73.09395830237708,-13.455055806584985]]]}},{"type":"Feature","properties":{"Cell_ID":30,"Area_ha":1.0,"LC":"5:0.022458,9:0.078061,16:0.289744,17:0.608013","XMIN":706344.86160847,"YMIN":8512441.649698474,"XMAX":706444.86160847,"YMAX":8512541.649698474},"geometry":{"type":"Polygon","coordinates":[[[-73.09308500860732,-13.448722654971473],[-73.09309215811916,-13.447818918719008],[-73.09401548551703,-13.447825914586137],[-73.09400833946191,-13.448729651325799],[-73.09308500860732,-13.448722654971473]]]}},{"type":"Feature","properties":{"Cell_ID":31,"Area_ha":1.0,"LC":"9:0.420969,16:0.571235,17:0.007796","XMIN":706344.86160847,"YMIN":8512341.649698474,"XMAX":706444.86160847,"YMAX":8512441.649698474},"geometry":{"type":"Polygon","coordinates":[[[-73.09307785857031,-13.449626391155423],[-73.09308500860732,-13.448722654971473],[-73.09400833946191,-13.448729651325799],[-73.09400119288182,-13.449633387996954],[-73.09307785857031,-13.449626391155423]]]}},{"type":"Feature","properties":{"Cell_ID":32,"Area_ha":1.0,"LC":"5:0.435555,9:0.181547,16:0.382899","XMIN":706344.86160847,"YMIN":8512241.649698474,"XMAX":706444.86160847,"YMAX":8512341.649698474},"geometry":{"type":"Polygon","coordinates":[[[-73.09307070800807,-13.450530127270863],[-73.09307785857031,-13.449626391155423],[-73.09400119288182,-13.449633387996954],[-73.09399404577678,-13.4505371245996],[-73.09307070800807,-13.450530127270863]]]}},{"type":"Feature","properties":{"Cell_ID":33,"Area_ha":1.0,"LC":"5:0.459031,9:0.190833,14:0.350137","XMIN":706344.86160847,"YMIN":8512141.649698474,"XMAX":706444.86160847,"YMAX":8512241.649698474},"geometry":{"type":"Polygon","coordinates":[[[-73.09306355692063,-13.451433863317783],[-73.09307070800807,-13.450530127270863],[-73.09399404577678,-13.4505371245996],[-73.09398689814681,-13.451440861133726],[-73.09306355692063,-13.451433863317783]]]}},{"type":"Feature","properties":{"Cell_ID":34,"Area_ha":1.0,"LC":"5:0.495153,9:0.104847,14:0.400000","XMIN":706344.86160847,"YMIN":8512041.649698474,"XMAX":706444.86160847,"YMAX":8512141.649698474},"geometry":{"type":"Polygon","coordinates":[[[-73.09305640530796,-13.452337599296175],[-73.09306355692063,-13.451433863317783],[-73.09398689814681,-13.451440861133726],[-73.09397974999185,-13.45234459759933],[-73.09305640530796,-13.452337599296175]]]}},{"type":"Feature","properties":{"Cell_ID":35,"Area_ha":1.0,"LC":"5:0.401273,9:0.525955,14:0.072772","XMIN":706344.86160847,"YMIN":8511941.649698474,"XMAX":706444.86160847,"YMAX":8512041.649698474},"geometry":{"type":"Polygon","coordinates":[[[-73.09304925317007,-13.453241335206043],[-73.09305640530796,-13.452337599296175],[-73.09397974999185,-13.45234459759933],[-73.0939726013119,-13.453248333996413],[-73.09304925317007,-13.453241335206043]]]}},{"type":"Feature","properties":{"Cell_ID":36,"Area_ha":1.0,"LC":"5:0.240000,9:0.760000","XMIN":706344.86160847,"YMIN":8511841.649698474,"XMAX":706444.86160847,"YMAX":8511941.649698474},"geometry":{"type":"Polygon","coordinates":[[[-73.09304210050693,-13.454145071047375],[-73.09304925317007,-13.453241335206043],[-73.0939726013119,-13.453248333996413],[-73.093965452107,-13.454152070324966],[-73.09304210050693,-13.454145071047375]]]}},{"type":"Feature","properties":{"Cell_ID":37,"Area_ha":1.0,"LC":"5:0.432910,9:0.567090","XMIN":706344.86160847,"YMIN":8511741.649698474,"XMAX":706444.86160847,"YMAX":8511841.649698474},"geometry":{"type":"Polygon","coordinates":[[[-73.09303494731854,-13.45504880682017],[-73.09304210050693,-13.454145071047375],[-73.093965452107,-13.454152070324966],[-73.09395830237708,-13.455055806584985],[-73.09303494731854,-13.45504880682017]]]}},{"type":"Feature","properties":{"Cell_ID":38,"Area_ha":1.0,"LC":"5:0.798638,9:0.201362","XMIN":706344.86160847,"YMIN":8511641.649698474,"XMAX":706444.86160847,"YMAX":8511741.649698474},"geometry":{"type":"Polygon","coordinates":[[[-73.0930277936049,-13.455952542524427],[-73.09303494731854,-13.45504880682017],[-73.09395830237708,-13.455055806584985],[-73.09395115212214,-13.455959542776467],[-73.0930277936049,-13.455952542524427]]]}},{"type":"Feature","properties":{"Cell_ID":39,"Area_ha":1.0,"LC":"16:0.365080,17:0.483439","XMIN":706444.86160847,"YMIN":8512541.649698474,"XMAX":706544.86160847,"YMAX":8512641.649698474},"geometry":{"type":"Polygon","coordinates":[[[-73.09216883124647,-13.447811919468451],[-73.09217598368954,-13.44690818363491],[-73.0930993071058,-13.446915182398035],[-73.09309215811916,-13.447818918719008],[-73.09216883124647,-13.447811919468451]]]}},{"type":"Feature","properties":{"Cell_ID":40,"Area_ha":1.0,"LC":"9:0.120577,16:0.511627,17:0.059598,18:0.308198","XMIN":706444.86160847,"YMIN":8512441.649698474,"XMAX":706544.86160847,"YMAX":8512541.649698474},"geometry":{"type":"Polygon","coordinates":[[[-73.09216167827795,-13.448715655233482],[-73.09216883124647,-13.447811919468451],[-73.09309215811916,-13.447818918719008],[-73.09308500860732,-13.448722654971473],[-73.09216167827795,-13.448715655233482]]]}},{"type":"Feature","properties":{"Cell_ID":41,"Area_ha":1.0,"LC":"9:0.563301,16:0.403928,18:0.032772","XMIN":706444.86160847,"YMIN":8512341.649698474,"XMAX":706544.86160847,"YMAX":8512441.649698474},"geometry":{"type":"Polygon","coordinates":[[[-73.09215452478398,-13.449619390929998],[-73.09216167827795,-13.448715655233482],[-73.09308500860732,-13.448722654971473],[-73.09307785857031,-13.449626391155423],[-73.09215452478398,-13.449619390929998]]]}},{"type":"Feature","properties":{"Cell_ID":42,"Area_ha":1.0,"LC":"7:0.012379,9:0.627630,16:0.359990","XMIN":706444.86160847,"YMIN":8512241.649698474,"XMAX":706544.86160847,"YMAX":8512341.649698474},"geometry":{"type":"Polygon","coordinates":[[[-73.09214737076456,-13.450523126557997],[-73.09215452478398,-13.449619390929998],[-73.09307785857031,-13.449626391155423],[-73.09307070800807,-13.450530127270863],[-73.09214737076456,-13.450523126557997]]]}},{"type":"Feature","properties":{"Cell_ID":43,"Area_ha":1.0,"LC":"5:0.019031,7:0.050529,9:0.633349,14:0.297092","XMIN":706444.86160847,"YMIN":8512141.649698474,"XMAX":706544.86160847,"YMAX":8512241.649698474},"geometry":{"type":"Polygon","coordinates":[[[-73.09214021621968,-13.45142686211747],[-73.09214737076456,-13.450523126557997],[-73.09307070800807,-13.450530127270863],[-73.09306355692063,-13.451433863317783],[-73.09214021621968,-13.45142686211747]]]}},{"type":"Feature","properties":{"Cell_ID":44,"Area_ha":1.0,"LC":"9:0.912772,18:0.087228","XMIN":706444.86160847,"YMIN":8512041.649698474,"XMAX":706544.86160847,"YMAX":8512141.649698474},"geometry":{"type":"Polygon","coordinates":[[[-73.09213306114931,-13.452330597608414],[-73.09214021621968,-13.45142686211747],[-73.09306355692063,-13.451433863317783],[-73.09305640530796,-13.452337599296175],[-73.09213306114931,-13.452330597608414]]]}},{"type":"Feature","properties":{"Cell_ID":45,"Area_ha":1.0,"LC":"9:0.691235,18:0.308765","XMIN":706444.86160847,"YMIN":8511941.649698474,"XMAX":706544.86160847,"YMAX":8512041.649698474},"geometry":{"type":"Polygon","coordinates":[[[-73.09212590555346,-13.453234333030828],[-73.09213306114931,-13.452330597608414],[-73.09305640530796,-13.452337599296175],[-73.09304925317007,-13.453241335206043],[-73.09212590555346,-13.453234333030828]]]}},{"type":"Feature","properties":{"Cell_ID":46,"Area_ha":1.0,"LC":"9:0.954055,18:0.045945","XMIN":706444.86160847,"YMIN":8511841.649698474,"XMAX":706544.86160847,"YMAX":8511941.649698474},"geometry":{"type":"Polygon","coordinates":[[[-73.09211874943212,-13.454138068384704],[-73.09212590555346,-13.453234333030828],[-73.09304925317007,-13.453241335206043],[-73.09304210050693,-13.454145071047375],[-73.09211874943212,-13.454138068384704]]]}},{"type":"Feature","properties":{"Cell_ID":47,"Area_ha":1.0,"LC":"5:0.118061,9:0.881939","XMIN":706444.86160847,"YMIN":8511741.649698474,"XMAX":706544.86160847,"YMAX":8511841.649698474},"geometry":{"type":"Polygon","coordinates":[[[-73.09211159278527,-13.455041803670044],[-73.09211874943212,-13.454138068384704],[-73.09304210050693,-13.454145071047375],[-73.09303494731854,-13.45504880682017],[-73.09211159278527,-13.455041803670044]]]}},{"type":"Feature","properties":{"Cell_ID":48,"Area_ha":1.0,"LC":"5:0.254585,9:0.745415","XMIN":706444.86160847,"YMIN":8511641.649698474,"XMAX":706544.86160847,"YMAX":8511741.649698474},"geometry":{"type":"Polygon","coordinates":[[[-73.09210443561291,-13.455945538886837],[-73.09211159278527,-13.455041803670044],[-73.09303494731854,-13.45504880682017],[-73.0930277936049,-13.455952542524427],[-73.09210443561291,-13.455945538886837]]]}},{"type":"Feature","properties":{"Cell_ID":49,"Area_ha":1.0,"LC":"5:0.742381,9:0.257619","XMIN":706444.86160847,"YMIN":8511541.649698474,"XMAX":706544.86160847,"YMAX":8511641.649698474},"geometry":{"type":"Polygon","coordinates":[[[-73.09209727791503,-13.45684927403508],[-73.09210443561291,-13.455945538886837],[-73.0930277936049,-13.455952542524427],[-73.09302063936599,-13.456856278160133],[-73.09209727791503,-13.45684927403508]]]}},{"type":"Feature","properties":{"Cell_ID":50,"Area_ha":1.0,"LC":"9:0.000065,16:0.190182,17:0.535295,18:0.012379","XMIN":706544.86160847,"YMIN":8512641.649698474,"XMAX":706644.86160847,"YMAX":8512741.649698474},"geometry":{"type":"Polygon","coordinates":[[[-73.09125266079872,-13.4469011814886],[-73.09125981617252,-13.445997446074214],[-73.0921831356072,-13.446004447732863],[-73.09217598368954,-13.44690818363491],[-73.09125266079872,-13.4469011814886]]]}},{"type":"Feature","properties":{"Cell_ID":51,"Area_ha":1.0,"LC":"16:0.322067,17:0.099598,18:0.578335","XMIN":706544.86160847,"YMIN":8512541.649698474,"XMAX":706644.86160847,"YMAX":8512641.649698474},"geometry":{"type":"Polygon","coordinates":[[[-73.0912455048992,-13.447804916834475],[-73.09125266079872,-13.4469011814886],[-73.09217598368954,-13.44690818363491],[-73.09216883124647,-13.447811919468451],[-73.0912455048992,-13.447804916834475]]]}},{"type":"Feature","properties":{"Cell_ID":52,"Area_ha":1.0,"LC":"9:0.157494,16:0.228765,18:0.613741","XMIN":706544.86160847,"YMIN":8512441.649698474,"XMAX":706644.86160847,"YMAX":8512541.649698474},"geometry":{"type":"Polygon","coordinates":[[[-73.09123834847402,-13.448708652111838],[-73.0912455048992,-13.447804916834475],[-73.09216883124647,-13.447811919468451],[-73.09216167827795,-13.448715655233482],[-73.09123834847402,-13.448708652111838]]]}},{"type":"Feature","properties":{"Cell_ID":53,"Area_ha":1.0,"LC":"7:0.136963,9:0.568502,16:0.192204,18:0.102331","XMIN":706544.86160847,"YMIN":8512341.649698474,"XMAX":706644.86160847,"YMAX":8512441.649698474},"geometry":{"type":"Polygon","coordinates":[[[-73.09123119152312,-13.449612387320679],[-73.09123834847402,-13.448708652111838],[-73.09216167827795,-13.448715655233482],[-73.09215452478398,-13.449619390929998],[-73.09123119152312,-13.449612387320679]]]}},{"type":"Feature","properties":{"Cell_ID":54,"Area_ha":1.0,"LC":"7:0.099119,9:0.893085,16:0.007796","XMIN":706544.86160847,"YMIN":8512241.649698474,"XMAX":706644.86160847,"YMAX":8512341.649698474},"geometry":{"type":"Polygon","coordinates":[[[-73.09122403404653,-13.450516122461],[-73.09123119152312,-13.449612387320679],[-73.09215452478398,-13.449619390929998],[-73.09214737076456,-13.450523126557997],[-73.09122403404653,-13.450516122461]]]}},{"type":"Feature","properties":{"Cell_ID":55,"Area_ha":1.0,"LC":"7:0.373085,9:0.626915","XMIN":706544.86160847,"YMIN":8512141.649698474,"XMAX":706644.86160847,"YMAX":8512241.649698474},"geometry":{"type":"Polygon","coordinates":[[[-73.0912168760442,-13.451419857532793],[-73.09122403404653,-13.450516122461],[-73.09214737076456,-13.450523126557997],[-73.09214021621968,-13.45142686211747],[-73.0912168760442,-13.451419857532793]]]}},{"type":"Feature","properties":{"Cell_ID":56,"Area_ha":1.0,"LC":"7:0.112772,9:0.866259,13:0.020969","XMIN":706544.86160847,"YMIN":8512041.649698474,"XMAX":706644.86160847,"YMAX":8512141.649698474},"geometry":{"type":"Polygon","coordinates":[[[-73.09120971751615,-13.452323592536057],[-73.0912168760442,-13.451419857532793],[-73.09214021621968,-13.45142686211747],[-73.09213306114931,-13.452330597608414],[-73.09120971751615,-13.452323592536057]]]}},{"type":"Feature","properties":{"Cell_ID":57,"Area_ha":1.0,"LC":"9:0.619021,13:0.138902,16:0.230842,18:0.011235","XMIN":706544.86160847,"YMIN":8511941.649698474,"XMAX":706644.86160847,"YMAX":8512041.649698474},"geometry":{"type":"Polygon","coordinates":[[[-73.09120255846236,-13.453227327470781],[-73.09120971751615,-13.452323592536057],[-73.09213306114931,-13.452330597608414],[-73.09212590555346,-13.453234333030828],[-73.09120255846236,-13.453227327470781]]]}},{"type":"Feature","properties":{"Cell_ID":58,"Area_ha":1.0,"LC":"9:0.209296,13:0.045945,16:0.312772,18:0.431987","XMIN":706544.86160847,"YMIN":8511841.649698474,"XMAX":706644.86160847,"YMAX":8511941.649698474},"geometry":{"type":"Polygon","coordinates":[[[-73.09119539888282,-13.454131062336971],[-73.09120255846236,-13.453227327470781],[-73.09212590555346,-13.453234333030828],[-73.09211874943212,-13.454138068384704],[-73.09119539888282,-13.454131062336971]]]}},{"type":"Feature","properties":{"Cell_ID":59,"Area_ha":1.0,"LC":"9:0.629609,13:0.012379,16:0.159294,18:0.198717","XMIN":706544.86160847,"YMIN":8511741.649698474,"XMAX":706644.86160847,"YMAX":8511841.649698474},"geometry":{"type":"Polygon","coordinates":[[[-73.0911882387775,-13.455034797134614],[-73.09119539888282,-13.454131062336971],[-73.09211874943212,-13.454138068384704],[-73.09211159278527,-13.455041803670044],[-73.0911882387775,-13.455034797134614]]]}},{"type":"Feature","properties":{"Cell_ID":60,"Area_ha":1.0,"LC":"9:0.831538,13:0.168462","XMIN":706544.86160847,"YMIN":8511641.649698474,"XMAX":706644.86160847,"YMAX":8511741.649698474},"geometry":{"type":"Polygon","coordinates":[[[-73.09118107814645,-13.455938531863708],[-73.0911882387775,-13.455034797134614],[-73.09211159278527,-13.455041803670044],[-73.09210443561291,-13.455945538886837],[-73.09118107814645,-13.455938531863708]]]}},{"type":"Feature","properties":{"Cell_ID":61,"Area_ha":1.0,"LC":"9:0.020505,16:0.050504,17:0.526736","XMIN":706644.86160847,"YMIN":8512741.649698474,"XMAX":706744.86160847,"YMAX":8512841.649698474},"geometry":{"type":"Polygon","coordinates":[[[-73.09033649726354,-13.44599044103263],[-73.0903436555676,-13.445086706037634],[-73.09126697102067,-13.445093710591323],[-73.09125981617252,-13.445997446074214],[-73.09033649726354,-13.44599044103263]]]}},{"type":"Feature","properties":{"Cell_ID":62,"Area_ha":1.0,"LC":"9:0.033349,16:0.648590,17:0.132370,18:0.185691","XMIN":706644.86160847,"YMIN":8512641.649698474,"XMAX":706744.86160847,"YMAX":8512741.649698474},"geometry":{"type":"Polygon","coordinates":[[[-73.09032933843356,-13.446894175959116],[-73.09033649726354,-13.44599044103263],[-73.09125981617252,-13.445997446074214],[-73.09125266079872,-13.4469011814886],[-73.09032933843356,-13.446894175959116]]]}},{"type":"Feature","properties":{"Cell_ID":63,"Area_ha":1.0,"LC":"9:0.104847,16:0.019031,18:0.876122","XMIN":706644.86160847,"YMIN":8512541.649698474,"XMAX":706744.86160847,"YMAX":8512641.649698474},"geometry":{"type":"Polygon","coordinates":[[[-73.09032217907766,-13.447797910817089],[-73.09032933843356,-13.446894175959116],[-73.09125266079872,-13.4469011814886],[-73.0912455048992,-13.447804916834475],[-73.09032217907766,-13.447797910817089]]]}},{"type":"Feature","properties":{"Cell_ID":64,"Area_ha":1.0,"LC":"9:0.535690,16:0.160706,18:0.303604","XMIN":706644.86160847,"YMIN":8512441.649698474,"XMAX":706744.86160847,"YMAX":8512541.649698474},"geometry":{"type":"Polygon","coordinates":[[[-73.09031501919578,-13.448701645606544],[-73.09032217907766,-13.447797910817089],[-73.0912455048992,-13.447804916834475],[-73.09123834847402,-13.448708652111838],[-73.09031501919578,-13.448701645606544]]]}},{"type":"Feature","properties":{"Cell_ID":65,"Area_ha":1.0,"LC":"7:0.117494,9:0.681233,16:0.174447,18:0.026826","XMIN":706644.86160847,"YMIN":8512341.649698474,"XMAX":706744.86160847,"YMAX":8512441.649698474},"geometry":{"type":"Polygon","coordinates":[[[-73.09030785878798,-13.44960538032748],[-73.09031501919578,-13.448701645606544],[-73.09123834847402,-13.448708652111838],[-73.09123119152312,-13.449612387320679],[-73.09030785878798,-13.44960538032748]]]}},{"type":"Feature","properties":{"Cell_ID":66,"Area_ha":1.0,"LC":"7:0.712116,9:0.245945,13:0.041939","XMIN":706644.86160847,"YMIN":8512241.649698474,"XMAX":706744.86160847,"YMAX":8512341.649698474},"geometry":{"type":"Polygon","coordinates":[[[-73.0903006978542,-13.450509114979887],[-73.09030785878798,-13.44960538032748],[-73.09123119152312,-13.449612387320679],[-73.09122403404653,-13.450516122461],[-73.0903006978542,-13.450509114979887]]]}},{"type":"Feature","properties":{"Cell_ID":67,"Area_ha":1.0,"LC":"7:0.345543,9:0.510842,13:0.143614","XMIN":706644.86160847,"YMIN":8512141.649698474,"XMAX":706744.86160847,"YMAX":8512241.649698474},"geometry":{"type":"Polygon","coordinates":[[[-73.09029353639446,-13.451412849563766],[-73.0903006978542,-13.450509114979887],[-73.09122403404653,-13.450516122461],[-73.0912168760442,-13.451419857532793],[-73.09029353639446,-13.451412849563766]]]}},{"type":"Feature","properties":{"Cell_ID":68,"Area_ha":1.0,"LC":"9:0.286651,13:0.713349","XMIN":706644.86160847,"YMIN":8512041.649698474,"XMAX":706744.86160847,"YMAX":8512141.649698474},"geometry":{"type":"Polygon","coordinates":[[[-73.09028637440872,-13.452316584079108],[-73.09029353639446,-13.451412849563766],[-73.0912168760442,-13.451419857532793],[-73.09120971751615,-13.452323592536057],[-73.09028637440872,-13.452316584079108]]]}},{"type":"Feature","properties":{"Cell_ID":69,"Area_ha":1.0,"LC":"9:0.577531,13:0.422469","XMIN":706644.86160847,"YMIN":8511941.649698474,"XMAX":706744.86160847,"YMAX":8512041.649698474},"geometry":{"type":"Polygon","coordinates":[[[-73.090279211897,-13.453220318525911],[-73.09028637440872,-13.452316584079108],[-73.09120971751615,-13.452323592536057],[-73.09120255846236,-13.453227327470781],[-73.090279211897,-13.453220318525911]]]}},{"type":"Feature","properties":{"Cell_ID":70,"Area_ha":1.0,"LC":"5:0.075288,9:0.488590,13:0.219598,18:0.216524","XMIN":706644.86160847,"YMIN":8511841.649698474,"XMAX":706744.86160847,"YMAX":8511941.649698474},"geometry":{"type":"Polygon","coordinates":[[[-73.09027204885926,-13.454124052904172],[-73.090279211897,-13.453220318525911],[-73.09120255846236,-13.453227327470781],[-73.09119539888282,-13.454131062336971],[-73.09027204885926,-13.454124052904172]]]}},{"type":"Feature","properties":{"Cell_ID":71,"Area_ha":1.0,"LC":"5:0.092468,9:0.352772,13:0.011235,16:0.203928,18:0.339598","XMIN":706644.86160847,"YMIN":8511741.649698474,"XMAX":706744.86160847,"YMAX":8511841.649698474},"geometry":{"type":"Polygon","coordinates":[[[-73.09026488529553,-13.455027787213885],[-73.09027204885926,-13.454124052904172],[-73.09119539888282,-13.454131062336971],[-73.0911882387775,-13.455034797134614],[-73.09026488529553,-13.455027787213885]]]}},{"type":"Feature","properties":{"Cell_ID":72,"Area_ha":1.0,"LC":"9:0.294457,13:0.175153,16:0.530391","XMIN":706644.86160847,"YMIN":8511641.649698474,"XMAX":706744.86160847,"YMAX":8511741.649698474},"geometry":{"type":"Polygon","coordinates":[[[-73.09025772120577,-13.455931521455048],[-73.09026488529553,-13.455027787213885],[-73.0911882387775,-13.455034797134614],[-73.09118107814645,-13.455938531863708],[-73.09025772120577,-13.455931521455048]]]}},{"type":"Feature","properties":{"Cell_ID":73,"Area_ha":1.0,"LC":"5:0.081939,9:0.219608,16:0.268073,17:0.430256","XMIN":706744.86160847,"YMIN":8512741.649698474,"XMAX":706844.86160847,"YMAX":8512841.649698474},"geometry":{"type":"Polygon","coordinates":[[[-73.08941317888046,-13.445983432608111],[-73.08942034064042,-13.445079698101248],[-73.0903436555676,-13.445086706037634],[-73.09033649726354,-13.44599044103263],[-73.08941317888046,-13.445983432608111]]]}},{"type":"Feature","properties":{"Cell_ID":74,"Area_ha":1.0,"LC":"9:0.822341,16:0.177659","XMIN":706744.86160847,"YMIN":8512641.649698474,"XMAX":706844.86160847,"YMAX":8512741.649698474},"geometry":{"type":"Polygon","coordinates":[[[-73.08940601659434,-13.446887167046464],[-73.08941317888046,-13.445983432608111],[-73.09033649726354,-13.44599044103263],[-73.09032933843356,-13.446894175959116],[-73.08940601659434,-13.446887167046464]]]}},{"type":"Feature","properties":{"Cell_ID":75,"Area_ha":1.0,"LC":"9:0.512900,13:0.487100","XMIN":706744.86160847,"YMIN":8512541.649698474,"XMAX":706844.86160847,"YMAX":8512641.649698474},"geometry":{"type":"Polygon","coordinates":[[[-73.08939885378204,-13.447790901416303],[-73.08940601659434,-13.446887167046464],[-73.09032933843356,-13.446894175959116],[-73.09032217907766,-13.447797910817089],[-73.08939885378204,-13.447790901416303]]]}},{"type":"Feature","properties":{"Cell_ID":76,"Area_ha":1.0,"LC":"9:0.422381,13:0.577619","XMIN":706744.86160847,"YMIN":8512441.649698474,"XMAX":706844.86160847,"YMAX":8512541.649698474},"geometry":{"type":"Polygon","coordinates":[[[-73.08939169044352,-13.448694635717619],[-73.08939885378204,-13.447790901416303],[-73.09032217907766,-13.447797910817089],[-73.09031501919578,-13.448701645606544],[-73.08939169044352,-13.448694635717619]]]}},{"type":"Feature","properties":{"Cell_ID":77,"Area_ha":1.0,"LC":"5:0.077933,9:0.855153,13:0.066915","XMIN":706744.86160847,"YMIN":8512341.649698474,"XMAX":706844.86160847,"YMAX":8512441.649698474},"geometry":{"type":"Polygon","coordinates":[[[-73.0893845265788,-13.449598369950408],[-73.08939169044352,-13.448694635717619],[-73.09031501919578,-13.448701645606544],[-73.09030785878798,-13.44960538032748],[-73.0893845265788,-13.449598369950408]]]}},{"type":"Feature","properties":{"Cell_ID":78,"Area_ha":1.0,"LC":"5:0.468854,9:0.106249,13:0.424897","XMIN":706744.86160847,"YMIN":8512241.649698474,"XMAX":706844.86160847,"YMAX":8512341.649698474},"geometry":{"type":"Polygon","coordinates":[[[-73.08937736218785,-13.450502104114669],[-73.0893845265788,-13.449598369950408],[-73.09030785878798,-13.44960538032748],[-73.0903006978542,-13.450509114979887],[-73.08937736218785,-13.450502104114669]]]}},{"type":"Feature","properties":{"Cell_ID":79,"Area_ha":1.0,"LC":"5:0.054318,9:0.182381,13:0.763301","XMIN":706744.86160847,"YMIN":8512141.649698474,"XMAX":706844.86160847,"YMAX":8512241.649698474},"geometry":{"type":"Polygon","coordinates":[[[-73.0893701972707,-13.451405838210395],[-73.08937736218785,-13.450502104114669],[-73.0903006978542,-13.450509114979887],[-73.09029353639446,-13.451412849563766],[-73.0893701972707,-13.451405838210395]]]}},{"type":"Feature","properties":{"Cell_ID":80,"Area_ha":1.0,"LC":"5:0.337757,9:0.476561,13:0.185682","XMIN":706744.86160847,"YMIN":8512041.649698474,"XMAX":706844.86160847,"YMAX":8512141.649698474},"geometry":{"type":"Polygon","coordinates":[[[-73.08936303182729,-13.45230957223758],[-73.0893701972707,-13.451405838210395],[-73.09029353639446,-13.451412849563766],[-73.09028637440872,-13.452316584079108],[-73.08936303182729,-13.45230957223758]]]}},{"type":"Feature","properties":{"Cell_ID":81,"Area_ha":1.0,"LC":"5:0.538902,9:0.158855,13:0.302243","XMIN":706744.86160847,"YMIN":8511941.649698474,"XMAX":706844.86160847,"YMAX":8512041.649698474},"geometry":{"type":"Polygon","coordinates":[[[-73.08935586585763,-13.453213306196226],[-73.08936303182729,-13.45230957223758],[-73.09028637440872,-13.452316584079108],[-73.090279211897,-13.453220318525911],[-73.08935586585763,-13.453213306196226]]]}},{"type":"Feature","properties":{"Cell_ID":82,"Area_ha":1.0,"LC":"5:0.916788,9:0.083212","XMIN":706744.86160847,"YMIN":8511841.649698474,"XMAX":706844.86160847,"YMAX":8511941.649698474},"geometry":{"type":"Polygon","coordinates":[[[-73.08934869936172,-13.454117040086327],[-73.08935586585763,-13.453213306196226],[-73.090279211897,-13.453220318525911],[-73.09027204885926,-13.454124052904172],[-73.08934869936172,-13.454117040086327]]]}},{"type":"Feature","properties":{"Cell_ID":83,"Area_ha":1.0,"LC":"5:0.774309,9:0.190842,16:0.034849","XMIN":706744.86160847,"YMIN":8511741.649698474,"XMAX":706844.86160847,"YMAX":8511841.649698474},"geometry":{"type":"Polygon","coordinates":[[[-73.08934153233955,-13.455020773907872],[-73.08934869936172,-13.454117040086327],[-73.09027204885926,-13.454124052904172],[-73.09026488529553,-13.455027787213885],[-73.08934153233955,-13.455020773907872]]]}},{"type":"Feature","properties":{"Cell_ID":84,"Area_ha":1.0,"LC":"5:0.130529,9:0.734318,16:0.135153","XMIN":706744.86160847,"YMIN":8511641.649698474,"XMAX":706844.86160847,"YMAX":8511741.649698474},"geometry":{"type":"Polygon","coordinates":[[[-73.08933436479111,-13.455924507660866],[-73.08934153233955,-13.455020773907872],[-73.09026488529553,-13.455027787213885],[-73.09025772120577,-13.455931521455048],[-73.08933436479111,-13.455924507660866]]]}},{"type":"Feature","properties":{"Cell_ID":85,"Area_ha":1.0,"LC":"16:0.321448,17:0.504813","XMIN":706844.86160847,"YMIN":8512841.649698474,"XMAX":706944.86160847,"YMAX":8512941.649698474},"geometry":{"type":"Polygon","coordinates":[[[-73.08849702623941,-13.445072686782174],[-73.0885041909288,-13.444168952695165],[-73.08942750187418,-13.444175963525874],[-73.08942034064042,-13.445079698101248],[-73.08849702623941,-13.445072686782174]]]}},{"type":"Feature","properties":{"Cell_ID":86,"Area_ha":1.0,"LC":"5:0.500969,9:0.118071,16:0.356778,17:0.024182","XMIN":706844.86160847,"YMIN":8512741.649698474,"XMAX":706944.86160847,"YMAX":8512841.649698474},"geometry":{"type":"Polygon","coordinates":[[[-73.08848986102358,-13.445976420800674],[-73.08849702623941,-13.445072686782174],[-73.08942034064042,-13.445079698101248],[-73.08941317888046,-13.445983432608111],[-73.08848986102358,-13.445976420800674]]]}},{"type":"Feature","properties":{"Cell_ID":87,"Area_ha":1.0,"LC":"5:0.245161,9:0.190256,13:0.564584","XMIN":706844.86160847,"YMIN":8512641.649698474,"XMAX":706944.86160847,"YMAX":8512741.649698474},"geometry":{"type":"Polygon","coordinates":[[[-73.08848269528133,-13.446880154750657],[-73.08848986102358,-13.445976420800674],[-73.08941317888046,-13.445983432608111],[-73.08940601659434,-13.446887167046464],[-73.08848269528133,-13.446880154750657]]]}},{"type":"Feature","properties":{"Cell_ID":88,"Area_ha":1.0,"LC":"5:0.483301,9:0.007796,13:0.508904","XMIN":706844.86160847,"YMIN":8512541.649698474,"XMAX":706944.86160847,"YMAX":8512641.649698474},"geometry":{"type":"Polygon","coordinates":[[[-73.08847552901261,-13.447783888632122],[-73.08848269528133,-13.446880154750657],[-73.08940601659434,-13.446887167046464],[-73.08939885378204,-13.447790901416303],[-73.08847552901261,-13.447783888632122]]]}},{"type":"Feature","properties":{"Cell_ID":89,"Area_ha":1.0,"LC":"5:0.200000,13:0.800000","XMIN":706844.86160847,"YMIN":8512441.649698474,"XMAX":706944.86160847,"YMAX":8512541.649698474},"geometry":{"type":"Polygon","coordinates":[[[-73.08846836221745,-13.44868762244506],[-73.08847552901261,-13.447783888632122],[-73.08939885378204,-13.447790901416303],[-73.08939169044352,-13.448694635717619],[-73.08846836221745,-13.44868762244506]]]}},{"type":"Feature","properties":{"Cell_ID":90,"Area_ha":1.0,"LC":"5:0.720138,13:0.279862","XMIN":706844.86160847,"YMIN":8512341.649698474,"XMAX":706944.86160847,"YMAX":8512441.649698474},"geometry":{"type":"Polygon","coordinates":[[[-73.08846119489583,-13.449591356189467],[-73.08846836221745,-13.44868762244506],[-73.08939169044352,-13.448694635717619],[-73.0893845265788,-13.449598369950408],[-73.08846119489583,-13.449591356189467]]]}},{"type":"Feature","properties":{"Cell_ID":91,"Area_ha":1.0,"LC":"5:0.959206,13:0.040794","XMIN":706844.86160847,"YMIN":8512241.649698474,"XMAX":706944.86160847,"YMAX":8512341.649698474},"geometry":{"type":"Polygon","coordinates":[[[-73.08845402704775,-13.450495089865347],[-73.08846119489583,-13.449591356189467],[-73.0893845265788,-13.449598369950408],[-73.08937736218785,-13.450502104114669],[-73.08845402704775,-13.450495089865347]]]}},{"type":"Feature","properties":{"Cell_ID":92,"Area_ha":1.0,"LC":"5:0.954143,13:0.045857","XMIN":706844.86160847,"YMIN":8512141.649698474,"XMAX":706944.86160847,"YMAX":8512241.649698474},"geometry":{"type":"Polygon","coordinates":[[[-73.08844685867317,-13.451398823472688],[-73.08845402704775,-13.450495089865347],[-73.08937736218785,-13.450502104114669],[-73.0893701972707,-13.451405838210395],[-73.08844685867317,-13.451398823472688]]]}},{"type":"Feature","properties":{"Cell_ID":93,"Area_ha":1.0,"LC":"5:0.623476,9:0.376524","XMIN":706844.86160847,"YMIN":8512041.649698474,"XMAX":706944.86160847,"YMAX":8512141.649698474},"geometry":{"type":"Polygon","coordinates":[[[-73.0884396897721,-13.452302557011482],[-73.08844685867317,-13.451398823472688],[-73.0893701972707,-13.451405838210395],[-73.08936303182729,-13.45230957223758],[-73.0884396897721,-13.452302557011482]]]}},{"type":"Feature","properties":{"Cell_ID":94,"Area_ha":1.0,"LC":"5:0.700402,9:0.299598","XMIN":706844.86160847,"YMIN":8511941.649698474,"XMAX":706944.86160847,"YMAX":8512041.649698474},"geometry":{"type":"Polygon","coordinates":[[[-73.08843252034453,-13.453206290481736],[-73.0884396897721,-13.452302557011482],[-73.08936303182729,-13.45230957223758],[-73.08935586585763,-13.453213306196226],[-73.08843252034453,-13.453206290481736]]]}},{"type":"Feature","properties":{"Cell_ID":95,"Area_ha":1.0,"LC":"5:1.000000","XMIN":706844.86160847,"YMIN":8511841.649698474,"XMAX":706944.86160847,"YMAX":8511941.649698474},"geometry":{"type":"Polygon","coordinates":[[[-73.08842535039045,-13.454110023883437],[-73.08843252034453,-13.453206290481736],[-73.08935586585763,-13.453213306196226],[-73.08934869936172,-13.454117040086327],[-73.08842535039045,-13.454110023883437]]]}},{"type":"Feature","properties":{"Cell_ID":96,"Area_ha":1.0,"LC":"5:1.000000","XMIN":706844.86160847,"YMIN":8511741.649698474,"XMAX":706944.86160847,"YMAX":8511841.649698474},"geometry":{"type":"Polygon","coordinates":[[[-73.08841817990985,-13.455013757216584],[-73.08842535039045,-13.454110023883437],[-73.08934869936172,-13.454117040086327],[-73.08934153233955,-13.455020773907872],[-73.08841817990985,-13.455013757216584]]]}},{"type":"Feature","properties":{"Cell_ID":97,"Area_ha":1.0,"LC":"5:0.950704,9:0.049296","XMIN":706844.86160847,"YMIN":8511641.649698474,"XMAX":706944.86160847,"YMAX":8511741.649698474},"geometry":{"type":"Polygon","coordinates":[[[-73.08841100890274,-13.45591749048117],[-73.08841817990985,-13.455013757216584],[-73.08934153233955,-13.455020773907872],[-73.08933436479111,-13.455924507660866],[-73.08841100890274,-13.45591749048117]]]}},{"type":"Feature","properties":{"Cell_ID":98,"Area_ha":1.0,"LC":"5:0.973174,9:0.026826","XMIN":706844.86160847,"YMIN":8511541.649698474,"XMAX":706944.86160847,"YMAX":8511641.649698474},"geometry":{"type":"Polygon","coordinates":[[[-73.08840383736907,-13.456821223677194],[-73.08841100890274,-13.45591749048117],[-73.08933436479111,-13.455924507660866],[-73.08932719671637,-13.456828241345297],[-73.08840383736907,-13.456821223677194]]]}},{"type":"Feature","properties":{"Cell_ID":99,"Area_ha":1.0,"LC":"5:0.681929,9:0.093879,13:0.224191","XMIN":706844.86160847,"YMIN":8511441.649698474,"XMAX":706944.86160847,"YMAX":8511541.649698474},"geometry":{"type":"Polygon","coordinates":[[[-73.08839666530886,-13.45772495680465],[-73.08840383736907,-13.456821223677194],[-73.08932719671637,-13.456828241345297],[-73.08932002811534,-13.457731974961165],[-73.08839666530886,-13.45772495680465]]]}},{"type":"Feature","properties":{"Cell_ID":100,"Area_ha":1.0,"LC":"9:0.410440,13:0.589560","XMIN":706844.86160847,"YMIN":8511341.649698474,"XMAX":706944.86160847,"YMAX":8511441.649698474},"geometry":{"type":"Polygon","coordinates":[[[-73.08838949272209,-13.458628689863536],[-73.08839666530886,-13.45772495680465],[-73.08932002811534,-13.457731974961165],[-73.08931285898802,-13.458635708508464],[-73.08838949272209,-13.458628689863536]]]}},{"type":"Feature","properties":{"Cell_ID":101,"Area_ha":1.0,"LC":"16:0.177101,17:0.776574,18:0.000994","XMIN":706944.86160847,"YMIN":8512841.649698474,"XMAX":707044.86160847,"YMAX":8512941.649698474},"geometry":{"type":"Polygon","coordinates":[[[-73.08757371236483,-13.445065672080426],[-73.08758088050985,-13.444161938482013],[-73.0885041909288,-13.444168952695165],[-73.08849702623941,-13.445072686782174],[-73.08757371236483,-13.445065672080426]]]}},{"type":"Feature","properties":{"Cell_ID":102,"Area_ha":1.0,"LC":"5:0.511548,9:0.084584,16:0.403868","XMIN":706944.86160847,"YMIN":8512741.649698474,"XMAX":707044.86160847,"YMAX":8512841.649698474},"geometry":{"type":"Polygon","coordinates":[[[-73.08756654369313,-13.445969405610326],[-73.08757371236483,-13.445065672080426],[-73.08849702623941,-13.445072686782174],[-73.08848986102358,-13.445976420800674],[-73.08756654369313,-13.445969405610326]]]}},{"type":"Feature","properties":{"Cell_ID":103,"Area_ha":1.0,"LC":"5:0.801362,9:0.179608,13:0.019031","XMIN":706944.86160847,"YMIN":8512641.649698474,"XMAX":707044.86160847,"YMAX":8512741.649698474},"geometry":{"type":"Polygon","coordinates":[[[-73.08755937449475,-13.446873139071702],[-73.08756654369313,-13.445969405610326],[-73.08848986102358,-13.445976420800674],[-73.08848269528133,-13.446880154750657],[-73.08755937449475,-13.446873139071702]]]}},{"type":"Feature","properties":{"Cell_ID":104,"Area_ha":1.0,"LC":"5:0.142243,9:0.751498,13:0.049296,16:0.056963","XMIN":706944.86160847,"YMIN":8512541.649698474,"XMAX":707044.86160847,"YMAX":8512641.649698474},"geometry":{"type":"Polygon","coordinates":[[[-73.08755220476965,-13.44777687246456],[-73.08755937449475,-13.446873139071702],[-73.08848269528133,-13.446880154750657],[-73.08847552901261,-13.447783888632122],[-73.08755220476965,-13.44777687246456]]]}},{"type":"Feature","properties":{"Cell_ID":105,"Area_ha":1.0,"LC":"5:0.023614,9:0.720000,13:0.135153,16:0.121233","XMIN":706944.86160847,"YMIN":8512441.649698474,"XMAX":707044.86160847,"YMAX":8512541.649698474},"geometry":{"type":"Polygon","coordinates":[[[-73.08754503451786,-13.448680605788883],[-73.08755220476965,-13.44777687246456],[-73.08847552901261,-13.447783888632122],[-73.08846836221745,-13.44868762244506],[-73.08754503451786,-13.448680605788883]]]}},{"type":"Feature","properties":{"Cell_ID":106,"Area_ha":1.0,"LC":"5:0.343614,9:0.428060,13:0.198767,16:0.029560","XMIN":706944.86160847,"YMIN":8512341.649698474,"XMAX":707044.86160847,"YMAX":8512441.649698474},"geometry":{"type":"Polygon","coordinates":[[[-73.08753786373934,-13.44958433904468],[-73.08754503451786,-13.448680605788883],[-73.08846836221745,-13.44868762244506],[-73.08846119489583,-13.449591356189467],[-73.08753786373934,-13.44958433904468]]]}},{"type":"Feature","properties":{"Cell_ID":107,"Area_ha":1.0,"LC":"5:0.687934,9:0.228854,13:0.083212","XMIN":706944.86160847,"YMIN":8512241.649698474,"XMAX":707044.86160847,"YMAX":8512341.649698474},"geometry":{"type":"Polygon","coordinates":[[[-73.0875306924341,-13.450488072231936],[-73.08753786373934,-13.44958433904468],[-73.08846119489583,-13.449591356189467],[-73.08845402704775,-13.450495089865347],[-73.0875306924341,-13.450488072231936]]]}},{"type":"Feature","properties":{"Cell_ID":108,"Area_ha":1.0,"LC":"5:1.000000","XMIN":706944.86160847,"YMIN":8512141.649698474,"XMAX":707044.86160847,"YMAX":8512241.649698474},"geometry":{"type":"Polygon","coordinates":[[[-73.08752352060213,-13.451391805350655],[-73.0875306924341,-13.450488072231936],[-73.08845402704775,-13.450495089865347],[-73.08844685867317,-13.451398823472688],[-73.08752352060213,-13.451391805350655]]]}},{"type":"Feature","properties":{"Cell_ID":109,"Area_ha":1.0,"LC":"5:1.000000","XMIN":706944.86160847,"YMIN":8512041.649698474,"XMAX":707044.86160847,"YMAX":8512141.649698474},"geometry":{"type":"Polygon","coordinates":[[[-73.08751634824341,-13.452295538400822],[-73.08752352060213,-13.451391805350655],[-73.08844685867317,-13.451398823472688],[-73.0884396897721,-13.452302557011482],[-73.08751634824341,-13.452295538400822]]]}},{"type":"Feature","properties":{"Cell_ID":110,"Area_ha":1.0,"LC":"5:1.000000","XMIN":706944.86160847,"YMIN":8511941.649698474,"XMAX":707044.86160847,"YMAX":8512041.649698474},"geometry":{"type":"Polygon","coordinates":[[[-73.08750917535794,-13.453199271382445],[-73.08751634824341,-13.452295538400822],[-73.0884396897721,-13.452302557011482],[-73.08843252034453,-13.453206290481736],[-73.08750917535794,-13.453199271382445]]]}},{"type":"Feature","properties":{"Cell_ID":111,"Area_ha":1.0,"LC":"5:1.000000","XMIN":706944.86160847,"YMIN":8511841.649698474,"XMAX":707044.86160847,"YMAX":8511941.649698474},"geometry":{"type":"Polygon","coordinates":[[[-73.08750200194571,-13.454103004295513],[-73.08750917535794,-13.453199271382445],[-73.08843252034453,-13.453206290481736],[-73.08842535039045,-13.454110023883437],[-73.08750200194571,-13.454103004295513]]]}},{"type":"Feature","properties":{"Cell_ID":112,"Area_ha":1.0,"LC":"5:1.000000","XMIN":706944.86160847,"YMIN":8511741.649698474,"XMAX":707044.86160847,"YMAX":8511841.649698474},"geometry":{"type":"Polygon","coordinates":[[[-73.0874948280067,-13.455006737140023],[-73.08750200194571,-13.454103004295513],[-73.08842535039045,-13.454110023883437],[-73.08841817990985,-13.455013757216584],[-73.0874948280067,-13.455006737140023]]]}},{"type":"Feature","properties":{"Cell_ID":113,"Area_ha":1.0,"LC":"5:1.000000","XMIN":706944.86160847,"YMIN":8511641.649698474,"XMAX":707044.86160847,"YMAX":8511741.649698474},"geometry":{"type":"Polygon","coordinates":[[[-73.0874876535409,-13.45591046991597],[-73.0874948280067,-13.455006737140023],[-73.08841817990985,-13.455013757216584],[-73.08841100890274,-13.45591749048117],[-73.0874876535409,-13.45591046991597]]]}},{"type":"Feature","properties":{"Cell_ID":114,"Area_ha":1.0,"LC":"5:0.952772,13:0.047228","XMIN":706944.86160847,"YMIN":8511541.649698474,"XMAX":707044.86160847,"YMAX":8511641.649698474},"geometry":{"type":"Polygon","coordinates":[[[-73.08748047854831,-13.456814202623352],[-73.0874876535409,-13.45591046991597],[-73.08841100890274,-13.45591749048117],[-73.08840383736907,-13.456821223677194],[-73.08748047854831,-13.456814202623352]]]}},{"type":"Feature","properties":{"Cell_ID":115,"Area_ha":1.0,"LC":"5:0.569735,13:0.430265","XMIN":706944.86160847,"YMIN":8511441.649698474,"XMAX":707044.86160847,"YMAX":8511541.649698474},"geometry":{"type":"Polygon","coordinates":[[[-73.08747330302893,-13.457717935262162],[-73.08748047854831,-13.456814202623352],[-73.08840383736907,-13.456821223677194],[-73.08839666530886,-13.45772495680465],[-73.08747330302893,-13.457717935262162]]]}},{"type":"Feature","properties":{"Cell_ID":116,"Area_ha":1.0,"LC":"5:0.203301,9:0.023614,13:0.773085","XMIN":706944.86160847,"YMIN":8511341.649698474,"XMAX":707044.86160847,"YMAX":8511441.649698474},"geometry":{"type":"Polygon","coordinates":[[[-73.08746612698273,-13.458621667832395],[-73.08747330302893,-13.457717935262162],[-73.08839666530886,-13.45772495680465],[-73.08838949272209,-13.458628689863536],[-73.08746612698273,-13.458621667832395]]]}},{"type":"Feature","properties":{"Cell_ID":117,"Area_ha":1.0,"LC":"16:0.011235,17:0.651245","XMIN":707044.86160847,"YMIN":8512841.649698474,"XMAX":707144.86160847,"YMAX":8512941.649698474},"geometry":{"type":"Polygon","coordinates":[[[-73.08665039901693,-13.445058653996009],[-73.08665757061756,-13.44415492088643],[-73.08758088050985,-13.444161938482013],[-73.08757371236483,-13.445065672080426],[-73.08665039901693,-13.445058653996009]]]}},{"type":"Feature","properties":{"Cell_ID":118,"Area_ha":1.0,"LC":"9:0.157494,16:0.707404,17:0.135103","XMIN":707044.86160847,"YMIN":8512741.649698474,"XMAX":707144.86160847,"YMAX":8512841.649698474},"geometry":{"type":"Polygon","coordinates":[[[-73.08664322688936,-13.44596238703707],[-73.08665039901693,-13.445058653996009],[-73.08757371236483,-13.445065672080426],[-73.08756654369313,-13.445969405610326],[-73.08664322688936,-13.44596238703707]]]}},{"type":"Feature","properties":{"Cell_ID":119,"Area_ha":1.0,"LC":"5:0.337092,9:0.525289,16:0.137619","XMIN":707044.86160847,"YMIN":8512641.649698474,"XMAX":707144.86160847,"YMAX":8512741.649698474},"geometry":{"type":"Polygon","coordinates":[[[-73.08663605423486,-13.44686612000961],[-73.08664322688936,-13.44596238703707],[-73.08756654369313,-13.445969405610326],[-73.08755937449475,-13.446873139071702],[-73.08663605423486,-13.44686612000961]]]}},{"type":"Feature","properties":{"Cell_ID":120,"Area_ha":1.0,"LC":"9:0.210431,16:0.789569","XMIN":707044.86160847,"YMIN":8512541.649698474,"XMAX":707144.86160847,"YMAX":8512641.649698474},"geometry":{"type":"Polygon","coordinates":[[[-73.08662888105339,-13.44776985291362],[-73.08663605423486,-13.44686612000961],[-73.08755937449475,-13.446873139071702],[-73.08755220476965,-13.44777687246456],[-73.08662888105339,-13.44776985291362]]]}},{"type":"Feature","properties":{"Cell_ID":121,"Area_ha":1.0,"LC":"9:0.096963,16:0.903037","XMIN":707044.86160847,"YMIN":8512441.649698474,"XMAX":707144.86160847,"YMAX":8512541.649698474},"geometry":{"type":"Polygon","coordinates":[[[-73.08662170734497,-13.448673585749098],[-73.08662888105339,-13.44776985291362],[-73.08755220476965,-13.44777687246456],[-73.08754503451786,-13.448680605788883],[-73.08662170734497,-13.448673585749098]]]}},{"type":"Feature","properties":{"Cell_ID":122,"Area_ha":1.0,"LC":"9:0.425114,13:0.098902,16:0.475984","XMIN":707044.86160847,"YMIN":8512341.649698474,"XMAX":707144.86160847,"YMAX":8512441.649698474},"geometry":{"type":"Polygon","coordinates":[[[-73.08661453310958,-13.44957731851604],[-73.08662170734497,-13.448673585749098],[-73.08754503451786,-13.448680605788883],[-73.08753786373934,-13.44958433904468],[-73.08661453310958,-13.44957731851604]]]}},{"type":"Feature","properties":{"Cell_ID":123,"Area_ha":1.0,"LC":"5:0.011235,9:0.620881,13:0.024976,16:0.342908","XMIN":707044.86160847,"YMIN":8512241.649698474,"XMAX":707144.86160847,"YMAX":8512341.649698474},"geometry":{"type":"Polygon","coordinates":[[[-73.08660735834721,-13.450481051214444],[-73.08661453310958,-13.44957731851604],[-73.08753786373934,-13.44958433904468],[-73.0875306924341,-13.450488072231936],[-73.08660735834721,-13.450481051214444]]]}},{"type":"Feature","properties":{"Cell_ID":124,"Area_ha":1.0,"LC":"5:0.925867,9:0.074133","XMIN":707044.86160847,"YMIN":8512141.649698474,"XMAX":707144.86160847,"YMAX":8512241.649698474},"geometry":{"type":"Polygon","coordinates":[[[-73.08660018305784,-13.451384783844304],[-73.08660735834721,-13.450481051214444],[-73.0875306924341,-13.450488072231936],[-73.08752352060213,-13.451391805350655],[-73.08660018305784,-13.451384783844304]]]}},{"type":"Feature","properties":{"Cell_ID":125,"Area_ha":1.0,"LC":"5:1.000000","XMIN":707044.86160847,"YMIN":8512041.649698474,"XMAX":707144.86160847,"YMAX":8512141.649698474},"geometry":{"type":"Polygon","coordinates":[[[-73.08659300724149,-13.452288516405613],[-73.08660018305784,-13.451384783844304],[-73.08752352060213,-13.451391805350655],[-73.08751634824341,-13.452295538400822],[-73.08659300724149,-13.452288516405613]]]}},{"type":"Feature","properties":{"Cell_ID":126,"Area_ha":1.0,"LC":"5:1.000000","XMIN":707044.86160847,"YMIN":8511941.649698474,"XMAX":707144.86160847,"YMAX":8512041.649698474},"geometry":{"type":"Polygon","coordinates":[[[-73.0865858308981,-13.453192248898366],[-73.08659300724149,-13.452288516405613],[-73.08751634824341,-13.452295538400822],[-73.08750917535794,-13.453199271382445],[-73.0865858308981,-13.453192248898366]]]}},{"type":"Feature","properties":{"Cell_ID":127,"Area_ha":1.0,"LC":"5:1.000000","XMIN":707044.86160847,"YMIN":8511841.649698474,"XMAX":707144.86160847,"YMAX":8511941.649698474},"geometry":{"type":"Polygon","coordinates":[[[-73.08657865402773,-13.454095981322569],[-73.0865858308981,-13.453192248898366],[-73.08750917535794,-13.453199271382445],[-73.08750200194571,-13.454103004295513],[-73.08657865402773,-13.454095981322569]]]}},{"type":"Feature","properties":{"Cell_ID":128,"Area_ha":1.0,"LC":"5:1.000000","XMIN":707044.86160847,"YMIN":8511741.649698474,"XMAX":707144.86160847,"YMAX":8511841.649698474},"geometry":{"type":"Polygon","coordinates":[[[-73.08657147663031,-13.454999713678204],[-73.08657865402773,-13.454095981322569],[-73.08750200194571,-13.454103004295513],[-73.0874948280067,-13.455006737140023],[-73.08657147663031,-13.454999713678204]]]}},{"type":"Feature","properties":{"Cell_ID":129,"Area_ha":1.0,"LC":"5:1.000000","XMIN":707044.86160847,"YMIN":8511641.649698474,"XMAX":707144.86160847,"YMAX":8511741.649698474},"geometry":{"type":"Polygon","coordinates":[[[-73.08656429870587,-13.45590344596528],[-73.08657147663031,-13.454999713678204],[-73.0874948280067,-13.455006737140023],[-73.0874876535409,-13.45591046991597],[-73.08656429870587,-13.45590344596528]]]}},{"type":"Feature","properties":{"Cell_ID":130,"Area_ha":1.0,"LC":"5:1.000000","XMIN":707044.86160847,"YMIN":8511541.649698474,"XMAX":707144.86160847,"YMAX":8511641.649698474},"geometry":{"type":"Polygon","coordinates":[[[-73.08655712025437,-13.45680717818378],[-73.08656429870587,-13.45590344596528],[-73.0874876535409,-13.45591046991597],[-73.08748047854831,-13.456814202623352],[-73.08655712025437,-13.45680717818378]]]}},{"type":"Feature","properties":{"Cell_ID":131,"Area_ha":1.0,"LC":"16:0.171940,17:0.828060","XMIN":707144.86160847,"YMIN":8512741.649698474,"XMAX":707244.86160847,"YMAX":8512841.649698474},"geometry":{"type":"Polygon","coordinates":[[[-73.08571991061254,-13.445955365080922],[-73.08572708619596,-13.445051632528932],[-73.08665039901693,-13.445058653996009],[-73.08664322688936,-13.44596238703707],[-73.08571991061254,-13.445955365080922]]]}},{"type":"Feature","properties":{"Cell_ID":132,"Area_ha":1.0,"LC":"5:0.035994,9:0.041939,16:0.864320,17:0.057748","XMIN":707144.86160847,"YMIN":8512641.649698474,"XMAX":707244.86160847,"YMAX":8512741.649698474},"geometry":{"type":"Polygon","coordinates":[[[-73.08571273450191,-13.446859097564385],[-73.08571991061254,-13.445955365080922],[-73.08664322688936,-13.44596238703707],[-73.08663605423486,-13.44686612000961],[-73.08571273450191,-13.446859097564385]]]}},{"type":"Feature","properties":{"Cell_ID":133,"Area_ha":1.0,"LC":"5:0.207884,9:0.096963,16:0.695153","XMIN":707144.86160847,"YMIN":8512541.649698474,"XMAX":707244.86160847,"YMAX":8512641.649698474},"geometry":{"type":"Polygon","coordinates":[[[-73.0857055578641,-13.447762829979315],[-73.08571273450191,-13.446859097564385],[-73.08663605423486,-13.44686612000961],[-73.08662888105339,-13.44776985291362],[-73.0857055578641,-13.447762829979315]]]}},{"type":"Feature","properties":{"Cell_ID":134,"Area_ha":1.0,"LC":"5:0.012379,9:0.393576,16:0.594045","XMIN":707144.86160847,"YMIN":8512441.649698474,"XMAX":707244.86160847,"YMAX":8512541.649698474},"geometry":{"type":"Polygon","coordinates":[[[-73.08569838069906,-13.448666562325709],[-73.0857055578641,-13.447762829979315],[-73.08662888105339,-13.44776985291362],[-73.08662170734497,-13.448673585749098],[-73.08569838069906,-13.448666562325709]]]}},{"type":"Feature","properties":{"Cell_ID":135,"Area_ha":1.0,"LC":"5:0.398727,9:0.092370,13:0.508904","XMIN":707144.86160847,"YMIN":8512341.649698474,"XMAX":707244.86160847,"YMAX":8512441.649698474},"geometry":{"type":"Polygon","coordinates":[[[-73.08569120300679,-13.449570294603568],[-73.08569838069906,-13.448666562325709],[-73.08662170734497,-13.448673585749098],[-73.08661453310958,-13.44957731851604],[-73.08569120300679,-13.449570294603568]]]}},{"type":"Feature","properties":{"Cell_ID":136,"Area_ha":1.0,"LC":"5:0.434711,9:0.198071,13:0.190127,16:0.177092","XMIN":707144.86160847,"YMIN":8512241.649698474,"XMAX":707244.86160847,"YMAX":8512341.649698474},"geometry":{"type":"Polygon","coordinates":[[[-73.08568402478728,-13.45047402681288],[-73.08569120300679,-13.449570294603568],[-73.08661453310958,-13.44957731851604],[-73.08660735834721,-13.450481051214444],[-73.08568402478728,-13.45047402681288]]]}},{"type":"Feature","properties":{"Cell_ID":137,"Area_ha":1.0,"LC":"5:0.897101,9:0.102899","XMIN":707144.86160847,"YMIN":8512141.649698474,"XMAX":707244.86160847,"YMAX":8512241.649698474},"geometry":{"type":"Polygon","coordinates":[[[-73.08567684604056,-13.451377758953646],[-73.08568402478728,-13.45047402681288],[-73.08660735834721,-13.450481051214444],[-73.08660018305784,-13.451384783844304],[-73.08567684604056,-13.451377758953646]]]}},{"type":"Feature","properties":{"Cell_ID":138,"Area_ha":1.0,"LC":"3:0.020969,5:0.979031","XMIN":707144.86160847,"YMIN":8512041.649698474,"XMAX":707244.86160847,"YMAX":8512141.649698474},"geometry":{"type":"Polygon","coordinates":[[[-73.08566966676655,-13.452281491025856],[-73.08567684604056,-13.451377758953646],[-73.08660018305784,-13.451384783844304],[-73.08659300724149,-13.452288516405613],[-73.08566966676655,-13.452281491025856]]]}},{"type":"Feature","properties":{"Cell_ID":139,"Area_ha":1.0,"LC":"5:1.000000","XMIN":707144.86160847,"YMIN":8511941.649698474,"XMAX":707244.86160847,"YMAX":8512041.649698474},"geometry":{"type":"Polygon","coordinates":[[[-73.0856624869653,-13.453185223029513],[-73.08566966676655,-13.452281491025856],[-73.08659300724149,-13.452288516405613],[-73.0865858308981,-13.453192248898366],[-73.0856624869653,-13.453185223029513]]]}},{"type":"Feature","properties":{"Cell_ID":140,"Area_ha":1.0,"LC":"5:1.000000","XMIN":707144.86160847,"YMIN":8511841.649698474,"XMAX":707244.86160847,"YMAX":8511941.649698474},"geometry":{"type":"Polygon","coordinates":[[[-73.08565530663677,-13.45408895496461],[-73.0856624869653,-13.453185223029513],[-73.0865858308981,-13.453192248898366],[-73.08657865402773,-13.454095981322569],[-73.08565530663677,-13.45408895496461]]]}},{"type":"Feature","properties":{"Cell_ID":141,"Area_ha":1.0,"LC":"5:1.000000","XMIN":707144.86160847,"YMIN":8511741.649698474,"XMAX":707244.86160847,"YMAX":8511841.649698474},"geometry":{"type":"Polygon","coordinates":[[[-73.08564812578096,-13.454992686831138],[-73.08565530663677,-13.45408895496461],[-73.08657865402773,-13.454095981322569],[-73.08657147663031,-13.454999713678204],[-73.08564812578096,-13.454992686831138]]]}},{"type":"Feature","properties":{"Cell_ID":142,"Area_ha":1.0,"LC":"5:1.000000","XMIN":707144.86160847,"YMIN":8511641.649698474,"XMAX":707244.86160847,"YMAX":8511741.649698474},"geometry":{"type":"Polygon","coordinates":[[[-73.08564094439787,-13.455896418629099],[-73.08564812578096,-13.454992686831138],[-73.08657147663031,-13.454999713678204],[-73.08656429870587,-13.45590344596528],[-73.08564094439787,-13.455896418629099]]]}},{"type":"Feature","properties":{"Cell_ID":143,"Area_ha":1.0,"LC":"7:0.139315,14:0.028657,17:0.784897","XMIN":707244.86160847,"YMIN":8512741.649698474,"XMAX":707344.86160847,"YMAX":8512841.649698474},"geometry":{"type":"Polygon","coordinates":[[[-73.08479659486291,-13.445948339741886],[-73.0848037739022,-13.445044607679206],[-73.08572708619596,-13.445051632528932],[-73.08571991061254,-13.445955365080922],[-73.08479659486291,-13.445948339741886]]]}},{"type":"Feature","properties":{"Cell_ID":144,"Area_ha":1.0,"LC":"5:0.223047,9:0.656963,16:0.038061,17:0.081929","XMIN":707244.86160847,"YMIN":8512641.649698474,"XMAX":707344.86160847,"YMAX":8512741.649698474},"geometry":{"type":"Polygon","coordinates":[[[-73.0847894152962,-13.446852071736036],[-73.08479659486291,-13.445948339741886],[-73.08571991061254,-13.445955365080922],[-73.08571273450191,-13.446859097564385],[-73.0847894152962,-13.446852071736036]]]}},{"type":"Feature","properties":{"Cell_ID":145,"Area_ha":1.0,"LC":"5:0.206424,9:0.793576","XMIN":707244.86160847,"YMIN":8512541.649698474,"XMAX":707344.86160847,"YMAX":8512641.649698474},"geometry":{"type":"Polygon","coordinates":[[[-73.08478223520201,-13.447755803661655],[-73.0847894152962,-13.446852071736036],[-73.08571273450191,-13.446859097564385],[-73.0857055578641,-13.447762829979315],[-73.08478223520201,-13.447755803661655]]]}},{"type":"Feature","properties":{"Cell_ID":146,"Area_ha":1.0,"LC":"5:0.064408,9:0.728363,13:0.207228","XMIN":707244.86160847,"YMIN":8512441.649698474,"XMAX":707344.86160847,"YMAX":8512541.649698474},"geometry":{"type":"Polygon","coordinates":[[[-73.08477505458036,-13.44865953551873],[-73.08478223520201,-13.447755803661655],[-73.0857055578641,-13.447762829979315],[-73.08569838069906,-13.448666562325709],[-73.08477505458036,-13.44865953551873]]]}},{"type":"Feature","properties":{"Cell_ID":147,"Area_ha":1.0,"LC":"5:0.551987,9:0.104976,13:0.343037","XMIN":707244.86160847,"YMIN":8512341.649698474,"XMAX":707344.86160847,"YMAX":8512441.649698474},"geometry":{"type":"Polygon","coordinates":[[[-73.08476787343125,-13.449563267307264],[-73.08477505458036,-13.44865953551873],[-73.08569838069906,-13.448666562325709],[-73.08569120300679,-13.449570294603568],[-73.08476787343125,-13.449563267307264]]]}},{"type":"Feature","properties":{"Cell_ID":148,"Area_ha":1.0,"LC":"7:0.195170,14:0.032066,17:0.718071","XMIN":707344.86160847,"YMIN":8512741.649698474,"XMAX":707444.86160847,"YMAX":8512841.649698474},"geometry":{"type":"Polygon","coordinates":[[[-73.08387327964073,-13.445941311019977],[-73.08388046213585,-13.445037579446838],[-73.0848037739022,-13.445044607679206],[-73.08479659486291,-13.445948339741886],[-73.08387327964073,-13.445941311019977]]]}},{"type":"Feature","properties":{"Cell_ID":149,"Area_ha":1.0,"LC":"5:0.380969,9:0.537101,17:0.081929","XMIN":707344.86160847,"YMIN":8512641.649698474,"XMAX":707444.86160847,"YMAX":8512741.649698474},"geometry":{"type":"Polygon","coordinates":[[[-73.08386609661792,-13.44684504252458],[-73.08387327964073,-13.445941311019977],[-73.08479659486291,-13.445948339741886],[-73.0847894152962,-13.446852071736036],[-73.08386609661792,-13.44684504252458]]]}},{"type":"Feature","properties":{"Cell_ID":150,"Area_ha":1.0,"LC":"7:0.204006,9:0.127806,14:0.056953,17:0.611235","XMIN":707444.86160847,"YMIN":8512741.649698474,"XMAX":707544.86160847,"YMAX":8512841.649698474},"geometry":{"type":"Polygon","coordinates":[[[-73.08294996494627,-13.445934278915198],[-73.0829571508972,-13.44503054783184],[-73.08388046213585,-13.445037579446838],[-73.08387327964073,-13.445941311019977],[-73.08294996494627,-13.445934278915198]]]}}]}