{"type":"FeatureCollection","features":[{"type":"Feature","properties":{"Cell_ID":1,"Area_ha":1.0,"LC":"9:0.430913,13:0.307429,16:0.261658","XMIN":727364.86160847,"YMIN":8500923.59738907,"XMAX":727464.86160847,"YMAX":8501023.59738907},"geometry":{"type":"Polygon","coordinates":[[[-72.89810189058505,-13.551256879654066],[-72.89810983318287,-13.55035325904841],[-72.89903344418082,-13.5503610277536],[-72.89902550506686,-13.551264648896407],[-72.89810189058505,-13.551256879654066]]]}},{"type":"Feature","properties":{"Cell_ID":2,"Area_ha":1.0,"LC":"16:0.516730","XMIN":727364.86160847,"YMIN":8500723.59738907,"XMAX":727464.86160847,"YMAX":8500823.59738907},"geometry":{"type":"Polygon","coordinates":[[[-72.89808600365018,-13.553064120656002],[-72.89809394740749,-13.55216050018993],[-72.89901756537343,-13.55216826996943],[-72.8990096251005,-13.55307189097266],[-72.89808600365018,-13.553064120656002]]]}},{"type":"Feature","properties":{"Cell_ID":3,"Area_ha":1.0,"LC":"9:0.147850,13:0.088470,16:0.684715","XMIN":727464.86160847,"YMIN":8501023.59738907,"XMAX":727564.86160847,"YMAX":8501123.59738907},"geometry":{"type":"Polygon","coordinates":[[[-72.89718622276465,-13.55034548693463],[-72.89719416826637,-13.549441866796581],[-72.89811777520097,-13.549449638372975],[-72.89810983318287,-13.55035325904841],[-72.89718622276465,-13.55034548693463]]]}},{"type":"Feature","properties":{"Cell_ID":4,"Area_ha":1.0,"LC":"13:0.490687,16:0.259151","XMIN":727564.86160847,"YMIN":8501123.59738907,"XMAX":727664.86160847,"YMAX":8501223.59738907},"geometry":{"type":"Polygon","coordinates":[[[-72.8962705619117,-13.549434091811834],[-72.89627851031679,-13.548530472141609],[-72.89720211318809,-13.54853824658874],[-72.89719416826637,-13.549441866796581],[-72.8962705619117,-13.549434091811834]]]}}]}