{"type":"FeatureCollection","features":[{"type":"Feature","properties":{"Cell_ID":1,"Area_ha":1.0,"LC":"5:0.074447,9:0.630601,17:0.294951","XMIN":709804.86160847,"YMIN":8513401.048877683,"XMAX":709904.86160847,"YMAX":8513501.048877683},"geometry":{"type":"Polygon","coordinates":[[[-73.06120780399311,-13.439808219343929],[-73.06121506797824,-13.438904499435376],[-73.06213834390974,-13.438911607611724],[-73.06213108337856,-13.439815328015593],[-73.06120780399311,-13.439808219343929]]]}},{"type":"Feature","properties":{"Cell_ID":2,"Area_ha":1.0,"LC":"5:0.675918,7:0.154683,9:0.169399","XMIN":709804.86160847,"YMIN":8513301.048877683,"XMAX":709904.86160847,"YMAX":8513401.048877683},"geometry":{"type":"Polygon","coordinates":[[[-73.06120053947411,-13.440711939183894],[-73.06120780399311,-13.439808219343929],[-73.06213108337856,-13.439815328015593],[-73.06212382231375,-13.440719048350873],[-73.06120053947411,-13.440711939183894]]]}},{"type":"Feature","properties":{"Cell_ID":3,"Area_ha":1.0,"LC":"7:0.094948,9:0.074447,17:0.636965","XMIN":709904.86160847,"YMIN":8513501.048877683,"XMAX":710004.86160847,"YMAX":8513601.048877683},"geometry":{"type":"Polygon","coordinates":[[[-73.0602917925806,-13.438897387878171],[-73.06029905948552,-13.437993668396572],[-73.06122233142948,-13.438000779458232],[-73.06121506797824,-13.438904499435376],[-73.0602917925806,-13.438897387878171]]]}},{"type":"Feature","properties":{"Cell_ID":4,"Area_ha":1.0,"LC":"7:0.104847,9:0.853714,17:0.041439","XMIN":709904.86160847,"YMIN":8513401.048877683,"XMAX":710004.86160847,"YMAX":8513501.048877683},"geometry":{"type":"Polygon","coordinates":[[[-73.06028452514157,-13.439801107291174],[-73.0602917925806,-13.438897387878171],[-73.06121506797824,-13.438904499435376],[-73.06120780399311,-13.439808219343929],[-73.06028452514157,-13.439801107291174]]]}},{"type":"Feature","properties":{"Cell_ID":5,"Area_ha":1.0,"LC":"5:0.368161,7:0.007960,9:0.623879","XMIN":709904.86160847,"YMIN":8513301.048877683,"XMAX":710004.86160847,"YMAX":8513401.048877683},"geometry":{"type":"Polygon","coordinates":[[[-73.06027725716841,-13.440704826635585],[-73.06028452514157,-13.439801107291174],[-73.06120780399311,-13.439808219343929],[-73.06120053947411,-13.440711939183894],[-73.06027725716841,-13.440704826635585]]]}},{"type":"Feature","properties":{"Cell_ID":6,"Area_ha":1.0,"LC":"5:0.921439,9:0.078561","XMIN":709904.86160847,"YMIN":8513201.048877683,"XMAX":710004.86160847,"YMAX":8513301.048877683},"geometry":{"type":"Polygon","coordinates":[[[-73.06026998866108,-13.441608545911393],[-73.06027725716841,-13.440704826635585],[-73.06120053947411,-13.440711939183894],[-73.06119327442123,-13.441615658955257],[-73.06026998866108,-13.441608545911393]]]}},{"type":"Feature","properties":{"Cell_ID":7,"Area_ha":1.0,"LC":"5:0.520236,9:0.479764","XMIN":709904.86160847,"YMIN":8513101.048877683,"XMAX":710004.86160847,"YMAX":8513201.048877683},"geometry":{"type":"Polygon","coordinates":[[[-73.0602627196196,-13.442512265118594],[-73.06026998866108,-13.441608545911393],[-73.06119327442123,-13.441615658955257],[-73.06118600883443,-13.442519378658023],[-73.0602627196196,-13.442512265118594]]]}},{"type":"Feature","properties":{"Cell_ID":8,"Area_ha":1.0,"LC":"5:0.081439,7:0.049632,9:0.868930","XMIN":709904.86160847,"YMIN":8513001.048877683,"XMAX":710004.86160847,"YMAX":8513101.048877683},"geometry":{"type":"Polygon","coordinates":[[[-73.06025545004394,-13.443415984257191],[-73.0602627196196,-13.442512265118594],[-73.06118600883443,-13.442519378658023],[-73.06117874271371,-13.443423098292184],[-73.06025545004394,-13.443415984257191]]]}},{"type":"Feature","properties":{"Cell_ID":9,"Area_ha":1.0,"LC":"7:0.049867,17:0.155654,18:0.794479","XMIN":710004.86160847,"YMIN":8513501.048877683,"XMAX":710104.86160847,"YMAX":8513601.048877683},"geometry":{"type":"Polygon","coordinates":[[[-73.0593685177171,-13.438890272940117],[-73.05937578807567,-13.437986553954305],[-73.06029905948552,-13.437993668396572],[-73.0602917925806,-13.438897387878171],[-73.0593685177171,-13.438890272940117]]]}},{"type":"Feature","properties":{"Cell_ID":10,"Area_ha":1.0,"LC":"7:0.384784,9:0.222641,18:0.392575","XMIN":710004.86160847,"YMIN":8513401.048877683,"XMAX":710104.86160847,"YMAX":8513501.048877683},"geometry":{"type":"Polygon","coordinates":[[[-73.05936124682417,-13.439793991857334],[-73.0593685177171,-13.438890272940117],[-73.0602917925806,-13.438897387878171],[-73.06028452514157,-13.439801107291174],[-73.05936124682417,-13.439793991857334]]]}},{"type":"Feature","properties":{"Cell_ID":11,"Area_ha":1.0,"LC":"7:0.437592,9:0.562408","XMIN":710004.86160847,"YMIN":8513301.048877683,"XMAX":710104.86160847,"YMAX":8513401.048877683},"geometry":{"type":"Polygon","coordinates":[[[-73.05935397539682,-13.440697710705951],[-73.05936124682417,-13.439793991857334],[-73.06028452514157,-13.439801107291174],[-73.06027725716841,-13.440704826635585],[-73.05935397539682,-13.440697710705951]]]}},{"type":"Feature","properties":{"Cell_ID":12,"Area_ha":1.0,"LC":"5:0.158530,9:0.435921,14:0.405549","XMIN":710004.86160847,"YMIN":8513201.048877683,"XMAX":710104.86160847,"YMAX":8513301.048877683},"geometry":{"type":"Polygon","coordinates":[[[-73.05934670343508,-13.441601429485967],[-73.05935397539682,-13.440697710705951],[-73.06027725716841,-13.440704826635585],[-73.06026998866108,-13.441608545911393],[-73.05934670343508,-13.441601429485967]]]}},{"type":"Feature","properties":{"Cell_ID":13,"Area_ha":1.0,"LC":"5:0.235654,9:0.726018,14:0.038329","XMIN":710004.86160847,"YMIN":8513101.048877683,"XMAX":710104.86160847,"YMAX":8513201.048877683},"geometry":{"type":"Polygon","coordinates":[[[-73.05933943093893,-13.442505148197373],[-73.05934670343508,-13.441601429485967],[-73.06026998866108,-13.441608545911393],[-73.0602627196196,-13.442512265118594],[-73.05933943093893,-13.442505148197373]]]}},{"type":"Feature","properties":{"Cell_ID":14,"Area_ha":1.0,"LC":"9:1.000000","XMIN":710004.86160847,"YMIN":8513001.048877683,"XMAX":710104.86160847,"YMAX":8513101.048877683},"geometry":{"type":"Polygon","coordinates":[[[-73.05933215790836,-13.443408866840167],[-73.05933943093893,-13.442505148197373],[-73.0602627196196,-13.442512265118594],[-73.06025545004394,-13.443415984257191],[-73.05933215790836,-13.443408866840167]]]}},{"type":"Feature","properties":{"Cell_ID":15,"Area_ha":1.0,"LC":"7:0.055653,9:0.944347","XMIN":710004.86160847,"YMIN":8512901.048877683,"XMAX":710104.86160847,"YMAX":8513001.048877683},"geometry":{"type":"Polygon","coordinates":[[[-73.05932488434335,-13.444312585414346],[-73.05933215790836,-13.443408866840167],[-73.06025545004394,-13.443415984257191],[-73.06024817993413,-13.44431970332717],[-73.05932488434335,-13.444312585414346]]]}},{"type":"Feature","properties":{"Cell_ID":16,"Area_ha":1.0,"LC":"7:0.270337,9:0.329899,13:0.399764","XMIN":710004.86160847,"YMIN":8512801.048877683,"XMAX":710104.86160847,"YMAX":8512901.048877683},"geometry":{"type":"Polygon","coordinates":[[[-73.0593176102439,-13.445216303919901],[-73.05932488434335,-13.444312585414346],[-73.06024817993413,-13.44431970332717],[-73.0602409092901,-13.445223422328535],[-73.0593176102439,-13.445216303919901]]]}},{"type":"Feature","properties":{"Cell_ID":17,"Area_ha":1.0,"LC":"9:0.194715,14:0.138795,17:0.090571,18:0.566021","XMIN":710104.86160847,"YMIN":8513601.048877683,"XMAX":710204.86160847,"YMAX":8513701.048877683},"geometry":{"type":"Polygon","coordinates":[[[-73.05845251720021,-13.43797943613143],[-73.05845979047778,-13.437075717573043],[-73.05938305789986,-13.437082834899902],[-73.05937578807567,-13.437986553954305],[-73.05845251720021,-13.43797943613143]]]}},{"type":"Feature","properties":{"Cell_ID":18,"Area_ha":1.0,"LC":"9:0.278093,14:0.084114,18:0.637794","XMIN":710104.86160847,"YMIN":8513501.048877683,"XMAX":710204.86160847,"YMAX":8513601.048877683},"geometry":{"type":"Polygon","coordinates":[[[-73.058445243388,-13.438883154621225],[-73.05845251720021,-13.43797943613143],[-73.05937578807567,-13.437986553954305],[-73.0593685177171,-13.438890272940117],[-73.058445243388,-13.438883154621225]]]}},{"type":"Feature","properties":{"Cell_ID":19,"Area_ha":1.0,"LC":"9:0.131571,18:0.868429","XMIN":710104.86160847,"YMIN":8513401.048877683,"XMAX":710204.86160847,"YMAX":8513501.048877683},"geometry":{"type":"Polygon","coordinates":[[[-73.05843796904115,-13.439786873042419],[-73.058445243388,-13.438883154621225],[-73.0593685177171,-13.438890272940117],[-73.05936124682417,-13.439793991857334],[-73.05843796904115,-13.439786873042419]]]}},{"type":"Feature","properties":{"Cell_ID":20,"Area_ha":1.0,"LC":"6:0.041939,9:0.792508,18:0.165553","XMIN":710104.86160847,"YMIN":8513301.048877683,"XMAX":710204.86160847,"YMAX":8513401.048877683},"geometry":{"type":"Polygon","coordinates":[[[-73.05843069415965,-13.440690591395013],[-73.05843796904115,-13.439786873042419],[-73.05936124682417,-13.439793991857334],[-73.05935397539682,-13.440697710705951],[-73.05843069415965,-13.440690591395013]]]}},{"type":"Feature","properties":{"Cell_ID":21,"Area_ha":1.0,"LC":"9:0.931102,14:0.068898","XMIN":710104.86160847,"YMIN":8513201.048877683,"XMAX":710204.86160847,"YMAX":8513301.048877683},"geometry":{"type":"Polygon","coordinates":[[[-73.0584234187435,-13.441594309678996],[-73.05843069415965,-13.440690591395013],[-73.05935397539682,-13.440697710705951],[-73.05934670343508,-13.441601429485967],[-73.0584234187435,-13.441594309678996]]]}},{"type":"Feature","properties":{"Cell_ID":22,"Area_ha":1.0,"LC":"7:0.365549,9:0.627227,14:0.007224","XMIN":710104.86160847,"YMIN":8513101.048877683,"XMAX":710204.86160847,"YMAX":8513201.048877683},"geometry":{"type":"Polygon","coordinates":[[[-73.0584161427927,-13.442498027894368],[-73.0584234187435,-13.441594309678996],[-73.05934670343508,-13.441601429485967],[-73.05933943093893,-13.442505148197373],[-73.0584161427927,-13.442498027894368]]]}},{"type":"Feature","properties":{"Cell_ID":23,"Area_ha":1.0,"LC":"7:0.400032,9:0.599968","XMIN":710104.86160847,"YMIN":8513001.048877683,"XMAX":710204.86160847,"YMAX":8513101.048877683},"geometry":{"type":"Polygon","coordinates":[[[-73.05840886630719,-13.443401746041129],[-73.0584161427927,-13.442498027894368],[-73.05933943093893,-13.442505148197373],[-73.05933215790836,-13.443408866840167],[-73.05840886630719,-13.443401746041129]]]}},{"type":"Feature","properties":{"Cell_ID":24,"Area_ha":1.0,"LC":"7:0.086053,9:0.913947","XMIN":710104.86160847,"YMIN":8512901.048877683,"XMAX":710204.86160847,"YMAX":8513001.048877683},"geometry":{"type":"Polygon","coordinates":[[[-73.05840158928702,-13.444305464119266],[-73.05840886630719,-13.443401746041129],[-73.05933215790836,-13.443408866840167],[-73.05932488434335,-13.444312585414346],[-73.05840158928702,-13.444305464119266]]]}},{"type":"Feature","properties":{"Cell_ID":25,"Area_ha":1.0,"LC":"9:0.410869,13:0.589131","XMIN":710104.86160847,"YMIN":8512801.048877683,"XMAX":710204.86160847,"YMAX":8512901.048877683},"geometry":{"type":"Polygon","coordinates":[[[-73.05839431173216,-13.445209182128778],[-73.05840158928702,-13.444305464119266],[-73.05932488434335,-13.444312585414346],[-73.0593176102439,-13.445216303919901],[-73.05839431173216,-13.445209182128778]]]}},{"type":"Feature","properties":{"Cell_ID":26,"Area_ha":1.0,"LC":"9:0.508694,13:0.410838,14:0.080469","XMIN":710104.86160847,"YMIN":8512701.048877683,"XMAX":710204.86160847,"YMAX":8512801.048877683},"geometry":{"type":"Polygon","coordinates":[[[-73.05838703364257,-13.44611290006966],[-73.05839431173216,-13.445209182128778],[-73.0593176102439,-13.445216303919901],[-73.05931033561001,-13.44612002235683],[-73.05838703364257,-13.44611290006966]]]}},{"type":"Feature","properties":{"Cell_ID":27,"Area_ha":1.0,"LC":"9:0.219263,14:0.227022,17:0.553715","XMIN":710204.86160847,"YMIN":8513701.048877683,"XMAX":710304.86160847,"YMAX":8513801.048877683},"geometry":{"type":"Polygon","coordinates":[[[-73.05753652359033,-13.437068596865823],[-73.05754379978643,-13.436164878735095],[-73.05846706322076,-13.436171998946065],[-73.05845979047778,-13.437075717573043],[-73.05753652359033,-13.437068596865823]]]}},{"type":"Feature","properties":{"Cell_ID":28,"Area_ha":1.0,"LC":"5:0.327457,9:0.597860,14:0.055653,18:0.019031","XMIN":710204.86160847,"YMIN":8513601.048877683,"XMAX":710304.86160847,"YMAX":8513701.048877683},"geometry":{"type":"Polygon","coordinates":[[[-73.05752924685936,-13.437972314927961],[-73.05753652359033,-13.437068596865823],[-73.05845979047778,-13.437075717573043],[-73.05845251720021,-13.43797943613143],[-73.05752924685936,-13.437972314927961]]]}},{"type":"Feature","properties":{"Cell_ID":29,"Area_ha":1.0,"LC":"5:0.649663,9:0.097092,14:0.241439,18:0.011806","XMIN":710204.86160847,"YMIN":8513501.048877683,"XMAX":710304.86160847,"YMAX":8513601.048877683},"geometry":{"type":"Polygon","coordinates":[[[-73.05752196959351,-13.4388760329215],[-73.05752924685936,-13.437972314927961],[-73.05845251720021,-13.43797943613143],[-73.058445243388,-13.438883154621225],[-73.05752196959351,-13.4388760329215]]]}},{"type":"Feature","properties":{"Cell_ID":30,"Area_ha":1.0,"LC":"5:0.445584,9:0.509131,18:0.045285","XMIN":710204.86160847,"YMIN":8513401.048877683,"XMAX":710304.86160847,"YMAX":8513501.048877683},"geometry":{"type":"Polygon","coordinates":[[[-73.05751469179278,-13.439779750846437],[-73.05752196959351,-13.4388760329215],[-73.058445243388,-13.438883154621225],[-73.05843796904115,-13.439786873042419],[-73.05751469179278,-13.439779750846437]]]}},{"type":"Feature","properties":{"Cell_ID":31,"Area_ha":1.0,"LC":"5:0.129663,6:0.207693,9:0.662644","XMIN":710204.86160847,"YMIN":8513301.048877683,"XMAX":710304.86160847,"YMAX":8513401.048877683},"geometry":{"type":"Polygon","coordinates":[[[-73.05750741345713,-13.440683468702769],[-73.05751469179278,-13.439779750846437],[-73.05843796904115,-13.439786873042419],[-73.05843069415965,-13.440690591395013],[-73.05750741345713,-13.440683468702769]]]}},{"type":"Feature","properties":{"Cell_ID":32,"Area_ha":1.0,"LC":"5:0.065083,6:0.641939,7:0.013009,9:0.279968","XMIN":710204.86160847,"YMIN":8513201.048877683,"XMAX":710304.86160847,"YMAX":8513301.048877683},"geometry":{"type":"Polygon","coordinates":[[[-73.05750013458658,-13.441587186490489],[-73.05750741345713,-13.440683468702769],[-73.05843069415965,-13.440690591395013],[-73.0584234187435,-13.441594309678996],[-73.05750013458658,-13.441587186490489]]]}},{"type":"Feature","properties":{"Cell_ID":33,"Area_ha":1.0,"LC":"6:0.110368,7:0.183613,9:0.706019","XMIN":710204.86160847,"YMIN":8513101.048877683,"XMAX":710304.86160847,"YMAX":8513201.048877683},"geometry":{"type":"Polygon","coordinates":[[[-73.05749285518112,-13.442490904209592],[-73.05750013458658,-13.441587186490489],[-73.0584234187435,-13.441594309678996],[-73.0584161427927,-13.442498027894368],[-73.05749285518112,-13.442490904209592]]]}},{"type":"Feature","properties":{"Cell_ID":34,"Area_ha":1.0,"LC":"7:0.464784,9:0.535216","XMIN":710204.86160847,"YMIN":8513001.048877683,"XMAX":710304.86160847,"YMAX":8513101.048877683},"geometry":{"type":"Polygon","coordinates":[[[-73.05748557524072,-13.44339462186008],[-73.05749285518112,-13.442490904209592],[-73.0584161427927,-13.442498027894368],[-73.05840886630719,-13.443401746041129],[-73.05748557524072,-13.44339462186008]]]}},{"type":"Feature","properties":{"Cell_ID":35,"Area_ha":1.0,"LC":"7:0.719500,9:0.259531,13:0.020969","XMIN":710204.86160847,"YMIN":8512901.048877683,"XMAX":710304.86160847,"YMAX":8513001.048877683},"geometry":{"type":"Polygon","coordinates":[[[-73.05747829476539,-13.444298339441941],[-73.05748557524072,-13.44339462186008],[-73.05840886630719,-13.443401746041129],[-73.05840158928702,-13.444305464119266],[-73.05747829476539,-13.444298339441941]]]}},{"type":"Feature","properties":{"Cell_ID":36,"Area_ha":1.0,"LC":"7:0.190368,9:0.727693,13:0.081939","XMIN":710204.86160847,"YMIN":8512801.048877683,"XMAX":710304.86160847,"YMAX":8512901.048877683},"geometry":{"type":"Polygon","coordinates":[[[-73.05747101375509,-13.445202056955177],[-73.05747829476539,-13.444298339441941],[-73.05840158928702,-13.444305464119266],[-73.05839431173216,-13.445209182128778],[-73.05747101375509,-13.445202056955177]]]}},{"type":"Feature","properties":{"Cell_ID":37,"Area_ha":1.0,"LC":"9:0.950368,13:0.049632","XMIN":710204.86160847,"YMIN":8512701.048877683,"XMAX":710304.86160847,"YMAX":8512801.048877683},"geometry":{"type":"Polygon","coordinates":[[[-73.05746373220985,-13.446105774399774],[-73.05747101375509,-13.445202056955177],[-73.05839431173216,-13.445209182128778],[-73.05838703364257,-13.44611290006966],[-73.05746373220985,-13.446105774399774]]]}},{"type":"Feature","properties":{"Cell_ID":38,"Area_ha":1.0,"LC":"9:0.123614,13:0.876386","XMIN":710204.86160847,"YMIN":8512601.048877683,"XMAX":710304.86160847,"YMAX":8512701.048877683},"geometry":{"type":"Polygon","coordinates":[[[-73.05745645012965,-13.447009491775738],[-73.05746373220985,-13.446105774399774],[-73.05838703364257,-13.44611290006966],[-73.0583797550183,-13.447016617941909],[-73.05745645012965,-13.447009491775738]]]}},{"type":"Feature","properties":{"Cell_ID":39,"Area_ha":1.0,"LC":"5:0.061438,9:0.837825,14:0.100737","XMIN":710304.86160847,"YMIN":8513601.048877683,"XMAX":710404.86160847,"YMAX":8513701.048877683},"geometry":{"type":"Polygon","coordinates":[[[-73.05660597705341,-13.437965190343906],[-73.05661325723776,-13.437061472778254],[-73.05753652359033,-13.437068596865823],[-73.05752924685936,-13.437972314927961],[-73.05660597705341,-13.437965190343906]]]}},{"type":"Feature","properties":{"Cell_ID":40,"Area_ha":1.0,"LC":"5:0.413245,9:0.586755","XMIN":710304.86160847,"YMIN":8513501.048877683,"XMAX":710404.86160847,"YMAX":8513601.048877683},"geometry":{"type":"Polygon","coordinates":[[[-73.05659869633394,-13.438868907840957],[-73.05660597705341,-13.437965190343906],[-73.05752924685936,-13.437972314927961],[-73.05752196959351,-13.4388760329215],[-73.05659869633394,-13.438868907840957]]]}},{"type":"Feature","properties":{"Cell_ID":41,"Area_ha":1.0,"LC":"5:0.569600,9:0.430400","XMIN":710304.86160847,"YMIN":8513401.048877683,"XMAX":710404.86160847,"YMAX":8513501.048877683},"geometry":{"type":"Polygon","coordinates":[[[-73.05659141507931,-13.4397726252694],[-73.05659869633394,-13.438868907840957],[-73.05752196959351,-13.4388760329215],[-73.05751469179278,-13.439779750846437],[-73.05659141507931,-13.4397726252694]]]}},{"type":"Feature","properties":{"Cell_ID":42,"Area_ha":1.0,"LC":"5:0.895153,9:0.104847","XMIN":710304.86160847,"YMIN":8513301.048877683,"XMAX":710404.86160847,"YMAX":8513401.048877683},"geometry":{"type":"Polygon","coordinates":[[[-73.05658413328953,-13.440676342629233],[-73.05659141507931,-13.4397726252694],[-73.05751469179278,-13.439779750846437],[-73.05750741345713,-13.440683468702769],[-73.05658413328953,-13.440676342629233]]]}},{"type":"Feature","properties":{"Cell_ID":43,"Area_ha":1.0,"LC":"5:0.346022,6:0.158061,7:0.101438,9:0.394479","XMIN":710304.86160847,"YMIN":8513201.048877683,"XMAX":710404.86160847,"YMAX":8513301.048877683},"geometry":{"type":"Polygon","coordinates":[[[-73.05657685096459,-13.441580059920453],[-73.05658413328953,-13.440676342629233],[-73.05750741345713,-13.440683468702769],[-73.05750013458658,-13.441587186490489],[-73.05657685096459,-13.441580059920453]]]}},{"type":"Feature","properties":{"Cell_ID":44,"Area_ha":1.0,"LC":"7:0.525285,9:0.474715","XMIN":710304.86160847,"YMIN":8513101.048877683,"XMAX":710404.86160847,"YMAX":8513201.048877683},"geometry":{"type":"Polygon","coordinates":[[[-73.05656956810448,-13.442483777143053],[-73.05657685096459,-13.441580059920453],[-73.05750013458658,-13.441587186490489],[-73.05749285518112,-13.442490904209592],[-73.05656956810448,-13.442483777143053]]]}},{"type":"Feature","properties":{"Cell_ID":45,"Area_ha":1.0,"LC":"7:0.335184,9:0.600000,13:0.064816","XMIN":710304.86160847,"YMIN":8513001.048877683,"XMAX":710404.86160847,"YMAX":8513101.048877683},"geometry":{"type":"Polygon","coordinates":[[[-73.05656228470917,-13.443387494297031],[-73.05656956810448,-13.442483777143053],[-73.05749285518112,-13.442490904209592],[-73.05748557524072,-13.44339462186008],[-73.05656228470917,-13.443387494297031]]]}},{"type":"Feature","properties":{"Cell_ID":46,"Area_ha":1.0,"LC":"7:0.015184,9:0.135420,13:0.849396","XMIN":710304.86160847,"YMIN":8512901.048877683,"XMAX":710404.86160847,"YMAX":8513001.048877683},"geometry":{"type":"Polygon","coordinates":[[[-73.05655500077869,-13.444291211382382],[-73.05656228470917,-13.443387494297031],[-73.05748557524072,-13.44339462186008],[-73.05747829476539,-13.444298339441941],[-73.05655500077869,-13.444291211382382]]]}},{"type":"Feature","properties":{"Cell_ID":47,"Area_ha":1.0,"LC":"9:0.057092,13:0.942908","XMIN":710304.86160847,"YMIN":8512801.048877683,"XMAX":710404.86160847,"YMAX":8512901.048877683},"geometry":{"type":"Polygon","coordinates":[[[-73.05654771631299,-13.4451949283991],[-73.05655500077869,-13.444291211382382],[-73.05747829476539,-13.444298339441941],[-73.05747101375509,-13.445202056955177],[-73.05654771631299,-13.4451949283991]]]}},{"type":"Feature","properties":{"Cell_ID":48,"Area_ha":1.0,"LC":"7:0.020969,9:0.910334,13:0.068697","XMIN":710304.86160847,"YMIN":8512701.048877683,"XMAX":710404.86160847,"YMAX":8512801.048877683},"geometry":{"type":"Polygon","coordinates":[[[-73.0565404313121,-13.44609864534718],[-73.05654771631299,-13.4451949283991],[-73.05747101375509,-13.445202056955177],[-73.05746373220985,-13.446105774399774],[-73.0565404313121,-13.44609864534718]]]}},{"type":"Feature","properties":{"Cell_ID":49,"Area_ha":1.0,"LC":"9:0.477860,13:0.522140","XMIN":710304.86160847,"YMIN":8512601.048877683,"XMAX":710404.86160847,"YMAX":8512701.048877683},"geometry":{"type":"Polygon","coordinates":[[[-73.05653314577597,-13.447002362226623],[-73.0565404313121,-13.44609864534718],[-73.05746373220985,-13.446105774399774],[-73.05745645012965,-13.447009491775738],[-73.05653314577597,-13.447002362226623]]]}},{"type":"Feature","properties":{"Cell_ID":50,"Area_ha":1.0,"LC":"13:1.000000","XMIN":710304.86160847,"YMIN":8512501.048877683,"XMAX":710404.86160847,"YMAX":8512601.048877683},"geometry":{"type":"Polygon","coordinates":[[[-73.05652585970462,-13.44790607903742],[-73.05653314577597,-13.447002362226623],[-73.05745645012965,-13.447009491775738],[-73.05744916751445,-13.447913209083062],[-73.05652585970462,-13.44790607903742]]]}},{"type":"Feature","properties":{"Cell_ID":51,"Area_ha":1.0,"LC":"13:1.000000","XMIN":710304.86160847,"YMIN":8512401.048877683,"XMAX":710404.86160847,"YMAX":8512501.048877683},"geometry":{"type":"Polygon","coordinates":[[[-73.05651857309802,-13.44880979577957],[-73.05652585970462,-13.44790607903742],[-73.05744916751445,-13.447913209083062],[-73.05744188436428,-13.448816926321738],[-73.05651857309802,-13.44880979577957]]]}},{"type":"Feature","properties":{"Cell_ID":52,"Area_ha":1.0,"LC":"5:0.110368,9:0.596122,13:0.145083,18:0.148426","XMIN":710404.86160847,"YMIN":8513401.048877683,"XMAX":710504.86160847,"YMAX":8513501.048877683},"geometry":{"type":"Polygon","coordinates":[[[-73.05566813890098,-13.439765496311312],[-73.05567542360949,-13.438861779379597],[-73.05659869633394,-13.438868907840957],[-73.05659141507931,-13.4397726252694],[-73.05566813890098,-13.439765496311312]]]}},{"type":"Feature","properties":{"Cell_ID":53,"Area_ha":1.0,"LC":"9:0.506487,18:0.493513","XMIN":710404.86160847,"YMIN":8513301.048877683,"XMAX":710504.86160847,"YMAX":8513401.048877683},"geometry":{"type":"Polygon","coordinates":[[[-73.05566085365709,-13.440669213174415],[-73.05566813890098,-13.439765496311312],[-73.05659141507931,-13.4397726252694],[-73.05658413328953,-13.440676342629233],[-73.05566085365709,-13.440669213174415]]]}},{"type":"Feature","properties":{"Cell_ID":54,"Area_ha":1.0,"LC":"5:0.127724,6:0.013009,9:0.859266","XMIN":710404.86160847,"YMIN":8513201.048877683,"XMAX":710504.86160847,"YMAX":8513301.048877683},"geometry":{"type":"Polygon","coordinates":[[[-73.05565356787777,-13.441572929968899],[-73.05566085365709,-13.440669213174415],[-73.05658413328953,-13.440676342629233],[-73.05657685096459,-13.441580059920453],[-73.05565356787777,-13.441572929968899]]]}},{"type":"Feature","properties":{"Cell_ID":55,"Area_ha":1.0,"LC":"5:0.135184,6:0.104847,9:0.759968","XMIN":710404.86160847,"YMIN":8513101.048877683,"XMAX":710504.86160847,"YMAX":8513201.048877683},"geometry":{"type":"Polygon","coordinates":[[[-73.05564628156303,-13.44247664669476],[-73.05565356787777,-13.441572929968899],[-73.05657685096459,-13.441580059920453],[-73.05656956810448,-13.442483777143053],[-73.05564628156303,-13.44247664669476]]]}},{"type":"Feature","properties":{"Cell_ID":56,"Area_ha":1.0,"LC":"6:0.007960,9:0.992040","XMIN":710404.86160847,"YMIN":8513001.048877683,"XMAX":710504.86160847,"YMAX":8513101.048877683},"geometry":{"type":"Polygon","coordinates":[[[-73.05563899471282,-13.443380363351991],[-73.05564628156303,-13.44247664669476],[-73.05656956810448,-13.442483777143053],[-73.05656228470917,-13.443387494297031],[-73.05563899471282,-13.443380363351991]]]}},{"type":"Feature","properties":{"Cell_ID":57,"Area_ha":1.0,"LC":"9:0.456890,13:0.543110","XMIN":710404.86160847,"YMIN":8512901.048877683,"XMAX":710504.86160847,"YMAX":8513001.048877683},"geometry":{"type":"Polygon","coordinates":[[[-73.05563170732721,-13.444284079940596],[-73.05563899471282,-13.443380363351991],[-73.05656228470917,-13.443387494297031],[-73.05655500077869,-13.444291211382382],[-73.05563170732721,-13.444284079940596]]]}},{"type":"Feature","properties":{"Cell_ID":58,"Area_ha":1.0,"LC":"13:1.000000","XMIN":710404.86160847,"YMIN":8512801.048877683,"XMAX":710504.86160847,"YMAX":8512901.048877683},"geometry":{"type":"Polygon","coordinates":[[[-73.05562441940612,-13.445187796460566],[-73.05563170732721,-13.444284079940596],[-73.05655500077869,-13.444291211382382],[-73.05654771631299,-13.4451949283991],[-73.05562441940612,-13.445187796460566]]]}},{"type":"Feature","properties":{"Cell_ID":59,"Area_ha":1.0,"LC":"7:0.380969,9:0.314683,13:0.304347","XMIN":710404.86160847,"YMIN":8512701.048877683,"XMAX":710504.86160847,"YMAX":8512801.048877683},"geometry":{"type":"Polygon","coordinates":[[[-73.05561713094956,-13.446091512911892],[-73.05562441940612,-13.445187796460566],[-73.05654771631299,-13.4451949283991],[-73.0565404313121,-13.44609864534718],[-73.05561713094956,-13.446091512911892]]]}},{"type":"Feature","properties":{"Cell_ID":60,"Area_ha":1.0,"LC":"9:0.344316,13:0.655684","XMIN":710404.86160847,"YMIN":8512601.048877683,"XMAX":710504.86160847,"YMAX":8512701.048877683},"geometry":{"type":"Polygon","coordinates":[[[-73.05560984195753,-13.446995229294576],[-73.05561713094956,-13.446091512911892],[-73.0565404313121,-13.44609864534718],[-73.05653314577597,-13.447002362226623],[-73.05560984195753,-13.446995229294576]]]}},{"type":"Feature","properties":{"Cell_ID":61,"Area_ha":1.0,"LC":"9:0.015184,13:0.984816","XMIN":710404.86160847,"YMIN":8512501.048877683,"XMAX":710504.86160847,"YMAX":8512601.048877683},"geometry":{"type":"Polygon","coordinates":[[[-73.05560255243002,-13.447898945608614],[-73.05560984195753,-13.446995229294576],[-73.05653314577597,-13.447002362226623],[-73.05652585970462,-13.44790607903742],[-73.05560255243002,-13.447898945608614]]]}},{"type":"Feature","properties":{"Cell_ID":62,"Area_ha":1.0,"LC":"13:1.000000","XMIN":710404.86160847,"YMIN":8512401.048877683,"XMAX":710504.86160847,"YMAX":8512501.048877683},"geometry":{"type":"Polygon","coordinates":[[[-73.05559526236702,-13.448802661853998],[-73.05560255243002,-13.447898945608614],[-73.05652585970462,-13.44790607903742],[-73.05651857309802,-13.44880979577957],[-73.05559526236702,-13.448802661853998]]]}},{"type":"Feature","properties":{"Cell_ID":63,"Area_ha":1.0,"LC":"5:0.033979,9:0.480233,13:0.454951,18:0.030837","XMIN":710504.86160847,"YMIN":8513401.048877683,"XMAX":710604.86160847,"YMAX":8513501.048877683},"geometry":{"type":"Polygon","coordinates":[[[-73.0547448632581,-13.439758363972187],[-73.05475215142044,-13.438854647537436],[-73.05567542360949,-13.438861779379597],[-73.05566813890098,-13.439765496311312],[-73.0547448632581,-13.439758363972187]]]}},{"type":"Feature","properties":{"Cell_ID":64,"Area_ha":1.0,"LC":"5:0.429162,9:0.563614,18:0.007224","XMIN":710504.86160847,"YMIN":8513301.048877683,"XMAX":710604.86160847,"YMAX":8513401.048877683},"geometry":{"type":"Polygon","coordinates":[[[-73.05473757456006,-13.44066208033832],[-73.0547448632581,-13.439758363972187],[-73.05566813890098,-13.439765496311312],[-73.05566085365709,-13.440669213174415],[-73.05473757456006,-13.44066208033832]]]}},{"type":"Feature","properties":{"Cell_ID":65,"Area_ha":1.0,"LC":"5:0.822408,6:0.122408,9:0.055184","XMIN":710504.86160847,"YMIN":8513201.048877683,"XMAX":710604.86160847,"YMAX":8513301.048877683},"geometry":{"type":"Polygon","coordinates":[[[-73.05473028532637,-13.441565796635832],[-73.05473757456006,-13.44066208033832],[-73.05566085365709,-13.440669213174415],[-73.05565356787777,-13.441572929968899],[-73.05473028532637,-13.441565796635832]]]}},{"type":"Feature","properties":{"Cell_ID":66,"Area_ha":1.0,"LC":"5:0.504847,6:0.495153","XMIN":710504.86160847,"YMIN":8513101.048877683,"XMAX":710604.86160847,"YMAX":8513201.048877683},"geometry":{"type":"Polygon","coordinates":[[[-73.054722995557,-13.442469512864717],[-73.05473028532637,-13.441565796635832],[-73.05565356787777,-13.441572929968899],[-73.05564628156303,-13.44247664669476],[-73.054722995557,-13.442469512864717]]]}},{"type":"Feature","properties":{"Cell_ID":67,"Area_ha":1.0,"LC":"5:0.447960,6:0.037592,9:0.369632,13:0.144816","XMIN":710504.86160847,"YMIN":8513001.048877683,"XMAX":710604.86160847,"YMAX":8513101.048877683},"geometry":{"type":"Polygon","coordinates":[[[-73.05471570525194,-13.443373229024973],[-73.054722995557,-13.442469512864717],[-73.05564628156303,-13.44247664669476],[-73.05563899471282,-13.443380363351991],[-73.05471570525194,-13.443373229024973]]]}},{"type":"Feature","properties":{"Cell_ID":68,"Area_ha":1.0,"LC":"5:0.150368,9:0.401939,13:0.447693","XMIN":710504.86160847,"YMIN":8512901.048877683,"XMAX":710604.86160847,"YMAX":8513001.048877683},"geometry":{"type":"Polygon","coordinates":[[[-73.05470841441118,-13.444276945116595],[-73.05471570525194,-13.443373229024973],[-73.05563899471282,-13.443380363351991],[-73.05563170732721,-13.444284079940596],[-73.05470841441118,-13.444276945116595]]]}},{"type":"Feature","properties":{"Cell_ID":69,"Area_ha":1.0,"LC":"9:0.520000,13:0.480000","XMIN":710504.86160847,"YMIN":8512801.048877683,"XMAX":710604.86160847,"YMAX":8512901.048877683},"geometry":{"type":"Polygon","coordinates":[[[-73.05470112303469,-13.445180661139576],[-73.05470841441118,-13.444276945116595],[-73.05563170732721,-13.444284079940596],[-73.05562441940612,-13.445187796460566],[-73.05470112303469,-13.445180661139576]]]}},{"type":"Feature","properties":{"Cell_ID":70,"Area_ha":1.0,"LC":"5:0.020969,7:0.358061,9:0.440000,13:0.180969","XMIN":710504.86160847,"YMIN":8512701.048877683,"XMAX":710604.86160847,"YMAX":8512801.048877683},"geometry":{"type":"Polygon","coordinates":[[[-73.0546938311225,-13.446084377093912],[-73.05470112303469,-13.445180661139576],[-73.05562441940612,-13.445187796460566],[-73.05561713094956,-13.446091512911892],[-73.0546938311225,-13.446084377093912]]]}},{"type":"Feature","properties":{"Cell_ID":71,"Area_ha":1.0,"LC":"9:0.272071,13:0.727929","XMIN":710504.86160847,"YMIN":8512601.048877683,"XMAX":710604.86160847,"YMAX":8512701.048877683},"geometry":{"type":"Polygon","coordinates":[[[-73.05468653867459,-13.446988092979609],[-73.0546938311225,-13.446084377093912],[-73.05561713094956,-13.446091512911892],[-73.05560984195753,-13.446995229294576],[-73.05468653867459,-13.446988092979609]]]}},{"type":"Feature","properties":{"Cell_ID":72,"Area_ha":1.0,"LC":"9:0.379531,13:0.620469","XMIN":710504.86160847,"YMIN":8512501.048877683,"XMAX":710604.86160847,"YMAX":8512601.048877683},"geometry":{"type":"Polygon","coordinates":[[[-73.05467924569093,-13.447891808796648],[-73.05468653867459,-13.446988092979609],[-73.05560984195753,-13.446995229294576],[-73.05560255243002,-13.447898945608614],[-73.05467924569093,-13.447891808796648]]]}},{"type":"Feature","properties":{"Cell_ID":73,"Area_ha":1.0,"LC":"5:0.490602,9:0.509398","XMIN":710604.86160847,"YMIN":8513301.048877683,"XMAX":710704.86160847,"YMAX":8513401.048877683},"geometry":{"type":"Polygon","coordinates":[[[-73.0538142959987,-13.44065494412096],[-73.05382158815084,-13.43975122825203],[-73.0547448632581,-13.439758363972187],[-73.05473757456006,-13.44066208033832],[-73.0538142959987,-13.44065494412096]]]}},{"type":"Feature","properties":{"Cell_ID":74,"Area_ha":1.0,"LC":"5:0.073012,6:0.253478,9:0.311807,14:0.361703","XMIN":710604.86160847,"YMIN":8513201.048877683,"XMAX":710704.86160847,"YMAX":8513301.048877683},"geometry":{"type":"Polygon","coordinates":[[[-73.05380700331065,-13.441558659921263],[-73.0538142959987,-13.44065494412096],[-73.05473757456006,-13.44066208033832],[-73.05473028532637,-13.441565796635832],[-73.05380700331065,-13.441558659921263]]]}},{"type":"Feature","properties":{"Cell_ID":75,"Area_ha":1.0,"LC":"5:0.489600,6:0.411338,7:0.013009,9:0.020969,14:0.065083","XMIN":710604.86160847,"YMIN":8513101.048877683,"XMAX":710704.86160847,"YMAX":8513201.048877683},"geometry":{"type":"Polygon","coordinates":[[[-73.05379971008666,-13.442462375652939],[-73.05380700331065,-13.441558659921263],[-73.05473028532637,-13.441565796635832],[-73.054722995557,-13.442469512864717],[-73.05379971008666,-13.442462375652939]]]}},{"type":"Feature","properties":{"Cell_ID":76,"Area_ha":1.0,"LC":"5:0.252777,6:0.211102,7:0.028930,9:0.507192","XMIN":710604.86160847,"YMIN":8513001.048877683,"XMAX":710704.86160847,"YMAX":8513101.048877683},"geometry":{"type":"Polygon","coordinates":[[[-73.05379241632674,-13.44336609131598],[-73.05379971008666,-13.442462375652939],[-73.054722995557,-13.442469512864717],[-73.05471570525194,-13.443373229024973],[-73.05379241632674,-13.44336609131598]]]}},{"type":"Feature","properties":{"Cell_ID":77,"Area_ha":1.0,"LC":"5:0.096887,6:0.007960,9:0.568899,13:0.326254","XMIN":710604.86160847,"YMIN":8512901.048877683,"XMAX":710704.86160847,"YMAX":8513001.048877683},"geometry":{"type":"Polygon","coordinates":[[[-73.05378512203085,-13.444269806910384],[-73.05379241632674,-13.44336609131598],[-73.05471570525194,-13.443373229024973],[-73.05470841441118,-13.444276945116595],[-73.05378512203085,-13.444269806910384]]]}},{"type":"Feature","properties":{"Cell_ID":78,"Area_ha":1.0,"LC":"5:0.354715,9:0.070133,13:0.575153","XMIN":710604.86160847,"YMIN":8512801.048877683,"XMAX":710704.86160847,"YMAX":8512901.048877683},"geometry":{"type":"Polygon","coordinates":[[[-73.053777827199,-13.445173522436145],[-73.05378512203085,-13.444269806910384],[-73.05470841441118,-13.444276945116595],[-73.05470112303469,-13.445180661139576],[-73.053777827199,-13.445173522436145]]]}},{"type":"Feature","properties":{"Cell_ID":79,"Area_ha":1.0,"LC":"5:0.577123,9:0.026991,13:0.395886","XMIN":710604.86160847,"YMIN":8512701.048877683,"XMAX":710704.86160847,"YMAX":8512801.048877683},"geometry":{"type":"Polygon","coordinates":[[[-73.05377053183118,-13.44607723789326],[-73.053777827199,-13.445173522436145],[-73.05470112303469,-13.445180661139576],[-73.0546938311225,-13.446084377093912],[-73.05377053183118,-13.44607723789326]]]}},{"type":"Feature","properties":{"Cell_ID":80,"Area_ha":1.0,"LC":"9:0.400201,13:0.599799","XMIN":710604.86160847,"YMIN":8512601.048877683,"XMAX":710704.86160847,"YMAX":8512701.048877683},"geometry":{"type":"Polygon","coordinates":[[[-73.05376323592736,-13.446980953281725],[-73.05377053183118,-13.44607723789326],[-73.0546938311225,-13.446084377093912],[-73.05468653867459,-13.446988092979609],[-73.05376323592736,-13.446980953281725]]]}},{"type":"Feature","properties":{"Cell_ID":81,"Area_ha":1.0,"LC":"5:0.138795,9:0.706522,13:0.154683","XMIN":710604.86160847,"YMIN":8512501.048877683,"XMAX":710704.86160847,"YMAX":8512601.048877683},"geometry":{"type":"Polygon","coordinates":[[[-73.05375593948757,-13.44788466860153],[-73.05376323592736,-13.446980953281725],[-73.05468653867459,-13.446988092979609],[-73.05467924569093,-13.447891808796648],[-73.05375593948757,-13.44788466860153]]]}},{"type":"Feature","properties":{"Cell_ID":82,"Area_ha":1.0,"LC":"6:0.019031,7:0.036622,9:0.493510,14:0.450838","XMIN":710704.86160847,"YMIN":8513101.048877683,"XMAX":710804.86160847,"YMAX":8513201.048877683},"geometry":{"type":"Polygon","coordinates":[[[-73.05287642515229,-13.442455235059434],[-73.05288372183088,-13.441551519825206],[-73.05380700331065,-13.441558659921263],[-73.05379971008666,-13.442462375652939],[-73.05287642515229,-13.442455235059434]]]}},{"type":"Feature","properties":{"Cell_ID":83,"Area_ha":1.0,"LC":"6:0.068898,7:0.675650,9:0.194482,13:0.060969","XMIN":710704.86160847,"YMIN":8513001.048877683,"XMAX":710804.86160847,"YMAX":8513101.048877683},"geometry":{"type":"Polygon","coordinates":[[[-73.05286912793748,-13.443358950225027],[-73.05287642515229,-13.442455235059434],[-73.05379971008666,-13.442462375652939],[-73.05379241632674,-13.44336609131598],[-73.05286912793748,-13.443358950225027]]]}},{"type":"Feature","properties":{"Cell_ID":84,"Area_ha":1.0,"LC":"5:0.192744,6:0.007224,7:0.800032","XMIN":710704.86160847,"YMIN":8512901.048877683,"XMAX":710804.86160847,"YMAX":8513001.048877683},"geometry":{"type":"Polygon","coordinates":[[[-73.05286183018649,-13.444262665321974],[-73.05286912793748,-13.443358950225027],[-73.05379241632674,-13.44336609131598],[-73.05378512203085,-13.444269806910384],[-73.05286183018649,-13.444262665321974]]]}},{"type":"Feature","properties":{"Cell_ID":85,"Area_ha":1.0,"LC":"5:0.085285,7:0.219298,9:0.695417","XMIN":710704.86160847,"YMIN":8512801.048877683,"XMAX":710804.86160847,"YMAX":8512901.048877683},"geometry":{"type":"Polygon","coordinates":[[[-73.05285453189927,-13.44516638035028],[-73.05286183018649,-13.444262665321974],[-73.05378512203085,-13.444269806910384],[-73.053777827199,-13.445173522436145],[-73.05285453189927,-13.44516638035028]]]}},{"type":"Feature","properties":{"Cell_ID":86,"Area_ha":1.0,"LC":"5:0.192276,7:0.310133,9:0.466755,13:0.030837","XMIN":710704.86160847,"YMIN":8512701.048877683,"XMAX":710804.86160847,"YMAX":8512801.048877683},"geometry":{"type":"Polygon","coordinates":[[[-73.05284723307582,-13.446070095309931],[-73.05285453189927,-13.44516638035028],[-73.053777827199,-13.445173522436145],[-73.05377053183118,-13.44607723789326],[-73.05284723307582,-13.446070095309931]]]}},{"type":"Feature","properties":{"Cell_ID":87,"Area_ha":1.0,"LC":"7:0.007960,9:0.725785,13:0.266255","XMIN":710704.86160847,"YMIN":8512601.048877683,"XMAX":710804.86160847,"YMAX":8512701.048877683},"geometry":{"type":"Polygon","coordinates":[[[-73.05283993371616,-13.446973810200932],[-73.05284723307582,-13.446070095309931],[-73.05377053183118,-13.44607723789326],[-73.05376323592736,-13.446980953281725],[-73.05283993371616,-13.446973810200932]]]}},{"type":"Feature","properties":{"Cell_ID":88,"Area_ha":1.0,"LC":"5:0.303110,9:0.696890","XMIN":710704.86160847,"YMIN":8512501.048877683,"XMAX":710804.86160847,"YMAX":8512601.048877683},"geometry":{"type":"Polygon","coordinates":[[[-73.05283263382023,-13.447877525023273],[-73.05283993371616,-13.446973810200932],[-73.05376323592736,-13.446980953281725],[-73.05375593948757,-13.44788466860153],[-73.05283263382023,-13.447877525023273]]]}},{"type":"Feature","properties":{"Cell_ID":89,"Area_ha":1.0,"LC":"5:0.174951,9:0.745284,13:0.079764","XMIN":710704.86160847,"YMIN":8512401.048877683,"XMAX":710804.86160847,"YMAX":8512501.048877683},"geometry":{"type":"Polygon","coordinates":[[[-73.05282533338804,-13.448781239776949],[-73.05283263382023,-13.447877525023273],[-73.05375593948757,-13.44788466860153],[-73.05374864251178,-13.448788383852676],[-73.05282533338804,-13.448781239776949]]]}},{"type":"Feature","properties":{"Cell_ID":90,"Area_ha":1.0,"LC":"7:0.793947,13:0.206053","XMIN":710804.86160847,"YMIN":8512901.048877683,"XMAX":710904.86160847,"YMAX":8513001.048877683},"geometry":{"type":"Polygon","coordinates":[[[-73.05193853887836,-13.444255520351376],[-73.05194584008446,-13.443351805752116],[-73.05286912793748,-13.443358950225027],[-73.05286183018649,-13.444262665321974],[-73.05193853887836,-13.444255520351376]]]}},{"type":"Feature","properties":{"Cell_ID":91,"Area_ha":1.0,"LC":"7:0.397860,9:0.602140","XMIN":710804.86160847,"YMIN":8512801.048877683,"XMAX":710904.86160847,"YMAX":8512901.048877683},"geometry":{"type":"Polygon","coordinates":[[[-73.05193123713578,-13.445159234881988],[-73.05193853887836,-13.444255520351376],[-73.05286183018649,-13.444262665321974],[-73.05285453189927,-13.44516638035028],[-73.05193123713578,-13.445159234881988]]]}},{"type":"Feature","properties":{"Cell_ID":92,"Area_ha":1.0,"LC":"7:0.189131,9:0.810869","XMIN":710804.86160847,"YMIN":8512701.048877683,"XMAX":710904.86160847,"YMAX":8512801.048877683},"geometry":{"type":"Polygon","coordinates":[[[-73.05192393485672,-13.446062949343947],[-73.05193123713578,-13.445159234881988],[-73.05285453189927,-13.44516638035028],[-73.05284723307582,-13.446070095309931],[-73.05192393485672,-13.446062949343947]]]}},{"type":"Feature","properties":{"Cell_ID":93,"Area_ha":1.0,"LC":"7:0.450869,9:0.038797,13:0.510334","XMIN":710804.86160847,"YMIN":8512601.048877683,"XMAX":710904.86160847,"YMAX":8512701.048877683},"geometry":{"type":"Polygon","coordinates":[[[-73.05191663204118,-13.446966663737244],[-73.05192393485672,-13.446062949343947],[-73.05284723307582,-13.446070095309931],[-73.05283993371616,-13.446973810200932],[-73.05191663204118,-13.446966663737244]]]}},{"type":"Feature","properties":{"Cell_ID":94,"Area_ha":1.0,"LC":"5:0.114447,9:0.595886,13:0.289666","XMIN":710804.86160847,"YMIN":8512501.048877683,"XMAX":710904.86160847,"YMAX":8512601.048877683},"geometry":{"type":"Polygon","coordinates":[[[-73.05190932868913,-13.44787037806188],[-73.05191663204118,-13.446966663737244],[-73.05283993371616,-13.446973810200932],[-73.05283263382023,-13.447877525023273],[-73.05190932868913,-13.44787037806188]]]}},{"type":"Feature","properties":{"Cell_ID":95,"Area_ha":1.0,"LC":"5:0.245553,9:0.104347,13:0.650100","XMIN":710804.86160847,"YMIN":8512401.048877683,"XMAX":710904.86160847,"YMAX":8512501.048877683},"geometry":{"type":"Polygon","coordinates":[[[-73.05190202480058,-13.44877409231785],[-73.05190932868913,-13.44787037806188],[-73.05283263382023,-13.447877525023273],[-73.05282533338804,-13.448781239776949],[-73.05190202480058,-13.44877409231785]]]}},{"type":"Feature","properties":{"Cell_ID":96,"Area_ha":1.0,"LC":"7:0.217092,9:0.395685,13:0.387223","XMIN":710904.86160847,"YMIN":8512601.048877683,"XMAX":711004.86160847,"YMAX":8512701.048877683},"geometry":{"type":"Polygon","coordinates":[[[-73.0509933309027,-13.44695951389067],[-73.0510006371741,-13.446055799995305],[-73.05192393485672,-13.446062949343947],[-73.05191663204118,-13.446966663737244],[-73.0509933309027,-13.44695951389067]]]}},{"type":"Feature","properties":{"Cell_ID":97,"Area_ha":1.0,"LC":"5:0.036622,9:0.525518,13:0.437860","XMIN":710904.86160847,"YMIN":8512501.048877683,"XMAX":711004.86160847,"YMAX":8512601.048877683},"geometry":{"type":"Polygon","coordinates":[[[-73.05098602409454,-13.447863227717367],[-73.0509933309027,-13.44695951389067],[-73.05191663204118,-13.446966663737244],[-73.05190932868913,-13.44787037806188],[-73.05098602409454,-13.447863227717367]]]}},{"type":"Feature","properties":{"Cell_ID":98,"Area_ha":1.0,"LC":"5:0.222408,9:0.520736,13:0.256856","XMIN":710904.86160847,"YMIN":8512401.048877683,"XMAX":711004.86160847,"YMAX":8512501.048877683},"geometry":{"type":"Polygon","coordinates":[[[-73.05097871674963,-13.448766941475395],[-73.05098602409454,-13.447863227717367],[-73.05190932868913,-13.44787037806188],[-73.05190202480058,-13.44877409231785],[-73.05097871674963,-13.448766941475395]]]}},{"type":"Feature","properties":{"Cell_ID":99,"Area_ha":1.0,"LC":"5:0.411605,9:0.524079,13:0.064316","XMIN":711004.86160847,"YMIN":8512501.048877683,"XMAX":711104.86160847,"YMAX":8512601.048877683},"geometry":{"type":"Polygon","coordinates":[[[-73.05006272003672,-13.44785607398974],[-73.05007003030097,-13.446952360661218],[-73.0509933309027,-13.44695951389067],[-73.05098602409454,-13.447863227717367],[-73.05006272003672,-13.44785607398974]]]}},{"type":"Feature","properties":{"Cell_ID":100,"Area_ha":1.0,"LC":"5:0.299031,9:0.395921,13:0.305049","XMIN":711004.86160847,"YMIN":8512401.048877683,"XMAX":711104.86160847,"YMAX":8512501.048877683},"geometry":{"type":"Polygon","coordinates":[[[-73.05005540923545,-13.44875978724959],[-73.05006272003672,-13.44785607398974],[-73.05098602409454,-13.447863227717367],[-73.05097871674963,-13.448766941475395],[-73.05005540923545,-13.44875978724959]]]}},{"type":"Feature","properties":{"Cell_ID":101,"Area_ha":1.0,"LC":"13:1.000000","XMIN":711004.86160847,"YMIN":8512301.048877683,"XMAX":711104.86160847,"YMAX":8512401.048877683},"geometry":{"type":"Polygon","coordinates":[[[-73.05004809789715,-13.44966350044076],[-73.05005540923545,-13.44875978724959],[-73.05097871674963,-13.448766941475395],[-73.05097140886794,-13.449670655164747],[-73.05004809789715,-13.44966350044076]]]}},{"type":"Feature","properties":{"Cell_ID":102,"Area_ha":1.0,"LC":"5:0.229868,9:0.423110,13:0.347022","XMIN":711104.86160847,"YMIN":8512501.048877683,"XMAX":711204.86160847,"YMAX":8512601.048877683},"geometry":{"type":"Polygon","coordinates":[[[-73.04913941651591,-13.44784891687901],[-73.04914673023626,-13.446945204048895],[-73.05007003030097,-13.446952360661218],[-73.05006272003672,-13.44785607398974],[-73.04913941651591,-13.44784891687901]]]}},{"type":"Feature","properties":{"Cell_ID":103,"Area_ha":1.0,"LC":"9:0.614951,13:0.385049","XMIN":711104.86160847,"YMIN":8512401.048877683,"XMAX":711204.86160847,"YMAX":8512501.048877683},"geometry":{"type":"Polygon","coordinates":[[[-73.04913210225831,-13.448752629640444],[-73.04913941651591,-13.44784891687901],[-73.05006272003672,-13.44785607398974],[-73.05005540923545,-13.44875978724959],[-73.04913210225831,-13.448752629640444]]]}},{"type":"Feature","properties":{"Cell_ID":104,"Area_ha":1.0,"LC":"13:1.000000","XMIN":711104.86160847,"YMIN":8512301.048877683,"XMAX":711204.86160847,"YMAX":8512401.048877683},"geometry":{"type":"Polygon","coordinates":[[[-73.0491247874634,-13.449656342333196],[-73.04913210225831,-13.448752629640444],[-73.05005540923545,-13.44875978724959],[-73.05004809789715,-13.44966350044076],[-73.0491247874634,-13.449656342333196]]]}},{"type":"Feature","properties":{"Cell_ID":105,"Area_ha":1.0,"LC":"13:1.000000","XMIN":711104.86160847,"YMIN":8512201.048877683,"XMAX":711204.86160847,"YMAX":8512301.048877683},"geometry":{"type":"Polygon","coordinates":[[[-73.04911747213123,-13.450560054957263],[-73.0491247874634,-13.449656342333196],[-73.05004809789715,-13.44966350044076],[-73.05004078602181,-13.450567213563248],[-73.04911747213123,-13.450560054957263]]]}},{"type":"Feature","properties":{"Cell_ID":106,"Area_ha":1.0,"LC":"5:0.485549,9:0.181438,13:0.333013","XMIN":711204.86160847,"YMIN":8512501.048877683,"XMAX":711304.86160847,"YMAX":8512601.048877683},"geometry":{"type":"Polygon","coordinates":[[[-73.04821611353239,-13.447841756385179],[-73.04822343070882,-13.446938044053713],[-73.04914673023626,-13.446945204048895],[-73.04913941651591,-13.44784891687901],[-73.04821611353239,-13.447841756385179]]]}},{"type":"Feature","properties":{"Cell_ID":107,"Area_ha":1.0,"LC":"5:0.139298,9:0.155654,13:0.705049","XMIN":711204.86160847,"YMIN":8512401.048877683,"XMAX":711304.86160847,"YMAX":8512501.048877683},"geometry":{"type":"Polygon","coordinates":[[[-73.04820879581843,-13.448745468647967],[-73.04821611353239,-13.447841756385179],[-73.04913941651591,-13.44784891687901],[-73.04913210225831,-13.448752629640444],[-73.04820879581843,-13.448745468647967]]]}},{"type":"Feature","properties":{"Cell_ID":108,"Area_ha":1.0,"LC":"13:1.000000","XMIN":711204.86160847,"YMIN":8512301.048877683,"XMAX":711304.86160847,"YMAX":8512401.048877683},"geometry":{"type":"Polygon","coordinates":[[[-73.04820147756695,-13.449649180842066],[-73.04820879581843,-13.448745468647967],[-73.04913210225831,-13.448752629640444],[-73.0491247874634,-13.449656342333196],[-73.04820147756695,-13.449649180842066]]]}},{"type":"Feature","properties":{"Cell_ID":109,"Area_ha":1.0,"LC":"13:1.000000","XMIN":711204.86160847,"YMIN":8512201.048877683,"XMAX":711304.86160847,"YMAX":8512301.048877683},"geometry":{"type":"Polygon","coordinates":[[[-73.04819415877792,-13.450552892967478],[-73.04820147756695,-13.449649180842066],[-73.0491247874634,-13.449656342333196],[-73.04911747213123,-13.450560054957263],[-73.04819415877792,-13.450552892967478]]]}},{"type":"Feature","properties":{"Cell_ID":110,"Area_ha":1.0,"LC":"9:0.061438,13:0.938562","XMIN":711204.86160847,"YMIN":8512101.048877683,"XMAX":711304.86160847,"YMAX":8512201.048877683},"geometry":{"type":"Polygon","coordinates":[[[-73.04818683945135,-13.451456605024195],[-73.04819415877792,-13.450552892967478],[-73.04911747213123,-13.450560054957263],[-73.04911015626173,-13.451463767512639],[-73.04818683945135,-13.451456605024195]]]}},{"type":"Feature","properties":{"Cell_ID":111,"Area_ha":1.0,"LC":"5:0.477860,9:0.033979,13:0.488161","XMIN":711304.86160847,"YMIN":8512401.048877683,"XMAX":711404.86160847,"YMAX":8512501.048877683},"geometry":{"type":"Polygon","coordinates":[[[-73.0472854899161,-13.448738304272169],[-73.04729281108638,-13.447834592508263],[-73.04821611353239,-13.447841756385179],[-73.04820879581843,-13.448745468647967],[-73.0472854899161,-13.448738304272169]]]}},{"type":"Feature","properties":{"Cell_ID":112,"Area_ha":1.0,"LC":"5:0.182908,9:0.028930,13:0.788162","XMIN":711304.86160847,"YMIN":8512301.048877683,"XMAX":711404.86160847,"YMAX":8512401.048877683},"geometry":{"type":"Polygon","coordinates":[[[-73.04727816820804,-13.44964201596738],[-73.0472854899161,-13.448738304272169],[-73.04820879581843,-13.448745468647967],[-73.04820147756695,-13.449649180842066],[-73.04727816820804,-13.44964201596738]]]}},{"type":"Feature","properties":{"Cell_ID":113,"Area_ha":1.0,"LC":"9:0.220734,13:0.779266","XMIN":711304.86160847,"YMIN":8512201.048877683,"XMAX":711404.86160847,"YMAX":8512301.048877683},"geometry":{"type":"Polygon","coordinates":[[[-73.04727084596219,-13.450545727593896],[-73.04727816820804,-13.44964201596738],[-73.04820147756695,-13.449649180842066],[-73.04819415877792,-13.450552892967478],[-73.04727084596219,-13.450545727593896]]]}},{"type":"Feature","properties":{"Cell_ID":114,"Area_ha":1.0,"LC":"5:0.020969,9:0.105083,13:0.873947","XMIN":711304.86160847,"YMIN":8512101.048877683,"XMAX":711404.86160847,"YMAX":8512201.048877683},"geometry":{"type":"Polygon","coordinates":[[[-73.04726352317851,-13.451449439151718],[-73.04727084596219,-13.450545727593896],[-73.04819415877792,-13.450552892967478],[-73.04818683945135,-13.451456605024195],[-73.04726352317851,-13.451449439151718]]]}}]}