{"type":"FeatureCollection","features":[{"type":"Feature","properties":{"Cell_ID":1,"Area_ha":1.0,"LC":"7:0.239024,9:0.657276,14:0.000243,17:0.006201","XMIN":710251.641768496,"YMIN":8513873.59738907,"XMAX":710351.641768496,"YMAX":8513973.59738907},"geometry":{"type":"Polygon","coordinates":[[[-73.05711717546704,-13.435505912803102],[-73.05712445235542,-13.434602194786248],[-73.05804770958184,-13.434609315721996],[-73.05804043614616,-13.4355130342352],[-73.05711717546704,-13.435505912803102]]]}},{"type":"Feature","properties":{"Cell_ID":2,"Area_ha":1.0,"LC":"9:0.447942,14:0.423308","XMIN":710351.641768496,"YMIN":8514073.59738907,"XMAX":710451.641768496,"YMAX":8514173.59738907},"geometry":{"type":"Polygon","coordinates":[[[-73.0562084754698,-13.433691352881938],[-73.05621575474042,-13.4327876352245],[-73.05713900452729,-13.43279475854679],[-73.05713172870882,-13.43369847670081],[-73.0562084754698,-13.433691352881938]]]}},{"type":"Feature","properties":{"Cell_ID":3,"Area_ha":1.0,"LC":"5:0.074006,9:0.349379,14:0.576615","XMIN":710351.641768496,"YMIN":8513973.59738907,"XMAX":710451.641768496,"YMAX":8514073.59738907},"geometry":{"type":"Polygon","coordinates":[[[-73.05620119566396,-13.434595070470797],[-73.0562084754698,-13.433691352881938],[-73.05713172870882,-13.43369847670081],[-73.05712445235542,-13.434602194786248],[-73.05620119566396,-13.434595070470797]]]}},{"type":"Feature","properties":{"Cell_ID":4,"Area_ha":1.0,"LC":"5:0.075054,9:0.924345,14:0.000601","XMIN":710351.641768496,"YMIN":8513873.59738907,"XMAX":710451.641768496,"YMAX":8513973.59738907},"geometry":{"type":"Polygon","coordinates":[[[-73.0561939153229,-13.435498787991062],[-73.05620119566396,-13.434595070470797],[-73.05712445235542,-13.434602194786248],[-73.05711717546704,-13.435505912803102],[-73.0561939153229,-13.435498787991062]]]}},{"type":"Feature","properties":{"Cell_ID":5,"Area_ha":1.0,"LC":"9:0.251690,17:0.322632","XMIN":710451.641768496,"YMIN":8514273.59738907,"XMAX":710551.641768496,"YMAX":8514373.59738907},"geometry":{"type":"Polygon","coordinates":[[[-73.05529978767609,-13.431876791293783],[-73.055307069328,-13.430973073996],[-73.05623031167609,-13.430980199703894],[-73.05622303347586,-13.431883917498487],[-73.05529978767609,-13.431876791293783]]]}},{"type":"Feature","properties":{"Cell_ID":6,"Area_ha":1.0,"LC":"9:0.823027,14:0.005432,17:0.171536","XMIN":710451.641768496,"YMIN":8514173.59738907,"XMAX":710551.641768496,"YMAX":8514273.59738907},"geometry":{"type":"Polygon","coordinates":[[[-73.05529250548875,-13.432780508522988],[-73.05529978767609,-13.431876791293783],[-73.05622303347586,-13.431883917498487],[-73.05621575474042,-13.4327876352245],[-73.05529250548875,-13.432780508522988]]]}},{"type":"Feature","properties":{"Cell_ID":7,"Area_ha":1.0,"LC":"9:0.863871,14:0.136129","XMIN":710451.641768496,"YMIN":8514073.59738907,"XMAX":710551.641768496,"YMAX":8514173.59738907},"geometry":{"type":"Polygon","coordinates":[[[-73.05528522276596,-13.433684225683612],[-73.05529250548875,-13.432780508522988],[-73.05621575474042,-13.4327876352245],[-73.0562084754698,-13.433691352881938],[-73.05528522276596,-13.433684225683612]]]}},{"type":"Feature","properties":{"Cell_ID":8,"Area_ha":1.0,"LC":"5:0.198594,9:0.801086,14:0.000320","XMIN":710451.641768496,"YMIN":8513973.59738907,"XMAX":710551.641768496,"YMAX":8514073.59738907},"geometry":{"type":"Polygon","coordinates":[[[-73.0552779395077,-13.434587942775652],[-73.05528522276596,-13.433684225683612],[-73.0562084754698,-13.433691352881938],[-73.05620119566396,-13.434595070470797],[-73.0552779395077,-13.434587942775652]]]}},{"type":"Feature","properties":{"Cell_ID":9,"Area_ha":1.0,"LC":"5:0.898158,9:0.101842","XMIN":710451.641768496,"YMIN":8513873.59738907,"XMAX":710551.641768496,"YMAX":8513973.59738907},"geometry":{"type":"Polygon","coordinates":[[[-73.05527065571398,-13.435491659799094],[-73.0552779395077,-13.434587942775652],[-73.05620119566396,-13.434595070470797],[-73.0561939153229,-13.435498787991062],[-73.05527065571398,-13.435491659799094]]]}},{"type":"Feature","properties":{"Cell_ID":10,"Area_ha":1.0,"LC":"9:0.548777,14:0.184113,17:0.045341","XMIN":710551.641768496,"YMIN":8514373.59738907,"XMAX":710651.641768496,"YMAX":8514473.59738907},"geometry":{"type":"Polygon","coordinates":[[[-73.05438382751532,-13.430965944909362],[-73.05439111208318,-13.430062228040043],[-73.05531435044445,-13.430069356629645],[-73.055307069328,-13.430973073996],[-73.05438382751532,-13.430965944909362]]]}},{"type":"Feature","properties":{"Cell_ID":11,"Area_ha":1.0,"LC":"9:0.999962,17:0.000038","XMIN":710551.641768496,"YMIN":8514273.59738907,"XMAX":710651.641768496,"YMAX":8514373.59738907},"geometry":{"type":"Polygon","coordinates":[[[-73.05437654241179,-13.4318696617101],[-73.05438382751532,-13.430965944909362],[-73.055307069328,-13.430973073996],[-73.05529978767609,-13.431876791293783],[-73.05437654241179,-13.4318696617101]]]}},{"type":"Feature","properties":{"Cell_ID":12,"Area_ha":1.0,"LC":"9:1.000000","XMIN":710551.641768496,"YMIN":8514173.59738907,"XMAX":710651.641768496,"YMAX":8514273.59738907},"geometry":{"type":"Polygon","coordinates":[[[-73.05436925677255,-13.432773378442262],[-73.05437654241179,-13.4318696617101],[-73.05529978767609,-13.431876791293783],[-73.05529250548875,-13.432780508522988],[-73.05436925677255,-13.432773378442262]]]}},{"type":"Feature","properties":{"Cell_ID":13,"Area_ha":1.0,"LC":"9:1.000000","XMIN":710551.641768496,"YMIN":8514073.59738907,"XMAX":710651.641768496,"YMAX":8514173.59738907},"geometry":{"type":"Polygon","coordinates":[[[-73.0543619705976,-13.433677095105832],[-73.05436925677255,-13.432773378442262],[-73.05529250548875,-13.432780508522988],[-73.05528522276596,-13.433684225683612],[-73.0543619705976,-13.433677095105832]]]}},{"type":"Feature","properties":{"Cell_ID":14,"Area_ha":1.0,"LC":"5:0.233686,9:0.766314","XMIN":710551.641768496,"YMIN":8513973.59738907,"XMAX":710651.641768496,"YMAX":8514073.59738907},"geometry":{"type":"Polygon","coordinates":[[[-73.05435468388694,-13.434580811700814],[-73.0543619705976,-13.433677095105832],[-73.05528522276596,-13.433684225683612],[-73.0552779395077,-13.434587942775652],[-73.05435468388694,-13.434580811700814]]]}},{"type":"Feature","properties":{"Cell_ID":15,"Area_ha":1.0,"LC":"5:0.227875,9:0.235092,14:0.537033","XMIN":710551.641768496,"YMIN":8513873.59738907,"XMAX":710651.641768496,"YMAX":8513973.59738907},"geometry":{"type":"Polygon","coordinates":[[[-73.05434739664057,-13.435484528227201],[-73.05435468388694,-13.434580811700814],[-73.0552779395077,-13.434587942775652],[-73.05527065571398,-13.435491659799094],[-73.05434739664057,-13.435484528227201]]]}},{"type":"Feature","properties":{"Cell_ID":16,"Area_ha":1.0,"LC":"5:0.091260,9:0.183589,14:0.725151","XMIN":710551.641768496,"YMIN":8513773.59738907,"XMAX":710651.641768496,"YMAX":8513873.59738907},"geometry":{"type":"Polygon","coordinates":[[[-73.05434010885844,-13.436388244684991],[-73.05434739664057,-13.435484528227201],[-73.05527065571398,-13.435491659799094],[-73.05526337138478,-13.436395376753945],[-73.05434010885844,-13.436388244684991]]]}},{"type":"Feature","properties":{"Cell_ID":17,"Area_ha":1.0,"LC":"7:0.685607","XMIN":710651.641768496,"YMIN":8514573.59738907,"XMAX":710751.641768496,"YMAX":8514673.59738907},"geometry":{"type":"Polygon","coordinates":[[[-73.05347516174088,-13.42915137963133],[-73.05348244868826,-13.428247663122141],[-73.05440567961185,-13.4282547940957],[-73.05439839611535,-13.429158511102157],[-73.05347516174088,-13.42915137963133]]]}},{"type":"Feature","properties":{"Cell_ID":18,"Area_ha":1.0,"LC":"5:0.724624,7:0.037534,9:0.137876,14:0.090621","XMIN":710651.641768496,"YMIN":8514473.59738907,"XMAX":710751.641768496,"YMAX":8514573.59738907},"geometry":{"type":"Polygon","coordinates":[[[-73.05346787425756,-13.430055096071944],[-73.05347516174088,-13.42915137963133],[-73.05439839611535,-13.429158511102157],[-73.05439111208318,-13.430062228040043],[-73.05346787425756,-13.430055096071944]]]}},{"type":"Feature","properties":{"Cell_ID":19,"Area_ha":1.0,"LC":"5:0.000844,7:0.433443,9:0.285393,14:0.280320","XMIN":710651.641768496,"YMIN":8514373.59738907,"XMAX":710751.641768496,"YMAX":8514473.59738907},"geometry":{"type":"Polygon","coordinates":[[[-73.05346058623834,-13.430958812443986],[-73.05346787425756,-13.430055096071944],[-73.05439111208318,-13.430062228040043],[-73.05438382751532,-13.430965944909362],[-73.05346058623834,-13.430958812443986]]]}},{"type":"Feature","properties":{"Cell_ID":20,"Area_ha":1.0,"LC":"7:0.339206,9:0.660794","XMIN":710651.641768496,"YMIN":8514273.59738907,"XMAX":710751.641768496,"YMAX":8514373.59738907},"geometry":{"type":"Polygon","coordinates":[[[-73.05345329768316,-13.43186252874745],[-73.05346058623834,-13.430958812443986],[-73.05438382751532,-13.430965944909362],[-73.05437654241179,-13.4318696617101],[-73.05345329768316,-13.43186252874745]]]}},{"type":"Feature","properties":{"Cell_ID":21,"Area_ha":1.0,"LC":"9:1.000000","XMIN":710651.641768496,"YMIN":8514173.59738907,"XMAX":710751.641768496,"YMAX":8514273.59738907},"geometry":{"type":"Polygon","coordinates":[[[-73.05344600859203,-13.432766244982325],[-73.05345329768316,-13.43186252874745],[-73.05437654241179,-13.4318696617101],[-73.05436925677255,-13.432773378442262],[-73.05344600859203,-13.432766244982325]]]}},{"type":"Feature","properties":{"Cell_ID":22,"Area_ha":1.0,"LC":"9:0.760281,13:0.239719","XMIN":710651.641768496,"YMIN":8514073.59738907,"XMAX":710751.641768496,"YMAX":8514173.59738907},"geometry":{"type":"Polygon","coordinates":[[[-73.05343871896496,-13.43366996114861],[-73.05344600859203,-13.432766244982325],[-73.05436925677255,-13.432773378442262],[-73.0543619705976,-13.433677095105832],[-73.05343871896496,-13.43366996114861]]]}},{"type":"Feature","properties":{"Cell_ID":23,"Area_ha":1.0,"LC":"5:0.130058,9:0.531541,13:0.338400","XMIN":710651.641768496,"YMIN":8513973.59738907,"XMAX":710751.641768496,"YMAX":8514073.59738907},"geometry":{"type":"Polygon","coordinates":[[[-73.0534314288019,-13.434573677246304],[-73.05343871896496,-13.43366996114861],[-73.0543619705976,-13.433677095105832],[-73.05435468388694,-13.434580811700814],[-73.0534314288019,-13.434573677246304]]]}},{"type":"Feature","properties":{"Cell_ID":24,"Area_ha":1.0,"LC":"5:0.149942,9:0.548778,14:0.301280","XMIN":710651.641768496,"YMIN":8513873.59738907,"XMAX":710751.641768496,"YMAX":8513973.59738907},"geometry":{"type":"Polygon","coordinates":[[[-73.05342413810287,-13.435477393275399],[-73.0534314288019,-13.434573677246304],[-73.05435468388694,-13.434580811700814],[-73.05434739664057,-13.435484528227201],[-73.05342413810287,-13.435477393275399]]]}},{"type":"Feature","properties":{"Cell_ID":25,"Area_ha":1.0,"LC":"9:0.805151,13:0.143347,14:0.051503","XMIN":710651.641768496,"YMIN":8513773.59738907,"XMAX":710751.641768496,"YMAX":8513873.59738907},"geometry":{"type":"Polygon","coordinates":[[[-73.05341684686785,-13.436381109235892],[-73.05342413810287,-13.435477393275399],[-73.05434739664057,-13.435484528227201],[-73.05434010885844,-13.436388244684991],[-73.05341684686785,-13.436381109235892]]]}},{"type":"Feature","properties":{"Cell_ID":26,"Area_ha":1.0,"LC":"9:0.452969,13:0.000243,14:0.546789","XMIN":710651.641768496,"YMIN":8513673.59738907,"XMAX":710751.641768496,"YMAX":8513773.59738907},"geometry":{"type":"Polygon","coordinates":[[[-73.05340955509682,-13.43728482512778],[-73.05341684686785,-13.436381109235892],[-73.05434010885844,-13.436388244684991],[-73.05433282054057,-13.43729196107418],[-73.05340955509682,-13.43728482512778]]]}},{"type":"Feature","properties":{"Cell_ID":27,"Area_ha":1.0,"LC":"7:0.050621,9:0.869021,13:0.034287,14:0.046071","XMIN":710651.641768496,"YMIN":8513573.59738907,"XMAX":710751.641768496,"YMAX":8513673.59738907},"geometry":{"type":"Polygon","coordinates":[[[-73.05340226278979,-13.438188540951055],[-73.05340955509682,-13.43728482512778],[-73.05433282054057,-13.43729196107418],[-73.05432553168696,-13.43819567739476],[-73.05340226278979,-13.438188540951055]]]}},{"type":"Feature","properties":{"Cell_ID":28,"Area_ha":1.0,"LC":"7:0.000612,9:0.521842,14:0.222503","XMIN":710751.641768496,"YMIN":8514773.59738907,"XMAX":710851.641768496,"YMAX":8514873.59738907},"geometry":{"type":"Polygon","coordinates":[[[-73.05256650816264,-13.427336812690307],[-73.05257379748858,-13.426433096541485],[-73.05349702097529,-13.426440229898066],[-73.05348973509972,-13.427343946544385],[-73.05256650816264,-13.427336812690307]]]}},{"type":"Feature","properties":{"Cell_ID":29,"Area_ha":1.0,"LC":"7:0.175810,9:0.091260,14:0.732930","XMIN":710751.641768496,"YMIN":8514673.59738907,"XMAX":710851.641768496,"YMAX":8514773.59738907},"geometry":{"type":"Polygon","coordinates":[[[-73.05255921830057,-13.428240528770564],[-73.05256650816264,-13.427336812690307],[-73.05348973509972,-13.427343946544385],[-73.05348244868826,-13.428247663122141],[-73.05255921830057,-13.428240528770564]]]}},{"type":"Feature","properties":{"Cell_ID":30,"Area_ha":1.0,"LC":"7:0.307351,9:0.074006,14:0.618643","XMIN":710751.641768496,"YMIN":8514573.59738907,"XMAX":710851.641768496,"YMAX":8514673.59738907},"geometry":{"type":"Polygon","coordinates":[[[-73.05255192790231,-13.42914424478225],[-73.05255921830057,-13.428240528770564],[-73.05348244868826,-13.428247663122141],[-73.05347516174088,-13.42915137963133],[-73.05255192790231,-13.42914424478225]]]}},{"type":"Feature","properties":{"Cell_ID":31,"Area_ha":1.0,"LC":"5:0.417314,7:0.040601,9:0.382366,14:0.159719","XMIN":710751.641768496,"YMIN":8514473.59738907,"XMAX":710851.641768496,"YMAX":8514573.59738907},"geometry":{"type":"Polygon","coordinates":[[[-73.05254463696791,-13.430047960725357],[-73.05255192790231,-13.42914424478225],[-73.05347516174088,-13.42915137963133],[-73.05346787425756,-13.430055096071944],[-73.05254463696791,-13.430047960725357]]]}},{"type":"Feature","properties":{"Cell_ID":32,"Area_ha":1.0,"LC":"5:0.258924,7:0.005432,9:0.005509,14:0.730135","XMIN":710751.641768496,"YMIN":8514373.59738907,"XMAX":710851.641768496,"YMAX":8514473.59738907},"geometry":{"type":"Polygon","coordinates":[[[-73.0525373454973,-13.43095167659989],[-73.05254463696791,-13.430047960725357],[-73.05346787425756,-13.430055096071944],[-73.05346058623834,-13.430958812443986],[-73.0525373454973,-13.43095167659989]]]}},{"type":"Feature","properties":{"Cell_ID":33,"Area_ha":1.0,"LC":"5:0.034530,7:0.844422,9:0.045151,14:0.075897","XMIN":710751.641768496,"YMIN":8514273.59738907,"XMAX":710851.641768496,"YMAX":8514373.59738907},"geometry":{"type":"Polygon","coordinates":[[[-73.0525300534905,-13.431855392405833],[-73.0525373454973,-13.43095167659989],[-73.05346058623834,-13.430958812443986],[-73.05345329768316,-13.43186252874745],[-73.0525300534905,-13.431855392405833]]]}},{"type":"Feature","properties":{"Cell_ID":34,"Area_ha":1.0,"LC":"7:0.001086,9:0.998914","XMIN":710751.641768496,"YMIN":8514173.59738907,"XMAX":710851.641768496,"YMAX":8514273.59738907},"geometry":{"type":"Polygon","coordinates":[[[-73.0525227609475,-13.432759108143191],[-73.0525300534905,-13.431855392405833],[-73.05345329768316,-13.43186252874745],[-73.05344600859203,-13.432766244982325],[-73.0525227609475,-13.432759108143191]]]}},{"type":"Feature","properties":{"Cell_ID":35,"Area_ha":1.0,"LC":"9:0.861881,14:0.138119","XMIN":710751.641768496,"YMIN":8514073.59738907,"XMAX":710851.641768496,"YMAX":8514173.59738907},"geometry":{"type":"Polygon","coordinates":[[[-73.05251546786828,-13.433662823811957],[-73.0525227609475,-13.432759108143191],[-73.05344600859203,-13.432766244982325],[-73.05343871896496,-13.43366996114861],[-73.05251546786828,-13.433662823811957]]]}},{"type":"Feature","properties":{"Cell_ID":36,"Area_ha":1.0,"LC":"5:0.297595,9:0.440524,13:0.261881","XMIN":710751.641768496,"YMIN":8513973.59738907,"XMAX":710851.641768496,"YMAX":8514073.59738907},"geometry":{"type":"Polygon","coordinates":[[[-73.05250817425284,-13.434566539412126],[-73.05251546786828,-13.433662823811957],[-73.05343871896496,-13.43366996114861],[-73.0534314288019,-13.434573677246304],[-73.05250817425284,-13.434566539412126]]]}},{"type":"Feature","properties":{"Cell_ID":37,"Area_ha":1.0,"LC":"5:0.371464,9:0.475092,14:0.153443","XMIN":710751.641768496,"YMIN":8513873.59738907,"XMAX":710851.641768496,"YMAX":8513973.59738907},"geometry":{"type":"Polygon","coordinates":[[[-73.05250088010115,-13.435470254943688],[-73.05250817425284,-13.434566539412126],[-73.0534314288019,-13.434573677246304],[-73.05342413810287,-13.435477393275399],[-73.05250088010115,-13.435470254943688]]]}},{"type":"Feature","properties":{"Cell_ID":38,"Area_ha":1.0,"LC":"9:0.011260,13:0.718875,14:0.269865","XMIN":710751.641768496,"YMIN":8513773.59738907,"XMAX":710851.641768496,"YMAX":8513873.59738907},"geometry":{"type":"Polygon","coordinates":[[[-73.05249358541323,-13.436373970406652],[-73.05250088010115,-13.435470254943688],[-73.05342413810287,-13.435477393275399],[-73.05341684686785,-13.436381109235892],[-73.05249358541323,-13.436373970406652]]]}},{"type":"Feature","properties":{"Cell_ID":39,"Area_ha":1.0,"LC":"5:0.034287,9:0.307313,13:0.075655,14:0.582746","XMIN":710751.641768496,"YMIN":8513673.59738907,"XMAX":710851.641768496,"YMAX":8513773.59738907},"geometry":{"type":"Polygon","coordinates":[[[-73.05248629018907,-13.437277685801003],[-73.05249358541323,-13.436373970406652],[-73.05341684686785,-13.436381109235892],[-73.05340955509682,-13.43728482512778],[-73.05248629018907,-13.437277685801003]]]}},{"type":"Feature","properties":{"Cell_ID":40,"Area_ha":1.0,"LC":"5:0.074773,9:0.365227,13:0.318875,14:0.241125","XMIN":710751.641768496,"YMIN":8513573.59738907,"XMAX":710851.641768496,"YMAX":8513673.59738907},"geometry":{"type":"Polygon","coordinates":[[[-73.05247899442864,-13.438181401126739],[-73.05248629018907,-13.437277685801003],[-73.05340955509682,-13.43728482512778],[-73.05340226278979,-13.438188540951055],[-73.05247899442864,-13.438181401126739]]]}},{"type":"Feature","properties":{"Cell_ID":41,"Area_ha":1.0,"LC":"9:0.185848,14:0.736565,16:0.035054","XMIN":710851.641768496,"YMIN":8514873.59738907,"XMAX":710951.641768496,"YMAX":8514973.59738907},"geometry":{"type":"Polygon","coordinates":[[[-73.051650574538,-13.426425959807363],[-73.05165786677786,-13.425522244087707],[-73.05258108627835,-13.4255293803241],[-73.05257379748858,-13.426433096541485],[-73.051650574538,-13.426425959807363]]]}},{"type":"Feature","properties":{"Cell_ID":42,"Area_ha":1.0,"LC":"9:0.354849,14:0.645151","XMIN":710851.641768496,"YMIN":8514773.59738907,"XMAX":710951.641768496,"YMAX":8514873.59738907},"geometry":{"type":"Polygon","coordinates":[[[-73.05164328176173,-13.427329675458452],[-73.051650574538,-13.426425959807363],[-73.05257379748858,-13.426433096541485],[-73.05256650816264,-13.427336812690307],[-73.05164328176173,-13.427329675458452]]]}},{"type":"Feature","properties":{"Cell_ID":43,"Area_ha":1.0,"LC":"5:0.079438,13:0.137876,14:0.782686","XMIN":710851.641768496,"YMIN":8514673.59738907,"XMAX":710951.641768496,"YMAX":8514773.59738907},"geometry":{"type":"Polygon","coordinates":[[[-73.05163598844905,-13.428233391040974],[-73.05164328176173,-13.427329675458452],[-73.05256650816264,-13.427336812690307],[-73.05255921830057,-13.428240528770564],[-73.05163598844905,-13.428233391040974]]]}},{"type":"Feature","properties":{"Cell_ID":44,"Area_ha":1.0,"LC":"5:0.424152,9:0.005432,13:0.000243,14:0.570174","XMIN":710851.641768496,"YMIN":8514573.59738907,"XMAX":710951.641768496,"YMAX":8514673.59738907},"geometry":{"type":"Polygon","coordinates":[[[-73.05162869459994,-13.429137106554922],[-73.05163598844905,-13.428233391040974],[-73.05255921830057,-13.428240528770564],[-73.05255192790231,-13.42914424478225],[-73.05162869459994,-13.429137106554922]]]}},{"type":"Feature","properties":{"Cell_ID":45,"Area_ha":1.0,"LC":"5:0.849534,9:0.000038,14:0.150427","XMIN":710851.641768496,"YMIN":8514473.59738907,"XMAX":710951.641768496,"YMAX":8514573.59738907},"geometry":{"type":"Polygon","coordinates":[[[-73.05162140021442,-13.430040822000286],[-73.05162869459994,-13.429137106554922],[-73.05255192790231,-13.42914424478225],[-73.05254463696791,-13.430047960725357],[-73.05162140021442,-13.430040822000286]]]}},{"type":"Feature","properties":{"Cell_ID":46,"Area_ha":1.0,"LC":"5:0.994568,14:0.005432","XMIN":710851.641768496,"YMIN":8514373.59738907,"XMAX":710951.641768496,"YMAX":8514473.59738907},"geometry":{"type":"Polygon","coordinates":[[[-73.05161410529246,-13.430944537377073],[-73.05162140021442,-13.430040822000286],[-73.05254463696791,-13.430047960725357],[-73.0525373454973,-13.43095167659989],[-73.05161410529246,-13.430944537377073]]]}},{"type":"Feature","properties":{"Cell_ID":47,"Area_ha":1.0,"LC":"5:0.441368,6:0.193967,7:0.215810,14:0.148855","XMIN":710851.641768496,"YMIN":8514273.59738907,"XMAX":710951.641768496,"YMAX":8514373.59738907},"geometry":{"type":"Polygon","coordinates":[[[-73.05160680983404,-13.431848252685267],[-73.05161410529246,-13.430944537377073],[-73.0525373454973,-13.43095167659989],[-73.0525300534905,-13.431855392405833],[-73.05160680983404,-13.431848252685267]]]}},{"type":"Feature","properties":{"Cell_ID":48,"Area_ha":1.0,"LC":"6:0.000562,7:0.000601,9:0.746469,14:0.252368","XMIN":710851.641768496,"YMIN":8514173.59738907,"XMAX":710951.641768496,"YMAX":8514273.59738907},"geometry":{"type":"Polygon","coordinates":[[[-73.05159951383916,-13.432751967924869],[-73.05160680983404,-13.431848252685267],[-73.0525300534905,-13.431855392405833],[-73.0525227609475,-13.432759108143191],[-73.05159951383916,-13.432751967924869]]]}},{"type":"Feature","properties":{"Cell_ID":49,"Area_ha":1.0,"LC":"5:0.074249,9:0.206314,14:0.719438","XMIN":710851.641768496,"YMIN":8514073.59738907,"XMAX":710951.641768496,"YMAX":8514173.59738907},"geometry":{"type":"Polygon","coordinates":[[[-73.05159221730781,-13.433655683095877],[-73.05159951383916,-13.432751967924869],[-73.0525227609475,-13.432759108143191],[-73.05251546786828,-13.433662823811957],[-73.05159221730781,-13.433655683095877]]]}},{"type":"Feature","properties":{"Cell_ID":50,"Area_ha":1.0,"LC":"5:0.102124,9:0.473725,13:0.388536,14:0.035616","XMIN":710851.641768496,"YMIN":8513973.59738907,"XMAX":710951.641768496,"YMAX":8514073.59738907},"geometry":{"type":"Polygon","coordinates":[[[-73.05158492024,-13.434559398198285],[-73.05159221730781,-13.433655683095877],[-73.05251546786828,-13.433662823811957],[-73.05250817425284,-13.434566539412126],[-73.05158492024,-13.434559398198285]]]}},{"type":"Feature","properties":{"Cell_ID":51,"Area_ha":1.0,"LC":"5:0.000038,9:0.486314,13:0.075054,14:0.438594","XMIN":710851.641768496,"YMIN":8513873.59738907,"XMAX":710951.641768496,"YMAX":8513973.59738907},"geometry":{"type":"Polygon","coordinates":[[[-73.05157762263569,-13.435463113232087],[-73.05158492024,-13.434559398198285],[-73.05250817425284,-13.434566539412126],[-73.05250088010115,-13.435470254943688],[-73.05157762263569,-13.435463113232087]]]}},{"type":"Feature","properties":{"Cell_ID":52,"Area_ha":1.0,"LC":"9:0.069060,13:0.090378,14:0.840562","XMIN":710851.641768496,"YMIN":8513773.59738907,"XMAX":710951.641768496,"YMAX":8513873.59738907},"geometry":{"type":"Polygon","coordinates":[[[-73.05157032449489,-13.436366828197281],[-73.05157762263569,-13.435463113232087],[-73.05250088010115,-13.435470254943688],[-73.05249358541323,-13.436373970406652],[-73.05157032449489,-13.436366828197281]]]}},{"type":"Feature","properties":{"Cell_ID":53,"Area_ha":1.0,"LC":"5:0.164307,9:0.034287,13:0.275092,14:0.526314","XMIN":710851.641768496,"YMIN":8513673.59738907,"XMAX":710951.641768496,"YMAX":8513773.59738907},"geometry":{"type":"Polygon","coordinates":[[[-73.05156302581759,-13.437270543093861],[-73.05157032449489,-13.436366828197281],[-73.05249358541323,-13.436373970406652],[-73.05248629018907,-13.437277685801003],[-73.05156302581759,-13.437270543093861]]]}},{"type":"Feature","properties":{"Cell_ID":54,"Area_ha":1.0,"LC":"5:0.555693,9:0.399156,13:0.045151","XMIN":710851.641768496,"YMIN":8513573.59738907,"XMAX":710951.641768496,"YMAX":8513673.59738907},"geometry":{"type":"Polygon","coordinates":[[[-73.05155572660377,-13.43817425792182],[-73.05156302581759,-13.437270543093861],[-73.05248629018907,-13.437277685801003],[-73.05247899442864,-13.438181401126739],[-73.05155572660377,-13.43817425792182]]]}},{"type":"Feature","properties":{"Cell_ID":55,"Area_ha":1.0,"LC":"9:0.035373,13:0.964627","XMIN":710851.641768496,"YMIN":8513473.59738907,"XMAX":710951.641768496,"YMAX":8513573.59738907},"geometry":{"type":"Polygon","coordinates":[[[-73.0515484268534,-13.43907797268116],[-73.05155572660377,-13.43817425792182],[-73.05247899442864,-13.438181401126739],[-73.05247169813192,-13.439085116383858],[-73.0515484268534,-13.43907797268116]]]}},{"type":"Feature","properties":{"Cell_ID":56,"Area_ha":1.0,"LC":"16:0.367378,18:0.290182","XMIN":710951.641768496,"YMIN":8515073.59738907,"XMAX":711051.641768496,"YMAX":8515173.59738907},"geometry":{"type":"Polygon","coordinates":[[[-73.0507419429671,-13.424611389183761],[-73.05074923758376,-13.423707673824943],[-73.05167244964845,-13.423714812442714],[-73.05166515848134,-13.424618528299488],[-73.0507419429671,-13.424611389183761]]]}},{"type":"Feature","properties":{"Cell_ID":57,"Area_ha":1.0,"LC":"16:0.147351,18:0.852649","XMIN":710951.641768496,"YMIN":8514973.59738907,"XMAX":711051.641768496,"YMAX":8515073.59738907},"geometry":{"type":"Polygon","coordinates":[[[-73.05073464781378,-13.42551510447402],[-73.0507419429671,-13.424611389183761],[-73.05166515848134,-13.424618528299488],[-73.05165786677786,-13.425522244087707],[-73.05073464781378,-13.42551510447402]]]}},{"type":"Feature","properties":{"Cell_ID":58,"Area_ha":1.0,"LC":"9:0.457314,14:0.261280,16:0.125790,18:0.155616","XMIN":710951.641768496,"YMIN":8514873.59738907,"XMAX":711051.641768496,"YMAX":8514973.59738907},"geometry":{"type":"Polygon","coordinates":[[[-73.05072735212383,-13.426418819695712],[-73.05073464781378,-13.42551510447402],[-73.05165786677786,-13.425522244087707],[-73.051650574538,-13.426425959807363],[-73.05072735212383,-13.426418819695712]]]}},{"type":"Feature","properties":{"Cell_ID":59,"Area_ha":1.0,"LC":"6:0.223065,9:0.685713,14:0.091222","XMIN":710951.641768496,"YMIN":8514773.59738907,"XMAX":711051.641768496,"YMAX":8514873.59738907},"geometry":{"type":"Polygon","coordinates":[[[-73.05072005589723,-13.427322534848837],[-73.05072735212383,-13.426418819695712],[-73.051650574538,-13.426425959807363],[-73.05164328176173,-13.427329675458452],[-73.05072005589723,-13.427322534848837]]]}},{"type":"Feature","properties":{"Cell_ID":60,"Area_ha":1.0,"LC":"6:0.035054,9:0.378439,13:0.500717,14:0.085790","XMIN":710951.641768496,"YMIN":8514673.59738907,"XMAX":711051.641768496,"YMAX":8514773.59738907},"geometry":{"type":"Polygon","coordinates":[[[-73.05071275913396,-13.428226249933386],[-73.05072005589723,-13.427322534848837],[-73.05164328176173,-13.427329675458452],[-73.05163598844905,-13.428233391040974],[-73.05071275913396,-13.428226249933386]]]}},{"type":"Feature","properties":{"Cell_ID":61,"Area_ha":1.0,"LC":"5:0.016411,7:0.199438,9:0.000243,13:0.001163,14:0.782746","XMIN":710951.641768496,"YMIN":8514573.59738907,"XMAX":711051.641768496,"YMAX":8514673.59738907},"geometry":{"type":"Polygon","coordinates":[[[-73.05070546183401,-13.42912996494936],[-73.05071275913396,-13.428226249933386],[-73.05163598844905,-13.428233391040974],[-73.05162869459994,-13.429137106554922],[-73.05070546183401,-13.42912996494936]]]}},{"type":"Feature","properties":{"Cell_ID":62,"Area_ha":1.0,"LC":"5:0.329534,7:0.109622,14:0.560844","XMIN":710951.641768496,"YMIN":8514473.59738907,"XMAX":711051.641768496,"YMAX":8514573.59738907},"geometry":{"type":"Polygon","coordinates":[[[-73.05069816399737,-13.430033679896745],[-73.05070546183401,-13.42912996494936],[-73.05162869459994,-13.429137106554922],[-73.05162140021442,-13.430040822000286],[-73.05069816399737,-13.430033679896745]]]}},{"type":"Feature","properties":{"Cell_ID":63,"Area_ha":1.0,"LC":"5:0.337497,14:0.662503","XMIN":710951.641768496,"YMIN":8514373.59738907,"XMAX":711051.641768496,"YMAX":8514473.59738907},"geometry":{"type":"Polygon","coordinates":[[[-73.05069086562405,-13.430937394775544],[-73.05069816399737,-13.430033679896745],[-73.05162140021442,-13.430040822000286],[-73.05161410529246,-13.430944537377073],[-73.05069086562405,-13.430937394775544]]]}},{"type":"Feature","properties":{"Cell_ID":64,"Area_ha":1.0,"LC":"5:0.125790,6:0.239476,9:0.074249,14:0.560486","XMIN":710951.641768496,"YMIN":8514273.59738907,"XMAX":711051.641768496,"YMAX":8514373.59738907},"geometry":{"type":"Polygon","coordinates":[[[-73.05068356671403,-13.431841109585758],[-73.05069086562405,-13.430937394775544],[-73.05161410529246,-13.430944537377073],[-73.05160680983404,-13.431848252685267],[-73.05068356671403,-13.431841109585758]]]}},{"type":"Feature","properties":{"Cell_ID":65,"Area_ha":1.0,"LC":"6:0.035054,9:0.537876,14:0.427070","XMIN":710951.641768496,"YMIN":8514173.59738907,"XMAX":711051.641768496,"YMAX":8514273.59738907},"geometry":{"type":"Polygon","coordinates":[[[-73.0506762672673,-13.432744824327374],[-73.05068356671403,-13.431841109585758],[-73.05160680983404,-13.431848252685267],[-73.05159951383916,-13.432751967924869],[-73.0506762672673,-13.432744824327374]]]}},{"type":"Feature","properties":{"Cell_ID":66,"Area_ha":1.0,"LC":"5:0.622784,9:0.114491,14:0.262724","XMIN":710951.641768496,"YMIN":8514073.59738907,"XMAX":711051.641768496,"YMAX":8514173.59738907},"geometry":{"type":"Polygon","coordinates":[[[-73.05066896728384,-13.433648539000387],[-73.0506762672673,-13.432744824327374],[-73.05159951383916,-13.432751967924869],[-73.05159221730781,-13.433655683095877],[-73.05066896728384,-13.433648539000387]]]}},{"type":"Feature","properties":{"Cell_ID":67,"Area_ha":1.0,"LC":"5:0.320243,9:0.485470,13:0.010902,14:0.183385","XMIN":710951.641768496,"YMIN":8513973.59738907,"XMAX":711051.641768496,"YMAX":8514073.59738907},"geometry":{"type":"Polygon","coordinates":[[[-73.05066166676366,-13.434552253604796],[-73.05066896728384,-13.433648539000387],[-73.05159221730781,-13.433655683095877],[-73.05158492024,-13.434559398198285],[-73.05066166676366,-13.434552253604796]]]}},{"type":"Feature","properties":{"Cell_ID":68,"Area_ha":1.0,"LC":"5:0.309622,9:0.679195,13:0.005509,14:0.005675","XMIN":710951.641768496,"YMIN":8513873.59738907,"XMAX":711051.641768496,"YMAX":8513973.59738907},"geometry":{"type":"Polygon","coordinates":[[[-73.05065436570673,-13.4354559681406],[-73.05066166676366,-13.434552253604796],[-73.05158492024,-13.434559398198285],[-73.05157762263569,-13.435463113232087],[-73.05065436570673,-13.4354559681406]]]}},{"type":"Feature","properties":{"Cell_ID":69,"Area_ha":1.0,"LC":"9:0.864152,13:0.084869,14:0.050979","XMIN":710951.641768496,"YMIN":8513773.59738907,"XMAX":711051.641768496,"YMAX":8513873.59738907},"geometry":{"type":"Polygon","coordinates":[[[-73.05064706411305,-13.436359682607788],[-73.05065436570673,-13.4354559681406],[-73.05157762263569,-13.435463113232087],[-73.05157032449489,-13.436366828197281],[-73.05064706411305,-13.436359682607788]]]}},{"type":"Feature","properties":{"Cell_ID":70,"Area_ha":1.0,"LC":"9:0.263832,13:0.371541,14:0.364627","XMIN":710951.641768496,"YMIN":8513673.59738907,"XMAX":711051.641768496,"YMAX":8513773.59738907},"geometry":{"type":"Polygon","coordinates":[[[-73.05063976198261,-13.437263397006365],[-73.05064706411305,-13.436359682607788],[-73.05157032449489,-13.436366828197281],[-73.05156302581759,-13.437270543093861],[-73.05063976198261,-13.437263397006365]]]}},{"type":"Feature","properties":{"Cell_ID":71,"Area_ha":1.0,"LC":"5:0.090940,9:0.644627,14:0.264433","XMIN":710951.641768496,"YMIN":8513573.59738907,"XMAX":711051.641768496,"YMAX":8513673.59738907},"geometry":{"type":"Polygon","coordinates":[[[-73.05063245931541,-13.438167111336309],[-73.05063976198261,-13.437263397006365],[-73.05156302581759,-13.437270543093861],[-73.05155572660377,-13.43817425792182],[-73.05063245931541,-13.438167111336309]]]}},{"type":"Feature","properties":{"Cell_ID":72,"Area_ha":1.0,"LC":"9:0.435335,13:0.564665","XMIN":710951.641768496,"YMIN":8513473.59738907,"XMAX":711051.641768496,"YMAX":8513573.59738907},"geometry":{"type":"Polygon","coordinates":[[[-73.05062515611142,-13.439070825597634],[-73.05063245931541,-13.438167111336309],[-73.05155572660377,-13.43817425792182],[-73.0515484268534,-13.43907797268116],[-73.05062515611142,-13.439070825597634]]]}},{"type":"Feature","properties":{"Cell_ID":73,"Area_ha":1.0,"LC":"9:0.536752,16:0.457817,18:0.005432","XMIN":711051.641768496,"YMIN":8515073.59738907,"XMAX":711151.641768496,"YMAX":8515173.59738907},"geometry":{"type":"Polygon","coordinates":[[[-73.04981872798946,-13.424604246690988],[-73.0498260260557,-13.423700531830361],[-73.05074923758376,-13.423707673824943],[-73.0507419429671,-13.424611389183761],[-73.04981872798946,-13.424604246690988]]]}},{"type":"Feature","properties":{"Cell_ID":74,"Area_ha":1.0,"LC":"9:0.892649,18:0.107351","XMIN":711051.641768496,"YMIN":8514973.59738907,"XMAX":711151.641768496,"YMAX":8515073.59738907},"geometry":{"type":"Polygon","coordinates":[[[-73.04981142938634,-13.425507961483051],[-73.04981872798946,-13.424604246690988],[-73.0507419429671,-13.424611389183761],[-73.05073464781378,-13.42551510447402],[-73.04981142938634,-13.425507961483051]]]}},{"type":"Feature","properties":{"Cell_ID":75,"Area_ha":1.0,"LC":"9:0.994491,18:0.005509","XMIN":711051.641768496,"YMIN":8514873.59738907,"XMAX":711151.641768496,"YMAX":8514973.59738907},"geometry":{"type":"Polygon","coordinates":[[[-73.04980413024632,-13.426411676206541],[-73.04981142938634,-13.425507961483051],[-73.05073464781378,-13.42551510447402],[-73.05072735212383,-13.426418819695712],[-73.04980413024632,-13.426411676206541]]]}},{"type":"Feature","properties":{"Cell_ID":76,"Area_ha":1.0,"LC":"3:0.222503,6:0.496091,9:0.281406","XMIN":711051.641768496,"YMIN":8514773.59738907,"XMAX":711151.641768496,"YMAX":8514873.59738907},"geometry":{"type":"Polygon","coordinates":[[[-73.04979683056938,-13.42731539086146],[-73.04980413024632,-13.426411676206541],[-73.05072735212383,-13.426418819695712],[-73.05072005589723,-13.427322534848837],[-73.04979683056938,-13.42731539086146]]]}},{"type":"Feature","properties":{"Cell_ID":77,"Area_ha":1.0,"LC":"3:0.344676,6:0.005790,9:0.649534","XMIN":711051.641768496,"YMIN":8514673.59738907,"XMAX":711151.641768496,"YMAX":8514773.59738907},"geometry":{"type":"Polygon","coordinates":[[[-73.04978953035553,-13.428219105447802],[-73.04979683056938,-13.42731539086146],[-73.05072005589723,-13.427322534848837],[-73.05071275913396,-13.428226249933386],[-73.04978953035553,-13.428219105447802]]]}},{"type":"Feature","properties":{"Cell_ID":78,"Area_ha":1.0,"LC":"9:0.195936,14:0.804064","XMIN":711051.641768496,"YMIN":8514573.59738907,"XMAX":711151.641768496,"YMAX":8514673.59738907},"geometry":{"type":"Polygon","coordinates":[[[-73.04978222960474,-13.429122819965567],[-73.04978953035553,-13.428219105447802],[-73.05071275913396,-13.428226249933386],[-73.05070546183401,-13.42912996494936],[-73.04978222960474,-13.429122819965567]]]}},{"type":"Feature","properties":{"Cell_ID":79,"Area_ha":1.0,"LC":"5:0.045151,7:0.250659,14:0.704190","XMIN":711051.641768496,"YMIN":8514473.59738907,"XMAX":711151.641768496,"YMAX":8514573.59738907},"geometry":{"type":"Polygon","coordinates":[[[-73.04977492831702,-13.430026534414738],[-73.04978222960474,-13.429122819965567],[-73.05070546183401,-13.42912996494936],[-73.05069816399737,-13.430033679896745],[-73.04977492831702,-13.430026534414738]]]}},{"type":"Feature","properties":{"Cell_ID":80,"Area_ha":1.0,"LC":"5:0.250416,7:0.508817,14:0.240767","XMIN":711051.641768496,"YMIN":8514373.59738907,"XMAX":711151.641768496,"YMAX":8514473.59738907},"geometry":{"type":"Polygon","coordinates":[[[-73.04976762649235,-13.430930248795324],[-73.04977492831702,-13.430026534414738],[-73.05069816399737,-13.430033679896745],[-73.05069086562405,-13.430937394775544],[-73.04976762649235,-13.430930248795324]]]}},{"type":"Feature","properties":{"Cell_ID":81,"Area_ha":1.0,"LC":"5:0.538963,6:0.005432,7:0.000524,9:0.438632,14:0.016449","XMIN":711051.641768496,"YMIN":8514273.59738907,"XMAX":711151.641768496,"YMAX":8514373.59738907},"geometry":{"type":"Polygon","coordinates":[[[-73.04976032413074,-13.431833963107312],[-73.04976762649235,-13.430930248795324],[-73.05069086562405,-13.430937394775544],[-73.05068356671403,-13.431841109585758],[-73.04976032413074,-13.431833963107312]]]}},{"type":"Feature","properties":{"Cell_ID":82,"Area_ha":1.0,"LC":"6:0.285509,9:0.714491","XMIN":711051.641768496,"YMIN":8514173.59738907,"XMAX":711151.641768496,"YMAX":8514273.59738907},"geometry":{"type":"Polygon","coordinates":[[[-73.04975302123216,-13.432737677350701],[-73.04976032413074,-13.431833963107312],[-73.05068356671403,-13.431841109585758],[-73.0506762672673,-13.432744824327374],[-73.04975302123216,-13.432737677350701]]]}},{"type":"Feature","properties":{"Cell_ID":83,"Area_ha":1.0,"LC":"5:0.021842,9:0.978158","XMIN":711051.641768496,"YMIN":8514073.59738907,"XMAX":711151.641768496,"YMAX":8514173.59738907},"geometry":{"type":"Polygon","coordinates":[[[-73.0497457177966,-13.433641391525489],[-73.04975302123216,-13.432737677350701],[-73.0506762672673,-13.432744824327374],[-73.05066896728384,-13.433648539000387],[-73.0497457177966,-13.433641391525489]]]}},{"type":"Feature","properties":{"Cell_ID":84,"Area_ha":1.0,"LC":"5:0.000038,9:0.595897,14:0.404064","XMIN":711051.641768496,"YMIN":8513973.59738907,"XMAX":711151.641768496,"YMAX":8514073.59738907},"geometry":{"type":"Polygon","coordinates":[[[-73.04973841382404,-13.434545105631669],[-73.0497457177966,-13.433641391525489],[-73.05066896728384,-13.433648539000387],[-73.05066166676366,-13.434552253604796],[-73.04973841382404,-13.434545105631669]]]}},{"type":"Feature","properties":{"Cell_ID":85,"Area_ha":1.0,"LC":"5:0.010940,9:0.176091,14:0.812969","XMIN":711051.641768496,"YMIN":8513873.59738907,"XMAX":711151.641768496,"YMAX":8513973.59738907},"geometry":{"type":"Polygon","coordinates":[[[-73.04973110931451,-13.435448819669233],[-73.04973841382404,-13.434545105631669],[-73.05066166676366,-13.434552253604796],[-73.05065436570673,-13.4354559681406],[-73.04973110931451,-13.435448819669233]]]}},{"type":"Feature","properties":{"Cell_ID":86,"Area_ha":1.0,"LC":"9:0.587070,13:0.411844,14:0.001086","XMIN":711051.641768496,"YMIN":8513773.59738907,"XMAX":711151.641768496,"YMAX":8513873.59738907},"geometry":{"type":"Polygon","coordinates":[[[-73.04972380426797,-13.436352533638185],[-73.04973110931451,-13.435448819669233],[-73.05065436570673,-13.4354559681406],[-73.05064706411305,-13.436359682607788],[-73.04972380426797,-13.436352533638185]]]}},{"type":"Feature","properties":{"Cell_ID":87,"Area_ha":1.0,"LC":"9:0.661318,13:0.298924,14:0.039757","XMIN":711051.641768496,"YMIN":8513673.59738907,"XMAX":711151.641768496,"YMAX":8513773.59738907},"geometry":{"type":"Polygon","coordinates":[[[-73.0497164986844,-13.437256247538517],[-73.04972380426797,-13.436352533638185],[-73.05064706411305,-13.436359682607788],[-73.05063976198261,-13.437263397006365],[-73.0497164986844,-13.437256247538517]]]}},{"type":"Feature","properties":{"Cell_ID":88,"Area_ha":1.0,"LC":"9:0.628817,14:0.371183","XMIN":711051.641768496,"YMIN":8513573.59738907,"XMAX":711151.641768496,"YMAX":8513673.59738907},"geometry":{"type":"Polygon","coordinates":[[[-73.04970919256382,-13.438159961370218],[-73.0497164986844,-13.437256247538517],[-73.05063976198261,-13.437263397006365],[-73.05063245931541,-13.438167111336309],[-73.04970919256382,-13.438159961370218]]]}},{"type":"Feature","properties":{"Cell_ID":89,"Area_ha":1.0,"LC":"9:0.401406,13:0.598594","XMIN":711051.641768496,"YMIN":8513473.59738907,"XMAX":711151.641768496,"YMAX":8513573.59738907},"geometry":{"type":"Polygon","coordinates":[[[-73.04970188590622,-13.439063675133294],[-73.04970919256382,-13.438159961370218],[-73.05063245931541,-13.438167111336309],[-73.05062515611142,-13.439070825597634],[-73.04970188590622,-13.439063675133294]]]}},{"type":"Feature","properties":{"Cell_ID":90,"Area_ha":1.0,"LC":"3:0.160844,7:0.268254,9:0.570902","XMIN":711151.641768496,"YMIN":8514973.59738907,"XMAX":711251.641768496,"YMAX":8515073.59738907},"geometry":{"type":"Polygon","coordinates":[[[-73.0488882114958,-13.4255008151148],[-73.04889551354874,-13.424597100821169],[-73.04981872798946,-13.424604246690988],[-73.04981142938634,-13.425507961483051],[-73.0488882114958,-13.4255008151148]]]}},{"type":"Feature","properties":{"Cell_ID":91,"Area_ha":1.0,"LC":"7:0.264395,9:0.666789,14:0.068817","XMIN":711151.641768496,"YMIN":8514873.59738907,"XMAX":711251.641768496,"YMAX":8514973.59738907},"geometry":{"type":"Polygon","coordinates":[[[-73.04888090890572,-13.426404529339859],[-73.0488882114958,-13.4255008151148],[-73.04981142938634,-13.425507961483051],[-73.04980413024632,-13.426411676206541],[-73.04888090890572,-13.426404529339859]]]}},{"type":"Feature","properties":{"Cell_ID":92,"Area_ha":1.0,"LC":"3:0.136091,5:0.427973,9:0.012104,14:0.423832","XMIN":711151.641768496,"YMIN":8514773.59738907,"XMAX":711251.641768496,"YMAX":8514873.59738907},"geometry":{"type":"Polygon","coordinates":[[[-73.04887360577845,-13.427308243496338],[-73.04888090890572,-13.426404529339859],[-73.04980413024632,-13.426411676206541],[-73.04979683056938,-13.42731539086146],[-73.04887360577845,-13.427308243496338]]]}},{"type":"Feature","properties":{"Cell_ID":93,"Area_ha":1.0,"LC":"3:0.371260,5:0.035616,9:0.210340,14:0.382784","XMIN":711151.641768496,"YMIN":8514673.59738907,"XMAX":711251.641768496,"YMAX":8514773.59738907},"geometry":{"type":"Polygon","coordinates":[[[-73.04886630211402,-13.42821195758424],[-73.04887360577845,-13.427308243496338],[-73.04979683056938,-13.42731539086146],[-73.04978953035553,-13.428219105447802],[-73.04886630211402,-13.42821195758424]]]}},{"type":"Feature","properties":{"Cell_ID":94,"Area_ha":1.0,"LC":"9:0.046071,14:0.953929","XMIN":711151.641768496,"YMIN":8514573.59738907,"XMAX":711251.641768496,"YMAX":8514673.59738907},"geometry":{"type":"Polygon","coordinates":[[[-73.04885899791242,-13.429115671603556],[-73.04886630211402,-13.42821195758424],[-73.04978953035553,-13.428219105447802],[-73.04978222960474,-13.429122819965567],[-73.04885899791242,-13.429115671603556]]]}},{"type":"Feature","properties":{"Cell_ID":95,"Area_ha":1.0,"LC":"14:1.000000","XMIN":711151.641768496,"YMIN":8514473.59738907,"XMAX":711251.641768496,"YMAX":8514573.59738907},"geometry":{"type":"Polygon","coordinates":[[[-73.04885169317362,-13.430019385554278],[-73.04885899791242,-13.429115671603556],[-73.04978222960474,-13.429122819965567],[-73.04977492831702,-13.430026534414738],[-73.04885169317362,-13.430019385554278]]]}},{"type":"Feature","properties":{"Cell_ID":96,"Area_ha":1.0,"LC":"5:0.193162,7:0.010902,14:0.795936","XMIN":711151.641768496,"YMIN":8514373.59738907,"XMAX":711251.641768496,"YMAX":8514473.59738907},"geometry":{"type":"Polygon","coordinates":[[[-73.04884438789762,-13.430923099436411],[-73.04885169317362,-13.430019385554278],[-73.04977492831702,-13.430026534414738],[-73.04976762649235,-13.430930248795324],[-73.04884438789762,-13.430923099436411]]]}},{"type":"Feature","properties":{"Cell_ID":97,"Area_ha":1.0,"LC":"5:0.406838,7:0.000038,9:0.593124","XMIN":711151.641768496,"YMIN":8514273.59738907,"XMAX":711251.641768496,"YMAX":8514373.59738907},"geometry":{"type":"Polygon","coordinates":[[[-73.04883708208442,-13.431826813249943],[-73.04884438789762,-13.430923099436411],[-73.04976762649235,-13.430930248795324],[-73.04976032413074,-13.431833963107312],[-73.04883708208442,-13.431826813249943]]]}},{"type":"Feature","properties":{"Cell_ID":98,"Area_ha":1.0,"LC":"9:0.148437,14:0.851563","XMIN":711151.641768496,"YMIN":8514173.59738907,"XMAX":711251.641768496,"YMAX":8514273.59738907},"geometry":{"type":"Polygon","coordinates":[[[-73.04882977573399,-13.432730526994872],[-73.04883708208442,-13.431826813249943],[-73.04976032413074,-13.431833963107312],[-73.04975302123216,-13.432737677350701],[-73.04882977573399,-13.432730526994872]]]}},{"type":"Feature","properties":{"Cell_ID":99,"Area_ha":1.0,"LC":"9:0.809854,14:0.190146","XMIN":711151.641768496,"YMIN":8514073.59738907,"XMAX":711251.641768496,"YMAX":8514173.59738907},"geometry":{"type":"Polygon","coordinates":[[[-73.04882246884634,-13.433634240671198],[-73.04882977573399,-13.432730526994872],[-73.04975302123216,-13.432737677350701],[-73.0497457177966,-13.433641391525489],[-73.04882246884634,-13.433634240671198]]]}},{"type":"Feature","properties":{"Cell_ID":100,"Area_ha":1.0,"LC":"5:0.079438,9:0.824472,14:0.096091","XMIN":711151.641768496,"YMIN":8513973.59738907,"XMAX":711251.641768496,"YMAX":8514073.59738907},"geometry":{"type":"Polygon","coordinates":[[[-73.04881516142144,-13.434537954278907],[-73.04882246884634,-13.433634240671198],[-73.0497457177966,-13.433641391525489],[-73.04973841382404,-13.434545105631669],[-73.04881516142144,-13.434537954278907]]]}},{"type":"Feature","properties":{"Cell_ID":101,"Area_ha":1.0,"LC":"5:0.679438,9:0.000524,13:0.172406,14:0.147632","XMIN":711151.641768496,"YMIN":8513873.59738907,"XMAX":711251.641768496,"YMAX":8513973.59738907},"geometry":{"type":"Polygon","coordinates":[[[-73.04880785345931,-13.435441667818003],[-73.04881516142144,-13.434537954278907],[-73.04973841382404,-13.434545105631669],[-73.04973110931451,-13.435448819669233],[-73.04880785345931,-13.435441667818003]]]}},{"type":"Feature","properties":{"Cell_ID":102,"Area_ha":1.0,"LC":"5:0.390184,9:0.074006,13:0.535771,14:0.000038","XMIN":711151.641768496,"YMIN":8513773.59738907,"XMAX":711251.641768496,"YMAX":8513873.59738907},"geometry":{"type":"Polygon","coordinates":[[[-73.0488005449599,-13.43634538128848],[-73.04880785345931,-13.435441667818003],[-73.04973110931451,-13.435448819669233],[-73.04972380426797,-13.436352533638185],[-73.0488005449599,-13.43634538128848]]]}},{"type":"Feature","properties":{"Cell_ID":103,"Area_ha":1.0,"LC":"9:0.075054,13:0.726352,14:0.198594","XMIN":711151.641768496,"YMIN":8513673.59738907,"XMAX":711251.641768496,"YMAX":8513773.59738907},"geometry":{"type":"Polygon","coordinates":[[[-73.04879323592324,-13.437249094690332],[-73.0488005449599,-13.43634538128848],[-73.04972380426797,-13.436352533638185],[-73.0497164986844,-13.437256247538517],[-73.04879323592324,-13.437249094690332]]]}},{"type":"Feature","properties":{"Cell_ID":104,"Area_ha":1.0,"LC":"7:0.183347,9:0.740717,14:0.075936","XMIN":711151.641768496,"YMIN":8513573.59738907,"XMAX":711251.641768496,"YMAX":8513673.59738907},"geometry":{"type":"Polygon","coordinates":[[[-73.04878592634928,-13.438152808023549],[-73.04879323592324,-13.437249094690332],[-73.0497164986844,-13.437256247538517],[-73.04970919256382,-13.438159961370218],[-73.04878592634928,-13.438152808023549]]]}},{"type":"Feature","properties":{"Cell_ID":105,"Area_ha":1.0,"LC":"7:0.000243,9:0.675693,13:0.324064","XMIN":711151.641768496,"YMIN":8513473.59738907,"XMAX":711251.641768496,"YMAX":8513573.59738907},"geometry":{"type":"Polygon","coordinates":[[[-73.04877861623805,-13.439056521288144],[-73.04878592634928,-13.438152808023549],[-73.04970919256382,-13.438159961370218],[-73.04970188590622,-13.439063675133294],[-73.04877861623805,-13.439056521288144]]]}},{"type":"Feature","properties":{"Cell_ID":106,"Area_ha":1.0,"LC":"6:0.148536,7:0.530058,9:0.166033,18:0.155373","XMIN":711251.641768496,"YMIN":8514973.59738907,"XMAX":711351.641768496,"YMAX":8515073.59738907},"geometry":{"type":"Polygon","coordinates":[[[-73.0479649941424,-13.425493665369286],[-73.04797229964514,-13.424589951574323],[-73.04889551354874,-13.424597100821169],[-73.0488882114958,-13.4255008151148],[-73.0479649941424,-13.425493665369286]]]}},{"type":"Feature","properties":{"Cell_ID":107,"Area_ha":1.0,"LC":"6:0.189584,7:0.799514,14:0.010902","XMIN":711251.641768496,"YMIN":8514873.59738907,"XMAX":711351.641768496,"YMAX":8514973.59738907},"geometry":{"type":"Polygon","coordinates":[[[-73.04795768810226,-13.426397379095672],[-73.0479649941424,-13.425493665369286],[-73.0488882114958,-13.4255008151148],[-73.04888090890572,-13.426404529339859],[-73.04795768810226,-13.426397379095672]]]}},{"type":"Feature","properties":{"Cell_ID":108,"Area_ha":1.0,"LC":"5:0.564307,7:0.270427,9:0.114530,14:0.050736","XMIN":711251.641768496,"YMIN":8514773.59738907,"XMAX":711351.641768496,"YMAX":8514873.59738907},"geometry":{"type":"Polygon","coordinates":[[[-73.04795038152469,-13.427301092753478],[-73.04795768810226,-13.426397379095672],[-73.04888090890572,-13.426404529339859],[-73.04887360577845,-13.427308243496338],[-73.04795038152469,-13.427301092753478]]]}},{"type":"Feature","properties":{"Cell_ID":109,"Area_ha":1.0,"LC":"3:0.045470,5:0.321163,14:0.633366","XMIN":711251.641768496,"YMIN":8514673.59738907,"XMAX":711351.641768496,"YMAX":8514773.59738907},"geometry":{"type":"Polygon","coordinates":[[[-73.0479430744097,-13.4282048063427],[-73.04795038152469,-13.427301092753478],[-73.04887360577845,-13.427308243496338],[-73.04886630211402,-13.42821195758424],[-73.0479430744097,-13.4282048063427]]]}},{"type":"Feature","properties":{"Cell_ID":110,"Area_ha":1.0,"LC":"14:1.000000","XMIN":711251.641768496,"YMIN":8514573.59738907,"XMAX":711351.641768496,"YMAX":8514673.59738907},"geometry":{"type":"Polygon","coordinates":[[[-73.04793576675728,-13.429108519863336],[-73.0479430744097,-13.4282048063427],[-73.04886630211402,-13.42821195758424],[-73.04885899791242,-13.429115671603556],[-73.04793576675728,-13.429108519863336]]]}},{"type":"Feature","properties":{"Cell_ID":111,"Area_ha":1.0,"LC":"13:0.034287,14:0.965713","XMIN":711251.641768496,"YMIN":8514473.59738907,"XMAX":711351.641768496,"YMAX":8514573.59738907},"geometry":{"type":"Polygon","coordinates":[[[-73.04792845856743,-13.430012233315374],[-73.04793576675728,-13.429108519863336],[-73.04885899791242,-13.429115671603556],[-73.04885169317362,-13.430019385554278],[-73.04792845856743,-13.430012233315374]]]}},{"type":"Feature","properties":{"Cell_ID":112,"Area_ha":1.0,"LC":"5:0.045151,13:0.263832,14:0.691017","XMIN":711251.641768496,"YMIN":8514373.59738907,"XMAX":711351.641768496,"YMAX":8514473.59738907},"geometry":{"type":"Polygon","coordinates":[[[-73.0479211498401,-13.430915946698818],[-73.04792845856743,-13.430012233315374],[-73.04885169317362,-13.430019385554278],[-73.04884438789762,-13.430923099436411],[-73.0479211498401,-13.430915946698818]]]}},{"type":"Feature","properties":{"Cell_ID":113,"Area_ha":1.0,"LC":"5:0.136730,9:0.382183,14:0.481086","XMIN":711251.641768496,"YMIN":8514273.59738907,"XMAX":711351.641768496,"YMAX":8514373.59738907},"geometry":{"type":"Polygon","coordinates":[[[-73.04791384057532,-13.431819660013657],[-73.0479211498401,-13.430915946698818],[-73.04884438789762,-13.430923099436411],[-73.04883708208442,-13.431826813249943],[-73.04791384057532,-13.431819660013657]]]}},{"type":"Feature","properties":{"Cell_ID":114,"Area_ha":1.0,"LC":"9:0.453531,14:0.546469","XMIN":711251.641768496,"YMIN":8514173.59738907,"XMAX":711351.641768496,"YMAX":8514273.59738907},"geometry":{"type":"Polygon","coordinates":[[[-73.04790653077305,-13.432723373259892],[-73.04791384057532,-13.431819660013657],[-73.04883708208442,-13.431826813249943],[-73.04882977573399,-13.432730526994872],[-73.04790653077305,-13.432723373259892]]]}},{"type":"Feature","properties":{"Cell_ID":115,"Area_ha":1.0,"LC":"9:0.788177,14:0.211823","XMIN":711251.641768496,"YMIN":8514073.59738907,"XMAX":711351.641768496,"YMAX":8514173.59738907},"geometry":{"type":"Polygon","coordinates":[[[-73.04789922043331,-13.433627086437513],[-73.04790653077305,-13.432723373259892],[-73.04882977573399,-13.432730526994872],[-73.04882246884634,-13.433634240671198],[-73.04789922043331,-13.433627086437513]]]}},{"type":"Feature","properties":{"Cell_ID":116,"Area_ha":1.0,"LC":"7:0.148536,9:0.811746,13:0.039719","XMIN":711251.641768496,"YMIN":8513973.59738907,"XMAX":711351.641768496,"YMAX":8514073.59738907},"geometry":{"type":"Polygon","coordinates":[[[-73.04789190955607,-13.434530799546522],[-73.04789922043331,-13.433627086437513],[-73.04882246884634,-13.433634240671198],[-73.04881516142144,-13.434537954278907],[-73.04789190955607,-13.434530799546522]]]}},{"type":"Feature","properties":{"Cell_ID":117,"Area_ha":1.0,"LC":"7:0.212930,9:0.240038,13:0.547031","XMIN":711251.641768496,"YMIN":8513873.59738907,"XMAX":711351.641768496,"YMAX":8513973.59738907},"geometry":{"type":"Polygon","coordinates":[[[-73.04788459814135,-13.435434512586912],[-73.04789190955607,-13.434530799546522],[-73.04881516142144,-13.434537954278907],[-73.04880785345931,-13.435441667818003],[-73.04788459814135,-13.435434512586912]]]}},{"type":"Feature","properties":{"Cell_ID":118,"Area_ha":1.0,"LC":"5:0.010940,6:0.034530,7:0.103832,9:0.645151,13:0.205547","XMIN":711251.641768496,"YMIN":8513773.59738907,"XMAX":711351.641768496,"YMAX":8513873.59738907},"geometry":{"type":"Polygon","coordinates":[[[-73.04787728618909,-13.436338225558679],[-73.04788459814135,-13.435434512586912],[-73.04880785345931,-13.435441667818003],[-73.0488005449599,-13.43634538128848],[-73.04787728618909,-13.436338225558679]]]}},{"type":"Feature","properties":{"Cell_ID":119,"Area_ha":1.0,"LC":"9:0.366352,13:0.628216,14:0.005432","XMIN":711251.641768496,"YMIN":8513673.59738907,"XMAX":711351.641768496,"YMAX":8513773.59738907},"geometry":{"type":"Polygon","coordinates":[[[-73.04786997369933,-13.437241938461819],[-73.04787728618909,-13.436338225558679],[-73.0488005449599,-13.43634538128848],[-73.04879323592324,-13.437249094690332],[-73.04786997369933,-13.437241938461819]]]}},{"type":"Feature","properties":{"Cell_ID":120,"Area_ha":1.0,"LC":"7:0.529534,9:0.034530,13:0.195897,14:0.240038","XMIN":711251.641768496,"YMIN":8513573.59738907,"XMAX":711351.641768496,"YMAX":8513673.59738907},"geometry":{"type":"Polygon","coordinates":[[[-73.04786266067204,-13.43814565129632],[-73.04786997369933,-13.437241938461819],[-73.04879323592324,-13.437249094690332],[-73.04878592634928,-13.438152808023549],[-73.04786266067204,-13.43814565129632]]]}},{"type":"Feature","properties":{"Cell_ID":121,"Area_ha":1.0,"LC":"7:0.001406,9:0.370940,13:0.627654","XMIN":711251.641768496,"YMIN":8513473.59738907,"XMAX":711351.641768496,"YMAX":8513573.59738907},"geometry":{"type":"Polygon","coordinates":[[[-73.04785534710719,-13.439049364062189],[-73.04786266067204,-13.43814565129632],[-73.04878592634928,-13.438152808023549],[-73.04877861623805,-13.439056521288144],[-73.04785534710719,-13.439049364062189]]]}},{"type":"Feature","properties":{"Cell_ID":122,"Area_ha":1.0,"LC":"6:0.524946,7:0.050659,9:0.120805,13:0.303589","XMIN":711351.641768496,"YMIN":8514873.59738907,"XMAX":711451.641768496,"YMAX":8514973.59738907},"geometry":{"type":"Polygon","coordinates":[[[-73.04703446783623,-13.426390225473991],[-73.04704177732643,-13.42548651224651],[-73.0479649941424,-13.425493665369286],[-73.04795768810226,-13.426397379095672],[-73.04703446783623,-13.426390225473991]]]}},{"type":"Feature","properties":{"Cell_ID":123,"Area_ha":1.0,"LC":"5:0.005470,6:0.000562,7:0.045751,9:0.903065,14:0.045151","XMIN":711351.641768496,"YMIN":8514773.59738907,"XMAX":711451.641768496,"YMAX":8514873.59738907},"geometry":{"type":"Polygon","coordinates":[[[-73.04702715780837,-13.427293938632888],[-73.04703446783623,-13.426390225473991],[-73.04795768810226,-13.426397379095672],[-73.04795038152469,-13.427301092753478],[-73.04702715780837,-13.427293938632888]]]}},{"type":"Feature","properties":{"Cell_ID":124,"Area_ha":1.0,"LC":"5:0.005470,7:0.571844,9:0.001086,14:0.421600","XMIN":711351.641768496,"YMIN":8514673.59738907,"XMAX":711451.641768496,"YMAX":8514773.59738907},"geometry":{"type":"Polygon","coordinates":[[[-73.04701984724282,-13.428197651723195],[-73.04702715780837,-13.427293938632888],[-73.04795038152469,-13.427301092753478],[-73.0479430744097,-13.4282048063427],[-73.04701984724282,-13.428197651723195]]]}},{"type":"Feature","properties":{"Cell_ID":125,"Area_ha":1.0,"LC":"7:0.413211,14:0.586789","XMIN":711351.641768496,"YMIN":8514573.59738907,"XMAX":711451.641768496,"YMAX":8514673.59738907},"geometry":{"type":"Polygon","coordinates":[[[-73.04701253613959,-13.429101364744914],[-73.04701984724282,-13.428197651723195],[-73.0479430744097,-13.4282048063427],[-73.04793576675728,-13.429108519863336],[-73.04701253613959,-13.429101364744914]]]}},{"type":"Feature","properties":{"Cell_ID":126,"Area_ha":1.0,"LC":"7:0.103589,13:0.204307,14:0.692104","XMIN":711351.641768496,"YMIN":8514473.59738907,"XMAX":711451.641768496,"YMAX":8514573.59738907},"geometry":{"type":"Polygon","coordinates":[[[-73.04700522449866,-13.430005077698032],[-73.04701253613959,-13.429101364744914],[-73.04793576675728,-13.429108519863336],[-73.04792845856743,-13.430012233315374],[-73.04700522449866,-13.430005077698032]]]}},{"type":"Feature","properties":{"Cell_ID":127,"Area_ha":1.0,"LC":"7:0.034773,9:0.696752,13:0.257574,14:0.010902","XMIN":711351.641768496,"YMIN":8514373.59738907,"XMAX":711451.641768496,"YMAX":8514473.59738907},"geometry":{"type":"Polygon","coordinates":[[[-73.04699791232004,-13.43090879058255],[-73.04700522449866,-13.430005077698032],[-73.04792845856743,-13.430012233315374],[-73.0479211498401,-13.430915946698818],[-73.04699791232004,-13.43090879058255]]]}},{"type":"Feature","properties":{"Cell_ID":128,"Area_ha":1.0,"LC":"9:0.800524,14:0.199476","XMIN":711351.641768496,"YMIN":8514273.59738907,"XMAX":711451.641768496,"YMAX":8514373.59738907},"geometry":{"type":"Polygon","coordinates":[[[-73.04699059960369,-13.431812503398467],[-73.04699791232004,-13.43090879058255],[-73.0479211498401,-13.430915946698818],[-73.04791384057532,-13.431819660013657],[-73.04699059960369,-13.431812503398467]]]}},{"type":"Feature","properties":{"Cell_ID":129,"Area_ha":1.0,"LC":"9:0.679438,14:0.320562","XMIN":711351.641768496,"YMIN":8514173.59738907,"XMAX":711451.641768496,"YMAX":8514273.59738907},"geometry":{"type":"Polygon","coordinates":[[[-73.0469832863496,-13.432716216145767],[-73.04699059960369,-13.431812503398467],[-73.04791384057532,-13.431819660013657],[-73.04790653077305,-13.432723373259892],[-73.0469832863496,-13.432716216145767]]]}},{"type":"Feature","properties":{"Cell_ID":130,"Area_ha":1.0,"LC":"5:0.109060,9:0.890940","XMIN":711351.641768496,"YMIN":8514073.59738907,"XMAX":711451.641768496,"YMAX":8514173.59738907},"geometry":{"type":"Polygon","coordinates":[[[-73.04697597255777,-13.433619928824456],[-73.0469832863496,-13.432716216145767],[-73.04790653077305,-13.432723373259892],[-73.04789922043331,-13.433627086437513],[-73.04697597255777,-13.433619928824456]]]}},{"type":"Feature","properties":{"Cell_ID":131,"Area_ha":1.0,"LC":"7:0.010902,9:0.989098","XMIN":711351.641768496,"YMIN":8513973.59738907,"XMAX":711451.641768496,"YMAX":8514073.59738907},"geometry":{"type":"Polygon","coordinates":[[[-73.04696865822822,-13.434523641434524],[-73.04697597255777,-13.433619928824456],[-73.04789922043331,-13.433627086437513],[-73.04789190955607,-13.434530799546522],[-73.04696865822822,-13.434523641434524]]]}},{"type":"Feature","properties":{"Cell_ID":132,"Area_ha":1.0,"LC":"7:0.027351,9:0.972649","XMIN":711351.641768496,"YMIN":8513873.59738907,"XMAX":711451.641768496,"YMAX":8513973.59738907},"geometry":{"type":"Polygon","coordinates":[[[-73.0469613433609,-13.435427353975973],[-73.04696865822822,-13.434523641434524],[-73.04789190955607,-13.434530799546522],[-73.04788459814135,-13.435434512586912],[-73.0469613433609,-13.435427353975973]]]}},{"type":"Feature","properties":{"Cell_ID":133,"Area_ha":1.0,"LC":"6:0.274006,7:0.016449,9:0.704113,13:0.005432","XMIN":711351.641768496,"YMIN":8513773.59738907,"XMAX":711451.641768496,"YMAX":8513873.59738907},"geometry":{"type":"Polygon","coordinates":[[[-73.04695402795582,-13.436331066448794],[-73.0469613433609,-13.435427353975973],[-73.04788459814135,-13.435434512586912],[-73.04787728618909,-13.436338225558679],[-73.04695402795582,-13.436331066448794]]]}},{"type":"Feature","properties":{"Cell_ID":134,"Area_ha":1.0,"LC":"6:0.035054,9:0.618158,13:0.346789","XMIN":711351.641768496,"YMIN":8513673.59738907,"XMAX":711451.641768496,"YMAX":8513773.59738907},"geometry":{"type":"Polygon","coordinates":[[[-73.04694671201297,-13.437234778852982],[-73.04695402795582,-13.436331066448794],[-73.04787728618909,-13.436338225558679],[-73.04786997369933,-13.437241938461819],[-73.04694671201297,-13.437234778852982]]]}},{"type":"Feature","properties":{"Cell_ID":135,"Area_ha":1.0,"LC":"7:0.005432,9:0.617557,13:0.326071,14:0.050940","XMIN":711351.641768496,"YMIN":8513573.59738907,"XMAX":711451.641768496,"YMAX":8513673.59738907},"geometry":{"type":"Polygon","coordinates":[[[-73.04693939553232,-13.438138491188532],[-73.04694671201297,-13.437234778852982],[-73.04786997369933,-13.437241938461819],[-73.04786266067204,-13.43814565129632],[-73.04693939553232,-13.438138491188532]]]}},{"type":"Feature","properties":{"Cell_ID":136,"Area_ha":1.0,"LC":"7:0.000038,9:0.470427,13:0.529534","XMIN":711351.641768496,"YMIN":8513473.59738907,"XMAX":711451.641768496,"YMAX":8513573.59738907},"geometry":{"type":"Polygon","coordinates":[[[-73.04693207851388,-13.439042203455445],[-73.04693939553232,-13.438138491188532],[-73.04786266067204,-13.43814565129632],[-73.04785534710719,-13.439049364062189],[-73.04693207851388,-13.439042203455445]]]}},{"type":"Feature","properties":{"Cell_ID":137,"Area_ha":1.0,"LC":"9:0.399680,13:0.326876,14:0.273443","XMIN":711351.641768496,"YMIN":8513373.59738907,"XMAX":711451.641768496,"YMAX":8513473.59738907},"geometry":{"type":"Polygon","coordinates":[[[-73.04692476095764,-13.439945915653716],[-73.04693207851388,-13.439042203455445],[-73.04785534710719,-13.439049364062189],[-73.04784803300481,-13.439953076759418],[-73.04692476095764,-13.439945915653716]]]}},{"type":"Feature","properties":{"Cell_ID":138,"Area_ha":1.0,"LC":"7:0.405227,9:0.491426,13:0.103347","XMIN":711451.641768496,"YMIN":8514773.59738907,"XMAX":711551.641768496,"YMAX":8514873.59738907},"geometry":{"type":"Polygon","coordinates":[[[-73.04610393462971,-13.42728678113458],[-73.04611124810788,-13.426383068474824],[-73.04703446783623,-13.426390225473991],[-73.04702715780837,-13.427293938632888],[-73.04610393462971,-13.42728678113458]]]}},{"type":"Feature","properties":{"Cell_ID":139,"Area_ha":1.0,"LC":"7:0.706750,9:0.224190,13:0.000243,14:0.068817","XMIN":711451.641768496,"YMIN":8514673.59738907,"XMAX":711551.641768496,"YMAX":8514773.59738907},"geometry":{"type":"Polygon","coordinates":[[[-73.04609662061362,-13.428190493725738],[-73.04610393462971,-13.42728678113458],[-73.04702715780837,-13.427293938632888],[-73.04701984724282,-13.428197651723195],[-73.04609662061362,-13.428190493725738]]]}},{"type":"Feature","properties":{"Cell_ID":140,"Area_ha":1.0,"LC":"7:0.787632,14:0.212368","XMIN":711451.641768496,"YMIN":8514573.59738907,"XMAX":711551.641768496,"YMAX":8514673.59738907},"geometry":{"type":"Polygon","coordinates":[[[-73.0460893060596,-13.429094206248301],[-73.04609662061362,-13.428190493725738],[-73.04701984724282,-13.428197651723195],[-73.04701253613959,-13.429101364744914],[-73.0460893060596,-13.429094206248301]]]}},{"type":"Feature","properties":{"Cell_ID":141,"Area_ha":1.0,"LC":"7:0.416692,14:0.583308","XMIN":711451.641768496,"YMIN":8514473.59738907,"XMAX":711551.641768496,"YMAX":8514573.59738907},"geometry":{"type":"Polygon","coordinates":[[[-73.04608199096762,-13.429997918702265],[-73.0460893060596,-13.429094206248301],[-73.04701253613959,-13.429101364744914],[-73.04700522449866,-13.430005077698032],[-73.04608199096762,-13.429997918702265]]]}},{"type":"Feature","properties":{"Cell_ID":142,"Area_ha":1.0,"LC":"6:0.239438,7:0.206071,9:0.221280,14:0.333211","XMIN":711451.641768496,"YMIN":8514373.59738907,"XMAX":711551.641768496,"YMAX":8514473.59738907},"geometry":{"type":"Polygon","coordinates":[[[-73.04607467533768,-13.430901631087625],[-73.04608199096762,-13.429997918702265],[-73.04700522449866,-13.430005077698032],[-73.04699791232004,-13.43090879058255],[-73.04607467533768,-13.430901631087625]]]}},{"type":"Feature","properties":{"Cell_ID":143,"Area_ha":1.0,"LC":"6:0.440000,9:0.456168,14:0.103832","XMIN":711451.641768496,"YMIN":8514273.59738907,"XMAX":711551.641768496,"YMAX":8514373.59738907},"geometry":{"type":"Polygon","coordinates":[[[-73.04606735916978,-13.431805343404374],[-73.04607467533768,-13.430901631087625],[-73.04699791232004,-13.43090879058255],[-73.04699059960369,-13.431812503398467],[-73.04606735916978,-13.431805343404374]]]}},{"type":"Feature","properties":{"Cell_ID":144,"Area_ha":1.0,"LC":"6:0.080562,9:0.879719,14:0.039719","XMIN":711451.641768496,"YMIN":8514173.59738907,"XMAX":711551.641768496,"YMAX":8514273.59738907},"geometry":{"type":"Polygon","coordinates":[[[-73.04606004246388,-13.432709055652508],[-73.04606735916978,-13.431805343404374],[-73.04699059960369,-13.431812503398467],[-73.0469832863496,-13.432716216145767],[-73.04606004246388,-13.432709055652508]]]}},{"type":"Feature","properties":{"Cell_ID":145,"Area_ha":1.0,"LC":"5:0.410097,9:0.195616,14:0.394287","XMIN":711451.641768496,"YMIN":8514073.59738907,"XMAX":711551.641768496,"YMAX":8514173.59738907},"geometry":{"type":"Polygon","coordinates":[[[-73.04605272522,-13.433612767832027],[-73.04606004246388,-13.432709055652508],[-73.0469832863496,-13.432716216145767],[-73.04697597255777,-13.433619928824456],[-73.04605272522,-13.433612767832027]]]}},{"type":"Feature","properties":{"Cell_ID":146,"Area_ha":1.0,"LC":"5:0.600000,9:0.107070,14:0.292930","XMIN":711451.641768496,"YMIN":8513973.59738907,"XMAX":711551.641768496,"YMAX":8514073.59738907},"geometry":{"type":"Polygon","coordinates":[[[-73.04604540743811,-13.434516479942923],[-73.04605272522,-13.433612767832027],[-73.04697597255777,-13.433619928824456],[-73.04696865822822,-13.434523641434524],[-73.04604540743811,-13.434516479942923]]]}},{"type":"Feature","properties":{"Cell_ID":147,"Area_ha":1.0,"LC":"5:0.040844,9:0.427351,13:0.239156,14:0.292649","XMIN":711451.641768496,"YMIN":8513873.59738907,"XMAX":711551.641768496,"YMAX":8513973.59738907},"geometry":{"type":"Polygon","coordinates":[[[-73.04603808911823,-13.435420191985193],[-73.04604540743811,-13.434516479942923],[-73.04696865822822,-13.434523641434524],[-73.0469613433609,-13.435427353975973],[-73.04603808911823,-13.435420191985193]]]}},{"type":"Feature","properties":{"Cell_ID":148,"Area_ha":1.0,"LC":"6:0.050621,9:0.455887,13:0.493250,14:0.000243","XMIN":711451.641768496,"YMIN":8513773.59738907,"XMAX":711551.641768496,"YMAX":8513873.59738907},"geometry":{"type":"Polygon","coordinates":[[[-73.04603077026032,-13.436323903958833],[-73.04603808911823,-13.435420191985193],[-73.0469613433609,-13.435427353975973],[-73.04695402795582,-13.436331066448794],[-73.04603077026032,-13.436323903958833]]]}},{"type":"Feature","properties":{"Cell_ID":149,"Area_ha":1.0,"LC":"6:0.245790,9:0.411464,13:0.342746","XMIN":711451.641768496,"YMIN":8513673.59738907,"XMAX":711551.641768496,"YMAX":8513773.59738907},"geometry":{"type":"Polygon","coordinates":[[[-73.04602345086437,-13.437227615863836],[-73.04603077026032,-13.436323903958833],[-73.04695402795582,-13.436331066448794],[-73.04694671201297,-13.437234778852982],[-73.04602345086437,-13.437227615863836]]]}},{"type":"Feature","properties":{"Cell_ID":150,"Area_ha":1.0,"LC":"9:0.506507,13:0.041086,18:0.452406","XMIN":711451.641768496,"YMIN":8513573.59738907,"XMAX":711551.641768496,"YMAX":8513673.59738907},"geometry":{"type":"Polygon","coordinates":[[[-73.0460161309304,-13.438131327700196],[-73.04602345086437,-13.437227615863836],[-73.04694671201297,-13.437234778852982],[-73.04693939553232,-13.438138491188532],[-73.0460161309304,-13.438131327700196]]]}},{"type":"Feature","properties":{"Cell_ID":151,"Area_ha":1.0,"LC":"7:0.338119,9:0.611017,13:0.050621,18:0.000243","XMIN":711451.641768496,"YMIN":8513473.59738907,"XMAX":711551.641768496,"YMAX":8513573.59738907},"geometry":{"type":"Polygon","coordinates":[[[-73.04600881045837,-13.43903503946792],[-73.0460161309304,-13.438131327700196],[-73.04693939553232,-13.438138491188532],[-73.04693207851388,-13.439042203455445],[-73.04600881045837,-13.43903503946792]]]}},{"type":"Feature","properties":{"Cell_ID":152,"Area_ha":1.0,"LC":"9:0.634530,13:0.320320,14:0.045151","XMIN":711451.641768496,"YMIN":8513373.59738907,"XMAX":711551.641768496,"YMAX":8513473.59738907},"geometry":{"type":"Polygon","coordinates":[[[-73.04600148944829,-13.439938751166993],[-73.04600881045837,-13.43903503946792],[-73.04693207851388,-13.439042203455445],[-73.04692476095764,-13.439945915653716],[-73.04600148944829,-13.439938751166993]]]}},{"type":"Feature","properties":{"Cell_ID":153,"Area_ha":1.0,"LC":"9:0.600243,13:0.121163,14:0.278594","XMIN":711551.641768496,"YMIN":8514673.59738907,"XMAX":711651.641768496,"YMAX":8514773.59738907},"geometry":{"type":"Polygon","coordinates":[[[-73.04517339452237,-13.428183332350331],[-73.04518071198899,-13.427279620258556],[-73.04610393462971,-13.42728678113458],[-73.04609662061362,-13.428190493725738],[-73.04517339452237,-13.428183332350331]]]}},{"type":"Feature","properties":{"Cell_ID":154,"Area_ha":1.0,"LC":"14:1.000000","XMIN":711551.641768496,"YMIN":8514573.59738907,"XMAX":711651.641768496,"YMAX":8514673.59738907},"geometry":{"type":"Polygon","coordinates":[[[-73.04516607651756,-13.429087044373508],[-73.04517339452237,-13.428183332350331],[-73.04609662061362,-13.428190493725738],[-73.0460893060596,-13.429094206248301],[-73.04516607651756,-13.429087044373508]]]}},{"type":"Feature","properties":{"Cell_ID":155,"Area_ha":1.0,"LC":"14:1.000000","XMIN":711551.641768496,"YMIN":8514473.59738907,"XMAX":711651.641768496,"YMAX":8514573.59738907},"geometry":{"type":"Polygon","coordinates":[[[-73.04515875797455,-13.42999075632808],[-73.04516607651756,-13.429087044373508],[-73.0460893060596,-13.429094206248301],[-73.04608199096762,-13.429997918702265],[-73.04515875797455,-13.42999075632808]]]}},{"type":"Feature","properties":{"Cell_ID":156,"Area_ha":1.0,"LC":"5:0.268536,14:0.731464","XMIN":711551.641768496,"YMIN":8514373.59738907,"XMAX":711651.641768496,"YMAX":8514473.59738907},"geometry":{"type":"Polygon","coordinates":[[[-73.04515143889331,-13.430894468214042],[-73.04515875797455,-13.42999075632808],[-73.04608199096762,-13.429997918702265],[-73.04607467533768,-13.430901631087625],[-73.04515143889331,-13.430894468214042]]]}},{"type":"Feature","properties":{"Cell_ID":157,"Area_ha":1.0,"LC":"5:0.183871,9:0.050621,14:0.765509","XMIN":711551.641768496,"YMIN":8514273.59738907,"XMAX":711651.641768496,"YMAX":8514373.59738907},"geometry":{"type":"Polygon","coordinates":[[[-73.04514411927384,-13.431798180031393],[-73.04515143889331,-13.430894468214042],[-73.04607467533768,-13.430901631087625],[-73.04606735916978,-13.431805343404374],[-73.04514411927384,-13.431798180031393]]]}},{"type":"Feature","properties":{"Cell_ID":158,"Area_ha":1.0,"LC":"5:0.034773,9:0.684946,13:0.199438,14:0.080844","XMIN":711551.641768496,"YMIN":8514173.59738907,"XMAX":711651.641768496,"YMAX":8514273.59738907},"geometry":{"type":"Polygon","coordinates":[[[-73.04513679911616,-13.432701891780127],[-73.04514411927384,-13.431798180031393],[-73.04606735916978,-13.431805343404374],[-73.04606004246388,-13.432709055652508],[-73.04513679911616,-13.432701891780127]]]}},{"type":"Feature","properties":{"Cell_ID":159,"Area_ha":1.0,"LC":"9:0.576168,13:0.418400,14:0.005432","XMIN":711551.641768496,"YMIN":8514073.59738907,"XMAX":711651.641768496,"YMAX":8514173.59738907},"geometry":{"type":"Polygon","coordinates":[[[-73.04512947842022,-13.433605603460238],[-73.04513679911616,-13.432701891780127],[-73.04606004246388,-13.432709055652508],[-73.04605272522,-13.433612767832027],[-73.04512947842022,-13.433605603460238]]]}},{"type":"Feature","properties":{"Cell_ID":160,"Area_ha":1.0,"LC":"9:0.972368,13:0.000281,14:0.027351","XMIN":711551.641768496,"YMIN":8513973.59738907,"XMAX":711651.641768496,"YMAX":8514073.59738907},"geometry":{"type":"Polygon","coordinates":[[[-73.04512215718603,-13.434509315071725],[-73.04512947842022,-13.433605603460238],[-73.04605272522,-13.433612767832027],[-73.04604540743811,-13.434516479942923],[-73.04512215718603,-13.434509315071725]]]}},{"type":"Feature","properties":{"Cell_ID":161,"Area_ha":1.0,"LC":"9:0.972649,14:0.027351","XMIN":711551.641768496,"YMIN":8513873.59738907,"XMAX":711651.641768496,"YMAX":8513973.59738907},"geometry":{"type":"Polygon","coordinates":[[[-73.04511483541357,-13.435413026614581],[-73.04512215718603,-13.434509315071725],[-73.04604540743811,-13.434516479942923],[-73.04603808911823,-13.435420191985193],[-73.04511483541357,-13.435413026614581]]]}},{"type":"Feature","properties":{"Cell_ID":162,"Area_ha":1.0,"LC":"7:0.314006,9:0.161368,13:0.524588,14:0.000038","XMIN":711551.641768496,"YMIN":8513773.59738907,"XMAX":711651.641768496,"YMAX":8513873.59738907},"geometry":{"type":"Polygon","coordinates":[[[-73.04510751310285,-13.436316738088804],[-73.04511483541357,-13.435413026614581],[-73.04603808911823,-13.435420191985193],[-73.04603077026032,-13.436323903958833],[-73.04510751310285,-13.436316738088804]]]}},{"type":"Feature","properties":{"Cell_ID":163,"Area_ha":1.0,"LC":"7:0.252930,9:0.170940,13:0.496411,18:0.079719","XMIN":711551.641768496,"YMIN":8513673.59738907,"XMAX":711651.641768496,"YMAX":8513773.59738907},"geometry":{"type":"Polygon","coordinates":[[[-73.04510019025383,-13.437220449494388],[-73.04510751310285,-13.436316738088804],[-73.04603077026032,-13.436323903958833],[-73.04602345086437,-13.437227615863836],[-73.04510019025383,-13.437220449494388]]]}},{"type":"Feature","properties":{"Cell_ID":164,"Area_ha":1.0,"LC":"7:0.000243,13:0.537915,18:0.461842","XMIN":711551.641768496,"YMIN":8513573.59738907,"XMAX":711651.641768496,"YMAX":8513673.59738907},"geometry":{"type":"Polygon","coordinates":[[[-73.04509286686653,-13.438124160831327],[-73.04510019025383,-13.437220449494388],[-73.04602345086437,-13.437227615863836],[-73.0460161309304,-13.438131327700196],[-73.04509286686653,-13.438124160831327]]]}},{"type":"Feature","properties":{"Cell_ID":165,"Area_ha":1.0,"LC":"7:0.529573,9:0.005432,13:0.424676,18:0.040320","XMIN":711551.641768496,"YMIN":8513473.59738907,"XMAX":711651.641768496,"YMAX":8513573.59738907},"geometry":{"type":"Polygon","coordinates":[[[-73.04508554294091,-13.43902787209962],[-73.04509286686653,-13.438124160831327],[-73.0460161309304,-13.438131327700196],[-73.04600881045837,-13.43903503946792],[-73.04508554294091,-13.43902787209962]]]}},{"type":"Feature","properties":{"Cell_ID":166,"Area_ha":1.0,"LC":"7:0.155897,9:0.409854,13:0.434249","XMIN":711551.641768496,"YMIN":8513373.59738907,"XMAX":711651.641768496,"YMAX":8513473.59738907},"geometry":{"type":"Polygon","coordinates":[[[-73.04507821847702,-13.439931583299263],[-73.04508554294091,-13.43902787209962],[-73.04600881045837,-13.43903503946792],[-73.04600148944829,-13.439938751166993],[-73.04507821847702,-13.439931583299263]]]}},{"type":"Feature","properties":{"Cell_ID":167,"Area_ha":1.0,"LC":"9:0.257012,14:0.742988","XMIN":711651.641768496,"YMIN":8514673.59738907,"XMAX":711751.641768496,"YMAX":8514773.59738907},"geometry":{"type":"Polygon","coordinates":[[[-73.04425016896931,-13.428176167596988],[-73.04425748988646,-13.427272456004832],[-73.04518071198899,-13.427279620258556],[-73.04517339452237,-13.428183332350331],[-73.04425016896931,-13.428176167596988]]]}},{"type":"Feature","properties":{"Cell_ID":168,"Area_ha":1.0,"LC":"5:0.622222,14:0.377778","XMIN":711651.641768496,"YMIN":8514573.59738907,"XMAX":711751.641768496,"YMAX":8514673.59738907},"geometry":{"type":"Polygon","coordinates":[[[-73.04424284751373,-13.429079879120541],[-73.04425016896931,-13.428176167596988],[-73.04517339452237,-13.428183332350331],[-73.04516607651756,-13.429087044373508],[-73.04424284751373,-13.429079879120541]]]}},{"type":"Feature","properties":{"Cell_ID":169,"Area_ha":1.0,"LC":"5:0.104957,14:0.895043","XMIN":711651.641768496,"YMIN":8514473.59738907,"XMAX":711751.641768496,"YMAX":8514573.59738907},"geometry":{"type":"Polygon","coordinates":[[[-73.04423552551968,-13.429983590575484],[-73.04424284751373,-13.429079879120541],[-73.04516607651756,-13.429087044373508],[-73.04515875797455,-13.42999075632808],[-73.04423552551968,-13.429983590575484]]]}},{"type":"Feature","properties":{"Cell_ID":170,"Area_ha":1.0,"LC":"5:0.010902,14:0.989098","XMIN":711651.641768496,"YMIN":8514373.59738907,"XMAX":711751.641768496,"YMAX":8514473.59738907},"geometry":{"type":"Polygon","coordinates":[[[-73.04422820298716,-13.43088730196182],[-73.04423552551968,-13.429983590575484],[-73.04515875797455,-13.42999075632808],[-73.04515143889331,-13.430894468214042],[-73.04422820298716,-13.43088730196182]]]}},{"type":"Feature","properties":{"Cell_ID":171,"Area_ha":1.0,"LC":"5:0.136129,13:0.188536,14:0.675335","XMIN":711651.641768496,"YMIN":8514273.59738907,"XMAX":711751.641768496,"YMAX":8514373.59738907},"geometry":{"type":"Polygon","coordinates":[[[-73.04422087991615,-13.43179101327953],[-73.04422820298716,-13.43088730196182],[-73.04515143889331,-13.430894468214042],[-73.04514411927384,-13.431798180031393],[-73.04422087991615,-13.43179101327953]]]}},{"type":"Feature","properties":{"Cell_ID":172,"Area_ha":1.0,"LC":"5:0.045790,9:0.221561,13:0.692087,14:0.040562","XMIN":711651.641768496,"YMIN":8514173.59738907,"XMAX":711751.641768496,"YMAX":8514273.59738907},"geometry":{"type":"Polygon","coordinates":[[[-73.04421355630667,-13.432694724528627],[-73.04422087991615,-13.43179101327953],[-73.04514411927384,-13.431798180031393],[-73.04513679911616,-13.432701891780127],[-73.04421355630667,-13.432694724528627]]]}},{"type":"Feature","properties":{"Cell_ID":173,"Area_ha":1.0,"LC":"9:0.125189,13:0.874811","XMIN":711651.641768496,"YMIN":8514073.59738907,"XMAX":711751.641768496,"YMAX":8514173.59738907},"geometry":{"type":"Polygon","coordinates":[[[-73.04420623215869,-13.433598435709097],[-73.04421355630667,-13.432694724528627],[-73.04513679911616,-13.432701891780127],[-73.04512947842022,-13.433605603460238],[-73.04420623215869,-13.433598435709097]]]}},{"type":"Feature","properties":{"Cell_ID":174,"Area_ha":1.0,"LC":"9:0.581881,13:0.418119","XMIN":711651.641768496,"YMIN":8513973.59738907,"XMAX":711751.641768496,"YMAX":8514073.59738907},"geometry":{"type":"Polygon","coordinates":[[[-73.0441989074722,-13.434502146820941],[-73.04420623215869,-13.433598435709097],[-73.04512947842022,-13.433605603460238],[-73.04512215718603,-13.434509315071725],[-73.0441989074722,-13.434502146820941]]]}},{"type":"Feature","properties":{"Cell_ID":175,"Area_ha":1.0,"LC":"9:0.690135,13:0.309865","XMIN":711651.641768496,"YMIN":8513873.59738907,"XMAX":711751.641768496,"YMAX":8513973.59738907},"geometry":{"type":"Polygon","coordinates":[[[-73.04419158224718,-13.435405857864149],[-73.0441989074722,-13.434502146820941],[-73.04512215718603,-13.434509315071725],[-73.04511483541357,-13.435413026614581],[-73.04419158224718,-13.435405857864149]]]}},{"type":"Feature","properties":{"Cell_ID":176,"Area_ha":1.0,"LC":"7:0.005432,9:0.613531,13:0.381037","XMIN":711651.641768496,"YMIN":8513773.59738907,"XMAX":711751.641768496,"YMAX":8513873.59738907},"geometry":{"type":"Polygon","coordinates":[[[-73.04418425648365,-13.436309568838722],[-73.04419158224718,-13.435405857864149],[-73.04511483541357,-13.435413026614581],[-73.04510751310285,-13.436316738088804],[-73.04418425648365,-13.436309568838722]]]}},{"type":"Feature","properties":{"Cell_ID":177,"Area_ha":1.0,"LC":"7:0.426507,9:0.109584,13:0.463909","XMIN":711651.641768496,"YMIN":8513673.59738907,"XMAX":711751.641768496,"YMAX":8513773.59738907},"geometry":{"type":"Polygon","coordinates":[[[-73.04417693018158,-13.437213279744649],[-73.04418425648365,-13.436309568838722],[-73.04510751310285,-13.436316738088804],[-73.04510019025383,-13.437220449494388],[-73.04417693018158,-13.437213279744649]]]}},{"type":"Feature","properties":{"Cell_ID":178,"Area_ha":1.0,"LC":"7:0.475412,9:0.113725,13:0.285393,18:0.125470","XMIN":711651.641768496,"YMIN":8513573.59738907,"XMAX":711751.641768496,"YMAX":8513673.59738907},"geometry":{"type":"Polygon","coordinates":[[[-73.04416960334095,-13.438116990581925],[-73.04417693018158,-13.437213279744649],[-73.04510019025383,-13.437220449494388],[-73.04509286686653,-13.438124160831327],[-73.04416960334095,-13.438116990581925]]]}},{"type":"Feature","properties":{"Cell_ID":179,"Area_ha":1.0,"LC":"7:0.050621,9:0.040524,13:0.257012,18:0.651844","XMIN":711651.641768496,"YMIN":8513473.59738907,"XMAX":711751.641768496,"YMAX":8513573.59738907},"geometry":{"type":"Polygon","coordinates":[[[-73.04416227596178,-13.439020701350556],[-73.04416960334095,-13.438116990581925],[-73.04509286686653,-13.438124160831327],[-73.04508554294091,-13.43902787209962],[-73.04416227596178,-13.439020701350556]]]}},{"type":"Feature","properties":{"Cell_ID":180,"Area_ha":1.0,"LC":"5:0.424113,13:0.075092,14:0.500794","XMIN":711751.641768496,"YMIN":8514673.59738907,"XMAX":711851.641768496,"YMAX":8514773.59738907},"geometry":{"type":"Polygon","coordinates":[[[-73.04332694395472,-13.428168999465715],[-73.04333426832237,-13.427265288373412],[-73.04425748988646,-13.427272456004832],[-73.04425016896931,-13.428176167596988],[-73.04332694395472,-13.428168999465715]]]}},{"type":"Feature","properties":{"Cell_ID":181,"Area_ha":1.0,"LC":"5:0.410058,6:0.074006,14:0.515936","XMIN":711751.641768496,"YMIN":8514573.59738907,"XMAX":711851.641768496,"YMAX":8514673.59738907},"geometry":{"type":"Polygon","coordinates":[[[-73.04331961904836,-13.42907271048941],[-73.04332694395472,-13.428168999465715],[-73.04425016896931,-13.428176167596988],[-73.04424284751373,-13.429079879120541],[-73.04331961904836,-13.42907271048941]]]}},{"type":"Feature","properties":{"Cell_ID":182,"Area_ha":1.0,"LC":"5:0.536449,6:0.035054,9:0.279719,14:0.148778","XMIN":711751.641768496,"YMIN":8514473.59738907,"XMAX":711851.641768496,"YMAX":8514573.59738907},"geometry":{"type":"Polygon","coordinates":[[[-73.04331229360328,-13.42997642144449],[-73.04331961904836,-13.42907271048941],[-73.04424284751373,-13.429079879120541],[-73.04423552551968,-13.429983590575484],[-73.04331229360328,-13.42997642144449]]]}},{"type":"Feature","properties":{"Cell_ID":183,"Area_ha":1.0,"LC":"5:0.320844,9:0.577314,14:0.101842","XMIN":711751.641768496,"YMIN":8514373.59738907,"XMAX":711851.641768496,"YMAX":8514473.59738907},"geometry":{"type":"Polygon","coordinates":[[[-73.04330496761949,-13.430880132330955],[-73.04331229360328,-13.42997642144449],[-73.04423552551968,-13.429983590575484],[-73.04422820298716,-13.43088730196182],[-73.04330496761949,-13.430880132330955]]]}},{"type":"Feature","properties":{"Cell_ID":184,"Area_ha":1.0,"LC":"5:0.143065,9:0.669865,13:0.130340,14:0.056730","XMIN":711751.641768496,"YMIN":8514273.59738907,"XMAX":711851.641768496,"YMAX":8514373.59738907},"geometry":{"type":"Polygon","coordinates":[[[-73.04329764109696,-13.431783843148805],[-73.04330496761949,-13.430880132330955],[-73.04422820298716,-13.43088730196182],[-73.04422087991615,-13.43179101327953],[-73.04329764109696,-13.431783843148805]]]}},{"type":"Feature","properties":{"Cell_ID":185,"Area_ha":1.0,"LC":"5:0.149584,9:0.662503,13:0.187913","XMIN":711751.641768496,"YMIN":8514173.59738907,"XMAX":711851.641768496,"YMAX":8514273.59738907},"geometry":{"type":"Polygon","coordinates":[[[-73.04329031403569,-13.432687553898026],[-73.04329764109696,-13.431783843148805],[-73.04422087991615,-13.43179101327953],[-73.04421355630667,-13.432694724528627],[-73.04329031403569,-13.432687553898026]]]}},{"type":"Feature","properties":{"Cell_ID":186,"Area_ha":1.0,"LC":"9:0.972649,13:0.027351","XMIN":711751.641768496,"YMIN":8514073.59738907,"XMAX":711851.641768496,"YMAX":8514173.59738907},"geometry":{"type":"Polygon","coordinates":[[[-73.04328298643566,-13.433591264578618],[-73.04329031403569,-13.432687553898026],[-73.04421355630667,-13.432694724528627],[-73.04420623215869,-13.433598435709097],[-73.04328298643566,-13.433591264578618]]]}},{"type":"Feature","properties":{"Cell_ID":187,"Area_ha":1.0,"LC":"9:0.903871,13:0.096129","XMIN":711751.641768496,"YMIN":8513973.59738907,"XMAX":711851.641768496,"YMAX":8514073.59738907},"geometry":{"type":"Polygon","coordinates":[[[-73.04327565829688,-13.43449497519058],[-73.04328298643566,-13.433591264578618],[-73.04420623215869,-13.433598435709097],[-73.0441989074722,-13.434502146820941],[-73.04327565829688,-13.43449497519058]]]}},{"type":"Feature","properties":{"Cell_ID":188,"Area_ha":1.0,"LC":"9:0.576615,13:0.423385","XMIN":711751.641768496,"YMIN":8513873.59738907,"XMAX":711851.641768496,"YMAX":8513973.59738907},"geometry":{"type":"Polygon","coordinates":[[[-73.04326832961932,-13.435398685733903],[-73.04327565829688,-13.43449497519058],[-73.0441989074722,-13.434502146820941],[-73.04419158224718,-13.435405857864149],[-73.04326832961932,-13.435398685733903]]]}},{"type":"Feature","properties":{"Cell_ID":189,"Area_ha":1.0,"LC":"9:0.850416,13:0.149584","XMIN":711751.641768496,"YMIN":8513773.59738907,"XMAX":711851.641768496,"YMAX":8513873.59738907},"geometry":{"type":"Polygon","coordinates":[[[-73.04326100040299,-13.436302396208585],[-73.04326832961932,-13.435398685733903],[-73.04419158224718,-13.435405857864149],[-73.04418425648365,-13.436309568838722],[-73.04326100040299,-13.436302396208585]]]}},{"type":"Feature","properties":{"Cell_ID":190,"Area_ha":1.0,"LC":"5:0.068817,9:0.635373,13:0.295810","XMIN":711751.641768496,"YMIN":8513673.59738907,"XMAX":711851.641768496,"YMAX":8513773.59738907},"geometry":{"type":"Polygon","coordinates":[[[-73.04325367064787,-13.437206106614623],[-73.04326100040299,-13.436302396208585],[-73.04418425648365,-13.436309568838722],[-73.04417693018158,-13.437213279744649],[-73.04325367064787,-13.437206106614623]]]}},{"type":"Feature","properties":{"Cell_ID":191,"Area_ha":1.0,"LC":"5:0.000243,7:0.005470,9:0.434249,13:0.256449,14:0.303589","XMIN":711751.641768496,"YMIN":8513573.59738907,"XMAX":711851.641768496,"YMAX":8513673.59738907},"geometry":{"type":"Polygon","coordinates":[[[-73.04324634035395,-13.438109816952005],[-73.04325367064787,-13.437206106614623],[-73.04417693018158,-13.437213279744649],[-73.04416960334095,-13.438116990581925],[-73.04324634035395,-13.438109816952005]]]}},{"type":"Feature","properties":{"Cell_ID":192,"Area_ha":1.0,"LC":"9:0.474530,13:0.309622,18:0.215848","XMIN":711751.641768496,"YMIN":8513473.59738907,"XMAX":711851.641768496,"YMAX":8513573.59738907},"geometry":{"type":"Polygon","coordinates":[[[-73.04323900952122,-13.43901352722074],[-73.04324634035395,-13.438109816952005],[-73.04416960334095,-13.438116990581925],[-73.04416227596178,-13.439020701350556],[-73.04323900952122,-13.43901352722074]]]}},{"type":"Feature","properties":{"Cell_ID":193,"Area_ha":1.0,"LC":"5:0.164908,6:0.233686,9:0.583832,13:0.001125,14:0.016449","XMIN":711851.641768496,"YMIN":8514573.59738907,"XMAX":711951.641768496,"YMAX":8514673.59738907},"geometry":{"type":"Polygon","coordinates":[[[-73.0423963911217,-13.429065538480124],[-73.04240371947881,-13.428161827956522],[-73.04332694395472,-13.428168999465715],[-73.04331961904836,-13.42907271048941],[-73.0423963911217,-13.429065538480124]]]}},{"type":"Feature","properties":{"Cell_ID":194,"Area_ha":1.0,"LC":"5:0.000562,6:0.315373,7:0.223347,14:0.460717","XMIN":711851.641768496,"YMIN":8514473.59738907,"XMAX":711951.641768496,"YMAX":8514573.59738907},"geometry":{"type":"Polygon","coordinates":[[[-73.04238906222561,-13.429969248935103],[-73.0423963911217,-13.429065538480124],[-73.04331961904836,-13.42907271048941],[-73.04331229360328,-13.42997642144449],[-73.04238906222561,-13.429969248935103]]]}},{"type":"Feature","properties":{"Cell_ID":195,"Area_ha":1.0,"LC":"3:0.252125,5:0.159438,7:0.000243,9:0.381561,14:0.206634","XMIN":711851.641768496,"YMIN":8514373.59738907,"XMAX":711951.641768496,"YMAX":8514473.59738907},"geometry":{"type":"Polygon","coordinates":[[[-73.04238173279055,-13.43087295932147],[-73.04238906222561,-13.429969248935103],[-73.04331229360328,-13.42997642144449],[-73.04330496761949,-13.430880132330955],[-73.04238173279055,-13.43087295932147]]]}},{"type":"Feature","properties":{"Cell_ID":196,"Area_ha":1.0,"LC":"3:0.035054,5:0.690097,9:0.171260,14:0.103589","XMIN":711851.641768496,"YMIN":8514273.59738907,"XMAX":711951.641768496,"YMAX":8514373.59738907},"geometry":{"type":"Polygon","coordinates":[[[-73.04237440281649,-13.431776669639213],[-73.04238173279055,-13.43087295932147],[-73.04330496761949,-13.430880132330955],[-73.04329764109696,-13.431783843148805],[-73.04237440281649,-13.431776669639213]]]}},{"type":"Feature","properties":{"Cell_ID":197,"Area_ha":1.0,"LC":"5:0.904190,9:0.095810","XMIN":711851.641768496,"YMIN":8514173.59738907,"XMAX":711951.641768496,"YMAX":8514273.59738907},"geometry":{"type":"Polygon","coordinates":[[[-73.04236707230345,-13.432680379888323],[-73.04237440281649,-13.431776669639213],[-73.04329764109696,-13.431783843148805],[-73.04329031403569,-13.432687553898026],[-73.04236707230345,-13.432680379888323]]]}},{"type":"Feature","properties":{"Cell_ID":198,"Area_ha":1.0,"LC":"5:0.624395,9:0.147632,13:0.227973","XMIN":711851.641768496,"YMIN":8514073.59738907,"XMAX":711951.641768496,"YMAX":8514173.59738907},"geometry":{"type":"Polygon","coordinates":[[[-73.0423597412514,-13.433584090068805],[-73.04236707230345,-13.432680379888323],[-73.04329031403569,-13.432687553898026],[-73.04328298643566,-13.433591264578618],[-73.0423597412514,-13.433584090068805]]]}},{"type":"Feature","properties":{"Cell_ID":199,"Area_ha":1.0,"LC":"9:0.296692,13:0.703308","XMIN":711851.641768496,"YMIN":8513973.59738907,"XMAX":711951.641768496,"YMAX":8514073.59738907},"geometry":{"type":"Polygon","coordinates":[[[-73.04235240966034,-13.434487800180653],[-73.0423597412514,-13.433584090068805],[-73.04328298643566,-13.433591264578618],[-73.04327565829688,-13.43449497519058],[-73.04235240966034,-13.434487800180653]]]}},{"type":"Feature","properties":{"Cell_ID":200,"Area_ha":1.0,"LC":"9:0.000038,13:0.999962","XMIN":711851.641768496,"YMIN":8513873.59738907,"XMAX":711951.641768496,"YMAX":8513973.59738907},"geometry":{"type":"Polygon","coordinates":[[[-73.04234507753026,-13.435391510223853],[-73.04235240966034,-13.434487800180653],[-73.04327565829688,-13.43449497519058],[-73.04326832961932,-13.435398685733903],[-73.04234507753026,-13.435391510223853]]]}},{"type":"Feature","properties":{"Cell_ID":201,"Area_ha":1.0,"LC":"9:0.633124,13:0.366876","XMIN":711851.641768496,"YMIN":8513773.59738907,"XMAX":711951.641768496,"YMAX":8513873.59738907},"geometry":{"type":"Polygon","coordinates":[[[-73.04233774486113,-13.436295220198412],[-73.04234507753026,-13.435391510223853],[-73.04326832961932,-13.435398685733903],[-73.04326100040299,-13.436302396208585],[-73.04233774486113,-13.436295220198412]]]}},{"type":"Feature","properties":{"Cell_ID":202,"Area_ha":1.0,"LC":"5:0.090621,9:0.377254,13:0.532125","XMIN":711851.641768496,"YMIN":8513673.59738907,"XMAX":711951.641768496,"YMAX":8513773.59738907},"geometry":{"type":"Polygon","coordinates":[[[-73.04233041165296,-13.437198930104321],[-73.04233774486113,-13.436295220198412],[-73.04326100040299,-13.436302396208585],[-73.04325367064787,-13.437206106614623],[-73.04233041165296,-13.437198930104321]]]}},{"type":"Feature","properties":{"Cell_ID":203,"Area_ha":1.0,"LC":"5:0.349379,9:0.364627,13:0.069584,14:0.216411","XMIN":711851.641768496,"YMIN":8513573.59738907,"XMAX":711951.641768496,"YMAX":8513673.59738907},"geometry":{"type":"Polygon","coordinates":[[[-73.04232307790573,-13.438102639941574],[-73.04233041165296,-13.437198930104321],[-73.04325367064787,-13.437206106614623],[-73.04324634035395,-13.438109816952005],[-73.04232307790573,-13.438102639941574]]]}},{"type":"Feature","properties":{"Cell_ID":204,"Area_ha":1.0,"LC":"3:0.306750,7:0.360038,9:0.333211","XMIN":711951.641768496,"YMIN":8514373.59738907,"XMAX":712051.641768496,"YMAX":8514473.59738907},"geometry":{"type":"Polygon","coordinates":[[[-73.04145849850059,-13.430865782933367],[-73.0414658313869,-13.429962073047339],[-73.04238906222561,-13.429969248935103],[-73.04238173279055,-13.43087295932147],[-73.04145849850059,-13.430865782933367]]]}},{"type":"Feature","properties":{"Cell_ID":205,"Area_ha":1.0,"LC":"3:0.480077,5:0.005432,7:0.258682,9:0.000243,14:0.255567","XMIN":711951.641768496,"YMIN":8514273.59738907,"XMAX":712051.641768496,"YMAX":8514373.59738907},"geometry":{"type":"Polygon","coordinates":[[[-73.04145116507503,-13.43176949275077],[-73.04145849850059,-13.430865782933367],[-73.04238173279055,-13.43087295932147],[-73.04237440281649,-13.431776669639213],[-73.04145116507503,-13.43176949275077]]]}},{"type":"Feature","properties":{"Cell_ID":206,"Area_ha":1.0,"LC":"3:0.578081,5:0.181076,14:0.240844","XMIN":711951.641768496,"YMIN":8514173.59738907,"XMAX":712051.641768496,"YMAX":8514273.59738907},"geometry":{"type":"Polygon","coordinates":[[[-73.04144383111023,-13.432673202499538],[-73.04145116507503,-13.43176949275077],[-73.04237440281649,-13.431776669639213],[-73.04236707230345,-13.432680379888323],[-73.04144383111023,-13.432673202499538]]]}},{"type":"Feature","properties":{"Cell_ID":207,"Area_ha":1.0,"LC":"3:0.000562,5:0.531784,9:0.257876,13:0.209777","XMIN":711951.641768496,"YMIN":8514073.59738907,"XMAX":712051.641768496,"YMAX":8514173.59738907},"geometry":{"type":"Polygon","coordinates":[[[-73.04143649660615,-13.433576912179669],[-73.04144383111023,-13.432673202499538],[-73.04236707230345,-13.432680379888323],[-73.0423597412514,-13.433584090068805],[-73.04143649660615,-13.433576912179669]]]}},{"type":"Feature","properties":{"Cell_ID":208,"Area_ha":1.0,"LC":"9:0.377276,13:0.622724","XMIN":711951.641768496,"YMIN":8513973.59738907,"XMAX":712051.641768496,"YMAX":8514073.59738907},"geometry":{"type":"Polygon","coordinates":[[[-73.04142916156282,-13.434480621791163],[-73.04143649660615,-13.433576912179669],[-73.0423597412514,-13.433584090068805],[-73.04235240966034,-13.434487800180653],[-73.04142916156282,-13.434480621791163]]]}},{"type":"Feature","properties":{"Cell_ID":209,"Area_ha":1.0,"LC":"5:0.034530,9:0.538400,13:0.427070","XMIN":711951.641768496,"YMIN":8513873.59738907,"XMAX":712051.641768496,"YMAX":8513973.59738907},"geometry":{"type":"Polygon","coordinates":[[[-73.04142182598021,-13.43538433133401],[-73.04142916156282,-13.434480621791163],[-73.04235240966034,-13.434487800180653],[-73.04234507753026,-13.435391510223853],[-73.04142182598021,-13.43538433133401]]]}},{"type":"Feature","properties":{"Cell_ID":210,"Area_ha":1.0,"LC":"9:0.993929,13:0.006071","XMIN":711951.641768496,"YMIN":8513773.59738907,"XMAX":712051.641768496,"YMAX":8513873.59738907},"geometry":{"type":"Polygon","coordinates":[[[-73.0414144898583,-13.43628804080821],[-73.04142182598021,-13.43538433133401],[-73.04234507753026,-13.435391510223853],[-73.04233774486113,-13.436295220198412],[-73.0414144898583,-13.43628804080821]]]}},{"type":"Feature","properties":{"Cell_ID":211,"Area_ha":1.0,"LC":"9:0.852687,13:0.147313","XMIN":711951.641768496,"YMIN":8513673.59738907,"XMAX":712051.641768496,"YMAX":8513773.59738907},"geometry":{"type":"Polygon","coordinates":[[[-73.0414071531971,-13.437191750213756],[-73.0414144898583,-13.43628804080821],[-73.04233774486113,-13.436295220198412],[-73.04233041165296,-13.437198930104321],[-73.0414071531971,-13.437191750213756]]]}},{"type":"Feature","properties":{"Cell_ID":212,"Area_ha":1.0,"LC":"5:0.010940,9:0.874734,13:0.114325","XMIN":711951.641768496,"YMIN":8513573.59738907,"XMAX":712051.641768496,"YMAX":8513673.59738907},"geometry":{"type":"Polygon","coordinates":[[[-73.0413998159966,-13.438095459550643],[-73.0414071531971,-13.437191750213756],[-73.04233041165296,-13.437198930104321],[-73.04232307790573,-13.438102639941574],[-73.0413998159966,-13.438095459550643]]]}},{"type":"Feature","properties":{"Cell_ID":213,"Area_ha":1.0,"LC":"5:0.234249,9:0.662405,13:0.103347","XMIN":712051.641768496,"YMIN":8514373.59738907,"XMAX":712151.641768496,"YMAX":8514473.59738907},"geometry":{"type":"Polygon","coordinates":[[[-73.04053526474986,-13.430858603166653],[-73.04054260108744,-13.429954893781199],[-73.0414658313869,-13.429962073047339],[-73.04145849850059,-13.430865782933367],[-73.04053526474986,-13.430858603166653]]]}},{"type":"Feature","properties":{"Cell_ID":214,"Area_ha":1.0,"LC":"3:0.005432,5:0.314287,7:0.381037,9:0.160882,13:0.138362","XMIN":712051.641768496,"YMIN":8514273.59738907,"XMAX":712151.641768496,"YMAX":8514373.59738907},"geometry":{"type":"Polygon","coordinates":[[[-73.04052792787282,-13.431762312483482],[-73.04053526474986,-13.430858603166653],[-73.04145849850059,-13.430865782933367],[-73.04145116507503,-13.43176949275077],[-73.04052792787282,-13.431762312483482]]]}},{"type":"Feature","properties":{"Cell_ID":215,"Area_ha":1.0,"LC":"3:0.181357,5:0.149545,7:0.669098","XMIN":712051.641768496,"YMIN":8514173.59738907,"XMAX":712151.641768496,"YMAX":8514273.59738907},"geometry":{"type":"Polygon","coordinates":[[[-73.04052059045625,-13.432666021731668],[-73.04052792787282,-13.431762312483482],[-73.04145116507503,-13.43176949275077],[-73.04144383111023,-13.432673202499538],[-73.04052059045625,-13.432666021731668]]]}},{"type":"Feature","properties":{"Cell_ID":216,"Area_ha":1.0,"LC":"3:0.080562,5:0.204946,7:0.452930,9:0.261561","XMIN":712051.641768496,"YMIN":8514073.59738907,"XMAX":712151.641768496,"YMAX":8514173.59738907},"geometry":{"type":"Polygon","coordinates":[[[-73.04051325250018,-13.433569730911216],[-73.04052059045625,-13.432666021731668],[-73.04144383111023,-13.432673202499538],[-73.04143649660615,-13.433576912179669],[-73.04051325250018,-13.433569730911216]]]}},{"type":"Feature","properties":{"Cell_ID":217,"Area_ha":1.0,"LC":"5:0.897595,7:0.035054,9:0.067351","XMIN":712051.641768496,"YMIN":8513973.59738907,"XMAX":712151.641768496,"YMAX":8514073.59738907},"geometry":{"type":"Polygon","coordinates":[[[-73.04050591400458,-13.434473440022124],[-73.04051325250018,-13.433569730911216],[-73.04143649660615,-13.433576912179669],[-73.04142916156282,-13.434480621791163],[-73.04050591400458,-13.434473440022124]]]}},{"type":"Feature","properties":{"Cell_ID":218,"Area_ha":1.0,"LC":"5:0.526275,9:0.473725","XMIN":712051.641768496,"YMIN":8513873.59738907,"XMAX":712151.641768496,"YMAX":8513973.59738907},"geometry":{"type":"Polygon","coordinates":[[[-73.04049857496945,-13.43537714906438],[-73.04050591400458,-13.434473440022124],[-73.04142916156282,-13.434480621791163],[-73.04142182598021,-13.43538433133401],[-73.04049857496945,-13.43537714906438]]]}},{"type":"Feature","properties":{"Cell_ID":219,"Area_ha":1.0,"LC":"5:0.074568,9:0.925432","XMIN":712051.641768496,"YMIN":8513773.59738907,"XMAX":712151.641768496,"YMAX":8513873.59738907},"geometry":{"type":"Polygon","coordinates":[[[-73.04049123539478,-13.436280858037986],[-73.04049857496945,-13.43537714906438],[-73.04142182598021,-13.43538433133401],[-73.0414144898583,-13.43628804080821],[-73.04049123539478,-13.436280858037986]]]}},{"type":"Feature","properties":{"Cell_ID":220,"Area_ha":1.0,"LC":"5:0.292368,9:0.707632","XMIN":712051.641768496,"YMIN":8513673.59738907,"XMAX":712151.641768496,"YMAX":8513773.59738907},"geometry":{"type":"Polygon","coordinates":[[[-73.04048389528056,-13.437184566942936],[-73.04049123539478,-13.436280858037986],[-73.0414144898583,-13.43628804080821],[-73.0414071531971,-13.437191750213756],[-73.04048389528056,-13.437184566942936]]]}},{"type":"Feature","properties":{"Cell_ID":221,"Area_ha":1.0,"LC":"5:0.000524,9:0.360882,13:0.216091,14:0.422503","XMIN":712051.641768496,"YMIN":8513573.59738907,"XMAX":712151.641768496,"YMAX":8513673.59738907},"geometry":{"type":"Polygon","coordinates":[[[-73.04047655462676,-13.438088275779222],[-73.04048389528056,-13.437184566942936],[-73.0414071531971,-13.437191750213756],[-73.0413998159966,-13.438095459550643],[-73.04047655462676,-13.438088275779222]]]}}]}