{"type":"FeatureCollection","features":[{"type":"Feature","properties":{"Cell_ID":1,"Area_ha":1.0,"LC":"6:0.031602,7:0.514240","XMIN":720724.86160847,"YMIN":8500963.59738907,"XMAX":720824.86160847,"YMAX":8501063.59738907},"geometry":{"type":"Polygon","coordinates":[[[-72.95943422311049,-13.551403893045643],[-72.95944193413176,-13.550500237256903],[-72.96036558166082,-13.550507779400906],[-72.96035787412401,-13.551411435711149],[-72.95943422311049,-13.551403893045643]]]}},{"type":"Feature","properties":{"Cell_ID":2,"Area_ha":1.0,"LC":"3:0.035454,5:0.020969,6:0.351068,7:0.162881","XMIN":720824.86160847,"YMIN":8500963.59738907,"XMAX":720924.86160847,"YMAX":8501063.59738907},"geometry":{"type":"Polygon","coordinates":[[[-72.95851057265983,-13.551396346970753],[-72.95851828716555,-13.550492691703754],[-72.95944193413176,-13.550500237256903],[-72.95943422311049,-13.551403893045643],[-72.95851057265983,-13.551396346970753]]]}},{"type":"Feature","properties":{"Cell_ID":3,"Area_ha":1.0,"LC":"7:0.078187,9:0.921813","XMIN":720924.86160847,"YMIN":8501263.59738907,"XMAX":721024.86160847,"YMAX":8501363.59738907},"geometry":{"type":"Polygon","coordinates":[[[-72.95761007505268,-13.548677833042811],[-72.95761779135283,-13.547774178089194],[-72.95854142730418,-13.547781725485578],[-72.95853371448771,-13.548685380961162],[-72.95761007505268,-13.548677833042811]]]}},{"type":"Feature","properties":{"Cell_ID":4,"Area_ha":1.0,"LC":"6:0.020969,7:0.770070,14:0.208961","XMIN":720924.86160847,"YMIN":8501063.59738907,"XMAX":721024.86160847,"YMAX":8501163.59738907},"geometry":{"type":"Polygon","coordinates":[[[-72.95759464076242,-13.550485142741463],[-72.95760235818922,-13.549581487926906],[-72.95852600110817,-13.549589036367223],[-72.95851828716555,-13.550492691703754],[-72.95759464076242,-13.550485142741463]]]}},{"type":"Feature","properties":{"Cell_ID":5,"Area_ha":1.0,"LC":"6:0.198061,7:0.071476,9:0.497217,13:0.233246","XMIN":721024.86160847,"YMIN":8501363.59738907,"XMAX":721124.86160847,"YMAX":8501463.59738907},"geometry":{"type":"Polygon","coordinates":[[[-72.95669415596478,-13.547766627284387],[-72.95670187518502,-13.546862972783439],[-72.95762550708965,-13.546870523066051],[-72.95761779135283,-13.547774178089194],[-72.95669415596478,-13.547766627284387]]]}},{"type":"Feature","properties":{"Cell_ID":6,"Area_ha":1.0,"LC":"7:0.009381,9:0.646334,13:0.233541,14:0.110744","XMIN":721024.86160847,"YMIN":8501263.59738907,"XMAX":721124.86160847,"YMAX":8501363.59738907},"geometry":{"type":"Polygon","coordinates":[[[-72.95668643618099,-13.548670281715806],[-72.95669415596478,-13.547766627284387],[-72.95761779135283,-13.547774178089194],[-72.95761007505268,-13.548677833042811],[-72.95668643618099,-13.548670281715806]]]}},{"type":"Feature","properties":{"Cell_ID":7,"Area_ha":1.0,"LC":"6:0.029100,7:0.009649,9:0.430056,14:0.531195","XMIN":721024.86160847,"YMIN":8501163.59738907,"XMAX":721124.86160847,"YMAX":8501263.59738907},"geometry":{"type":"Polygon","coordinates":[[[-72.9566787158336,-13.549573936077696],[-72.95668643618099,-13.548670281715806],[-72.95761007505268,-13.548677833042811],[-72.95760235818922,-13.549581487926906],[-72.9566787158336,-13.549573936077696]]]}},{"type":"Feature","properties":{"Cell_ID":8,"Area_ha":1.0,"LC":"6:0.620734,7:0.156122,9:0.111476","XMIN":721024.86160847,"YMIN":8501063.59738907,"XMAX":721124.86160847,"YMAX":8501163.59738907},"geometry":{"type":"Polygon","coordinates":[[[-72.95667099492265,-13.550477590370052],[-72.9566787158336,-13.549573936077696],[-72.95760235818922,-13.549581487926906],[-72.95759464076242,-13.550485142741463],[-72.95667099492265,-13.550477590370052]]]}},{"type":"Feature","properties":{"Cell_ID":9,"Area_ha":1.0,"LC":"7:0.079044,9:0.239438,13:0.681518","XMIN":721124.86160847,"YMIN":8501463.59738907,"XMAX":721224.86160847,"YMAX":8501563.59738907},"geometry":{"type":"Polygon","coordinates":[[[-72.95577824384394,-13.546855419092651],[-72.95578596598374,-13.545951765044604],[-72.95670959384168,-13.545959318212967],[-72.95670187518502,-13.546862972783439],[-72.95577824384394,-13.546855419092651]]]}},{"type":"Feature","properties":{"Cell_ID":10,"Area_ha":1.0,"LC":"7:0.009649,9:0.650337,13:0.340014","XMIN":721124.86160847,"YMIN":8501363.59738907,"XMAX":721224.86160847,"YMAX":8501463.59738907},"geometry":{"type":"Polygon","coordinates":[[[-72.95577052114032,-13.547759073071168],[-72.95577824384394,-13.546855419092651],[-72.95670187518502,-13.546862972783439],[-72.95669415596478,-13.547766627284387],[-72.95577052114032,-13.547759073071168]]]}},{"type":"Feature","properties":{"Cell_ID":11,"Area_ha":1.0,"LC":"9:0.513541,13:0.207022,14:0.279438","XMIN":721124.86160847,"YMIN":8501263.59738907,"XMAX":721224.86160847,"YMAX":8501363.59738907},"geometry":{"type":"Polygon","coordinates":[[[-72.95576279787286,-13.548662726980153],[-72.95577052114032,-13.547759073071168],[-72.95669415596478,-13.547766627284387],[-72.95668643618099,-13.548670281715806],[-72.95576279787286,-13.548662726980153]]]}},{"type":"Feature","properties":{"Cell_ID":12,"Area_ha":1.0,"LC":"5:0.049775,6:0.019719,9:0.430913,14:0.499593","XMIN":721124.86160847,"YMIN":8501163.59738907,"XMAX":721224.86160847,"YMAX":8501263.59738907},"geometry":{"type":"Polygon","coordinates":[[[-72.95575507404159,-13.549566380819607],[-72.95576279787286,-13.548662726980153],[-72.95668643618099,-13.548670281715806],[-72.9566787158336,-13.549573936077696],[-72.95575507404159,-13.549566380819607]]]}},{"type":"Feature","properties":{"Cell_ID":13,"Area_ha":1.0,"LC":"7:0.385348,9:0.031307,13:0.289523,16:0.293822","XMIN":721224.86160847,"YMIN":8501563.59738907,"XMAX":721324.86160847,"YMAX":8501663.59738907},"geometry":{"type":"Polygon","coordinates":[[[-72.95486233868961,-13.545944208468315],[-72.95487006374847,-13.545040554873411],[-72.95579368755973,-13.545048110927045],[-72.95578596598374,-13.545951765044604],[-72.95486233868961,-13.545944208468315]]]}},{"type":"Feature","properties":{"Cell_ID":14,"Area_ha":1.0,"LC":"7:0.269804,9:0.313541,13:0.416655","XMIN":721224.86160847,"YMIN":8501463.59738907,"XMAX":721324.86160847,"YMAX":8501563.59738907},"geometry":{"type":"Polygon","coordinates":[[[-72.95485461306667,-13.546847861993697],[-72.95486233868961,-13.545944208468315],[-72.95578596598374,-13.545951765044604],[-72.95577824384394,-13.546855419092651],[-72.95485461306667,-13.546847861993697]]]}},{"type":"Feature","properties":{"Cell_ID":15,"Area_ha":1.0,"LC":"7:0.278875,9:0.038749,13:0.682376","XMIN":721224.86160847,"YMIN":8501363.59738907,"XMAX":721324.86160847,"YMAX":8501463.59738907},"geometry":{"type":"Polygon","coordinates":[[[-72.95484688687968,-13.547751515449546],[-72.95485461306667,-13.546847861993697],[-72.95577824384394,-13.546855419092651],[-72.95577052114032,-13.547759073071168],[-72.95484688687968,-13.547751515449546]]]}},{"type":"Feature","properties":{"Cell_ID":16,"Area_ha":1.0,"LC":"7:0.441125,9:0.470744,14:0.088131","XMIN":721224.86160847,"YMIN":8501263.59738907,"XMAX":721324.86160847,"YMAX":8501363.59738907},"geometry":{"type":"Polygon","coordinates":[[[-72.95483916012859,-13.548655168835861],[-72.95484688687968,-13.547751515449546],[-72.95577052114032,-13.547759073071168],[-72.95576279787286,-13.548662726980153],[-72.95483916012859,-13.548655168835861]]]}},{"type":"Feature","properties":{"Cell_ID":17,"Area_ha":1.0,"LC":"5:0.045985,9:0.713928,14:0.147991","XMIN":721224.86160847,"YMIN":8501163.59738907,"XMAX":721324.86160847,"YMAX":8501263.59738907},"geometry":{"type":"Polygon","coordinates":[[[-72.95483143281342,-13.54955882215264],[-72.95483916012859,-13.548655168835861],[-72.95576279787286,-13.548662726980153],[-72.95575507404159,-13.549566380819607],[-72.95483143281342,-13.54955882215264]]]}},{"type":"Feature","properties":{"Cell_ID":18,"Area_ha":1.0,"LC":"7:0.290463,9:0.128131,16:0.581406","XMIN":721324.86160847,"YMIN":8501563.59738907,"XMAX":721424.86160847,"YMAX":8501663.59738907},"geometry":{"type":"Polygon","coordinates":[[[-72.95393871195954,-13.545936648484101],[-72.95394644050127,-13.545032995412093],[-72.95487006374847,-13.545040554873411],[-72.95486233868961,-13.545944208468315],[-72.95393871195954,-13.545936648484101]]]}},{"type":"Feature","properties":{"Cell_ID":19,"Area_ha":1.0,"LC":"7:0.092445,9:0.898173,13:0.009381","XMIN":721324.86160847,"YMIN":8501463.59738907,"XMAX":721424.86160847,"YMAX":8501563.59738907},"geometry":{"type":"Polygon","coordinates":[[[-72.95393098285348,-13.546840301486583],[-72.95393871195954,-13.545936648484101],[-72.95486233868961,-13.545944208468315],[-72.95485461306667,-13.546847861993697],[-72.95393098285348,-13.546840301486583]]]}},{"type":"Feature","properties":{"Cell_ID":20,"Area_ha":1.0,"LC":"7:0.010337,9:0.743892,13:0.245771","XMIN":721324.86160847,"YMIN":8501363.59738907,"XMAX":721424.86160847,"YMAX":8501463.59738907},"geometry":{"type":"Polygon","coordinates":[[[-72.95392325318312,-13.547743954419536],[-72.95393098285348,-13.546840301486583],[-72.95485461306667,-13.546847861993697],[-72.95484688687968,-13.547751515449546],[-72.95392325318312,-13.547743954419536]]]}},{"type":"Feature","properties":{"Cell_ID":21,"Area_ha":1.0,"LC":"7:0.132571,9:0.867429","XMIN":721324.86160847,"YMIN":8501263.59738907,"XMAX":721424.86160847,"YMAX":8501363.59738907},"geometry":{"type":"Polygon","coordinates":[[[-72.95391552294839,-13.548647607282945],[-72.95392325318312,-13.547743954419536],[-72.95484688687968,-13.547751515449546],[-72.95483916012859,-13.548655168835861],[-72.95391552294839,-13.548647607282945]]]}},{"type":"Feature","properties":{"Cell_ID":22,"Area_ha":1.0,"LC":"7:0.087568,13:0.212965,16:0.699467","XMIN":721424.86160847,"YMIN":8501563.59738907,"XMAX":721524.86160847,"YMAX":8501663.59738907},"geometry":{"type":"Polygon","coordinates":[[[-72.95301508579378,-13.545929085091979],[-72.95302281781836,-13.5450254325431],[-72.95394644050127,-13.545032995412093],[-72.95393871195954,-13.545936648484101],[-72.95301508579378,-13.545929085091979]]]}},{"type":"Feature","properties":{"Cell_ID":23,"Area_ha":1.0,"LC":"7:0.360830,9:0.465348,13:0.173822","XMIN":721424.86160847,"YMIN":8501463.59738907,"XMAX":721524.86160847,"YMAX":8501563.59738907},"geometry":{"type":"Polygon","coordinates":[[[-72.95300735320461,-13.546832737571329],[-72.95301508579378,-13.545929085091979],[-72.95393871195954,-13.545936648484101],[-72.95393098285348,-13.546840301486583],[-72.95300735320461,-13.546832737571329]]]}},{"type":"Feature","properties":{"Cell_ID":24,"Area_ha":1.0,"LC":"7:0.039732,9:0.890211,16:0.070056","XMIN":721424.86160847,"YMIN":8501363.59738907,"XMAX":721524.86160847,"YMAX":8501463.59738907},"geometry":{"type":"Polygon","coordinates":[[[-72.95299962005089,-13.547736389981143],[-72.95300735320461,-13.546832737571329],[-72.95393098285348,-13.546840301486583],[-72.95392325318312,-13.547743954419536],[-72.95299962005089,-13.547736389981143]]]}},{"type":"Feature","properties":{"Cell_ID":25,"Area_ha":1.0,"LC":"7:0.347003,9:0.254389,13:0.256150,16:0.070913","XMIN":721424.86160847,"YMIN":8501263.59738907,"XMAX":721524.86160847,"YMAX":8501363.59738907},"geometry":{"type":"Polygon","coordinates":[[[-72.95299188633255,-13.54864004232141],[-72.95299962005089,-13.547736389981143],[-72.95392325318312,-13.547743954419536],[-72.95391552294839,-13.548647607282945],[-72.95299188633255,-13.54864004232141]]]}},{"type":"Feature","properties":{"Cell_ID":26,"Area_ha":1.0,"LC":"13:0.850758,16:0.149242","XMIN":721524.86160847,"YMIN":8501563.59738907,"XMAX":721624.86160847,"YMAX":8501663.59738907},"geometry":{"type":"Polygon","coordinates":[[[-72.95209146019259,-13.545921518291957],[-72.95209919570001,-13.545017866266445],[-72.95302281781836,-13.5450254325431],[-72.95301508579378,-13.545929085091979],[-72.95209146019259,-13.545921518291957]]]}},{"type":"Feature","properties":{"Cell_ID":27,"Area_ha":1.0,"LC":"7:0.088131,13:0.911869","XMIN":721524.86160847,"YMIN":8501463.59738907,"XMAX":721624.86160847,"YMAX":8501563.59738907},"geometry":{"type":"Polygon","coordinates":[[[-72.95208372412033,-13.546825170247933],[-72.95209146019259,-13.545921518291957],[-72.95301508579378,-13.545929085091979],[-72.95300735320461,-13.546832737571329],[-72.95208372412033,-13.546825170247933]]]}},{"type":"Feature","properties":{"Cell_ID":28,"Area_ha":1.0,"LC":"7:0.410900,9:0.156122,13:0.212571,16:0.220407","XMIN":721524.86160847,"YMIN":8501363.59738907,"XMAX":721624.86160847,"YMAX":8501463.59738907},"geometry":{"type":"Polygon","coordinates":[[[-72.95207598748324,-13.547728822134372],[-72.95208372412033,-13.546825170247933],[-72.95300735320461,-13.546832737571329],[-72.95299962005089,-13.547736389981143],[-72.95207598748324,-13.547728822134372]]]}},{"type":"Feature","properties":{"Cell_ID":29,"Area_ha":1.0,"LC":"13:0.468939,16:0.077693","XMIN":721524.86160847,"YMIN":8501263.59738907,"XMAX":721624.86160847,"YMAX":8501363.59738907},"geometry":{"type":"Polygon","coordinates":[[[-72.95206825028131,-13.548632473951267],[-72.95207598748324,-13.547728822134372],[-72.95299962005089,-13.547736389981143],[-72.95299188633255,-13.54864004232141],[-72.95206825028131,-13.548632473951267]]]}},{"type":"Feature","properties":{"Cell_ID":30,"Area_ha":1.0,"LC":"13:0.598061,16:0.401939","XMIN":721624.86160847,"YMIN":8501563.59738907,"XMAX":721724.86160847,"YMAX":8501663.59738907},"geometry":{"type":"Polygon","coordinates":[[[-72.95116783515621,-13.545913948084038],[-72.95117557414649,-13.545010296582129],[-72.95209919570001,-13.545017866266445],[-72.95209146019259,-13.545921518291957],[-72.95116783515621,-13.545913948084038]]]}},{"type":"Feature","properties":{"Cell_ID":31,"Area_ha":1.0,"LC":"13:0.868805,16:0.131195","XMIN":721624.86160847,"YMIN":8501463.59738907,"XMAX":721724.86160847,"YMAX":8501563.59738907},"geometry":{"type":"Polygon","coordinates":[[[-72.95116009560087,-13.546817599516414],[-72.95116783515621,-13.545913948084038],[-72.95209146019259,-13.545921518291957],[-72.95208372412033,-13.546825170247933],[-72.95116009560087,-13.546817599516414]]]}},{"type":"Feature","properties":{"Cell_ID":32,"Area_ha":1.0,"LC":"7:0.431995,13:0.360437,16:0.207568","XMIN":721624.86160847,"YMIN":8501363.59738907,"XMAX":721724.86160847,"YMAX":8501463.59738907},"geometry":{"type":"Polygon","coordinates":[[[-72.95115235548043,-13.547721250879242],[-72.95116009560087,-13.546817599516414],[-72.95208372412033,-13.546825170247933],[-72.95207598748324,-13.547728822134372],[-72.95115235548043,-13.547721250879242]]]}},{"type":"Feature","properties":{"Cell_ID":33,"Area_ha":1.0,"LC":"13:0.961939,16:0.038061","XMIN":721724.86160847,"YMIN":8501563.59738907,"XMAX":721824.86160847,"YMAX":8501663.59738907},"geometry":{"type":"Polygon","coordinates":[[[-72.95024421068493,-13.545906374468242],[-72.95025195315802,-13.54500272349017],[-72.95117557414649,-13.545010296582129],[-72.95116783515621,-13.545913948084038],[-72.95024421068493,-13.545906374468242]]]}},{"type":"Feature","properties":{"Cell_ID":34,"Area_ha":1.0,"LC":"13:0.698075,16:0.301925","XMIN":721724.86160847,"YMIN":8501463.59738907,"XMAX":721824.86160847,"YMAX":8501563.59738907},"geometry":{"type":"Polygon","coordinates":[[[-72.9502364676465,-13.546810025376773],[-72.95024421068493,-13.545906374468242],[-72.95116783515621,-13.545913948084038],[-72.95116009560087,-13.546817599516414],[-72.9502364676465,-13.546810025376773]]]}},{"type":"Feature","properties":{"Cell_ID":35,"Area_ha":1.0,"LC":"7:0.126192,9:0.019719,13:0.822488,16:0.031602","XMIN":721724.86160847,"YMIN":8501363.59738907,"XMAX":721824.86160847,"YMAX":8501463.59738907},"geometry":{"type":"Polygon","coordinates":[[[-72.95022872404274,-13.547713676215759],[-72.9502364676465,-13.546810025376773],[-72.95116009560087,-13.546817599516414],[-72.95115235548043,-13.547721250879242],[-72.95022872404274,-13.547713676215759]]]}},{"type":"Feature","properties":{"Cell_ID":36,"Area_ha":1.0,"LC":"13:0.298763,16:0.701237","XMIN":721824.86160847,"YMIN":8501663.59738907,"XMAX":721924.86160847,"YMAX":8501763.59738907},"geometry":{"type":"Polygon","coordinates":[[[-72.94932833273488,-13.54499514699057],[-72.94933607812521,-13.544091496467022],[-72.9502596950658,-13.544099072442553],[-72.95025195315802,-13.54500272349017],[-72.94932833273488,-13.54499514699057]]]}},{"type":"Feature","properties":{"Cell_ID":37,"Area_ha":1.0,"LC":"13:0.445771,16:0.554229","XMIN":721824.86160847,"YMIN":8501563.59738907,"XMAX":721924.86160847,"YMAX":8501663.59738907},"geometry":{"type":"Polygon","coordinates":[[[-72.94932058677897,-13.545898797444572],[-72.94932833273488,-13.54499514699057],[-72.95025195315802,-13.54500272349017],[-72.95024421068493,-13.545906374468242],[-72.94932058677897,-13.545898797444572]]]}},{"type":"Feature","properties":{"Cell_ID":38,"Area_ha":1.0,"LC":"13:0.459031,16:0.540969","XMIN":721824.86160847,"YMIN":8501463.59738907,"XMAX":721924.86160847,"YMAX":8501563.59738907},"geometry":{"type":"Polygon","coordinates":[[[-72.94931284025748,-13.54680244782903],[-72.94932058677897,-13.545898797444572],[-72.95024421068493,-13.545906374468242],[-72.9502364676465,-13.546810025376773],[-72.94931284025748,-13.54680244782903]]]}},{"type":"Feature","properties":{"Cell_ID":39,"Area_ha":1.0,"LC":"13:0.427035,16:0.572965","XMIN":721824.86160847,"YMIN":8501363.59738907,"XMAX":721924.86160847,"YMAX":8501463.59738907},"geometry":{"type":"Polygon","coordinates":[[[-72.94930509317038,-13.547706098143934],[-72.94931284025748,-13.54680244782903],[-72.9502364676465,-13.546810025376773],[-72.95022872404274,-13.547713676215759],[-72.94930509317038,-13.547706098143934]]]}},{"type":"Feature","properties":{"Cell_ID":40,"Area_ha":1.0,"LC":"13:0.028680,16:0.514758","XMIN":721824.86160847,"YMIN":8501263.59738907,"XMAX":721924.86160847,"YMAX":8501363.59738907},"geometry":{"type":"Polygon","coordinates":[[[-72.94929734551769,-13.548609748389278],[-72.94930509317038,-13.547706098143934],[-72.95022872404274,-13.547713676215759],[-72.95022097987362,-13.548617326985191],[-72.94929734551769,-13.548609748389278]]]}},{"type":"Feature","properties":{"Cell_ID":41,"Area_ha":1.0,"LC":"13:0.588538,16:0.411462","XMIN":721924.86160847,"YMIN":8501563.59738907,"XMAX":722024.86160847,"YMAX":8501663.59738907},"geometry":{"type":"Polygon","coordinates":[[[-72.9483969634386,-13.545891217013038],[-72.94840471287732,-13.544987567083346],[-72.94932833273488,-13.54499514699057],[-72.94932058677897,-13.545898797444572],[-72.9483969634386,-13.545891217013038]]]}},{"type":"Feature","properties":{"Cell_ID":42,"Area_ha":1.0,"LC":"13:0.169523,16:0.830477","XMIN":721924.86160847,"YMIN":8501463.59738907,"XMAX":722024.86160847,"YMAX":8501563.59738907},"geometry":{"type":"Polygon","coordinates":[[[-72.94838921343404,-13.546794866873185],[-72.9483969634386,-13.545891217013038],[-72.94932058677897,-13.545898797444572],[-72.94931284025748,-13.54680244782903],[-72.94838921343404,-13.546794866873185]]]}},{"type":"Feature","properties":{"Cell_ID":43,"Area_ha":1.0,"LC":"16:1.000000","XMIN":721924.86160847,"YMIN":8501363.59738907,"XMAX":722024.86160847,"YMAX":8501463.59738907},"geometry":{"type":"Polygon","coordinates":[[[-72.94838146286365,-13.547698516663774],[-72.94838921343404,-13.546794866873185],[-72.94931284025748,-13.54680244782903],[-72.94930509317038,-13.547706098143934],[-72.94838146286365,-13.547698516663774]]]}},{"type":"Feature","properties":{"Cell_ID":44,"Area_ha":1.0,"LC":"16:0.544487","XMIN":721924.86160847,"YMIN":8501263.59738907,"XMAX":722024.86160847,"YMAX":8501363.59738907},"geometry":{"type":"Polygon","coordinates":[[[-72.94837371172738,-13.5486021663848],[-72.94838146286365,-13.547698516663774],[-72.94930509317038,-13.547706098143934],[-72.94929734551769,-13.548609748389278],[-72.94837371172738,-13.5486021663848]]]}},{"type":"Feature","properties":{"Cell_ID":45,"Area_ha":1.0,"LC":"13:0.070913,16:0.496403,17:0.432683","XMIN":722024.86160847,"YMIN":8501463.59738907,"XMAX":722124.86160847,"YMAX":8501563.59738907},"geometry":{"type":"Polygon","coordinates":[[[-72.94746558717647,-13.546787282509252],[-72.94747334066408,-13.545883633173652],[-72.9483969634386,-13.545891217013038],[-72.94838921343404,-13.546794866873185],[-72.94746558717647,-13.546787282509252]]]}},{"type":"Feature","properties":{"Cell_ID":46,"Area_ha":1.0,"LC":"16:0.807836,17:0.192164","XMIN":722024.86160847,"YMIN":8501363.59738907,"XMAX":722124.86160847,"YMAX":8501463.59738907},"geometry":{"type":"Polygon","coordinates":[[[-72.94745783312277,-13.547690931775286],[-72.94746558717647,-13.546787282509252],[-72.94838921343404,-13.546794866873185],[-72.94838146286365,-13.547698516663774],[-72.94745783312277,-13.547690931775286]]]}},{"type":"Feature","properties":{"Cell_ID":47,"Area_ha":1.0,"LC":"16:0.478098,17:0.121547","XMIN":722024.86160847,"YMIN":8501263.59738907,"XMAX":722124.86160847,"YMAX":8501363.59738907},"geometry":{"type":"Polygon","coordinates":[[[-72.94745007850294,-13.548594580971757],[-72.94745783312277,-13.547690931775286],[-72.94838146286365,-13.547698516663774],[-72.94837371172738,-13.5486021663848],[-72.94745007850294,-13.548594580971757]]]}},{"type":"Feature","properties":{"Cell_ID":48,"Area_ha":1.0,"LC":"13:0.060844,16:0.562501,17:0.376655","XMIN":722124.86160847,"YMIN":8501463.59738907,"XMAX":722224.86160847,"YMAX":8501563.59738907},"geometry":{"type":"Polygon","coordinates":[[[-72.946541961485,-13.546779694737237],[-72.94654971845563,-13.545876045926425],[-72.94747334066408,-13.545883633173652],[-72.94746558717647,-13.546787282509252],[-72.946541961485,-13.546779694737237]]]}},{"type":"Feature","properties":{"Cell_ID":49,"Area_ha":1.0,"LC":"16:0.839563,17:0.160437","XMIN":722124.86160847,"YMIN":8501363.59738907,"XMAX":722224.86160847,"YMAX":8501463.59738907},"geometry":{"type":"Polygon","coordinates":[[[-72.94653420394799,-13.547683343478486],[-72.946541961485,-13.546779694737237],[-72.94746558717647,-13.546787282509252],[-72.94745783312277,-13.547690931775286],[-72.94653420394799,-13.547683343478486]]]}},{"type":"Feature","properties":{"Cell_ID":50,"Area_ha":1.0,"LC":"16:0.219467,17:0.489643","XMIN":722124.86160847,"YMIN":8501263.59738907,"XMAX":722224.86160847,"YMAX":8501363.59738907},"geometry":{"type":"Polygon","coordinates":[[[-72.94652644584463,-13.548586992150165],[-72.94653420394799,-13.547683343478486],[-72.94745783312277,-13.547690931775286],[-72.94745007850294,-13.548594580971757],[-72.94652644584463,-13.548586992150165]]]}}]}