{"type":"FeatureCollection","features":[{"type":"Feature","properties":{"Cell_ID":1,"Area_ha":1.0,"LC":"5:0.112976,7:0.274603,9:0.131618,14:0.416999","XMIN":711600.536133367,"YMIN":8516151.700706026,"XMAX":711700.536133367,"YMAX":8516251.700706026},"geometry":{"type":"Polygon","coordinates":[[[-73.04483011901651,-13.41482202783315],[-73.04483743021444,-13.413918314972134],[-73.04576060161925,-13.413925470116961],[-73.0457532938681,-13.414829183477428],[-73.04483011901651,-13.41482202783315]]]}}]}