{"type":"FeatureCollection","features":[{"type":"Feature","properties":{"Cell_ID":1,"Area_ha":1.0,"LC":"5:0.114943,9:0.388301,17:0.143030","XMIN":711624.86160847,"YMIN":8516275.593582131,"XMAX":711724.86160847,"YMAX":8516375.593582131},"geometry":{"type":"Polygon","coordinates":[[[-73.0446146114417,-13.413700650963593],[-73.04462192281123,-13.412796938139195],[-73.0455450898152,-13.412804093485974],[-73.04553778189212,-13.413707806809871],[-73.0446146114417,-13.413700650963593]]]}},{"type":"Feature","properties":{"Cell_ID":2,"Area_ha":1.0,"LC":"5:0.378569,7:0.081911,9:0.080000,14:0.445908","XMIN":711624.86160847,"YMIN":8516175.593582131,"XMAX":711724.86160847,"YMAX":8516275.593582131},"geometry":{"type":"Polygon","coordinates":[[[-73.04460729953394,-13.414604363719455],[-73.0446146114417,-13.413700650963593],[-73.04553778189212,-13.413707806809871],[-73.04553047343107,-13.41461152006524],[-73.04460729953394,-13.414604363719455]]]}},{"type":"Feature","properties":{"Cell_ID":3,"Area_ha":1.0,"LC":"6:0.022795,7:0.051378,9:0.050003,17:0.671254","XMIN":711724.86160847,"YMIN":8516375.593582131,"XMAX":711824.86160847,"YMAX":8516475.593582131},"geometry":{"type":"Polygon","coordinates":[[[-73.04369875634549,-13.412789779418494],[-73.04370607062302,-13.411886067025302],[-73.04462923364257,-13.411893225246272],[-73.04462192281123,-13.412796938139195],[-73.04369875634549,-13.412789779418494]]]}},{"type":"Feature","properties":{"Cell_ID":4,"Area_ha":1.0,"LC":"5:0.365814,9:0.593787,17:0.040399","XMIN":711724.86160847,"YMIN":8516275.593582131,"XMAX":711824.86160847,"YMAX":8516375.593582131},"geometry":{"type":"Polygon","coordinates":[[[-73.0436914415295,-13.413693491743157],[-73.04369875634549,-13.412789779418494],[-73.04462192281123,-13.412796938139195],[-73.0446146114417,-13.413700650963593],[-73.0436914415295,-13.413693491743157]]]}},{"type":"Feature","properties":{"Cell_ID":5,"Area_ha":1.0,"LC":"5:0.871550,9:0.075726,14:0.052724","XMIN":711724.86160847,"YMIN":8516175.593582131,"XMAX":711824.86160847,"YMAX":8516275.593582131},"geometry":{"type":"Polygon","coordinates":[[[-73.04368412617504,-13.414597203999282],[-73.0436914415295,-13.413693491743157],[-73.0446146114417,-13.413700650963593],[-73.04460729953394,-13.414604363719455],[-73.04368412617504,-13.414597203999282]]]}},{"type":"Feature","properties":{"Cell_ID":6,"Area_ha":1.0,"LC":"6:0.045488,7:0.334646,17:0.576693","XMIN":711824.86160847,"YMIN":8516375.593582131,"XMAX":711924.86160847,"YMAX":8516475.593582131},"geometry":{"type":"Polygon","coordinates":[[[-73.04277559041823,-13.41278261732388],[-73.04278290814194,-13.411878905430655],[-73.04370607062302,-13.411886067025302],[-73.04369875634549,-13.412789779418494],[-73.04277559041823,-13.41278261732388]]]}},{"type":"Feature","properties":{"Cell_ID":7,"Area_ha":1.0,"LC":"5:0.717663,9:0.260969,17:0.021368","XMIN":711824.86160847,"YMIN":8516275.593582131,"XMAX":711924.86160847,"YMAX":8516375.593582131},"geometry":{"type":"Polygon","coordinates":[[[-73.0427682721558,-13.413686329148574],[-73.04277559041823,-13.41278261732388],[-73.04369875634549,-13.412789779418494],[-73.0436914415295,-13.413693491743157],[-73.0427682721558,-13.413686329148574]]]}},{"type":"Feature","properties":{"Cell_ID":8,"Area_ha":1.0,"LC":"5:1.000000","XMIN":711824.86160847,"YMIN":8516175.593582131,"XMAX":711924.86160847,"YMAX":8516275.593582131},"geometry":{"type":"Polygon","coordinates":[[[-73.04276095335462,-13.414590040904724],[-73.0427682721558,-13.413686329148574],[-73.0436914415295,-13.413693491743157],[-73.04368412617504,-13.414597203999282],[-73.04276095335462,-13.414590040904724]]]}},{"type":"Feature","properties":{"Cell_ID":9,"Area_ha":1.0,"LC":"5:0.688547,7:0.311453","XMIN":711824.86160847,"YMIN":8516075.593582131,"XMAX":711924.86160847,"YMAX":8516175.593582131},"geometry":{"type":"Polygon","coordinates":[[[-73.0427536340147,-13.415493752592328],[-73.04276095335462,-13.414590040904724],[-73.04368412617504,-13.414597203999282],[-73.04367681028207,-13.415500916186863],[-73.0427536340147,-13.415493752592328]]]}},{"type":"Feature","properties":{"Cell_ID":10,"Area_ha":1.0,"LC":"5:0.330185,7:0.652818,9:0.016997","XMIN":711824.86160847,"YMIN":8515975.593582131,"XMAX":711924.86160847,"YMAX":8516075.593582131},"geometry":{"type":"Polygon","coordinates":[[[-73.04274631413602,-13.416397464211384],[-73.0427536340147,-13.415493752592328],[-73.04367681028207,-13.415500916186863],[-73.04366949385059,-13.416404628305903],[-73.04274631413602,-13.416397464211384]]]}},{"type":"Feature","properties":{"Cell_ID":11,"Area_ha":1.0,"LC":"5:0.340574,7:0.252821,9:0.406605","XMIN":711824.86160847,"YMIN":8515875.593582131,"XMAX":711924.86160847,"YMAX":8515975.593582131},"geometry":{"type":"Polygon","coordinates":[[[-73.04273899371859,-13.417301175761889],[-73.04274631413602,-13.416397464211384],[-73.04366949385059,-13.416404628305903],[-73.0436621768806,-13.417308340356392],[-73.04273899371859,-13.417301175761889]]]}},{"type":"Feature","properties":{"Cell_ID":12,"Area_ha":1.0,"LC":"5:0.673297,9:0.326703","XMIN":711824.86160847,"YMIN":8515775.593582131,"XMAX":711924.86160847,"YMAX":8515875.593582131},"geometry":{"type":"Polygon","coordinates":[[[-73.04273167276237,-13.418204887243835],[-73.04273899371859,-13.417301175761889],[-73.0436621768806,-13.417308340356392],[-73.04365485937211,-13.418212052338324],[-73.04273167276237,-13.418204887243835]]]}},{"type":"Feature","properties":{"Cell_ID":13,"Area_ha":1.0,"LC":"6:0.114704,7:0.275010,14:0.036083,17:0.298933","XMIN":711924.86160847,"YMIN":8516375.593582131,"XMAX":712024.86160847,"YMAX":8516475.593582131},"geometry":{"type":"Polygon","coordinates":[[[-73.04185242502967,-13.41277545185536],[-73.04185974619958,-13.411871740462336],[-73.04278290814194,-13.411878905430655],[-73.04277559041823,-13.41278261732388],[-73.04185242502967,-13.41277545185536]]]}},{"type":"Feature","properties":{"Cell_ID":14,"Area_ha":1.0,"LC":"5:0.265240,7:0.002240,9:0.410483,17:0.322036","XMIN":711924.86160847,"YMIN":8516275.593582131,"XMAX":712024.86160847,"YMAX":8516375.593582131},"geometry":{"type":"Polygon","coordinates":[[[-73.04184510332081,-13.413679163179848],[-73.04185242502967,-13.41277545185536],[-73.04277559041823,-13.41278261732388],[-73.0427682721558,-13.413686329148574],[-73.04184510332081,-13.413679163179848]]]}},{"type":"Feature","properties":{"Cell_ID":15,"Area_ha":1.0,"LC":"5:0.911453,9:0.088547","XMIN":711924.86160847,"YMIN":8516175.593582131,"XMAX":712024.86160847,"YMAX":8516275.593582131},"geometry":{"type":"Polygon","coordinates":[[[-73.04183778107294,-13.414582874435789],[-73.04184510332081,-13.413679163179848],[-73.0427682721558,-13.413686329148574],[-73.04276095335462,-13.414590040904724],[-73.04183778107294,-13.414582874435789]]]}},{"type":"Feature","properties":{"Cell_ID":16,"Area_ha":1.0,"LC":"5:0.787578,9:0.212422","XMIN":711924.86160847,"YMIN":8516075.593582131,"XMAX":712024.86160847,"YMAX":8516175.593582131},"geometry":{"type":"Polygon","coordinates":[[[-73.0418304582861,-13.41548658562318],[-73.04183778107294,-13.414582874435789],[-73.04276095335462,-13.414590040904724],[-73.0427536340147,-13.415493752592328],[-73.0418304582861,-13.41548658562318]]]}},{"type":"Feature","properties":{"Cell_ID":17,"Area_ha":1.0,"LC":"5:0.991453,9:0.008547","XMIN":711924.86160847,"YMIN":8515975.593582131,"XMAX":712024.86160847,"YMAX":8516075.593582131},"geometry":{"type":"Polygon","coordinates":[[[-73.04182313496021,-13.416390296742021],[-73.0418304582861,-13.41548658562318],[-73.0427536340147,-13.415493752592328],[-73.04274631413602,-13.416397464211384],[-73.04182313496021,-13.416390296742021]]]}},{"type":"Feature","properties":{"Cell_ID":18,"Area_ha":1.0,"LC":"5:1.000000","XMIN":711924.86160847,"YMIN":8515875.593582131,"XMAX":712024.86160847,"YMAX":8515975.593582131},"geometry":{"type":"Polygon","coordinates":[[[-73.04181581109533,-13.417294007792306],[-73.04182313496021,-13.416390296742021],[-73.04274631413602,-13.416397464211384],[-73.04273899371859,-13.417301175761889],[-73.04181581109533,-13.417294007792306]]]}},{"type":"Feature","properties":{"Cell_ID":19,"Area_ha":1.0,"LC":"5:1.000000","XMIN":711924.86160847,"YMIN":8515775.593582131,"XMAX":712024.86160847,"YMAX":8515875.593582131},"geometry":{"type":"Polygon","coordinates":[[[-73.04180848669142,-13.418197718774028],[-73.04181581109533,-13.417294007792306],[-73.04273899371859,-13.417301175761889],[-73.04273167276237,-13.418204887243835],[-73.04180848669142,-13.418197718774028]]]}},{"type":"Feature","properties":{"Cell_ID":20,"Area_ha":1.0,"LC":"5:0.751154,7:0.248846","XMIN":711924.86160847,"YMIN":8515675.593582131,"XMAX":712024.86160847,"YMAX":8515775.593582131},"geometry":{"type":"Polygon","coordinates":[[[-73.04180116174848,-13.419101429687187],[-73.04180848669142,-13.418197718774028],[-73.04273167276237,-13.418204887243835],[-73.04272435126738,-13.419108598657218],[-73.04180116174848,-13.419101429687187]]]}},{"type":"Feature","properties":{"Cell_ID":21,"Area_ha":1.0,"LC":"5:0.704847,7:0.276122,9:0.019031","XMIN":711924.86160847,"YMIN":8515575.593582131,"XMAX":712024.86160847,"YMAX":8515675.593582131},"geometry":{"type":"Polygon","coordinates":[[[-73.04179383626648,-13.42000514053177],[-73.04180116174848,-13.419101429687187],[-73.04272435126738,-13.419108598657218],[-73.0427170292336,-13.420012310002038],[-73.04179383626648,-13.42000514053177]]]}},{"type":"Feature","properties":{"Cell_ID":22,"Area_ha":1.0,"LC":"5:0.052724,7:0.366587,9:0.019031,17:0.503000","XMIN":712024.86160847,"YMIN":8516275.593582131,"XMAX":712124.86160847,"YMAX":8516375.593582131},"geometry":{"type":"Polygon","coordinates":[[[-73.04092193502483,-13.413671993836992],[-73.04092926018012,-13.412768283012948],[-73.04185242502967,-13.41277545185536],[-73.04184510332081,-13.413679163179848],[-73.04092193502483,-13.413671993836992]]]}},{"type":"Feature","properties":{"Cell_ID":23,"Area_ha":1.0,"LC":"5:0.419426,9:0.262906,16:0.018729,17:0.298939","XMIN":712024.86160847,"YMIN":8516175.593582131,"XMAX":712124.86160847,"YMAX":8516275.593582131},"geometry":{"type":"Polygon","coordinates":[[[-73.04091460933029,-13.414575704592487],[-73.04092193502483,-13.413671993836992],[-73.04184510332081,-13.413679163179848],[-73.04183778107294,-13.414582874435789],[-73.04091460933029,-13.414575704592487]]]}},{"type":"Feature","properties":{"Cell_ID":24,"Area_ha":1.0,"LC":"5:0.227575,9:0.707276,16:0.065149","XMIN":712024.86160847,"YMIN":8516075.593582131,"XMAX":712124.86160847,"YMAX":8516175.593582131},"geometry":{"type":"Polygon","coordinates":[[[-73.04090728309649,-13.41547941527943],[-73.04091460933029,-13.414575704592487],[-73.04183778107294,-13.414582874435789],[-73.0418304582861,-13.41548658562318],[-73.04090728309649,-13.41547941527943]]]}},{"type":"Feature","properties":{"Cell_ID":25,"Area_ha":1.0,"LC":"5:0.585335,9:0.290788,16:0.123878","XMIN":712024.86160847,"YMIN":8515975.593582131,"XMAX":712124.86160847,"YMAX":8516075.593582131},"geometry":{"type":"Polygon","coordinates":[[[-73.04089995632343,-13.41638312589782],[-73.04090728309649,-13.41547941527943],[-73.0418304582861,-13.41548658562318],[-73.04182313496021,-13.416390296742021],[-73.04089995632343,-13.41638312589782]]]}},{"type":"Feature","properties":{"Cell_ID":26,"Area_ha":1.0,"LC":"5:1.000000","XMIN":712024.86160847,"YMIN":8515875.593582131,"XMAX":712124.86160847,"YMAX":8515975.593582131},"geometry":{"type":"Polygon","coordinates":[[[-73.04089262901111,-13.417286836447648],[-73.04089995632343,-13.41638312589782],[-73.04182313496021,-13.416390296742021],[-73.04181581109533,-13.417294007792306],[-73.04089262901111,-13.417286836447648]]]}},{"type":"Feature","properties":{"Cell_ID":27,"Area_ha":1.0,"LC":"5:1.000000","XMIN":712024.86160847,"YMIN":8515775.593582131,"XMAX":712124.86160847,"YMAX":8515875.593582131},"geometry":{"type":"Polygon","coordinates":[[[-73.0408853011595,-13.418190546928912],[-73.04089262901111,-13.417286836447648],[-73.04181581109533,-13.417294007792306],[-73.04180848669142,-13.418197718774028],[-73.0408853011595,-13.418190546928912]]]}},{"type":"Feature","properties":{"Cell_ID":28,"Area_ha":1.0,"LC":"5:0.310214,6:0.689786","XMIN":712024.86160847,"YMIN":8515675.593582131,"XMAX":712124.86160847,"YMAX":8515775.593582131},"geometry":{"type":"Polygon","coordinates":[[[-73.04087797276861,-13.419094257341607],[-73.0408853011595,-13.418190546928912],[-73.04180848669142,-13.418197718774028],[-73.04180116174848,-13.419101429687187],[-73.04087797276861,-13.419094257341607]]]}},{"type":"Feature","properties":{"Cell_ID":29,"Area_ha":1.0,"LC":"5:0.683969,6:0.316031","XMIN":712024.86160847,"YMIN":8515575.593582131,"XMAX":712124.86160847,"YMAX":8515675.593582131},"geometry":{"type":"Polygon","coordinates":[[[-73.04087064383842,-13.419997967685728],[-73.04087797276861,-13.419094257341607],[-73.04180116174848,-13.419101429687187],[-73.04179383626648,-13.42000514053177],[-73.04087064383842,-13.419997967685728]]]}},{"type":"Feature","properties":{"Cell_ID":30,"Area_ha":1.0,"LC":"5:0.983003,7:0.016997","XMIN":712024.86160847,"YMIN":8515475.593582131,"XMAX":712124.86160847,"YMAX":8515575.593582131},"geometry":{"type":"Polygon","coordinates":[[[-73.0408633143689,-13.420901677961268],[-73.04087064383842,-13.419997967685728],[-73.04179383626648,-13.42000514053177],[-73.04178651024542,-13.420908851307784],[-73.0408633143689,-13.420901677961268]]]}},{"type":"Feature","properties":{"Cell_ID":31,"Area_ha":1.0,"LC":"5:0.749121,6:0.111754,7:0.139125","XMIN":712024.86160847,"YMIN":8515375.593582131,"XMAX":712124.86160847,"YMAX":8515475.593582131},"geometry":{"type":"Polygon","coordinates":[[[-73.04085598436008,-13.421805388168227],[-73.0408633143689,-13.420901677961268],[-73.04178651024542,-13.420908851307784],[-73.0417791836853,-13.42181256201522],[-73.04085598436008,-13.421805388168227]]]}},{"type":"Feature","properties":{"Cell_ID":32,"Area_ha":1.0,"LC":"5:0.816602,6:0.183398","XMIN":712024.86160847,"YMIN":8515275.593582131,"XMAX":712124.86160847,"YMAX":8515375.593582131},"geometry":{"type":"Polygon","coordinates":[[[-73.04084865381192,-13.422709098306605],[-73.04085598436008,-13.421805388168227],[-73.0417791836853,-13.42181256201522],[-73.04177185658611,-13.422716272654073],[-73.04084865381192,-13.422709098306605]]]}},{"type":"Feature","properties":{"Cell_ID":33,"Area_ha":1.0,"LC":"5:0.963972,9:0.036028","XMIN":712024.86160847,"YMIN":8515175.593582131,"XMAX":712124.86160847,"YMAX":8515275.593582131},"geometry":{"type":"Polygon","coordinates":[[[-73.04084132272443,-13.423612808376385],[-73.04084865381192,-13.422709098306605],[-73.04177185658611,-13.422716272654073],[-73.04176452894784,-13.423619983224334],[-73.04084132272443,-13.423612808376385]]]}},{"type":"Feature","properties":{"Cell_ID":34,"Area_ha":1.0,"LC":"5:0.419241,9:0.580759","XMIN":712024.86160847,"YMIN":8515075.593582131,"XMAX":712124.86160847,"YMAX":8515175.593582131},"geometry":{"type":"Polygon","coordinates":[[[-73.04083399109759,-13.424516518377574],[-73.04084132272443,-13.423612808376385],[-73.04176452894784,-13.423619983224334],[-73.04175720077046,-13.424523693726009],[-73.04083399109759,-13.424516518377574]]]}},{"type":"Feature","properties":{"Cell_ID":35,"Area_ha":1.0,"LC":"5:0.190385,6:0.060668,7:0.004274,14:0.025600,16:0.016997,17:0.661061","XMIN":712124.86160847,"YMIN":8516175.593582131,"XMAX":712224.86160847,"YMAX":8516275.593582131},"geometry":{"type":"Polygon","coordinates":[[[-73.03999143812686,-13.414568531374831],[-73.03999876726807,-13.413664821120014],[-73.04092193502483,-13.413671993836992],[-73.04091460933029,-13.414575704592487],[-73.03999143812686,-13.414568531374831]]]}},{"type":"Feature","properties":{"Cell_ID":36,"Area_ha":1.0,"LC":"6:0.002240,9:0.090483,16:0.606304,17:0.300972","XMIN":712124.86160847,"YMIN":8516075.593582131,"XMAX":712224.86160847,"YMAX":8516175.593582131},"geometry":{"type":"Polygon","coordinates":[[[-73.03998410844615,-13.415472241561089],[-73.03999143812686,-13.414568531374831],[-73.04091460933029,-13.414575704592487],[-73.04090728309649,-13.41547941527943],[-73.03998410844615,-13.415472241561089]]]}},{"type":"Feature","properties":{"Cell_ID":37,"Area_ha":1.0,"LC":"5:0.016997,9:0.521939,14:0.292121,16:0.168943","XMIN":712124.86160847,"YMIN":8515975.593582131,"XMAX":712224.86160847,"YMAX":8516075.593582131},"geometry":{"type":"Polygon","coordinates":[[[-73.03997677822592,-13.416375951678791],[-73.03998410844615,-13.415472241561089],[-73.04090728309649,-13.41547941527943],[-73.04089995632343,-13.41638312589782],[-73.03997677822592,-13.416375951678791]]]}},{"type":"Feature","properties":{"Cell_ID":38,"Area_ha":1.0,"LC":"5:0.326605,9:0.481638,14:0.191757","XMIN":712124.86160847,"YMIN":8515875.593582131,"XMAX":712224.86160847,"YMAX":8515975.593582131},"geometry":{"type":"Polygon","coordinates":[[[-73.03996944746618,-13.417279661727926],[-73.03997677822592,-13.416375951678791],[-73.04089995632343,-13.41638312589782],[-73.04089262901111,-13.417286836447648],[-73.03996944746618,-13.417279661727926]]]}},{"type":"Feature","properties":{"Cell_ID":39,"Area_ha":1.0,"LC":"5:0.665335,9:0.334665","XMIN":712124.86160847,"YMIN":8515775.593582131,"XMAX":712224.86160847,"YMAX":8515875.593582131},"geometry":{"type":"Polygon","coordinates":[[[-73.03996211616688,-13.418183371708496],[-73.03996944746618,-13.417279661727926],[-73.04089262901111,-13.417286836447648],[-73.0408853011595,-13.418190546928912],[-73.03996211616688,-13.418183371708496]]]}},{"type":"Feature","properties":{"Cell_ID":40,"Area_ha":1.0,"LC":"5:0.364276,6:0.635724","XMIN":712124.86160847,"YMIN":8515675.593582131,"XMAX":712224.86160847,"YMAX":8515775.593582131},"geometry":{"type":"Polygon","coordinates":[[[-73.03995478432805,-13.419087081620493],[-73.03996211616688,-13.418183371708496],[-73.0408853011595,-13.418190546928912],[-73.04087797276861,-13.419094257341607],[-73.03995478432805,-13.419087081620493]]]}},{"type":"Feature","properties":{"Cell_ID":41,"Area_ha":1.0,"LC":"5:0.576693,6:0.423307","XMIN":712124.86160847,"YMIN":8515575.593582131,"XMAX":712224.86160847,"YMAX":8515675.593582131},"geometry":{"type":"Polygon","coordinates":[[[-73.03994745194966,-13.419990791463908],[-73.03995478432805,-13.419087081620493],[-73.04087797276861,-13.419094257341607],[-73.04087064383842,-13.419997967685728],[-73.03994745194966,-13.419990791463908]]]}},{"type":"Feature","properties":{"Cell_ID":42,"Area_ha":1.0,"LC":"5:1.000000","XMIN":712124.86160847,"YMIN":8515475.593582131,"XMAX":712224.86160847,"YMAX":8515575.593582131},"geometry":{"type":"Polygon","coordinates":[[[-73.03994011903171,-13.420894501238747],[-73.03994745194966,-13.419990791463908],[-73.04087064383842,-13.419997967685728],[-73.0408633143689,-13.420901677961268],[-73.03994011903171,-13.420894501238747]]]}},{"type":"Feature","properties":{"Cell_ID":43,"Area_ha":1.0,"LC":"5:1.000000","XMIN":712124.86160847,"YMIN":8515375.593582131,"XMAX":712224.86160847,"YMAX":8515475.593582131},"geometry":{"type":"Polygon","coordinates":[[[-73.03993278557418,-13.421798210945],[-73.03994011903171,-13.420894501238747],[-73.0408633143689,-13.420901677961268],[-73.04085598436008,-13.421805388168227],[-73.03993278557418,-13.421798210945]]]}},{"type":"Feature","properties":{"Cell_ID":44,"Area_ha":1.0,"LC":"5:1.000000","XMIN":712124.86160847,"YMIN":8515275.593582131,"XMAX":712224.86160847,"YMAX":8515375.593582131},"geometry":{"type":"Polygon","coordinates":[[[-73.03992545157708,-13.42270192058266],[-73.03993278557418,-13.421798210945],[-73.04085598436008,-13.421805388168227],[-73.04084865381192,-13.422709098306605],[-73.03992545157708,-13.42270192058266]]]}},{"type":"Feature","properties":{"Cell_ID":45,"Area_ha":1.0,"LC":"5:1.000000","XMIN":712124.86160847,"YMIN":8515175.593582131,"XMAX":712224.86160847,"YMAX":8515275.593582131},"geometry":{"type":"Polygon","coordinates":[[[-73.03991811704039,-13.423605630151725],[-73.03992545157708,-13.42270192058266],[-73.04084865381192,-13.422709098306605],[-73.04084132272443,-13.423612808376385],[-73.03991811704039,-13.423605630151725]]]}},{"type":"Feature","properties":{"Cell_ID":46,"Area_ha":1.0,"LC":"5:0.642337,9:0.357663","XMIN":712124.86160847,"YMIN":8515075.593582131,"XMAX":712224.86160847,"YMAX":8515175.593582131},"geometry":{"type":"Polygon","coordinates":[[[-73.03991078196408,-13.424509339652195],[-73.03991811704039,-13.423605630151725],[-73.04084132272443,-13.423612808376385],[-73.04083399109759,-13.424516518377574],[-73.03991078196408,-13.424509339652195]]]}},{"type":"Feature","properties":{"Cell_ID":47,"Area_ha":1.0,"LC":"3:0.270312,6:0.050580,9:0.016997,17:0.637757","XMIN":712224.86160847,"YMIN":8516075.593582131,"XMAX":712324.86160847,"YMAX":8516175.593582131},"geometry":{"type":"Polygon","coordinates":[[[-73.03906093433532,-13.415465064468163],[-73.03906826746297,-13.414561354782824],[-73.03999143812686,-13.414568531374831],[-73.03998410844615,-13.415472241561089],[-73.03906093433532,-13.415465064468163]]]}},{"type":"Feature","properties":{"Cell_ID":48,"Area_ha":1.0,"LC":"9:0.506972,14:0.170785,17:0.322243","XMIN":712224.86160847,"YMIN":8515975.593582131,"XMAX":712324.86160847,"YMAX":8516075.593582131},"geometry":{"type":"Polygon","coordinates":[[[-73.03905360066794,-13.416368774084942],[-73.03906093433532,-13.415465064468163],[-73.03998410844615,-13.415472241561089],[-73.03997677822592,-13.416375951678791],[-73.03905360066794,-13.416368774084942]]]}},{"type":"Feature","properties":{"Cell_ID":49,"Area_ha":1.0,"LC":"9:0.513693,13:0.460969,14:0.025337","XMIN":712224.86160847,"YMIN":8515875.593582131,"XMAX":712324.86160847,"YMAX":8515975.593582131},"geometry":{"type":"Polygon","coordinates":[[[-73.03904626646076,-13.417272483633152],[-73.03905360066794,-13.416368774084942],[-73.03997677822592,-13.416375951678791],[-73.03996944746618,-13.417279661727926],[-73.03904626646076,-13.417272483633152]]]}},{"type":"Feature","properties":{"Cell_ID":50,"Area_ha":1.0,"LC":"5:0.561540,9:0.438460","XMIN":712224.86160847,"YMIN":8515775.593582131,"XMAX":712324.86160847,"YMAX":8515875.593582131},"geometry":{"type":"Polygon","coordinates":[[[-73.0390389317138,-13.418176193112789],[-73.03904626646076,-13.417272483633152],[-73.03996944746618,-13.417279661727926],[-73.03996211616688,-13.418183371708496],[-73.0390389317138,-13.418176193112789]]]}},{"type":"Feature","properties":{"Cell_ID":51,"Area_ha":1.0,"LC":"5:0.785337,6:0.214663","XMIN":712224.86160847,"YMIN":8515675.593582131,"XMAX":712324.86160847,"YMAX":8515775.593582131},"geometry":{"type":"Polygon","coordinates":[[[-73.03903159642704,-13.419079902523855],[-73.0390389317138,-13.418176193112789],[-73.03996211616688,-13.418183371708496],[-73.03995478432805,-13.419087081620493],[-73.03903159642704,-13.419079902523855]]]}},{"type":"Feature","properties":{"Cell_ID":52,"Area_ha":1.0,"LC":"5:0.816602,6:0.183398","XMIN":712224.86160847,"YMIN":8515575.593582131,"XMAX":712324.86160847,"YMAX":8515675.593582131},"geometry":{"type":"Polygon","coordinates":[[[-73.03902426060047,-13.419983611866332],[-73.03903159642704,-13.419079902523855],[-73.03995478432805,-13.419087081620493],[-73.03994745194966,-13.419990791463908],[-73.03902426060047,-13.419983611866332]]]}},{"type":"Feature","properties":{"Cell_ID":53,"Area_ha":1.0,"LC":"5:1.000000","XMIN":712224.86160847,"YMIN":8515475.593582131,"XMAX":712324.86160847,"YMAX":8515575.593582131},"geometry":{"type":"Polygon","coordinates":[[[-73.03901692423408,-13.42088732114023],[-73.03902426060047,-13.419983611866332],[-73.03994745194966,-13.419990791463908],[-73.03994011903171,-13.420894501238747],[-73.03901692423408,-13.42088732114023]]]}},{"type":"Feature","properties":{"Cell_ID":54,"Area_ha":1.0,"LC":"5:1.000000","XMIN":712224.86160847,"YMIN":8515375.593582131,"XMAX":712324.86160847,"YMAX":8515475.593582131},"geometry":{"type":"Polygon","coordinates":[[[-73.03900958732787,-13.421791030345535],[-73.03901692423408,-13.42088732114023],[-73.03994011903171,-13.420894501238747],[-73.03993278557418,-13.421798210945],[-73.03900958732787,-13.421791030345535]]]}},{"type":"Feature","properties":{"Cell_ID":55,"Area_ha":1.0,"LC":"5:1.000000","XMIN":712224.86160847,"YMIN":8515275.593582131,"XMAX":712324.86160847,"YMAX":8515375.593582131},"geometry":{"type":"Polygon","coordinates":[[[-73.03900224988183,-13.422694739482248],[-73.03900958732787,-13.421791030345535],[-73.03993278557418,-13.421798210945],[-73.03992545157708,-13.42270192058266],[-73.03900224988183,-13.422694739482248]]]}},{"type":"Feature","properties":{"Cell_ID":56,"Area_ha":1.0,"LC":"5:1.000000","XMIN":712224.86160847,"YMIN":8515175.593582131,"XMAX":712324.86160847,"YMAX":8515275.593582131},"geometry":{"type":"Polygon","coordinates":[[[-73.03899491189593,-13.423598448550361],[-73.03900224988183,-13.422694739482248],[-73.03992545157708,-13.42270192058266],[-73.03991811704039,-13.423605630151725],[-73.03899491189593,-13.423598448550361]]]}},{"type":"Feature","properties":{"Cell_ID":57,"Area_ha":1.0,"LC":"5:0.379429,9:0.077665,13:0.542906","XMIN":712224.86160847,"YMIN":8515075.593582131,"XMAX":712324.86160847,"YMAX":8515175.593582131},"geometry":{"type":"Polygon","coordinates":[[[-73.03898757337018,-13.424502157549876],[-73.03899491189593,-13.423598448550361],[-73.03991811704039,-13.423605630151725],[-73.03991078196408,-13.424509339652195],[-73.03898757337018,-13.424502157549876]]]}},{"type":"Feature","properties":{"Cell_ID":58,"Area_ha":1.0,"LC":"9:0.023304,13:0.976696","XMIN":712224.86160847,"YMIN":8514975.593582131,"XMAX":712324.86160847,"YMAX":8515075.593582131},"geometry":{"type":"Polygon","coordinates":[[[-73.03898023430456,-13.425405866480782],[-73.03898757337018,-13.424502157549876],[-73.03991078196408,-13.424509339652195],[-73.03990344634816,-13.425413049084062],[-73.03898023430456,-13.425405866480782]]]}},{"type":"Feature","properties":{"Cell_ID":59,"Area_ha":1.0,"LC":"6:0.015061,9:0.378632,17:0.606307","XMIN":712324.86160847,"YMIN":8515975.593582131,"XMAX":712424.86160847,"YMAX":8516075.593582131},"geometry":{"type":"Polygon","coordinates":[[[-73.03813042364973,-13.416361593116283],[-73.03813776076427,-13.415457884000663],[-73.03906093433532,-13.415465064468163],[-73.03905360066794,-13.416368774084942],[-73.03813042364973,-13.416361593116283]]]}},{"type":"Feature","properties":{"Cell_ID":60,"Area_ha":1.0,"LC":"9:0.743606,13:0.019031,16:0.237364","XMIN":712324.86160847,"YMIN":8515875.593582131,"XMAX":712424.86160847,"YMAX":8515975.593582131},"geometry":{"type":"Polygon","coordinates":[[[-73.03812308599514,-13.41726530216333],[-73.03813042364973,-13.416361593116283],[-73.03905360066794,-13.416368774084942],[-73.03904626646076,-13.417272483633152],[-73.03812308599514,-13.41726530216333]]]}},{"type":"Feature","properties":{"Cell_ID":61,"Area_ha":1.0,"LC":"5:0.296994,9:0.595522,16:0.107483","XMIN":712324.86160847,"YMIN":8515775.593582131,"XMAX":712424.86160847,"YMAX":8515875.593582131},"geometry":{"type":"Polygon","coordinates":[[[-73.03811574780052,-13.418169011141803],[-73.03812308599514,-13.41726530216333],[-73.03904626646076,-13.417272483633152],[-73.0390389317138,-13.418176193112789],[-73.03811574780052,-13.418169011141803]]]}},{"type":"Feature","properties":{"Cell_ID":62,"Area_ha":1.0,"LC":"5:0.566307,6:0.410483,9:0.023210","XMIN":712324.86160847,"YMIN":8515675.593582131,"XMAX":712424.86160847,"YMAX":8515775.593582131},"geometry":{"type":"Polygon","coordinates":[[[-73.03810840906583,-13.419072720051696],[-73.03811574780052,-13.418169011141803],[-73.0390389317138,-13.418176193112789],[-73.03903159642704,-13.419079902523855],[-73.03810840906583,-13.419072720051696]]]}},{"type":"Feature","properties":{"Cell_ID":63,"Area_ha":1.0,"LC":"5:0.791453,6:0.208547","XMIN":712324.86160847,"YMIN":8515575.593582131,"XMAX":712424.86160847,"YMAX":8515675.593582131},"geometry":{"type":"Polygon","coordinates":[[[-73.0381010697911,-13.419976428893001],[-73.03810840906583,-13.419072720051696],[-73.03903159642704,-13.419079902523855],[-73.03902426060047,-13.419983611866332],[-73.0381010697911,-13.419976428893001]]]}},{"type":"Feature","properties":{"Cell_ID":64,"Area_ha":1.0,"LC":"5:0.783606,14:0.216394","XMIN":712324.86160847,"YMIN":8515475.593582131,"XMAX":712424.86160847,"YMAX":8515575.593582131},"geometry":{"type":"Polygon","coordinates":[[[-73.03809372997628,-13.42088013766572],[-73.0381010697911,-13.419976428893001],[-73.03902426060047,-13.419983611866332],[-73.03901692423408,-13.42088732114023],[-73.03809372997628,-13.42088013766572]]]}},{"type":"Feature","properties":{"Cell_ID":65,"Area_ha":1.0,"LC":"5:0.831848,6:0.018729,14:0.149422","XMIN":712324.86160847,"YMIN":8515375.593582131,"XMAX":712424.86160847,"YMAX":8515475.593582131},"geometry":{"type":"Polygon","coordinates":[[[-73.0380863896214,-13.421783846369852],[-73.03809372997628,-13.42088013766572],[-73.03901692423408,-13.42088732114023],[-73.03900958732787,-13.421791030345535],[-73.0380863896214,-13.421783846369852]]]}},{"type":"Feature","properties":{"Cell_ID":66,"Area_ha":1.0,"LC":"5:0.976790,6:0.023210","XMIN":712324.86160847,"YMIN":8515275.593582131,"XMAX":712424.86160847,"YMAX":8515375.593582131},"geometry":{"type":"Polygon","coordinates":[[[-73.03807904872642,-13.42268755500538],[-73.0380863896214,-13.421783846369852],[-73.03900958732787,-13.421791030345535],[-73.03900224988183,-13.422694739482248],[-73.03807904872642,-13.42268755500538]]]}},{"type":"Feature","properties":{"Cell_ID":67,"Area_ha":1.0,"LC":"5:1.000000","XMIN":712324.86160847,"YMIN":8515175.593582131,"XMAX":712424.86160847,"YMAX":8515275.593582131},"geometry":{"type":"Polygon","coordinates":[[[-73.03807170729134,-13.423591263572305],[-73.03807904872642,-13.42268755500538],[-73.03900224988183,-13.422694739482248],[-73.03899491189593,-13.423598448550361],[-73.03807170729134,-13.423591263572305]]]}},{"type":"Feature","properties":{"Cell_ID":68,"Area_ha":1.0,"LC":"5:0.461368,9:0.391754,13:0.146878","XMIN":712324.86160847,"YMIN":8515075.593582131,"XMAX":712424.86160847,"YMAX":8515175.593582131},"geometry":{"type":"Polygon","coordinates":[[[-73.03806436531615,-13.424494972070626],[-73.03807170729134,-13.423591263572305],[-73.03899491189593,-13.423598448550361],[-73.03898757337018,-13.424502157549876],[-73.03806436531615,-13.424494972070626]]]}},{"type":"Feature","properties":{"Cell_ID":69,"Area_ha":1.0,"LC":"9:0.006307,13:0.993693","XMIN":712324.86160847,"YMIN":8514975.593582131,"XMAX":712424.86160847,"YMAX":8515075.593582131},"geometry":{"type":"Polygon","coordinates":[[[-73.03805702280084,-13.42539868050034],[-73.03806436531615,-13.424494972070626],[-73.03898757337018,-13.424502157549876],[-73.03898023430456,-13.425405866480782],[-73.03805702280084,-13.42539868050034]]]}},{"type":"Feature","properties":{"Cell_ID":70,"Area_ha":1.0,"LC":"13:1.000000","XMIN":712324.86160847,"YMIN":8514875.593582131,"XMAX":712424.86160847,"YMAX":8514975.593582131},"geometry":{"type":"Polygon","coordinates":[[[-73.0380496797454,-13.426302388861437],[-73.03805702280084,-13.42539868050034],[-73.03898023430456,-13.425405866480782],[-73.03897289469907,-13.42630957534308],[-73.0380496797454,-13.426302388861437]]]}},{"type":"Feature","properties":{"Cell_ID":71,"Area_ha":1.0,"LC":"6:0.006307,9:0.561842,16:0.018729,17:0.413122","XMIN":712424.86160847,"YMIN":8515975.593582131,"XMAX":712524.86160847,"YMAX":8516075.593582131},"geometry":{"type":"Polygon","coordinates":[[[-73.03720724717154,-13.416354408772824],[-73.03721458773323,-13.415450700158598],[-73.03813776076427,-13.415457884000663],[-73.03813042364973,-13.416361593116283],[-73.03720724717154,-13.416354408772824]]]}},{"type":"Feature","properties":{"Cell_ID":72,"Area_ha":1.0,"LC":"9:0.158158,16:0.841842","XMIN":712424.86160847,"YMIN":8515875.593582131,"XMAX":712524.86160847,"YMAX":8515975.593582131},"geometry":{"type":"Polygon","coordinates":[[[-73.03719990606955,-13.417258117318475],[-73.03720724717154,-13.416354408772824],[-73.03813042364973,-13.416361593116283],[-73.03812308599514,-13.41726530216333],[-73.03719990606955,-13.417258117318475]]]}},{"type":"Feature","properties":{"Cell_ID":73,"Area_ha":1.0,"LC":"9:0.757663,16:0.242337","XMIN":712424.86160847,"YMIN":8515775.593582131,"XMAX":712524.86160847,"YMAX":8515875.593582131},"geometry":{"type":"Polygon","coordinates":[[[-73.03719256442727,-13.418161825795545],[-73.03719990606955,-13.417258117318475],[-73.03812308599514,-13.41726530216333],[-73.03811574780052,-13.418169011141803],[-73.03719256442727,-13.418161825795545]]]}},{"type":"Feature","properties":{"Cell_ID":74,"Area_ha":1.0,"LC":"5:0.450088,6:0.269514,9:0.280399","XMIN":712424.86160847,"YMIN":8515675.593582131,"XMAX":712524.86160847,"YMAX":8515775.593582131},"geometry":{"type":"Polygon","coordinates":[[[-73.03718522224469,-13.419065534204032],[-73.03719256442727,-13.418161825795545],[-73.03811574780052,-13.418169011141803],[-73.03810840906583,-13.419072720051696],[-73.03718522224469,-13.419065534204032]]]}},{"type":"Feature","properties":{"Cell_ID":75,"Area_ha":1.0,"LC":"5:0.791453,6:0.208547","XMIN":712424.86160847,"YMIN":8515575.593582131,"XMAX":712524.86160847,"YMAX":8515675.593582131},"geometry":{"type":"Polygon","coordinates":[[[-73.03717787952179,-13.419969242543932],[-73.03718522224469,-13.419065534204032],[-73.03810840906583,-13.419072720051696],[-73.0381010697911,-13.419976428893001],[-73.03717787952179,-13.419969242543932]]]}},{"type":"Feature","properties":{"Cell_ID":76,"Area_ha":1.0,"LC":"5:0.944942,14:0.055058","XMIN":712424.86160847,"YMIN":8515475.593582131,"XMAX":712524.86160847,"YMAX":8515575.593582131},"geometry":{"type":"Polygon","coordinates":[[[-73.03717053625857,-13.42087295081524],[-73.03717787952179,-13.419969242543932],[-73.0381010697911,-13.419976428893001],[-73.03809372997628,-13.42088013766572],[-73.03717053625857,-13.42087295081524]]]}},{"type":"Feature","properties":{"Cell_ID":77,"Area_ha":1.0,"LC":"5:0.923878,6:0.016997,14:0.059125","XMIN":712424.86160847,"YMIN":8515375.593582131,"XMAX":712524.86160847,"YMAX":8515475.593582131},"geometry":{"type":"Polygon","coordinates":[[[-73.03716319245501,-13.421776659017949],[-73.03717053625857,-13.42087295081524],[-73.03809372997628,-13.42088013766572],[-73.0380863896214,-13.421783846369852],[-73.03716319245501,-13.421776659017949]]]}},{"type":"Feature","properties":{"Cell_ID":78,"Area_ha":1.0,"LC":"5:0.461271,6:0.538729","XMIN":712424.86160847,"YMIN":8515275.593582131,"XMAX":712524.86160847,"YMAX":8515375.593582131},"geometry":{"type":"Polygon","coordinates":[[[-73.03715584811111,-13.42268036715206],[-73.03716319245501,-13.421776659017949],[-73.0380863896214,-13.421783846369852],[-73.03807904872642,-13.42268755500538],[-73.03715584811111,-13.42268036715206]]]}},{"type":"Feature","properties":{"Cell_ID":79,"Area_ha":1.0,"LC":"5:0.995726,6:0.004274","XMIN":712424.86160847,"YMIN":8515175.593582131,"XMAX":712524.86160847,"YMAX":8515275.593582131},"geometry":{"type":"Polygon","coordinates":[[[-73.03714850322685,-13.423584075217564],[-73.03715584811111,-13.42268036715206],[-73.03807904872642,-13.42268755500538],[-73.03807170729134,-13.423591263572305],[-73.03714850322685,-13.423584075217564]]]}},{"type":"Feature","properties":{"Cell_ID":80,"Area_ha":1.0,"LC":"5:0.400399,9:0.139031,13:0.460571","XMIN":712424.86160847,"YMIN":8515075.593582131,"XMAX":712524.86160847,"YMAX":8515175.593582131},"geometry":{"type":"Polygon","coordinates":[[[-73.03714115780224,-13.424487783214458],[-73.03714850322685,-13.423584075217564],[-73.03807170729134,-13.423591263572305],[-73.03806436531615,-13.424494972070626],[-73.03714115780224,-13.424487783214458]]]}},{"type":"Feature","properties":{"Cell_ID":81,"Area_ha":1.0,"LC":"9:0.060668,13:0.939332","XMIN":712424.86160847,"YMIN":8514975.593582131,"XMAX":712524.86160847,"YMAX":8515075.593582131},"geometry":{"type":"Polygon","coordinates":[[[-73.03713381183724,-13.42539149114274],[-73.03714115780224,-13.424487783214458],[-73.03806436531615,-13.424494972070626],[-73.03805702280084,-13.42539868050034],[-73.03713381183724,-13.42539149114274]]]}},{"type":"Feature","properties":{"Cell_ID":82,"Area_ha":1.0,"LC":"3:0.002172,6:0.212718,9:0.075425,17:0.467085","XMIN":712524.86160847,"YMIN":8516075.593582131,"XMAX":712624.86160847,"YMAX":8516175.593582131},"geometry":{"type":"Polygon","coordinates":[[[-73.03629141524249,-13.415443512941977],[-73.03629875871079,-13.414539804760809],[-73.03722192775466,-13.414546991475802],[-73.03721458773323,-13.415450700158598],[-73.03629141524249,-13.415443512941977]]]}},{"type":"Feature","properties":{"Cell_ID":83,"Area_ha":1.0,"LC":"5:0.115425,9:0.833693,16:0.016997,17:0.033885","XMIN":712524.86160847,"YMIN":8515975.593582131,"XMAX":712624.86160847,"YMAX":8516075.593582131},"geometry":{"type":"Polygon","coordinates":[[[-73.03628407123365,-13.416347221054572],[-73.03629141524249,-13.415443512941977],[-73.03721458773323,-13.415450700158598],[-73.03720724717154,-13.416354408772824],[-73.03628407123365,-13.416347221054572]]]}},{"type":"Feature","properties":{"Cell_ID":84,"Area_ha":1.0,"LC":"5:0.208453,9:0.660668,16:0.130879","XMIN":712524.86160847,"YMIN":8515875.593582131,"XMAX":712624.86160847,"YMAX":8515975.593582131},"geometry":{"type":"Polygon","coordinates":[[[-73.03627672668428,-13.417250929098591],[-73.03628407123365,-13.416347221054572],[-73.03720724717154,-13.416354408772824],[-73.03719990606955,-13.417258117318475],[-73.03627672668428,-13.417250929098591]]]}},{"type":"Feature","properties":{"Cell_ID":85,"Area_ha":1.0,"LC":"6:0.250182,9:0.423511,16:0.326307","XMIN":712524.86160847,"YMIN":8515775.593582131,"XMAX":712624.86160847,"YMAX":8515875.593582131},"geometry":{"type":"Polygon","coordinates":[[[-73.03626938159435,-13.418154637074021],[-73.03627672668428,-13.417250929098591],[-73.03719990606955,-13.417258117318475],[-73.03719256442727,-13.418161825795545],[-73.03626938159435,-13.418154637074021]]]}},{"type":"Feature","properties":{"Cell_ID":86,"Area_ha":1.0,"LC":"5:0.128846,6:0.092727,9:0.010580,14:0.767847","XMIN":712524.86160847,"YMIN":8515675.593582131,"XMAX":712624.86160847,"YMAX":8515775.593582131},"geometry":{"type":"Polygon","coordinates":[[[-73.03626203596387,-13.41905834498087],[-73.03626938159435,-13.418154637074021],[-73.03719256442727,-13.418161825795545],[-73.03718522224469,-13.419065534204032],[-73.03626203596387,-13.41905834498087]]]}},{"type":"Feature","properties":{"Cell_ID":87,"Area_ha":1.0,"LC":"5:0.703000,14:0.297000","XMIN":712524.86160847,"YMIN":8515575.593582131,"XMAX":712624.86160847,"YMAX":8515675.593582131},"geometry":{"type":"Polygon","coordinates":[[[-73.03625468979281,-13.419962052819125],[-73.03626203596387,-13.41905834498087],[-73.03718522224469,-13.419065534204032],[-73.03717787952179,-13.419969242543932],[-73.03625468979281,-13.419962052819125]]]}},{"type":"Feature","properties":{"Cell_ID":88,"Area_ha":1.0,"LC":"5:1.000000","XMIN":712524.86160847,"YMIN":8515475.593582131,"XMAX":712624.86160847,"YMAX":8515575.593582131},"geometry":{"type":"Polygon","coordinates":[[[-73.03624734308119,-13.420865760588784],[-73.03625468979281,-13.419962052819125],[-73.03717787952179,-13.419969242543932],[-73.03717053625857,-13.42087295081524],[-73.03624734308119,-13.420865760588784]]]}},{"type":"Feature","properties":{"Cell_ID":89,"Area_ha":1.0,"LC":"5:0.981271,14:0.018729","XMIN":712524.86160847,"YMIN":8515375.593582131,"XMAX":712624.86160847,"YMAX":8515475.593582131},"geometry":{"type":"Polygon","coordinates":[[[-73.03623999582896,-13.421769468289844],[-73.03624734308119,-13.420865760588784],[-73.03717053625857,-13.42087295081524],[-73.03716319245501,-13.421776659017949],[-73.03623999582896,-13.421769468289844]]]}},{"type":"Feature","properties":{"Cell_ID":90,"Area_ha":1.0,"LC":"5:0.959699,6:0.038061,14:0.002240","XMIN":712524.86160847,"YMIN":8515275.593582131,"XMAX":712624.86160847,"YMAX":8515375.593582131},"geometry":{"type":"Polygon","coordinates":[[[-73.03623264803616,-13.4226731759223],[-73.03623999582896,-13.421769468289844],[-73.03716319245501,-13.421776659017949],[-73.03715584811111,-13.42268036715206],[-73.03623264803616,-13.4226731759223]]]}},{"type":"Feature","properties":{"Cell_ID":91,"Area_ha":1.0,"LC":"5:1.000000","XMIN":712524.86160847,"YMIN":8515175.593582131,"XMAX":712624.86160847,"YMAX":8515275.593582131},"geometry":{"type":"Polygon","coordinates":[[[-73.03622529970274,-13.423576883486144],[-73.03623264803616,-13.4226731759223],[-73.03715584811111,-13.42268036715206],[-73.03714850322685,-13.423584075217564],[-73.03622529970274,-13.423576883486144]]]}},{"type":"Feature","properties":{"Cell_ID":92,"Area_ha":1.0,"LC":"5:0.383307,13:0.616693","XMIN":712524.86160847,"YMIN":8515075.593582131,"XMAX":712624.86160847,"YMAX":8515175.593582131},"geometry":{"type":"Polygon","coordinates":[[[-73.0362179508287,-13.42448059098138],[-73.03622529970274,-13.423576883486144],[-73.03714850322685,-13.423584075217564],[-73.03714115780224,-13.424487783214458],[-73.0362179508287,-13.42448059098138]]]}},{"type":"Feature","properties":{"Cell_ID":93,"Area_ha":1.0,"LC":"9:0.507179,13:0.492821","XMIN":712524.86160847,"YMIN":8514975.593582131,"XMAX":712624.86160847,"YMAX":8515075.593582131},"geometry":{"type":"Polygon","coordinates":[[[-73.03621060141403,-13.425384298407995],[-73.0362179508287,-13.42448059098138],[-73.03714115780224,-13.424487783214458],[-73.03713381183724,-13.42539149114274],[-73.03621060141403,-13.425384298407995]]]}},{"type":"Feature","properties":{"Cell_ID":94,"Area_ha":1.0,"LC":"6:0.002033,9:0.728054,17:0.269912","XMIN":712624.86160847,"YMIN":8516075.593582131,"XMAX":712724.86160847,"YMAX":8516175.593582131},"geometry":{"type":"Polygon","coordinates":[[[-73.03536824329225,-13.415436322350807],[-73.03537559020744,-13.414532614671502],[-73.03629875871079,-13.414539804760809],[-73.03629141524249,-13.415443512941977],[-73.03536824329225,-13.415436322350807]]]}},{"type":"Feature","properties":{"Cell_ID":95,"Area_ha":1.0,"LC":"5:0.263207,9:0.736793","XMIN":712624.86160847,"YMIN":8515975.593582131,"XMAX":712724.86160847,"YMAX":8516075.593582131},"geometry":{"type":"Polygon","coordinates":[[[-73.0353608958363,-13.41634002996154],[-73.03536824329225,-13.415436322350807],[-73.03629141524249,-13.415443512941977],[-73.03628407123365,-13.416347221054572],[-73.0353608958363,-13.41634002996154]]]}},{"type":"Feature","properties":{"Cell_ID":96,"Area_ha":1.0,"LC":"5:0.132915,9:0.867085","XMIN":712624.86160847,"YMIN":8515875.593582131,"XMAX":712724.86160847,"YMAX":8515975.593582131},"geometry":{"type":"Polygon","coordinates":[[[-73.03535354783953,-13.417243737503687],[-73.0353608958363,-13.41634002996154],[-73.03628407123365,-13.416347221054572],[-73.03627672668428,-13.417250929098591],[-73.03535354783953,-13.417243737503687]]]}},{"type":"Feature","properties":{"Cell_ID":97,"Area_ha":1.0,"LC":"5:0.134455,6:0.052724,9:0.543307,14:0.071453,16:0.198061","XMIN":712624.86160847,"YMIN":8515775.593582131,"XMAX":712724.86160847,"YMAX":8515875.593582131},"geometry":{"type":"Polygon","coordinates":[[[-73.03534619930198,-13.418147444977249],[-73.03535354783953,-13.417243737503687],[-73.03627672668428,-13.417250929098591],[-73.03626938159435,-13.418154637074021],[-73.03534619930198,-13.418147444977249]]]}},{"type":"Feature","properties":{"Cell_ID":98,"Area_ha":1.0,"LC":"5:0.048453,6:0.360094,14:0.591453","XMIN":712624.86160847,"YMIN":8515675.593582131,"XMAX":712724.86160847,"YMAX":8515775.593582131},"geometry":{"type":"Polygon","coordinates":[[[-73.03533885022361,-13.419051152382218],[-73.03534619930198,-13.418147444977249],[-73.03626938159435,-13.418154637074021],[-73.03626203596387,-13.41905834498087],[-73.03533885022361,-13.419051152382218]]]}},{"type":"Feature","properties":{"Cell_ID":99,"Area_ha":1.0,"LC":"5:0.519601,6:0.244274,14:0.236125","XMIN":712624.86160847,"YMIN":8515575.593582131,"XMAX":712724.86160847,"YMAX":8515675.593582131},"geometry":{"type":"Polygon","coordinates":[[[-73.03533150060441,-13.419954859718596],[-73.03533885022361,-13.419051152382218],[-73.03626203596387,-13.41905834498087],[-73.03625468979281,-13.419962052819125],[-73.03533150060441,-13.419954859718596]]]}},{"type":"Feature","properties":{"Cell_ID":100,"Area_ha":1.0,"LC":"5:1.000000","XMIN":712624.86160847,"YMIN":8515475.593582131,"XMAX":712724.86160847,"YMAX":8515575.593582131},"geometry":{"type":"Polygon","coordinates":[[[-73.0353241504444,-13.420858566986372],[-73.03533150060441,-13.419954859718596],[-73.03625468979281,-13.419962052819125],[-73.03624734308119,-13.420865760588784],[-73.0353241504444,-13.420858566986372]]]}},{"type":"Feature","properties":{"Cell_ID":101,"Area_ha":1.0,"LC":"5:0.520399,7:0.035726,9:0.079699,14:0.364176","XMIN":712624.86160847,"YMIN":8515375.593582131,"XMAX":712724.86160847,"YMAX":8515475.593582131},"geometry":{"type":"Polygon","coordinates":[[[-73.03531679974351,-13.421762274185545],[-73.0353241504444,-13.420858566986372],[-73.03624734308119,-13.420865760588784],[-73.03623999582896,-13.421769468289844],[-73.03531679974351,-13.421762274185545]]]}},{"type":"Feature","properties":{"Cell_ID":102,"Area_ha":1.0,"LC":"5:0.520299,7:0.302607,9:0.002240,14:0.174854","XMIN":712624.86160847,"YMIN":8515275.593582131,"XMAX":712724.86160847,"YMAX":8515375.593582131},"geometry":{"type":"Polygon","coordinates":[[[-73.0353094485018,-13.422665981316111],[-73.03531679974351,-13.421762274185545],[-73.03623999582896,-13.421769468289844],[-73.03623264803616,-13.4226731759223],[-73.0353094485018,-13.422665981316111]]]}},{"type":"Feature","properties":{"Cell_ID":103,"Area_ha":1.0,"LC":"5:0.951547,7:0.048453","XMIN":712624.86160847,"YMIN":8515175.593582131,"XMAX":712724.86160847,"YMAX":8515275.593582131},"geometry":{"type":"Polygon","coordinates":[[[-73.03530209671922,-13.423569688378059],[-73.0353094485018,-13.422665981316111],[-73.03623264803616,-13.4226731759223],[-73.03622529970274,-13.423576883486144],[-73.03530209671922,-13.423569688378059]]]}},{"type":"Feature","properties":{"Cell_ID":104,"Area_ha":1.0,"LC":"5:0.892519,13:0.107481","XMIN":712624.86160847,"YMIN":8515075.593582131,"XMAX":712724.86160847,"YMAX":8515175.593582131},"geometry":{"type":"Polygon","coordinates":[[[-73.03529474439577,-13.424473395371397],[-73.03530209671922,-13.423569688378059],[-73.03622529970274,-13.423576883486144],[-73.0362179508287,-13.42448059098138],[-73.03529474439577,-13.424473395371397]]]}},{"type":"Feature","properties":{"Cell_ID":105,"Area_ha":1.0,"LC":"7:0.013338,9:0.088450,17:0.863165","XMIN":712724.86160847,"YMIN":8516175.593582131,"XMAX":712824.86160847,"YMAX":8516275.593582131},"geometry":{"type":"Polygon","coordinates":[[[-73.03445242224487,-13.414525421207895],[-73.03445977206589,-13.413621713962105],[-73.03538293658185,-13.413628906923622],[-73.03537559020744,-13.414532614671502],[-73.03445242224487,-13.414525421207895]]]}},{"type":"Feature","properties":{"Cell_ID":106,"Area_ha":1.0,"LC":"5:0.041939,9:0.907273,17:0.050788","XMIN":712724.86160847,"YMIN":8516075.593582131,"XMAX":712824.86160847,"YMAX":8516175.593582131},"geometry":{"type":"Polygon","coordinates":[[[-73.03444507188281,-13.415429128385101],[-73.03445242224487,-13.414525421207895],[-73.03537559020744,-13.414532614671502],[-73.03536824329225,-13.415436322350807],[-73.03444507188281,-13.415429128385101]]]}},{"type":"Feature","properties":{"Cell_ID":107,"Area_ha":1.0,"LC":"9:1.000000","XMIN":712724.86160847,"YMIN":8515975.593582131,"XMAX":712824.86160847,"YMAX":8516075.593582131},"geometry":{"type":"Polygon","coordinates":[[[-73.03443772097974,-13.416332835493732],[-73.03444507188281,-13.415429128385101],[-73.03536824329225,-13.415436322350807],[-73.0353608958363,-13.41634002996154],[-73.03443772097974,-13.416332835493732]]]}},{"type":"Feature","properties":{"Cell_ID":108,"Area_ha":1.0,"LC":"9:0.981271,13:0.018729","XMIN":712724.86160847,"YMIN":8515875.593582131,"XMAX":712824.86160847,"YMAX":8515975.593582131},"geometry":{"type":"Polygon","coordinates":[[[-73.0344303695356,-13.417236542533779],[-73.03443772097974,-13.416332835493732],[-73.0353608958363,-13.41634002996154],[-73.03535354783953,-13.417243737503687],[-73.0344303695356,-13.417236542533779]]]}},{"type":"Feature","properties":{"Cell_ID":109,"Area_ha":1.0,"LC":"5:0.094663,9:0.735250,13:0.002240,14:0.167847","XMIN":712724.86160847,"YMIN":8515775.593582131,"XMAX":712824.86160847,"YMAX":8515875.593582131},"geometry":{"type":"Polygon","coordinates":[[[-73.03442301755042,-13.41814024950523],[-73.0344303695356,-13.417236542533779],[-73.03535354783953,-13.417243737503687],[-73.03534619930198,-13.418147444977249],[-73.03442301755042,-13.41814024950523]]]}},{"type":"Feature","properties":{"Cell_ID":110,"Area_ha":1.0,"LC":"5:0.320094,14:0.679906","XMIN":712724.86160847,"YMIN":8515675.593582131,"XMAX":712824.86160847,"YMAX":8515775.593582131},"geometry":{"type":"Polygon","coordinates":[[[-73.03441566502417,-13.41904395640809],[-73.03442301755042,-13.41814024950523],[-73.03534619930198,-13.418147444977249],[-73.03533885022361,-13.419051152382218],[-73.03441566502417,-13.41904395640809]]]}},{"type":"Feature","properties":{"Cell_ID":111,"Area_ha":1.0,"LC":"5:0.469514,14:0.530486","XMIN":712724.86160847,"YMIN":8515575.593582131,"XMAX":712824.86160847,"YMAX":8515675.593582131},"geometry":{"type":"Polygon","coordinates":[[[-73.03440831195684,-13.41994766324235],[-73.03441566502417,-13.41904395640809],[-73.03533885022361,-13.419051152382218],[-73.03533150060441,-13.419954859718596],[-73.03440831195684,-13.41994766324235]]]}},{"type":"Feature","properties":{"Cell_ID":112,"Area_ha":1.0,"LC":"5:0.442636,9:0.231453,14:0.325911","XMIN":712724.86160847,"YMIN":8515475.593582131,"XMAX":712824.86160847,"YMAX":8515575.593582131},"geometry":{"type":"Polygon","coordinates":[[[-73.03440095834843,-13.420851370008007],[-73.03440831195684,-13.41994766324235],[-73.03533150060441,-13.419954859718596],[-73.0353241504444,-13.420858566986372],[-73.03440095834843,-13.420851370008007]]]}},{"type":"Feature","properties":{"Cell_ID":113,"Area_ha":1.0,"LC":"5:0.183398,9:0.648149,14:0.168453","XMIN":712724.86160847,"YMIN":8515375.593582131,"XMAX":712824.86160847,"YMAX":8515475.593582131},"geometry":{"type":"Polygon","coordinates":[[[-73.03439360419894,-13.421755076705058],[-73.03440095834843,-13.420851370008007],[-73.0353241504444,-13.420858566986372],[-73.03531679974351,-13.421762274185545],[-73.03439360419894,-13.421755076705058]]]}},{"type":"Feature","properties":{"Cell_ID":114,"Area_ha":1.0,"LC":"5:0.142607,7:0.400299,9:0.457094","XMIN":712724.86160847,"YMIN":8515275.593582131,"XMAX":712824.86160847,"YMAX":8515375.593582131},"geometry":{"type":"Polygon","coordinates":[[[-73.03438624950832,-13.422658783333498],[-73.03439360419894,-13.421755076705058],[-73.03531679974351,-13.421762274185545],[-73.0353094485018,-13.422665981316111],[-73.03438624950832,-13.422658783333498]]]}},{"type":"Feature","properties":{"Cell_ID":115,"Area_ha":1.0,"LC":"5:0.204478,7:0.492915,9:0.302607","XMIN":712724.86160847,"YMIN":8515175.593582131,"XMAX":712824.86160847,"YMAX":8515275.593582131},"geometry":{"type":"Polygon","coordinates":[[[-73.0343788942766,-13.423562489893317],[-73.03438624950832,-13.422658783333498],[-73.0353094485018,-13.422665981316111],[-73.03530209671922,-13.423569688378059],[-73.0343788942766,-13.423562489893317]]]}},{"type":"Feature","properties":{"Cell_ID":116,"Area_ha":1.0,"LC":"5:0.147179,7:0.002033,9:0.195425,17:0.655363","XMIN":712824.86160847,"YMIN":8516175.593582131,"XMAX":712924.86160847,"YMAX":8516275.593582131},"geometry":{"type":"Polygon","coordinates":[[[-73.03352925482332,-13.41451822436999],[-73.03353660809094,-13.41361451762653],[-73.03445977206589,-13.413621713962105],[-73.03445242224487,-13.414525421207895],[-73.03352925482332,-13.41451822436999]]]}},{"type":"Feature","properties":{"Cell_ID":117,"Area_ha":1.0,"LC":"5:0.799699,9:0.198268,17:0.002033","XMIN":712824.86160847,"YMIN":8516075.593582131,"XMAX":712924.86160847,"YMAX":8516175.593582131},"geometry":{"type":"Polygon","coordinates":[[[-73.03352190101441,-13.415421931044868],[-73.03352925482332,-13.41451822436999],[-73.03445242224487,-13.414525421207895],[-73.03444507188281,-13.415429128385101],[-73.03352190101441,-13.415421931044868]]]}},{"type":"Feature","properties":{"Cell_ID":118,"Area_ha":1.0,"LC":"5:0.509422,9:0.450879,13:0.039699","XMIN":712824.86160847,"YMIN":8515975.593582131,"XMAX":712924.86160847,"YMAX":8516075.593582131},"geometry":{"type":"Polygon","coordinates":[[[-73.03351454666422,-13.416325637651159],[-73.03352190101441,-13.415421931044868],[-73.03444507188281,-13.415429128385101],[-73.03443772097974,-13.416332835493732],[-73.03351454666422,-13.416325637651159]]]}},{"type":"Feature","properties":{"Cell_ID":119,"Area_ha":1.0,"LC":"5:0.254455,9:0.366703,13:0.378842","XMIN":712824.86160847,"YMIN":8515875.593582131,"XMAX":712924.86160847,"YMAX":8515975.593582131},"geometry":{"type":"Polygon","coordinates":[[[-73.03350719177274,-13.417229344188863],[-73.03351454666422,-13.416325637651159],[-73.03443772097974,-13.416332835493732],[-73.0344303695356,-13.417236542533779],[-73.03350719177274,-13.417229344188863]]]}},{"type":"Feature","properties":{"Cell_ID":120,"Area_ha":1.0,"LC":"5:0.484575,6:0.454060,13:0.006307,14:0.055058","XMIN":712824.86160847,"YMIN":8515775.593582131,"XMAX":712924.86160847,"YMAX":8515875.593582131},"geometry":{"type":"Polygon","coordinates":[[[-73.03349983633994,-13.418133050657975],[-73.03350719177274,-13.417229344188863],[-73.0344303695356,-13.417236542533779],[-73.03442301755042,-13.41814024950523],[-73.03349983633994,-13.418133050657975]]]}},{"type":"Feature","properties":{"Cell_ID":121,"Area_ha":1.0,"LC":"5:0.515726,6:0.389121,14:0.095153","XMIN":712824.86160847,"YMIN":8515675.593582131,"XMAX":712924.86160847,"YMAX":8515775.593582131},"geometry":{"type":"Polygon","coordinates":[[[-73.03349248036582,-13.419036757058487],[-73.03349983633994,-13.418133050657975],[-73.03442301755042,-13.41814024950523],[-73.03441566502417,-13.41904395640809],[-73.03349248036582,-13.419036757058487]]]}},{"type":"Feature","properties":{"Cell_ID":122,"Area_ha":1.0,"LC":"5:0.444575,6:0.189121,14:0.366304","XMIN":712824.86160847,"YMIN":8515575.593582131,"XMAX":712924.86160847,"YMAX":8515675.593582131},"geometry":{"type":"Polygon","coordinates":[[[-73.03348512385037,-13.419940463390397],[-73.03349248036582,-13.419036757058487],[-73.03441566502417,-13.41904395640809],[-73.03440831195684,-13.41994766324235],[-73.03348512385037,-13.419940463390397]]]}},{"type":"Feature","properties":{"Cell_ID":123,"Area_ha":1.0,"LC":"5:0.523972,6:0.193392,14:0.282636","XMIN":712824.86160847,"YMIN":8515475.593582131,"XMAX":712924.86160847,"YMAX":8515575.593582131},"geometry":{"type":"Polygon","coordinates":[[[-73.03347776679358,-13.420844169653703],[-73.03348512385037,-13.419940463390397],[-73.03440831195684,-13.41994766324235],[-73.03440095834843,-13.420851370008007],[-73.03347776679358,-13.420844169653703]]]}},{"type":"Feature","properties":{"Cell_ID":124,"Area_ha":1.0,"LC":"5:0.311453,6:0.429121,9:0.135058,14:0.124368","XMIN":712824.86160847,"YMIN":8515375.593582131,"XMAX":712924.86160847,"YMAX":8515475.593582131},"geometry":{"type":"Polygon","coordinates":[[[-73.03347040919544,-13.421747875848395],[-73.03347776679358,-13.420844169653703],[-73.03440095834843,-13.420851370008007],[-73.03439360419894,-13.421755076705058],[-73.03347040919544,-13.421747875848395]]]}},{"type":"Feature","properties":{"Cell_ID":125,"Area_ha":1.0,"LC":"5:0.381667,6:0.561845,9:0.056489","XMIN":712824.86160847,"YMIN":8515275.593582131,"XMAX":712924.86160847,"YMAX":8515375.593582131},"geometry":{"type":"Polygon","coordinates":[[[-73.03346305105595,-13.422651581974472],[-73.03347040919544,-13.421747875848395],[-73.03439360419894,-13.421755076705058],[-73.03438624950832,-13.422658783333498],[-73.03346305105595,-13.422651581974472]]]}},{"type":"Feature","properties":{"Cell_ID":126,"Area_ha":1.0,"LC":"3:0.094219,6:0.000548,7:0.307009,17:0.159903","XMIN":712924.86160847,"YMIN":8516275.593582131,"XMAX":713024.86160847,"YMAX":8516375.593582131},"geometry":{"type":"Polygon","coordinates":[[[-73.03261344465726,-13.413607317916908],[-73.03262080082993,-13.412703611607432],[-73.03354396081727,-13.412710810814495],[-73.03353660809094,-13.41361451762653],[-73.03261344465726,-13.413607317916908]]]}},{"type":"Feature","properties":{"Cell_ID":127,"Area_ha":1.0,"LC":"7:0.002240,9:0.378632,17:0.619128","XMIN":712924.86160847,"YMIN":8516175.593582131,"XMAX":713024.86160847,"YMAX":8516275.593582131},"geometry":{"type":"Polygon","coordinates":[[[-73.03260608794305,-13.414511024157802],[-73.03261344465726,-13.413607317916908],[-73.03353660809094,-13.41361451762653],[-73.03352925482332,-13.41451822436999],[-73.03260608794305,-13.414511024157802]]]}},{"type":"Feature","properties":{"Cell_ID":128,"Area_ha":1.0,"LC":"5:0.496693,9:0.503307","XMIN":712924.86160847,"YMIN":8516075.593582131,"XMAX":713024.86160847,"YMAX":8516175.593582131},"geometry":{"type":"Polygon","coordinates":[[[-73.0325987306873,-13.41541473033011],[-73.03260608794305,-13.414511024157802],[-73.03352925482332,-13.41451822436999],[-73.03352190101441,-13.415421931044868],[-73.0325987306873,-13.41541473033011]]]}},{"type":"Feature","properties":{"Cell_ID":129,"Area_ha":1.0,"LC":"5:0.945243,9:0.018729,13:0.036028","XMIN":712924.86160847,"YMIN":8515975.593582131,"XMAX":713024.86160847,"YMAX":8516075.593582131},"geometry":{"type":"Polygon","coordinates":[[[-73.03259137289001,-13.416318436433833],[-73.0325987306873,-13.41541473033011],[-73.03352190101441,-13.415421931044868],[-73.03351454666422,-13.416325637651159],[-73.03259137289001,-13.416318436433833]]]}},{"type":"Feature","properties":{"Cell_ID":130,"Area_ha":1.0,"LC":"5:0.034092,9:0.887753,13:0.078155","XMIN":712924.86160847,"YMIN":8515875.593582131,"XMAX":713024.86160847,"YMAX":8515975.593582131},"geometry":{"type":"Polygon","coordinates":[[[-73.03258401455116,-13.417222142468963],[-73.03259137289001,-13.416318436433833],[-73.03351454666422,-13.416325637651159],[-73.03350719177274,-13.417229344188863],[-73.03258401455116,-13.417222142468963]]]}},{"type":"Feature","properties":{"Cell_ID":131,"Area_ha":1.0,"LC":"5:0.002033,6:0.208846,9:0.577000,13:0.212121","XMIN":712924.86160847,"YMIN":8515775.593582131,"XMAX":713024.86160847,"YMAX":8515875.593582131},"geometry":{"type":"Polygon","coordinates":[[[-73.03257665567077,-13.418125848435494],[-73.03258401455116,-13.417222142468963],[-73.03350719177274,-13.417229344188863],[-73.03349983633994,-13.418133050657975],[-73.03257665567077,-13.418125848435494]]]}},{"type":"Feature","properties":{"Cell_ID":132,"Area_ha":1.0,"LC":"6:0.526605,9:0.084274,13:0.389121","XMIN":712924.86160847,"YMIN":8515675.593582131,"XMAX":713024.86160847,"YMAX":8515775.593582131},"geometry":{"type":"Polygon","coordinates":[[[-73.0325692962488,-13.419029554333424],[-73.03257665567077,-13.418125848435494],[-73.03349983633994,-13.418133050657975],[-73.03349248036582,-13.419036757058487],[-73.0325692962488,-13.419029554333424]]]}},{"type":"Feature","properties":{"Cell_ID":133,"Area_ha":1.0,"LC":"5:0.199699,6:0.730879,13:0.069422","XMIN":712924.86160847,"YMIN":8515575.593582131,"XMAX":713024.86160847,"YMAX":8515675.593582131},"geometry":{"type":"Polygon","coordinates":[[[-73.03256193628522,-13.41993326016275],[-73.0325692962488,-13.419029554333424],[-73.03349248036582,-13.419036757058487],[-73.03348512385037,-13.419940463390397],[-73.03256193628522,-13.41993326016275]]]}},{"type":"Feature","properties":{"Cell_ID":134,"Area_ha":1.0,"LC":"5:0.281939,6:0.718061","XMIN":712924.86160847,"YMIN":8515475.593582131,"XMAX":713024.86160847,"YMAX":8515575.593582131},"geometry":{"type":"Polygon","coordinates":[[[-73.03255457578007,-13.42083696592346],[-73.03256193628522,-13.41993326016275],[-73.03348512385037,-13.419940463390397],[-73.03347776679358,-13.420844169653703],[-73.03255457578007,-13.42083696592346]]]}},{"type":"Feature","properties":{"Cell_ID":135,"Area_ha":1.0,"LC":"5:0.456300,6:0.543700","XMIN":712924.86160847,"YMIN":8515375.593582131,"XMAX":713024.86160847,"YMAX":8515475.593582131},"geometry":{"type":"Polygon","coordinates":[[[-73.03254721473331,-13.421740671615563],[-73.03255457578007,-13.42083696592346],[-73.03347776679358,-13.420844169653703],[-73.03347040919544,-13.421747875848395],[-73.03254721473331,-13.421740671615563]]]}},{"type":"Feature","properties":{"Cell_ID":136,"Area_ha":1.0,"LC":"5:0.027483,7:0.155824,9:0.107481,17:0.709212","XMIN":713024.86160847,"YMIN":8516175.593582131,"XMAX":713124.86160847,"YMAX":8516275.593582131},"geometry":{"type":"Polygon","coordinates":[[[-73.03168292160431,-13.41450382057134],[-73.0316902817651,-13.413600114833246],[-73.03261344465726,-13.413607317916908],[-73.03260608794305,-13.414511024157802],[-73.03168292160431,-13.41450382057134]]]}},{"type":"Feature","properties":{"Cell_ID":137,"Area_ha":1.0,"LC":"5:0.303207,9:0.244066,16:0.441939,17:0.010788","XMIN":713024.86160847,"YMIN":8516075.593582131,"XMAX":713124.86160847,"YMAX":8516175.593582131},"geometry":{"type":"Polygon","coordinates":[[[-73.03167556090173,-13.415407526240847],[-73.03168292160431,-13.41450382057134],[-73.03260608794305,-13.414511024157802],[-73.0325987306873,-13.41541473033011],[-73.03167556090173,-13.415407526240847]]]}},{"type":"Feature","properties":{"Cell_ID":138,"Area_ha":1.0,"LC":"5:0.606703,9:0.393297","XMIN":713024.86160847,"YMIN":8515975.593582131,"XMAX":713124.86160847,"YMAX":8516075.593582131},"geometry":{"type":"Polygon","coordinates":[[[-73.03166819965735,-13.416311231841759],[-73.03167556090173,-13.415407526240847],[-73.0325987306873,-13.41541473033011],[-73.03259137289001,-13.416318436433833],[-73.03166819965735,-13.416311231841759]]]}},{"type":"Feature","properties":{"Cell_ID":139,"Area_ha":1.0,"LC":"5:0.353392,9:0.646608","XMIN":713024.86160847,"YMIN":8515875.593582131,"XMAX":713124.86160847,"YMAX":8515975.593582131},"geometry":{"type":"Polygon","coordinates":[[[-73.03166083787117,-13.41721493737408],[-73.03166819965735,-13.416311231841759],[-73.03259137289001,-13.416318436433833],[-73.03258401455116,-13.417222142468963],[-73.03166083787117,-13.41721493737408]]]}},{"type":"Feature","properties":{"Cell_ID":140,"Area_ha":1.0,"LC":"5:0.464942,9:0.248547,13:0.286511","XMIN":713024.86160847,"YMIN":8515775.593582131,"XMAX":713124.86160847,"YMAX":8515875.593582131},"geometry":{"type":"Polygon","coordinates":[[[-73.03165347554318,-13.418118642837797],[-73.03166083787117,-13.41721493737408],[-73.03258401455116,-13.417222142468963],[-73.03257665567077,-13.418125848435494],[-73.03165347554318,-13.418118642837797]]]}},{"type":"Feature","properties":{"Cell_ID":141,"Area_ha":1.0,"LC":"5:0.132727,13:0.867273","XMIN":713024.86160847,"YMIN":8515675.593582131,"XMAX":713124.86160847,"YMAX":8515775.593582131},"geometry":{"type":"Polygon","coordinates":[[[-73.03164611267334,-13.41902234823291],[-73.03165347554318,-13.418118642837797],[-73.03257665567077,-13.418125848435494],[-73.0325692962488,-13.419029554333424],[-73.03164611267334,-13.41902234823291]]]}},{"type":"Feature","properties":{"Cell_ID":142,"Area_ha":1.0,"LC":"5:0.071754,13:0.867578,16:0.060668","XMIN":713024.86160847,"YMIN":8515575.593582131,"XMAX":713124.86160847,"YMAX":8515675.593582131},"geometry":{"type":"Polygon","coordinates":[[[-73.03163874926167,-13.419926053559411],[-73.03164611267334,-13.41902234823291],[-73.0325692962488,-13.419029554333424],[-73.03256193628522,-13.41993326016275],[-73.03163874926167,-13.419926053559411]]]}},{"type":"Feature","properties":{"Cell_ID":143,"Area_ha":1.0,"LC":"5:0.566605,9:0.296394,13:0.113790,16:0.023210","XMIN":713024.86160847,"YMIN":8515475.593582131,"XMAX":713124.86160847,"YMAX":8515575.593582131},"geometry":{"type":"Polygon","coordinates":[[[-73.03163138530816,-13.420829758817302],[-73.03163874926167,-13.419926053559411],[-73.03256193628522,-13.41993326016275],[-73.03255457578007,-13.42083696592346],[-73.03163138530816,-13.420829758817302]]]}},{"type":"Feature","properties":{"Cell_ID":144,"Area_ha":1.0,"LC":"5:0.857092,9:0.142908","XMIN":713024.86160847,"YMIN":8515375.593582131,"XMAX":713124.86160847,"YMAX":8515475.593582131},"geometry":{"type":"Polygon","coordinates":[[[-73.0316240208128,-13.42173346400657],[-73.03163138530816,-13.420829758817302],[-73.03255457578007,-13.42083696592346],[-73.03254721473331,-13.421740671615563],[-73.0316240208128,-13.42173346400657]]]}},{"type":"Feature","properties":{"Cell_ID":145,"Area_ha":1.0,"LC":"5:0.021064,7:0.275713,14:0.048406,17:0.322238","XMIN":713124.86160847,"YMIN":8516175.593582131,"XMAX":713224.86160847,"YMAX":8516275.593582131},"geometry":{"type":"Polygon","coordinates":[[[-73.03075975580737,-13.414496613610613],[-73.03076711941473,-13.413592908375552],[-73.0316902817651,-13.413600114833246],[-73.03168292160431,-13.41450382057134],[-73.03075975580737,-13.414496613610613]]]}},{"type":"Feature","properties":{"Cell_ID":146,"Area_ha":1.0,"LC":"7:0.027483,9:0.288450,16:0.078061,17:0.606005","XMIN":713124.86160847,"YMIN":8516075.593582131,"XMAX":713224.86160847,"YMAX":8516175.593582131},"geometry":{"type":"Polygon","coordinates":[[[-73.03075239165797,-13.415400318777078],[-73.03075975580737,-13.414496613610613],[-73.03168292160431,-13.41450382057134],[-73.03167556090173,-13.415407526240847],[-73.03075239165797,-13.415400318777078]]]}},{"type":"Feature","properties":{"Cell_ID":147,"Area_ha":1.0,"LC":"9:0.835821,13:0.071453,17:0.092727","XMIN":713124.86160847,"YMIN":8515975.593582131,"XMAX":713224.86160847,"YMAX":8516075.593582131},"geometry":{"type":"Polygon","coordinates":[[[-73.0307450269665,-13.416304023874952],[-73.03075239165797,-13.415400318777078],[-73.03167556090173,-13.415407526240847],[-73.03166819965735,-13.416311231841759],[-73.0307450269665,-13.416304023874952]]]}},{"type":"Feature","properties":{"Cell_ID":148,"Area_ha":1.0,"LC":"5:0.038061,9:0.440301,13:0.521638","XMIN":713124.86160847,"YMIN":8515875.593582131,"XMAX":713224.86160847,"YMAX":8515975.593582131},"geometry":{"type":"Polygon","coordinates":[[[-73.03073766173299,-13.417207728904225],[-73.0307450269665,-13.416304023874952],[-73.03166819965735,-13.416311231841759],[-73.03166083787117,-13.41721493737408],[-73.03073766173299,-13.417207728904225]]]}},{"type":"Feature","properties":{"Cell_ID":149,"Area_ha":1.0,"LC":"5:0.496693,9:0.269611,13:0.191757,16:0.041939","XMIN":713124.86160847,"YMIN":8515775.593582131,"XMAX":713224.86160847,"YMAX":8515875.593582131},"geometry":{"type":"Polygon","coordinates":[[[-73.0307302959574,-13.41811143386489],[-73.03073766173299,-13.417207728904225],[-73.03166083787117,-13.41721493737408],[-73.03165347554318,-13.418118642837797],[-73.0307302959574,-13.41811143386489]]]}},{"type":"Feature","properties":{"Cell_ID":150,"Area_ha":1.0,"LC":"5:0.421368,9:0.180969,13:0.090785,16:0.306878","XMIN":713124.86160847,"YMIN":8515675.593582131,"XMAX":713224.86160847,"YMAX":8515775.593582131},"geometry":{"type":"Polygon","coordinates":[[[-73.03072292963972,-13.419015138756949],[-73.0307302959574,-13.41811143386489],[-73.03165347554318,-13.418118642837797],[-73.03164611267334,-13.41902234823291],[-73.03072292963972,-13.419015138756949]]]}},{"type":"Feature","properties":{"Cell_ID":151,"Area_ha":1.0,"LC":"13:0.120094,16:0.879906","XMIN":713124.86160847,"YMIN":8515575.593582131,"XMAX":713224.86160847,"YMAX":8515675.593582131},"geometry":{"type":"Polygon","coordinates":[[[-73.03071556277997,-13.419918843580396],[-73.03072292963972,-13.419015138756949],[-73.03164611267334,-13.41902234823291],[-73.03163874926167,-13.419926053559411],[-73.03071556277997,-13.419918843580396]]]}},{"type":"Feature","properties":{"Cell_ID":152,"Area_ha":1.0,"LC":"9:0.286511,13:0.557364,16:0.156125","XMIN":713124.86160847,"YMIN":8515475.593582131,"XMAX":713224.86160847,"YMAX":8515575.593582131},"geometry":{"type":"Polygon","coordinates":[[[-73.0307081953781,-13.420822548335222],[-73.03071556277997,-13.419918843580396],[-73.03163874926167,-13.419926053559411],[-73.03163138530816,-13.420829758817302],[-73.0307081953781,-13.420822548335222]]]}},{"type":"Feature","properties":{"Cell_ID":153,"Area_ha":1.0,"LC":"5:0.078061,9:0.372818,13:0.549121","XMIN":713124.86160847,"YMIN":8515375.593582131,"XMAX":713224.86160847,"YMAX":8515475.593582131},"geometry":{"type":"Polygon","coordinates":[[[-73.03070082743415,-13.421726253021431],[-73.0307081953781,-13.420822548335222],[-73.03163138530816,-13.420829758817302],[-73.0316240208128,-13.42173346400657],[-73.03070082743415,-13.421726253021431]]]}},{"type":"Feature","properties":{"Cell_ID":154,"Area_ha":1.0,"LC":"9:0.507371,13:0.492629","XMIN":713124.86160847,"YMIN":8515275.593582131,"XMAX":713224.86160847,"YMAX":8515375.593582131},"geometry":{"type":"Polygon","coordinates":[[[-73.03069345894805,-13.42262995763901],[-73.03070082743415,-13.421726253021431],[-73.0316240208128,-13.42173346400657],[-73.03161665577555,-13.42263716912722],[-73.03069345894805,-13.42262995763901]]]}},{"type":"Feature","properties":{"Cell_ID":155,"Area_ha":1.0,"LC":"7:0.358389,9:0.139332,17:0.467273","XMIN":713224.86160847,"YMIN":8515975.593582131,"XMAX":713324.86160847,"YMAX":8516075.593582131},"geometry":{"type":"Polygon","coordinates":[[[-73.02982185481773,-13.416296812533412],[-73.02982922295624,-13.41539310793882],[-73.03075239165797,-13.415400318777078],[-73.0307450269665,-13.416304023874952],[-73.02982185481773,-13.416296812533412]]]}},{"type":"Feature","properties":{"Cell_ID":156,"Area_ha":1.0,"LC":"7:0.002240,9:0.065337,13:0.114089,16:0.342906,17:0.475428","XMIN":713224.86160847,"YMIN":8515875.593582131,"XMAX":713324.86160847,"YMAX":8515975.593582131},"geometry":{"type":"Polygon","coordinates":[[[-73.02981448613689,-13.417200517059404],[-73.02982185481773,-13.416296812533412],[-73.0307450269665,-13.416304023874952],[-73.03073766173299,-13.417207728904225],[-73.02981448613689,-13.417200517059404]]]}},{"type":"Feature","properties":{"Cell_ID":157,"Area_ha":1.0,"LC":"5:0.016997,9:0.246210,13:0.141064,16:0.415155,17:0.023210,18:0.157364","XMIN":713224.86160847,"YMIN":8515775.593582131,"XMAX":713324.86160847,"YMAX":8515875.593582131},"geometry":{"type":"Polygon","coordinates":[[[-73.02980711691372,-13.418104221516788],[-73.02981448613689,-13.417200517059404],[-73.03073766173299,-13.417207728904225],[-73.0307302959574,-13.41811143386489],[-73.02980711691372,-13.418104221516788]]]}},{"type":"Feature","properties":{"Cell_ID":158,"Area_ha":1.0,"LC":"5:0.040094,9:0.774455,16:0.036028,18:0.149422","XMIN":713224.86160847,"YMIN":8515675.593582131,"XMAX":713324.86160847,"YMAX":8515775.593582131},"geometry":{"type":"Polygon","coordinates":[[[-73.02979974714822,-13.419007925905555],[-73.02980711691372,-13.418104221516788],[-73.0307302959574,-13.41811143386489],[-73.03072292963972,-13.419015138756949],[-73.02979974714822,-13.419007925905555]]]}},{"type":"Feature","properties":{"Cell_ID":159,"Area_ha":1.0,"LC":"9:0.381274,16:0.496787,17:0.121939","XMIN":713224.86160847,"YMIN":8515575.593582131,"XMAX":713324.86160847,"YMAX":8515675.593582131},"geometry":{"type":"Polygon","coordinates":[[[-73.02979237684036,-13.419911630225707],[-73.02979974714822,-13.419007925905555],[-73.03072292963972,-13.419015138756949],[-73.03071556277997,-13.419918843580396],[-73.02979237684036,-13.419911630225707]]]}},{"type":"Feature","properties":{"Cell_ID":160,"Area_ha":1.0,"LC":"9:0.576394,13:0.280299,16:0.143307","XMIN":713224.86160847,"YMIN":8515475.593582131,"XMAX":713324.86160847,"YMAX":8515575.593582131},"geometry":{"type":"Polygon","coordinates":[[[-73.02978500599016,-13.42081533447724],[-73.02979237684036,-13.419911630225707],[-73.03071556277997,-13.419918843580396],[-73.0307081953781,-13.420822548335222],[-73.02978500599016,-13.42081533447724]]]}},{"type":"Feature","properties":{"Cell_ID":161,"Area_ha":1.0,"LC":"9:0.088453,13:0.911547","XMIN":713224.86160847,"YMIN":8515375.593582131,"XMAX":713324.86160847,"YMAX":8515475.593582131},"geometry":{"type":"Polygon","coordinates":[[[-73.02977763459761,-13.421719038660147],[-73.02978500599016,-13.42081533447724],[-73.0307081953781,-13.420822548335222],[-73.03070082743415,-13.421726253021431],[-73.02977763459761,-13.421719038660147]]]}},{"type":"Feature","properties":{"Cell_ID":162,"Area_ha":1.0,"LC":"7:0.086307,9:0.323781,17:0.128846","XMIN":713324.86160847,"YMIN":8515875.593582131,"XMAX":713424.86160847,"YMAX":8515975.593582131},"geometry":{"type":"Polygon","coordinates":[[[-73.02889131108309,-13.417193301839633],[-73.02889868321124,-13.416289597817158],[-73.02982185481773,-13.416296812533412],[-73.02981448613689,-13.417200517059404],[-73.02889131108309,-13.417193301839633]]]}},{"type":"Feature","properties":{"Cell_ID":163,"Area_ha":1.0,"LC":"9:0.108568,17:0.734231,18:0.074089","XMIN":713324.86160847,"YMIN":8515775.593582131,"XMAX":713424.86160847,"YMAX":8515875.593582131},"geometry":{"type":"Polygon","coordinates":[[[-73.02888393841236,-13.418097005793491],[-73.02889131108309,-13.417193301839633],[-73.02981448613689,-13.417200517059404],[-73.02980711691372,-13.418104221516788],[-73.02888393841236,-13.418097005793491]]]}},{"type":"Feature","properties":{"Cell_ID":164,"Area_ha":1.0,"LC":"9:0.111754,17:0.749121,18:0.139125","XMIN":713324.86160847,"YMIN":8515675.593582131,"XMAX":713424.86160847,"YMAX":8515775.593582131},"geometry":{"type":"Polygon","coordinates":[[[-73.02887656519904,-13.41900070967874],[-73.02888393841236,-13.418097005793491],[-73.02980711691372,-13.418104221516788],[-73.02979974714822,-13.419007925905555],[-73.02887656519904,-13.41900070967874]]]}},{"type":"Feature","properties":{"Cell_ID":165,"Area_ha":1.0,"LC":"9:0.124368,16:0.164176,17:0.711456","XMIN":713324.86160847,"YMIN":8515575.593582131,"XMAX":713424.86160847,"YMAX":8515675.593582131},"geometry":{"type":"Polygon","coordinates":[[[-73.0288691914431,-13.419904413495363],[-73.02887656519904,-13.41900070967874],[-73.02979974714822,-13.419007925905555],[-73.02979237684036,-13.419911630225707],[-73.0288691914431,-13.419904413495363]]]}},{"type":"Feature","properties":{"Cell_ID":166,"Area_ha":1.0,"LC":"9:0.055058,13:0.107179,16:0.789310,17:0.048453","XMIN":713324.86160847,"YMIN":8515475.593582131,"XMAX":713424.86160847,"YMAX":8515575.593582131},"geometry":{"type":"Polygon","coordinates":[[[-73.02886181714459,-13.420808117243359],[-73.0288691914431,-13.419904413495363],[-73.02979237684036,-13.419911630225707],[-73.02978500599016,-13.42081533447724],[-73.02886181714459,-13.420808117243359]]]}},{"type":"Feature","properties":{"Cell_ID":167,"Area_ha":1.0,"LC":"9:0.422698,13:0.528849,16:0.048453","XMIN":713324.86160847,"YMIN":8515375.593582131,"XMAX":713424.86160847,"YMAX":8515475.593582131},"geometry":{"type":"Polygon","coordinates":[[[-73.02885444230346,-13.421711820922734],[-73.02886181714459,-13.420808117243359],[-73.02978500599016,-13.42081533447724],[-73.02977763459761,-13.421719038660147],[-73.02885444230346,-13.421711820922734]]]}},{"type":"Feature","properties":{"Cell_ID":168,"Area_ha":1.0,"LC":"6:0.082515,7:0.500181,17:0.170879","XMIN":713424.86160847,"YMIN":8515575.593582131,"XMAX":713524.86160847,"YMAX":8515675.593582131},"geometry":{"type":"Polygon","coordinates":[[[-73.02794600658848,-13.419897193389366],[-73.02795338379245,-13.418993490076502],[-73.02887656519904,-13.41900070967874],[-73.0288691914431,-13.419904413495363],[-73.02794600658848,-13.419897193389366]]]}},{"type":"Feature","properties":{"Cell_ID":169,"Area_ha":1.0,"LC":"7:0.237970,16:0.166511,17:0.595519","XMIN":713424.86160847,"YMIN":8515475.593582131,"XMAX":713524.86160847,"YMAX":8515575.593582131},"geometry":{"type":"Polygon","coordinates":[[[-73.02793862884162,-13.420800896633597],[-73.02794600658848,-13.419897193389366],[-73.0288691914431,-13.419904413495363],[-73.02886181714459,-13.420808117243359],[-73.02793862884162,-13.420800896633597]]]}}]}