{"type":"FeatureCollection","features":[{"type":"Feature","properties":{"Cell_ID":1,"Area_ha":1.0,"LC":"16:0.779443,17:0.005960,18:0.190476","XMIN":716604.86160847,"YMIN":8516465.83786274,"XMAX":716704.86160847,"YMAX":8516565.83786274},"geometry":{"type":"Polygon","coordinates":[[[-72.99865564453455,-13.41162080783664],[-72.99866312647775,-13.41071712005447],[-72.99958625981517,-13.410724442438891],[-72.99957878131747,-13.41162813073228],[-72.99865564453455,-13.41162080783664]]]}},{"type":"Feature","properties":{"Cell_ID":2,"Area_ha":1.0,"LC":"16:0.965586","XMIN":716704.86160847,"YMIN":8516465.83786274,"XMAX":716804.86160847,"YMAX":8516565.83786274},"geometry":{"type":"Polygon","coordinates":[[[-72.99773250830248,-13.411613481567745],[-72.99773999369116,-13.410709794297032],[-72.99866312647775,-13.41071712005447],[-72.99865564453455,-13.41162080783664],[-72.99773250830248,-13.411613481567745]]]}},{"type":"Feature","properties":{"Cell_ID":3,"Area_ha":1.0,"LC":"16:1.000000","XMIN":716704.86160847,"YMIN":8516365.83786274,"XMAX":716804.86160847,"YMAX":8516465.83786274},"geometry":{"type":"Polygon","coordinates":[[[-72.9977250223627,-13.41251716876975],[-72.99773250830248,-13.411613481567745],[-72.99865564453455,-13.41162080783664],[-72.99864816204051,-13.4125244955501],[-72.9977250223627,-13.41251716876975]]]}}]}