{"type":"FeatureCollection","features":[{"type":"Feature","properties":{"Cell_ID":1,"Area_ha":1.0,"LC":"16:0.317624,17:0.569159","XMIN":716904.86160847,"YMIN":8516483.59738907,"XMAX":717004.86160847,"YMAX":8516583.59738907},"geometry":{"type":"Polygon","coordinates":[[[-72.99588756812553,-13.411438328518255],[-72.9958950603072,-13.410534642258954],[-72.99681819137949,-13.410541974671483],[-72.99681070264323,-13.411445661442709],[-72.99588756812553,-13.411438328518255]]]}},{"type":"Feature","properties":{"Cell_ID":2,"Area_ha":1.0,"LC":"16:0.500533,17:0.498634","XMIN":717004.86160847,"YMIN":8516483.59738907,"XMAX":717104.86160847,"YMAX":8516583.59738907},"geometry":{"type":"Polygon","coordinates":[[[-72.9949644341594,-13.41143099222062],[-72.99497192978649,-13.41052730647348],[-72.9958950603072,-13.410534642258954],[-72.99588756812553,-13.411438328518255],[-72.9949644341594,-13.41143099222062]]]}},{"type":"Feature","properties":{"Cell_ID":3,"Area_ha":1.0,"LC":"9:0.049775,16:0.950225","XMIN":717004.86160847,"YMIN":8516383.59738907,"XMAX":717104.86160847,"YMAX":8516483.59738907},"geometry":{"type":"Polygon","coordinates":[[[-72.99495693798046,-13.41233467789904],[-72.9949644341594,-13.41143099222062],[-72.99588756812553,-13.411438328518255],[-72.99588007539225,-13.412342014708841],[-72.99495693798046,-13.41233467789904]]]}},{"type":"Feature","properties":{"Cell_ID":4,"Area_ha":1.0,"LC":"16:0.179771,17:0.424123","XMIN":717104.86160847,"YMIN":8516583.59738907,"XMAX":717204.86160847,"YMAX":8516683.59738907},"geometry":{"type":"Polygon","coordinates":[[[-72.99404879981762,-13.410519967315064],[-72.99405629833802,-13.409616282011605],[-72.99497942486174,-13.409623620657625],[-72.99497192978649,-13.41052730647348],[-72.99404879981762,-13.410519967315064]]]}},{"type":"Feature","properties":{"Cell_ID":5,"Area_ha":1.0,"LC":"16:0.870477,17:0.129523","XMIN":717104.86160847,"YMIN":8516483.59738907,"XMAX":717204.86160847,"YMAX":8516583.59738907},"geometry":{"type":"Polygon","coordinates":[[[-72.99404130074515,-13.41142365254981],[-72.99404879981762,-13.410519967315064],[-72.99497192978649,-13.41052730647348],[-72.9949644341594,-13.41143099222062],[-72.99404130074515,-13.41142365254981]]]}},{"type":"Feature","properties":{"Cell_ID":6,"Area_ha":1.0,"LC":"9:0.009381,16:0.990619","XMIN":717104.86160847,"YMIN":8516383.59738907,"XMAX":717204.86160847,"YMAX":8516483.59738907},"geometry":{"type":"Polygon","coordinates":[[[-72.99403380112055,-13.41232733771583],[-72.99404130074515,-13.41142365254981],[-72.9949644341594,-13.41143099222062],[-72.99495693798046,-13.41233467789904],[-72.99403380112055,-13.41232733771583]]]}},{"type":"Feature","properties":{"Cell_ID":7,"Area_ha":1.0,"LC":"9:0.255153,13:0.070056,16:0.674791","XMIN":717104.86160847,"YMIN":8516283.59738907,"XMAX":717204.86160847,"YMAX":8516383.59738907},"geometry":{"type":"Polygon","coordinates":[[[-72.99402630094383,-13.413231022813125],[-72.99403380112055,-13.41232733771583],[-72.99495693798046,-13.41233467789904],[-72.99494944124966,-13.41323836350874],[-72.99402630094383,-13.413231022813125]]]}},{"type":"Feature","properties":{"Cell_ID":8,"Area_ha":1.0,"LC":"5:1.000000","XMIN":717104.86160847,"YMIN":8515683.59738907,"XMAX":717204.86160847,"YMAX":8515783.59738907},"geometry":{"type":"Polygon","coordinates":[[[-72.99398128828858,-13.418653131953365],[-72.9939887917782,-13.417749447268529],[-72.99491194931737,-13.417756790526212],[-72.9949044492752,-13.418660475723472],[-72.99398128828858,-13.418653131953365]]]}},{"type":"Feature","properties":{"Cell_ID":9,"Area_ha":1.0,"LC":"5:1.000000","XMIN":717104.86160847,"YMIN":8515583.59738907,"XMAX":717204.86160847,"YMAX":8515683.59738907},"geometry":{"type":"Polygon","coordinates":[[[-72.99397378424679,-13.419556816569443],[-72.99398128828858,-13.418653131953365],[-72.9949044492752,-13.418660475723472],[-72.99489694868107,-13.419564160851982],[-72.99397378424679,-13.419556816569443]]]}},{"type":"Feature","properties":{"Cell_ID":10,"Area_ha":1.0,"LC":"5:1.000000","XMIN":717104.86160847,"YMIN":8515483.59738907,"XMAX":717204.86160847,"YMAX":8515583.59738907},"geometry":{"type":"Polygon","coordinates":[[[-72.99396627965278,-13.42046050111676],[-72.99397378424679,-13.419556816569443],[-72.99489694868107,-13.419564160851982],[-72.99488944753502,-13.420467845911732],[-72.99396627965278,-13.42046050111676]]]}},{"type":"Feature","properties":{"Cell_ID":11,"Area_ha":1.0,"LC":"5:0.762376,9:0.107850,13:0.129775","XMIN":717104.86160847,"YMIN":8515383.59738907,"XMAX":717204.86160847,"YMAX":8515483.59738907},"geometry":{"type":"Polygon","coordinates":[[[-72.99395877450658,-13.42136418559531],[-72.99396627965278,-13.42046050111676],[-72.99488944753502,-13.420467845911732],[-72.99488194583702,-13.421371530902718],[-72.99395877450658,-13.42136418559531]]]}},{"type":"Feature","properties":{"Cell_ID":12,"Area_ha":1.0,"LC":"16:0.712679,17:0.270007","XMIN":717204.86160847,"YMIN":8516583.59738907,"XMAX":717304.86160847,"YMAX":8516683.59738907},"geometry":{"type":"Polygon","coordinates":[[[-72.99312567040087,-13.410512624783724],[-72.9931331723664,-13.409608939992891],[-72.99405629833802,-13.409616282011605],[-72.99404879981762,-13.410519967315064],[-72.99312567040087,-13.410512624783724]]]}},{"type":"Feature","properties":{"Cell_ID":13,"Area_ha":1.0,"LC":"16:1.000000","XMIN":717204.86160847,"YMIN":8516483.59738907,"XMAX":717304.86160847,"YMAX":8516583.59738907},"geometry":{"type":"Polygon","coordinates":[[[-72.99311816788298,-13.41141630950584],[-72.99312567040087,-13.410512624783724],[-72.99404879981762,-13.410519967315064],[-72.99404130074515,-13.41142365254981],[-72.99311816788298,-13.41141630950584]]]}},{"type":"Feature","properties":{"Cell_ID":14,"Area_ha":1.0,"LC":"13:0.151995,16:0.848005","XMIN":717204.86160847,"YMIN":8516383.59738907,"XMAX":717304.86160847,"YMAX":8516483.59738907},"geometry":{"type":"Polygon","coordinates":[[[-72.99311066481275,-13.412319994159224],[-72.99311816788298,-13.41141630950584],[-72.99404130074515,-13.41142365254981],[-72.99403380112055,-13.41232733771583],[-72.99311066481275,-13.412319994159224]]]}},{"type":"Feature","properties":{"Cell_ID":15,"Area_ha":1.0,"LC":"13:0.120983,16:0.879017","XMIN":717204.86160847,"YMIN":8516283.59738907,"XMAX":717304.86160847,"YMAX":8516383.59738907},"geometry":{"type":"Polygon","coordinates":[[[-72.99310316119013,-13.413223678743881],[-72.99311066481275,-13.412319994159224],[-72.99403380112055,-13.41232733771583],[-72.99402630094383,-13.413231022813125],[-72.99310316119013,-13.413223678743881]]]}},{"type":"Feature","properties":{"Cell_ID":16,"Area_ha":1.0,"LC":"13:0.507555,16:0.492445","XMIN":717204.86160847,"YMIN":8516183.59738907,"XMAX":717304.86160847,"YMAX":8516283.59738907},"geometry":{"type":"Polygon","coordinates":[[[-72.99309565701515,-13.414127363259801],[-72.99310316119013,-13.413223678743881],[-72.99402630094383,-13.413231022813125],[-72.994018800215,-13.414134707841688],[-72.99309565701515,-13.414127363259801]]]}},{"type":"Feature","properties":{"Cell_ID":17,"Area_ha":1.0,"LC":"13:0.932839,16:0.067161","XMIN":717204.86160847,"YMIN":8516083.59738907,"XMAX":717304.86160847,"YMAX":8516183.59738907},"geometry":{"type":"Polygon","coordinates":[[[-72.99308815228775,-13.415031047706975],[-72.99309565701515,-13.414127363259801],[-72.994018800215,-13.414134707841688],[-72.99401129893403,-13.415038392801511],[-72.99308815228775,-13.415031047706975]]]}},{"type":"Feature","properties":{"Cell_ID":18,"Area_ha":1.0,"LC":"5:0.271433,13:0.240857,16:0.487710","XMIN":717204.86160847,"YMIN":8515983.59738907,"XMAX":717304.86160847,"YMAX":8516083.59738907},"geometry":{"type":"Polygon","coordinates":[[[-72.99308064700799,-13.415934732085413],[-72.99308815228775,-13.415031047706975],[-72.99401129893403,-13.415038392801511],[-72.99400379710092,-13.415942077692597],[-72.99308064700799,-13.415934732085413]]]}},{"type":"Feature","properties":{"Cell_ID":19,"Area_ha":1.0,"LC":"5:0.752978,13:0.146741,16:0.100281","XMIN":717204.86160847,"YMIN":8515883.59738907,"XMAX":717304.86160847,"YMAX":8515983.59738907},"geometry":{"type":"Polygon","coordinates":[[[-72.9930731411758,-13.4168384163951],[-72.99308064700799,-13.415934732085413],[-72.99400379710092,-13.415942077692597],[-72.99399629471563,-13.41684576251494],[-72.9930731411758,-13.4168384163951]]]}},{"type":"Feature","properties":{"Cell_ID":20,"Area_ha":1.0,"LC":"5:1.000000","XMIN":717204.86160847,"YMIN":8515783.59738907,"XMAX":717304.86160847,"YMAX":8515883.59738907},"geometry":{"type":"Polygon","coordinates":[[[-72.99306563479118,-13.417742100636032],[-72.9930731411758,-13.4168384163951],[-72.99399629471563,-13.41684576251494],[-72.9939887917782,-13.417749447268529],[-72.99306563479118,-13.417742100636032]]]}},{"type":"Feature","properties":{"Cell_ID":21,"Area_ha":1.0,"LC":"5:1.000000","XMIN":717204.86160847,"YMIN":8515683.59738907,"XMAX":717304.86160847,"YMAX":8515783.59738907},"geometry":{"type":"Polygon","coordinates":[[[-72.99305812785414,-13.41864578480821],[-72.99306563479118,-13.417742100636032],[-72.9939887917782,-13.417749447268529],[-72.99398128828858,-13.418653131953365],[-72.99305812785414,-13.41864578480821]]]}},{"type":"Feature","properties":{"Cell_ID":22,"Area_ha":1.0,"LC":"5:1.000000","XMIN":717204.86160847,"YMIN":8515583.59738907,"XMAX":717304.86160847,"YMAX":8515683.59738907},"geometry":{"type":"Polygon","coordinates":[[[-72.99305062036467,-13.419549468911624],[-72.99305812785414,-13.41864578480821],[-72.99398128828858,-13.418653131953365],[-72.99397378424679,-13.419556816569443],[-72.99305062036467,-13.419549468911624]]]}},{"type":"Feature","properties":{"Cell_ID":23,"Area_ha":1.0,"LC":"5:1.000000","XMIN":717204.86160847,"YMIN":8515483.59738907,"XMAX":717304.86160847,"YMAX":8515583.59738907},"geometry":{"type":"Polygon","coordinates":[[[-72.99304311232275,-13.420453152946271],[-72.99305062036467,-13.419549468911624],[-72.99397378424679,-13.419556816569443],[-72.99396627965278,-13.42046050111676],[-72.99304311232275,-13.420453152946271]]]}},{"type":"Feature","properties":{"Cell_ID":24,"Area_ha":1.0,"LC":"5:0.931462,13:0.068538","XMIN":717204.86160847,"YMIN":8515383.59738907,"XMAX":717304.86160847,"YMAX":8515483.59738907},"geometry":{"type":"Polygon","coordinates":[[[-72.99303560372836,-13.421356836912153],[-72.99304311232275,-13.420453152946271],[-72.99396627965278,-13.42046050111676],[-72.99395877450658,-13.42136418559531],[-72.99303560372836,-13.421356836912153]]]}},{"type":"Feature","properties":{"Cell_ID":25,"Area_ha":1.0,"LC":"5:0.030913,9:0.317499,13:0.651588","XMIN":717204.86160847,"YMIN":8515283.59738907,"XMAX":717304.86160847,"YMAX":8515383.59738907},"geometry":{"type":"Polygon","coordinates":[[[-72.99302809458152,-13.422260520809251],[-72.99303560372836,-13.421356836912153],[-72.99395877450658,-13.42136418559531],[-72.99395126880816,-13.422267870005092],[-72.99302809458152,-13.422260520809251]]]}},{"type":"Feature","properties":{"Cell_ID":26,"Area_ha":1.0,"LC":"6:0.081939,16:0.690758,17:0.198508","XMIN":717304.86160847,"YMIN":8516683.59738907,"XMAX":717404.86160847,"YMAX":8516783.59738907},"geometry":{"type":"Polygon","coordinates":[[[-72.99221004694711,-13.409601594601494],[-72.99221755180517,-13.408697910254803],[-72.99314067377958,-13.40870525513334],[-72.9931331723664,-13.409608939992891],[-72.99221004694711,-13.409601594601494]]]}},{"type":"Feature","properties":{"Cell_ID":27,"Area_ha":1.0,"LC":"16:1.000000","XMIN":717304.86160847,"YMIN":8516583.59738907,"XMAX":717404.86160847,"YMAX":8516683.59738907},"geometry":{"type":"Polygon","coordinates":[[[-72.99220254153644,-13.410505278879468],[-72.99221004694711,-13.409601594601494],[-72.9931331723664,-13.409608939992891],[-72.99312567040087,-13.410512624783724],[-72.99220254153644,-13.410505278879468]]]}},{"type":"Feature","properties":{"Cell_ID":28,"Area_ha":1.0,"LC":"13:0.070056,16:0.929944","XMIN":717304.86160847,"YMIN":8516483.59738907,"XMAX":717404.86160847,"YMAX":8516583.59738907},"geometry":{"type":"Polygon","coordinates":[[[-72.99219503557319,-13.411408963088713],[-72.99220254153644,-13.410505278879468],[-72.99312567040087,-13.410512624783724],[-72.99311816788298,-13.41141630950584],[-72.99219503557319,-13.411408963088713]]]}},{"type":"Feature","properties":{"Cell_ID":29,"Area_ha":1.0,"LC":"13:0.411446,16:0.588554","XMIN":717304.86160847,"YMIN":8516383.59738907,"XMAX":717404.86160847,"YMAX":8516483.59738907},"geometry":{"type":"Polygon","coordinates":[[[-72.9921875290573,-13.412312647229228],[-72.99219503557319,-13.411408963088713],[-72.99311816788298,-13.41141630950584],[-72.99311066481275,-13.412319994159224],[-72.9921875290573,-13.412312647229228]]]}},{"type":"Feature","properties":{"Cell_ID":30,"Area_ha":1.0,"LC":"13:0.793808,16:0.206192","XMIN":717304.86160847,"YMIN":8516283.59738907,"XMAX":717404.86160847,"YMAX":8516383.59738907},"geometry":{"type":"Polygon","coordinates":[[[-72.99218002198882,-13.41321633130101],[-72.9921875290573,-13.412312647229228],[-72.99311066481275,-13.412319994159224],[-72.99310316119013,-13.413223678743881],[-72.99218002198882,-13.41321633130101]]]}},{"type":"Feature","properties":{"Cell_ID":31,"Area_ha":1.0,"LC":"13:0.571320,16:0.428680","XMIN":717304.86160847,"YMIN":8516183.59738907,"XMAX":717404.86160847,"YMAX":8516283.59738907},"geometry":{"type":"Polygon","coordinates":[[[-72.99217251436768,-13.414120015304052],[-72.99218002198882,-13.41321633130101],[-72.99310316119013,-13.413223678743881],[-72.99309565701515,-13.414127363259801],[-72.99217251436768,-13.414120015304052]]]}},{"type":"Feature","properties":{"Cell_ID":32,"Area_ha":1.0,"LC":"5:0.153934,13:0.785785,16:0.060281","XMIN":717304.86160847,"YMIN":8516083.59738907,"XMAX":717404.86160847,"YMAX":8516183.59738907},"geometry":{"type":"Polygon","coordinates":[[[-72.9921650061939,-13.415023699238347],[-72.99217251436768,-13.414120015304052],[-72.99309565701515,-13.414127363259801],[-72.99308815228775,-13.415031047706975],[-72.9921650061939,-13.415023699238347]]]}},{"type":"Feature","properties":{"Cell_ID":33,"Area_ha":1.0,"LC":"5:0.638482,9:0.031307,13:0.330211","XMIN":717304.86160847,"YMIN":8515983.59738907,"XMAX":717404.86160847,"YMAX":8516083.59738907},"geometry":{"type":"Polygon","coordinates":[[[-72.99215749746746,-13.415927383103897],[-72.9921650061939,-13.415023699238347],[-72.99308815228775,-13.415031047706975],[-72.99308064700799,-13.415934732085413],[-72.99215749746746,-13.415927383103897]]]}},{"type":"Feature","properties":{"Cell_ID":34,"Area_ha":1.0,"LC":"5:0.695153,9:0.124566,13:0.180281","XMIN":717304.86160847,"YMIN":8515883.59738907,"XMAX":717404.86160847,"YMAX":8515983.59738907},"geometry":{"type":"Polygon","coordinates":[[[-72.99214998818837,-13.416831066900695],[-72.99215749746746,-13.415927383103897],[-72.99308064700799,-13.415934732085413],[-72.9930731411758,-13.4168384163951],[-72.99214998818837,-13.416831066900695]]]}},{"type":"Feature","properties":{"Cell_ID":35,"Area_ha":1.0,"LC":"5:0.515434,9:0.453259,13:0.031307","XMIN":717304.86160847,"YMIN":8515783.59738907,"XMAX":717404.86160847,"YMAX":8515883.59738907},"geometry":{"type":"Polygon","coordinates":[[[-72.99214247835661,-13.417734750628735],[-72.99214998818837,-13.416831066900695],[-72.9930731411758,-13.4168384163951],[-72.99306563479118,-13.417742100636032],[-72.99214247835661,-13.417734750628735]]]}},{"type":"Feature","properties":{"Cell_ID":36,"Area_ha":1.0,"LC":"5:0.634871,9:0.260281,13:0.104847","XMIN":717304.86160847,"YMIN":8515683.59738907,"XMAX":717404.86160847,"YMAX":8515783.59738907},"geometry":{"type":"Polygon","coordinates":[[[-72.99213496797215,-13.418638434288015],[-72.99214247835661,-13.417734750628735],[-72.99306563479118,-13.417742100636032],[-72.99305812785414,-13.41864578480821],[-72.99213496797215,-13.418638434288015]]]}},{"type":"Feature","properties":{"Cell_ID":37,"Area_ha":1.0,"LC":"5:0.908117,9:0.060281,13:0.031602","XMIN":717304.86160847,"YMIN":8515583.59738907,"XMAX":717404.86160847,"YMAX":8515683.59738907},"geometry":{"type":"Polygon","coordinates":[[[-72.99212745703502,-13.41954211787853],[-72.99213496797215,-13.418638434288015],[-72.99305812785414,-13.41864578480821],[-72.99305062036467,-13.419549468911624],[-72.99212745703502,-13.41954211787853]]]}},{"type":"Feature","properties":{"Cell_ID":38,"Area_ha":1.0,"LC":"5:1.000000","XMIN":717304.86160847,"YMIN":8515483.59738907,"XMAX":717404.86160847,"YMAX":8515583.59738907},"geometry":{"type":"Polygon","coordinates":[[[-72.99211994554517,-13.420445801400273],[-72.99212745703502,-13.41954211787853],[-72.99305062036467,-13.419549468911624],[-72.99304311232275,-13.420453152946271],[-72.99211994554517,-13.420445801400273]]]}},{"type":"Feature","properties":{"Cell_ID":39,"Area_ha":1.0,"LC":"5:1.000000","XMIN":717304.86160847,"YMIN":8515383.59738907,"XMAX":717404.86160847,"YMAX":8515483.59738907},"geometry":{"type":"Polygon","coordinates":[[[-72.99211243350263,-13.421349484853247],[-72.99211994554517,-13.420445801400273],[-72.99304311232275,-13.420453152946271],[-72.99303560372836,-13.421356836912153],[-72.99211243350263,-13.421349484853247]]]}},{"type":"Feature","properties":{"Cell_ID":40,"Area_ha":1.0,"LC":"5:0.101406,13:0.898594","XMIN":717304.86160847,"YMIN":8515283.59738907,"XMAX":717404.86160847,"YMAX":8515383.59738907},"geometry":{"type":"Polygon","coordinates":[[[-72.99210492090735,-13.422253168237438],[-72.99211243350263,-13.421349484853247],[-72.99303560372836,-13.421356836912153],[-72.99302809458152,-13.422260520809251],[-72.99210492090735,-13.422253168237438]]]}},{"type":"Feature","properties":{"Cell_ID":41,"Area_ha":1.0,"LC":"9:0.285629,13:0.714371","XMIN":717304.86160847,"YMIN":8515183.59738907,"XMAX":717404.86160847,"YMAX":8515283.59738907},"geometry":{"type":"Polygon","coordinates":[[[-72.99209740775933,-13.423156851552847],[-72.99210492090735,-13.422253168237438],[-72.99302809458152,-13.422260520809251],[-72.9930205848822,-13.423164204637574],[-72.99209740775933,-13.423156851552847]]]}},{"type":"Feature","properties":{"Cell_ID":42,"Area_ha":1.0,"LC":"16:0.704285,17:0.146270","XMIN":717404.86160847,"YMIN":8516883.59738907,"XMAX":717504.86160847,"YMAX":8516983.59738907},"geometry":{"type":"Polygon","coordinates":[[[-72.99130193813343,-13.407786878101504],[-72.9913094453307,-13.406883194130467],[-72.99223255986357,-13.406890541355263],[-72.99222505611066,-13.407794225839389],[-72.99130193813343,-13.407786878101504]]]}},{"type":"Feature","properties":{"Cell_ID":43,"Area_ha":1.0,"LC":"9:0.071995,16:0.918356,17:0.009649","XMIN":717404.86160847,"YMIN":8516783.59738907,"XMAX":717504.86160847,"YMAX":8516883.59738907},"geometry":{"type":"Polygon","coordinates":[[[-72.99129443038335,-13.408690562003827],[-72.99130193813343,-13.407786878101504],[-72.99222505611066,-13.407794225839389],[-72.99221755180517,-13.408697910254803],[-72.99129443038335,-13.408690562003827]]]}},{"type":"Feature","properties":{"Cell_ID":44,"Area_ha":1.0,"LC":"6:0.589494,9:0.112852,16:0.297654","XMIN":717404.86160847,"YMIN":8516683.59738907,"XMAX":717504.86160847,"YMAX":8516783.59738907},"geometry":{"type":"Polygon","coordinates":[[[-72.99128692208042,-13.409594245837427],[-72.99129443038335,-13.408690562003827],[-72.99221755180517,-13.408697910254803],[-72.99221004694711,-13.409601594601494],[-72.99128692208042,-13.409594245837427]]]}},{"type":"Feature","properties":{"Cell_ID":45,"Area_ha":1.0,"LC":"6:0.233415,9:0.020969,16:0.745616","XMIN":717404.86160847,"YMIN":8516583.59738907,"XMAX":717504.86160847,"YMAX":8516683.59738907},"geometry":{"type":"Polygon","coordinates":[[[-72.99127941322463,-13.410497929602299],[-72.99128692208042,-13.409594245837427],[-72.99221004694711,-13.409601594601494],[-72.99220254153644,-13.410505278879468],[-72.99127941322463,-13.410497929602299]]]}},{"type":"Feature","properties":{"Cell_ID":46,"Area_ha":1.0,"LC":"13:0.009381,16:0.990619","XMIN":717404.86160847,"YMIN":8516483.59738907,"XMAX":717504.86160847,"YMAX":8516583.59738907},"geometry":{"type":"Polygon","coordinates":[[[-72.991271903816,-13.411401613298443],[-72.99127941322463,-13.410497929602299],[-72.99220254153644,-13.410505278879468],[-72.99219503557319,-13.411408963088713],[-72.991271903816,-13.411401613298443]]]}},{"type":"Feature","properties":{"Cell_ID":47,"Area_ha":1.0,"LC":"13:0.594309,16:0.405691","XMIN":717404.86160847,"YMIN":8516383.59738907,"XMAX":717504.86160847,"YMAX":8516483.59738907},"geometry":{"type":"Polygon","coordinates":[[[-72.9912643938545,-13.412305296925853],[-72.991271903816,-13.411401613298443],[-72.99219503557319,-13.411408963088713],[-72.9921875290573,-13.412312647229228],[-72.9912643938545,-13.412305296925853]]]}},{"type":"Feature","properties":{"Cell_ID":48,"Area_ha":1.0,"LC":"13:0.786178,16:0.213822","XMIN":717404.86160847,"YMIN":8516283.59738907,"XMAX":717504.86160847,"YMAX":8516383.59738907},"geometry":{"type":"Polygon","coordinates":[[[-72.99125688334011,-13.413208980484523],[-72.9912643938545,-13.412305296925853],[-72.9921875290573,-13.412312647229228],[-72.99218002198882,-13.41321633130101],[-72.99125688334011,-13.413208980484523]]]}},{"type":"Feature","properties":{"Cell_ID":49,"Area_ha":1.0,"LC":"13:1.000000","XMIN":717404.86160847,"YMIN":8516183.59738907,"XMAX":717504.86160847,"YMAX":8516283.59738907},"geometry":{"type":"Polygon","coordinates":[[[-72.99124937227285,-13.414112663974452],[-72.99125688334011,-13.413208980484523],[-72.99218002198882,-13.41321633130101],[-72.99217251436768,-13.414120015304052],[-72.99124937227285,-13.414112663974452]]]}},{"type":"Feature","properties":{"Cell_ID":50,"Area_ha":1.0,"LC":"5:0.384660,13:0.615340","XMIN":717404.86160847,"YMIN":8516083.59738907,"XMAX":717504.86160847,"YMAX":8516183.59738907},"geometry":{"type":"Polygon","coordinates":[[[-72.99124186065269,-13.415016347395628],[-72.99124937227285,-13.414112663974452],[-72.99217251436768,-13.414120015304052],[-72.9921650061939,-13.415023699238347],[-72.99124186065269,-13.415016347395628]]]}},{"type":"Feature","properties":{"Cell_ID":51,"Area_ha":1.0,"LC":"5:0.766459,9:0.028412,13:0.205129","XMIN":717404.86160847,"YMIN":8515983.59738907,"XMAX":717504.86160847,"YMAX":8516083.59738907},"geometry":{"type":"Polygon","coordinates":[[[-72.99123434847962,-13.41592003074806],[-72.99124186065269,-13.415016347395628],[-72.9921650061939,-13.415023699238347],[-72.99215749746746,-13.415927383103897],[-72.99123434847962,-13.41592003074806]]]}},{"type":"Feature","properties":{"Cell_ID":52,"Area_ha":1.0,"LC":"5:0.873246,9:0.095153,13:0.031602","XMIN":717404.86160847,"YMIN":8515883.59738907,"XMAX":717504.86160847,"YMAX":8515983.59738907},"geometry":{"type":"Polygon","coordinates":[[[-72.99122683575364,-13.416823714031734],[-72.99123434847962,-13.41592003074806],[-72.99215749746746,-13.415927383103897],[-72.99214998818837,-13.416831066900695],[-72.99122683575364,-13.416823714031734]]]}},{"type":"Feature","properties":{"Cell_ID":53,"Area_ha":1.0,"LC":"5:0.885129,9:0.066741,13:0.048131","XMIN":717404.86160847,"YMIN":8515783.59738907,"XMAX":717504.86160847,"YMAX":8515883.59738907},"geometry":{"type":"Polygon","coordinates":[[[-72.9912193224747,-13.417727397246646],[-72.99122683575364,-13.416823714031734],[-72.99214998818837,-13.416831066900695],[-72.99214247835661,-13.417734750628735],[-72.9912193224747,-13.417727397246646]]]}},{"type":"Feature","properties":{"Cell_ID":54,"Area_ha":1.0,"LC":"5:0.704847,13:0.295153","XMIN":717404.86160847,"YMIN":8515683.59738907,"XMAX":717504.86160847,"YMAX":8515783.59738907},"geometry":{"type":"Polygon","coordinates":[[[-72.99121180864287,-13.418631080392792],[-72.9912193224747,-13.417727397246646],[-72.99214247835661,-13.417734750628735],[-72.99213496797215,-13.418638434288015],[-72.99121180864287,-13.418631080392792]]]}},{"type":"Feature","properties":{"Cell_ID":55,"Area_ha":1.0,"LC":"5:0.871039,13:0.128961","XMIN":717404.86160847,"YMIN":8515583.59738907,"XMAX":717504.86160847,"YMAX":8515683.59738907},"geometry":{"type":"Polygon","coordinates":[[[-72.99120429425807,-13.419534763470171],[-72.99121180864287,-13.418631080392792],[-72.99213496797215,-13.418638434288015],[-72.99212745703502,-13.41954211787853],[-72.99120429425807,-13.419534763470171]]]}},{"type":"Feature","properties":{"Cell_ID":56,"Area_ha":1.0,"LC":"5:1.000000","XMIN":717404.86160847,"YMIN":8515483.59738907,"XMAX":717504.86160847,"YMAX":8515583.59738907},"geometry":{"type":"Polygon","coordinates":[[[-72.99119677932032,-13.420438446478778],[-72.99120429425807,-13.419534763470171],[-72.99212745703502,-13.41954211787853],[-72.99211994554517,-13.420445801400273],[-72.99119677932032,-13.420438446478778]]]}},{"type":"Feature","properties":{"Cell_ID":57,"Area_ha":1.0,"LC":"5:0.849256,13:0.150744","XMIN":717404.86160847,"YMIN":8515383.59738907,"XMAX":717504.86160847,"YMAX":8515483.59738907},"geometry":{"type":"Polygon","coordinates":[[[-72.9911892638296,-13.421342129418607],[-72.99119677932032,-13.420438446478778],[-72.99211994554517,-13.420445801400273],[-72.99211243350263,-13.421349484853247],[-72.9911892638296,-13.421342129418607]]]}},{"type":"Feature","properties":{"Cell_ID":58,"Area_ha":1.0,"LC":"5:0.050211,13:0.949789","XMIN":717404.86160847,"YMIN":8515283.59738907,"XMAX":717504.86160847,"YMAX":8515383.59738907},"geometry":{"type":"Polygon","coordinates":[[[-72.9911817477859,-13.42224581228965],[-72.9911892638296,-13.421342129418607],[-72.99211243350263,-13.421349484853247],[-72.99210492090735,-13.422253168237438],[-72.9911817477859,-13.42224581228965]]]}},{"type":"Feature","properties":{"Cell_ID":59,"Area_ha":1.0,"LC":"13:1.000000","XMIN":717404.86160847,"YMIN":8515183.59738907,"XMAX":717504.86160847,"YMAX":8515283.59738907},"geometry":{"type":"Polygon","coordinates":[[[-72.99117423118923,-13.42314949509191],[-72.9911817477859,-13.42224581228965],[-72.99210492090735,-13.422253168237438],[-72.99209740775933,-13.423156851552847],[-72.99117423118923,-13.42314949509191]]]}},{"type":"Feature","properties":{"Cell_ID":60,"Area_ha":1.0,"LC":"5:0.009381,9:0.210463,13:0.780155","XMIN":717404.86160847,"YMIN":8515083.59738907,"XMAX":717504.86160847,"YMAX":8515183.59738907},"geometry":{"type":"Polygon","coordinates":[[[-72.99116671403955,-13.424053177825378],[-72.99117423118923,-13.42314949509191],[-72.99209740775933,-13.423156851552847],[-72.99208989405858,-13.424060534799468],[-72.99116671403955,-13.424053177825378]]]}},{"type":"Feature","properties":{"Cell_ID":61,"Area_ha":1.0,"LC":"5:0.518061,9:0.071476,13:0.410463","XMIN":717404.86160847,"YMIN":8514983.59738907,"XMAX":717504.86160847,"YMAX":8515083.59738907},"geometry":{"type":"Polygon","coordinates":[[[-72.99115919633688,-13.424956860490052],[-72.99116671403955,-13.424053177825378],[-72.99208989405858,-13.424060534799468],[-72.99208237980508,-13.424964217977301],[-72.99115919633688,-13.424956860490052]]]}},{"type":"Feature","properties":{"Cell_ID":62,"Area_ha":1.0,"LC":"5:0.062908,9:0.222220,16:0.408257,17:0.130451","XMIN":717504.86160847,"YMIN":8517083.59738907,"XMAX":717604.86160847,"YMAX":8517183.59738907},"geometry":{"type":"Polygon","coordinates":[[[-72.99039384143921,-13.405972160007286],[-72.99040135097471,-13.40506847641214],[-72.9913244580668,-13.405075825982262],[-72.99131695197515,-13.405979510090718],[-72.99039384143921,-13.405972160007286]]]}},{"type":"Feature","properties":{"Cell_ID":63,"Area_ha":1.0,"LC":"9:0.031602,16:0.968398","XMIN":717504.86160847,"YMIN":8516983.59738907,"XMAX":717604.86160847,"YMAX":8517083.59738907},"geometry":{"type":"Polygon","coordinates":[[[-72.99038633135068,-13.406875843533715],[-72.99039384143921,-13.405972160007286],[-72.99131695197515,-13.405979510090718],[-72.9913094453307,-13.406883194130467],[-72.99038633135068,-13.406875843533715]]]}},{"type":"Feature","properties":{"Cell_ID":64,"Area_ha":1.0,"LC":"16:1.000000","XMIN":717504.86160847,"YMIN":8516883.59738907,"XMAX":717604.86160847,"YMAX":8516983.59738907},"geometry":{"type":"Polygon","coordinates":[[[-72.99037882070905,-13.407779526991428],[-72.99038633135068,-13.406875843533715],[-72.9913094453307,-13.406883194130467],[-72.99130193813343,-13.407786878101504],[-72.99037882070905,-13.407779526991428]]]}},{"type":"Feature","properties":{"Cell_ID":65,"Area_ha":1.0,"LC":"9:0.448819,13:0.129775,16:0.421406","XMIN":717504.86160847,"YMIN":8516783.59738907,"XMAX":717604.86160847,"YMAX":8516883.59738907},"geometry":{"type":"Polygon","coordinates":[[[-72.99037130951436,-13.408683210380422],[-72.99037882070905,-13.407779526991428],[-72.99130193813343,-13.407786878101504],[-72.99129443038335,-13.408690562003827],[-72.99037130951436,-13.408683210380422]]]}},{"type":"Feature","properties":{"Cell_ID":66,"Area_ha":1.0,"LC":"6:0.047443,9:0.367710,13:0.584847","XMIN":717504.86160847,"YMIN":8516683.59738907,"XMAX":717604.86160847,"YMAX":8516783.59738907},"geometry":{"type":"Polygon","coordinates":[[[-72.99036379776658,-13.409586893700691],[-72.99037130951436,-13.408683210380422],[-72.99129443038335,-13.408690562003827],[-72.99128692208042,-13.409594245837427],[-72.99036379776658,-13.409586893700691]]]}},{"type":"Feature","properties":{"Cell_ID":67,"Area_ha":1.0,"LC":"6:0.047710,9:0.713808,13:0.210070,16:0.028412","XMIN":717504.86160847,"YMIN":8516583.59738907,"XMAX":717604.86160847,"YMAX":8516683.59738907},"geometry":{"type":"Polygon","coordinates":[[[-72.99035628546568,-13.410490576952228],[-72.99036379776658,-13.409586893700691],[-72.99128692208042,-13.409594245837427],[-72.99127941322463,-13.410497929602299],[-72.99035628546568,-13.410490576952228]]]}},{"type":"Feature","properties":{"Cell_ID":68,"Area_ha":1.0,"LC":"9:0.010632,13:0.464159,16:0.525209","XMIN":717504.86160847,"YMIN":8516483.59738907,"XMAX":717604.86160847,"YMAX":8516583.59738907},"geometry":{"type":"Polygon","coordinates":[[[-72.99034877261168,-13.411394260135037],[-72.99035628546568,-13.410490576952228],[-72.99127941322463,-13.410497929602299],[-72.991271903816,-13.411401613298443],[-72.99034877261168,-13.411394260135037]]]}},{"type":"Feature","properties":{"Cell_ID":69,"Area_ha":1.0,"LC":"13:0.681251,16:0.318749","XMIN":717504.86160847,"YMIN":8516383.59738907,"XMAX":717604.86160847,"YMAX":8516483.59738907},"geometry":{"type":"Polygon","coordinates":[[[-72.99034125920456,-13.4122979432491],[-72.99034877261168,-13.411394260135037],[-72.991271903816,-13.411401613298443],[-72.9912643938545,-13.412305296925853],[-72.99034125920456,-13.4122979432491]]]}},{"type":"Feature","properties":{"Cell_ID":70,"Area_ha":1.0,"LC":"13:0.682065,16:0.317935","XMIN":717504.86160847,"YMIN":8516283.59738907,"XMAX":717604.86160847,"YMAX":8516383.59738907},"geometry":{"type":"Polygon","coordinates":[[[-72.99033374524431,-13.41320162629443],[-72.99034125920456,-13.4122979432491],[-72.9912643938545,-13.412305296925853],[-72.99125688334011,-13.413208980484523],[-72.99033374524431,-13.41320162629443]]]}},{"type":"Feature","properties":{"Cell_ID":71,"Area_ha":1.0,"LC":"5:0.019719,13:0.980281","XMIN":717504.86160847,"YMIN":8516183.59738907,"XMAX":717604.86160847,"YMAX":8516283.59738907},"geometry":{"type":"Polygon","coordinates":[[[-72.99032623073091,-13.41410530927101],[-72.99033374524431,-13.41320162629443],[-72.99125688334011,-13.413208980484523],[-72.99124937227285,-13.414112663974452],[-72.99032623073091,-13.41410530927101]]]}},{"type":"Feature","properties":{"Cell_ID":72,"Area_ha":1.0,"LC":"5:0.299719,13:0.700281","XMIN":717504.86160847,"YMIN":8516083.59738907,"XMAX":717604.86160847,"YMAX":8516183.59738907},"geometry":{"type":"Polygon","coordinates":[[[-72.99031871566439,-13.415008992178834],[-72.99032623073091,-13.41410530927101],[-72.99124937227285,-13.414112663974452],[-72.99124186065269,-13.415016347395628],[-72.99031871566439,-13.415008992178834]]]}},{"type":"Feature","properties":{"Cell_ID":73,"Area_ha":1.0,"LC":"5:0.492965,13:0.507035","XMIN":717504.86160847,"YMIN":8515983.59738907,"XMAX":717604.86160847,"YMAX":8516083.59738907},"geometry":{"type":"Polygon","coordinates":[[[-72.99031120004467,-13.415912675017909],[-72.99031871566439,-13.415008992178834],[-72.99124186065269,-13.415016347395628],[-72.99123434847962,-13.41592003074806],[-72.99031120004467,-13.415912675017909]]]}},{"type":"Feature","properties":{"Cell_ID":74,"Area_ha":1.0,"LC":"5:0.871039,13:0.128961","XMIN":717504.86160847,"YMIN":8515883.59738907,"XMAX":717604.86160847,"YMAX":8515983.59738907},"geometry":{"type":"Polygon","coordinates":[[[-72.9903036838718,-13.416816357788223],[-72.99031120004467,-13.415912675017909],[-72.99123434847962,-13.41592003074806],[-72.99122683575364,-13.416823714031734],[-72.9903036838718,-13.416816357788223]]]}},{"type":"Feature","properties":{"Cell_ID":75,"Area_ha":1.0,"LC":"5:1.000000","XMIN":717504.86160847,"YMIN":8515783.59738907,"XMAX":717604.86160847,"YMAX":8515883.59738907},"geometry":{"type":"Polygon","coordinates":[[[-72.99029616714574,-13.417720040489773],[-72.9903036838718,-13.416816357788223],[-72.99122683575364,-13.416823714031734],[-72.9912193224747,-13.417727397246646],[-72.99029616714574,-13.417720040489773]]]}},{"type":"Feature","properties":{"Cell_ID":76,"Area_ha":1.0,"LC":"5:1.000000","XMIN":717504.86160847,"YMIN":8515683.59738907,"XMAX":717604.86160847,"YMAX":8515783.59738907},"geometry":{"type":"Polygon","coordinates":[[[-72.99028864986651,-13.41862372312255],[-72.99029616714574,-13.417720040489773],[-72.9912193224747,-13.417727397246646],[-72.99121180864287,-13.418631080392792],[-72.99028864986651,-13.41862372312255]]]}},{"type":"Feature","properties":{"Cell_ID":77,"Area_ha":1.0,"LC":"5:1.000000","XMIN":717504.86160847,"YMIN":8515583.59738907,"XMAX":717604.86160847,"YMAX":8515683.59738907},"geometry":{"type":"Polygon","coordinates":[[[-72.99028113203407,-13.419527405686559],[-72.99028864986651,-13.41862372312255],[-72.99121180864287,-13.418631080392792],[-72.99120429425807,-13.419534763470171],[-72.99028113203407,-13.419527405686559]]]}},{"type":"Feature","properties":{"Cell_ID":78,"Area_ha":1.0,"LC":"5:1.000000","XMIN":717504.86160847,"YMIN":8515483.59738907,"XMAX":717604.86160847,"YMAX":8515583.59738907},"geometry":{"type":"Polygon","coordinates":[[[-72.99027361364843,-13.42043108818179],[-72.99028113203407,-13.419527405686559],[-72.99120429425807,-13.419534763470171],[-72.99119677932032,-13.420438446478778],[-72.99027361364843,-13.42043108818179]]]}},{"type":"Feature","properties":{"Cell_ID":79,"Area_ha":1.0,"LC":"5:0.801125,13:0.198875","XMIN":717504.86160847,"YMIN":8515383.59738907,"XMAX":717604.86160847,"YMAX":8515483.59738907},"geometry":{"type":"Polygon","coordinates":[[[-72.99026609470955,-13.421334770608238],[-72.99027361364843,-13.42043108818179],[-72.99119677932032,-13.420438446478778],[-72.9911892638296,-13.421342129418607],[-72.99026609470955,-13.421334770608238]]]}},{"type":"Feature","properties":{"Cell_ID":80,"Area_ha":1.0,"LC":"5:0.060281,13:0.939719","XMIN":717504.86160847,"YMIN":8515283.59738907,"XMAX":717604.86160847,"YMAX":8515383.59738907},"geometry":{"type":"Polygon","coordinates":[[[-72.99025857521745,-13.422238452965903],[-72.99026609470955,-13.421334770608238],[-72.9911892638296,-13.421342129418607],[-72.9911817477859,-13.42224581228965],[-72.99025857521745,-13.422238452965903]]]}},{"type":"Feature","properties":{"Cell_ID":81,"Area_ha":1.0,"LC":"13:1.000000","XMIN":717504.86160847,"YMIN":8515183.59738907,"XMAX":717604.86160847,"YMAX":8515283.59738907},"geometry":{"type":"Polygon","coordinates":[[[-72.99025105517211,-13.423142135254777],[-72.99025857521745,-13.422238452965903],[-72.9911817477859,-13.42224581228965],[-72.99117423118923,-13.42314949509191],[-72.99025105517211,-13.423142135254777]]]}},{"type":"Feature","properties":{"Cell_ID":82,"Area_ha":1.0,"LC":"9:0.408819,13:0.591181","XMIN":717504.86160847,"YMIN":8515083.59738907,"XMAX":717604.86160847,"YMAX":8515183.59738907},"geometry":{"type":"Polygon","coordinates":[[[-72.99024353457352,-13.424045817474854],[-72.99025105517211,-13.423142135254777],[-72.99117423118923,-13.42314949509191],[-72.99116671403955,-13.424053177825378],[-72.99024353457352,-13.424045817474854]]]}},{"type":"Feature","properties":{"Cell_ID":83,"Area_ha":1.0,"LC":"5:0.177092,9:0.050211,13:0.772697","XMIN":717504.86160847,"YMIN":8514983.59738907,"XMAX":717604.86160847,"YMAX":8515083.59738907},"geometry":{"type":"Polygon","coordinates":[[[-72.99023601342168,-13.424949499626138],[-72.99024353457352,-13.424045817474854],[-72.99116671403955,-13.424053177825378],[-72.99115919633688,-13.424956860490052],[-72.99023601342168,-13.424949499626138]]]}},{"type":"Feature","properties":{"Cell_ID":84,"Area_ha":1.0,"LC":"9:0.461406,13:0.472121,16:0.066473","XMIN":717604.86160847,"YMIN":8516983.59738907,"XMAX":717704.86160847,"YMAX":8517083.59738907},"geometry":{"type":"Polygon","coordinates":[[[-72.98946321792371,-13.406868489565008],[-72.98947073145634,-13.405964806552134],[-72.99039384143921,-13.405972160007286],[-72.99038633135068,-13.406875843533715],[-72.98946321792371,-13.406868489565008]]]}},{"type":"Feature","properties":{"Cell_ID":85,"Area_ha":1.0,"LC":"13:0.091757,16:0.908243","XMIN":717604.86160847,"YMIN":8516883.59738907,"XMAX":717704.86160847,"YMAX":8516983.59738907},"geometry":{"type":"Polygon","coordinates":[[[-72.98945570383775,-13.407772172509166],[-72.98946321792371,-13.406868489565008],[-72.99038633135068,-13.406875843533715],[-72.99037882070905,-13.407779526991428],[-72.98945570383775,-13.407772172509166]]]}},{"type":"Feature","properties":{"Cell_ID":86,"Area_ha":1.0,"LC":"9:0.237499,13:0.009381,16:0.753120","XMIN":717604.86160847,"YMIN":8516783.59738907,"XMAX":717704.86160847,"YMAX":8516883.59738907},"geometry":{"type":"Polygon","coordinates":[[[-72.98944818919846,-13.408675855384597],[-72.98945570383775,-13.407772172509166],[-72.99037882070905,-13.407779526991428],[-72.99037130951436,-13.408683210380422],[-72.98944818919846,-13.408675855384597]]]}},{"type":"Feature","properties":{"Cell_ID":87,"Area_ha":1.0,"LC":"9:0.272557,13:0.554309,16:0.173134","XMIN":717604.86160847,"YMIN":8516683.59738907,"XMAX":717704.86160847,"YMAX":8516783.59738907},"geometry":{"type":"Polygon","coordinates":[[[-72.98944067400583,-13.409579538191299],[-72.98944818919846,-13.408675855384597],[-72.99037130951436,-13.408683210380422],[-72.99036379776658,-13.409586893700691],[-72.98944067400583,-13.409579538191299]]]}},{"type":"Feature","properties":{"Cell_ID":88,"Area_ha":1.0,"LC":"9:0.450070,13:0.549930","XMIN":717604.86160847,"YMIN":8516583.59738907,"XMAX":717704.86160847,"YMAX":8516683.59738907},"geometry":{"type":"Polygon","coordinates":[[[-72.98943315825984,-13.410483220929269],[-72.98944067400583,-13.409579538191299],[-72.99036379776658,-13.409586893700691],[-72.99035628546568,-13.410490576952228],[-72.98943315825984,-13.410483220929269]]]}},{"type":"Feature","properties":{"Cell_ID":89,"Area_ha":1.0,"LC":"9:0.161939,13:0.828680,16:0.009381","XMIN":717604.86160847,"YMIN":8516483.59738907,"XMAX":717704.86160847,"YMAX":8516583.59738907},"geometry":{"type":"Polygon","coordinates":[[[-72.9894256419605,-13.411386903598501],[-72.98943315825984,-13.410483220929269],[-72.99035628546568,-13.410490576952228],[-72.99034877261168,-13.411394260135037],[-72.9894256419605,-13.411386903598501]]]}},{"type":"Feature","properties":{"Cell_ID":90,"Area_ha":1.0,"LC":"9:0.560562,13:0.049944,16:0.389494","XMIN":717604.86160847,"YMIN":8516383.59738907,"XMAX":717704.86160847,"YMAX":8516483.59738907},"geometry":{"type":"Polygon","coordinates":[[[-72.98941812510776,-13.412290586198994],[-72.9894256419605,-13.411386903598501],[-72.99034877261168,-13.411394260135037],[-72.99034125920456,-13.4122979432491],[-72.98941812510776,-13.412290586198994]]]}},{"type":"Feature","properties":{"Cell_ID":91,"Area_ha":1.0,"LC":"9:0.020281,13:0.224660,16:0.755059","XMIN":717604.86160847,"YMIN":8516283.59738907,"XMAX":717704.86160847,"YMAX":8516383.59738907},"geometry":{"type":"Polygon","coordinates":[[[-72.98941060770164,-13.413194268730736],[-72.98941812510776,-13.412290586198994],[-72.99034125920456,-13.4122979432491],[-72.99033374524431,-13.41320162629443],[-72.98941060770164,-13.413194268730736]]]}},{"type":"Feature","properties":{"Cell_ID":92,"Area_ha":1.0,"LC":"13:0.595434,16:0.404566","XMIN":717604.86160847,"YMIN":8516183.59738907,"XMAX":717704.86160847,"YMAX":8516283.59738907},"geometry":{"type":"Polygon","coordinates":[[[-72.98940308974214,-13.414097951193735],[-72.98941060770164,-13.413194268730736],[-72.99033374524431,-13.41320162629443],[-72.99032623073091,-13.41410530927101],[-72.98940308974214,-13.414097951193735]]]}},{"type":"Feature","properties":{"Cell_ID":93,"Area_ha":1.0,"LC":"13:0.826866,16:0.173134","XMIN":717604.86160847,"YMIN":8516083.59738907,"XMAX":717704.86160847,"YMAX":8516183.59738907},"geometry":{"type":"Polygon","coordinates":[[[-72.98939557122924,-13.415001633587972],[-72.98940308974214,-13.414097951193735],[-72.99032623073091,-13.41410530927101],[-72.99031871566439,-13.415008992178834],[-72.98939557122924,-13.415001633587972]]]}},{"type":"Feature","properties":{"Cell_ID":94,"Area_ha":1.0,"LC":"5:0.225911,13:0.683064,16:0.091026","XMIN":717604.86160847,"YMIN":8515983.59738907,"XMAX":717704.86160847,"YMAX":8516083.59738907},"geometry":{"type":"Polygon","coordinates":[[[-72.98938805216291,-13.415905315913456],[-72.98939557122924,-13.415001633587972],[-72.99031871566439,-13.415008992178834],[-72.99031120004467,-13.415912675017909],[-72.98938805216291,-13.415905315913456]]]}},{"type":"Feature","properties":{"Cell_ID":95,"Area_ha":1.0,"LC":"5:0.474871,13:0.473246,16:0.051883","XMIN":717604.86160847,"YMIN":8515883.59738907,"XMAX":717704.86160847,"YMAX":8515983.59738907},"geometry":{"type":"Polygon","coordinates":[[[-72.98938053254317,-13.416808998170174],[-72.98938805216291,-13.415905315913456],[-72.99031120004467,-13.415912675017909],[-72.9903036838718,-13.416816357788223],[-72.98938053254317,-13.416808998170174]]]}},{"type":"Feature","properties":{"Cell_ID":96,"Area_ha":1.0,"LC":"5:0.746741,13:0.253259","XMIN":717604.86160847,"YMIN":8515783.59738907,"XMAX":717704.86160847,"YMAX":8515883.59738907},"geometry":{"type":"Polygon","coordinates":[[[-72.98937301236998,-13.417712680358122],[-72.98938053254317,-13.416808998170174],[-72.9903036838718,-13.416816357788223],[-72.99029616714574,-13.417720040489773],[-72.98937301236998,-13.417712680358122]]]}},{"type":"Feature","properties":{"Cell_ID":97,"Area_ha":1.0,"LC":"5:0.538468,13:0.461532","XMIN":717604.86160847,"YMIN":8515683.59738907,"XMAX":717704.86160847,"YMAX":8515783.59738907},"geometry":{"type":"Polygon","coordinates":[[[-72.98936549164335,-13.418616362477298],[-72.98937301236998,-13.417712680358122],[-72.99029616714574,-13.417720040489773],[-72.99028864986651,-13.41862372312255],[-72.98936549164335,-13.418616362477298]]]}},{"type":"Feature","properties":{"Cell_ID":98,"Area_ha":1.0,"LC":"5:1.000000","XMIN":717604.86160847,"YMIN":8515583.59738907,"XMAX":717704.86160847,"YMAX":8515683.59738907},"geometry":{"type":"Polygon","coordinates":[[[-72.98935797036329,-13.4195200445277],[-72.98936549164335,-13.418616362477298],[-72.99028864986651,-13.41862372312255],[-72.99028113203407,-13.419527405686559],[-72.98935797036329,-13.4195200445277]]]}},{"type":"Feature","properties":{"Cell_ID":99,"Area_ha":1.0,"LC":"5:1.000000","XMIN":717604.86160847,"YMIN":8515483.59738907,"XMAX":717704.86160847,"YMAX":8515583.59738907},"geometry":{"type":"Polygon","coordinates":[[[-72.98935044852973,-13.420423726509322],[-72.98935797036329,-13.4195200445277],[-72.99028113203407,-13.419527405686559],[-72.99027361364843,-13.42043108818179],[-72.98935044852973,-13.420423726509322]]]}},{"type":"Feature","properties":{"Cell_ID":100,"Area_ha":1.0,"LC":"5:0.971588,13:0.028412","XMIN":717604.86160847,"YMIN":8515383.59738907,"XMAX":717704.86160847,"YMAX":8515483.59738907},"geometry":{"type":"Polygon","coordinates":[[[-72.98934292614273,-13.421327408422156],[-72.98935044852973,-13.420423726509322],[-72.99027361364843,-13.42043108818179],[-72.99026609470955,-13.421334770608238],[-72.98934292614273,-13.421327408422156]]]}},{"type":"Feature","properties":{"Cell_ID":101,"Area_ha":1.0,"LC":"5:0.211757,13:0.788243","XMIN":717604.86160847,"YMIN":8515283.59738907,"XMAX":717704.86160847,"YMAX":8515383.59738907},"geometry":{"type":"Polygon","coordinates":[[[-72.98933540320223,-13.422231090266202],[-72.98934292614273,-13.421327408422156],[-72.99026609470955,-13.421334770608238],[-72.99025857521745,-13.422238452965903],[-72.98933540320223,-13.422231090266202]]]}},{"type":"Feature","properties":{"Cell_ID":102,"Area_ha":1.0,"LC":"13:1.000000","XMIN":717604.86160847,"YMIN":8515183.59738907,"XMAX":717704.86160847,"YMAX":8515283.59738907},"geometry":{"type":"Polygon","coordinates":[[[-72.98932787970824,-13.423134772041454],[-72.98933540320223,-13.422231090266202],[-72.99025857521745,-13.422238452965903],[-72.99025105517211,-13.423142135254777],[-72.98932787970824,-13.423134772041454]]]}},{"type":"Feature","properties":{"Cell_ID":103,"Area_ha":1.0,"LC":"9:0.019031,13:0.980969","XMIN":717604.86160847,"YMIN":8515083.59738907,"XMAX":717704.86160847,"YMAX":8515183.59738907},"geometry":{"type":"Polygon","coordinates":[[[-72.98932035566075,-13.42403845374791],[-72.98932787970824,-13.423134772041454],[-72.99025105517211,-13.423142135254777],[-72.99024353457352,-13.424045817474854],[-72.98932035566075,-13.42403845374791]]]}},{"type":"Feature","properties":{"Cell_ID":104,"Area_ha":1.0,"LC":"13:1.000000","XMIN":717604.86160847,"YMIN":8514983.59738907,"XMAX":717704.86160847,"YMAX":8515083.59738907},"geometry":{"type":"Polygon","coordinates":[[[-72.98931283105975,-13.42494213538556],[-72.98932035566075,-13.42403845374791],[-72.99024353457352,-13.424045817474854],[-72.99023601342168,-13.424949499626138],[-72.98931283105975,-13.42494213538556]]]}},{"type":"Feature","properties":{"Cell_ID":105,"Area_ha":1.0,"LC":"13:1.000000","XMIN":717604.86160847,"YMIN":8514883.59738907,"XMAX":717704.86160847,"YMAX":8514983.59738907},"geometry":{"type":"Polygon","coordinates":[[[-72.98930530590522,-13.425845816954409],[-72.98931283105975,-13.42494213538556],[-72.99023601342168,-13.424949499626138],[-72.99022849171656,-13.425853181708614],[-72.98930530590522,-13.425845816954409]]]}},{"type":"Feature","properties":{"Cell_ID":106,"Area_ha":1.0,"LC":"7:0.330463,9:0.095153,16:0.574384","XMIN":717704.86160847,"YMIN":8516583.59738907,"XMAX":717804.86160847,"YMAX":8516683.59738907},"geometry":{"type":"Polygon","coordinates":[[[-72.98851003160736,-13.41047586153343],[-72.98851755079843,-13.409572179309261],[-72.98944067400583,-13.409579538191299],[-72.98943315825984,-13.410483220929269],[-72.98851003160736,-13.41047586153343]]]}},{"type":"Feature","properties":{"Cell_ID":107,"Area_ha":1.0,"LC":"7:0.725129,9:0.047710,13:0.047443,16:0.179719","XMIN":717704.86160847,"YMIN":8516483.59738907,"XMAX":717804.86160847,"YMAX":8516583.59738907},"geometry":{"type":"Polygon","coordinates":[[[-72.98850251186266,-13.411379543688854],[-72.98851003160736,-13.41047586153343],[-72.98943315825984,-13.410483220929269],[-72.9894256419605,-13.411386903598501],[-72.98850251186266,-13.411379543688854]]]}},{"type":"Feature","properties":{"Cell_ID":108,"Area_ha":1.0,"LC":"5:0.070056,7:0.051195,13:0.009649,16:0.869100","XMIN":717704.86160847,"YMIN":8516383.59738907,"XMAX":717804.86160847,"YMAX":8516483.59738907},"geometry":{"type":"Polygon","coordinates":[[[-72.98849499156434,-13.41228322577553],[-72.98850251186266,-13.411379543688854],[-72.9894256419605,-13.411386903598501],[-72.98941812510776,-13.412290586198994],[-72.98849499156434,-13.41228322577553]]]}},{"type":"Feature","properties":{"Cell_ID":109,"Area_ha":1.0,"LC":"5:0.273541,16:0.726459","XMIN":717704.86160847,"YMIN":8516283.59738907,"XMAX":717804.86160847,"YMAX":8516383.59738907},"geometry":{"type":"Polygon","coordinates":[[[-72.98848747071237,-13.413186907793461],[-72.98849499156434,-13.41228322577553],[-72.98941812510776,-13.412290586198994],[-72.98941060770164,-13.413194268730736],[-72.98848747071237,-13.413186907793461]]]}},{"type":"Feature","properties":{"Cell_ID":110,"Area_ha":1.0,"LC":"5:0.020281,7:0.209775,16:0.769944","XMIN":717704.86160847,"YMIN":8516183.59738907,"XMAX":717804.86160847,"YMAX":8516283.59738907},"geometry":{"type":"Polygon","coordinates":[[[-72.98847994930676,-13.414090589742635],[-72.98848747071237,-13.413186907793461],[-72.98941060770164,-13.413194268730736],[-72.98940308974214,-13.414097951193735],[-72.98847994930676,-13.414090589742635]]]}},{"type":"Feature","properties":{"Cell_ID":111,"Area_ha":1.0,"LC":"7:0.253134,13:0.067161,16:0.679705","XMIN":717704.86160847,"YMIN":8516083.59738907,"XMAX":717804.86160847,"YMAX":8516183.59738907},"geometry":{"type":"Polygon","coordinates":[[[-72.9884724273475,-13.41499427162305],[-72.98847994930676,-13.414090589742635],[-72.98940308974214,-13.414097951193735],[-72.98939557122924,-13.415001633587972],[-72.9884724273475,-13.41499427162305]]]}},{"type":"Feature","properties":{"Cell_ID":112,"Area_ha":1.0,"LC":"6:0.030056,13:0.167022,16:0.802922","XMIN":717704.86160847,"YMIN":8515983.59738907,"XMAX":717804.86160847,"YMAX":8516083.59738907},"geometry":{"type":"Polygon","coordinates":[[[-72.98846490483456,-13.415897953434705],[-72.9884724273475,-13.41499427162305],[-72.98939557122924,-13.415001633587972],[-72.98938805216291,-13.415905315913456],[-72.98846490483456,-13.415897953434705]]]}},{"type":"Feature","properties":{"Cell_ID":113,"Area_ha":1.0,"LC":"5:0.112683,6:0.091883,13:0.465911,16:0.329523","XMIN":717704.86160847,"YMIN":8515883.59738907,"XMAX":717804.86160847,"YMAX":8515983.59738907},"geometry":{"type":"Polygon","coordinates":[[[-72.98845738176796,-13.416801635177592],[-72.98846490483456,-13.415897953434705],[-72.98938805216291,-13.415905315913456],[-72.98938053254317,-13.416808998170174],[-72.98845738176796,-13.416801635177592]]]}},{"type":"Feature","properties":{"Cell_ID":114,"Area_ha":1.0,"LC":"5:0.393541,13:0.606459","XMIN":717704.86160847,"YMIN":8515783.59738907,"XMAX":717804.86160847,"YMAX":8515883.59738907},"geometry":{"type":"Polygon","coordinates":[[[-72.98844985814766,-13.417705316851709],[-72.98845738176796,-13.416801635177592],[-72.98938053254317,-13.416808998170174],[-72.98937301236998,-13.417712680358122],[-72.98844985814766,-13.417705316851709]]]}},{"type":"Feature","properties":{"Cell_ID":115,"Area_ha":1.0,"LC":"5:0.709663,6:0.210463,13:0.079874","XMIN":717704.86160847,"YMIN":8515683.59738907,"XMAX":717804.86160847,"YMAX":8515783.59738907},"geometry":{"type":"Polygon","coordinates":[[[-72.98844233397367,-13.418608998457048],[-72.98844985814766,-13.417705316851709],[-72.98937301236998,-13.417712680358122],[-72.98936549164335,-13.418616362477298],[-72.98844233397367,-13.418608998457048]]]}},{"type":"Feature","properties":{"Cell_ID":116,"Area_ha":1.0,"LC":"5:0.766585,6:0.233415","XMIN":717704.86160847,"YMIN":8515583.59738907,"XMAX":717804.86160847,"YMAX":8515683.59738907},"geometry":{"type":"Polygon","coordinates":[[[-72.98843480924594,-13.419512679993607],[-72.98844233397367,-13.418608998457048],[-72.98936549164335,-13.418616362477298],[-72.98935797036329,-13.4195200445277],[-72.98843480924594,-13.419512679993607]]]}},{"type":"Feature","properties":{"Cell_ID":117,"Area_ha":1.0,"LC":"5:1.000000","XMIN":717704.86160847,"YMIN":8515483.59738907,"XMAX":717804.86160847,"YMAX":8515583.59738907},"geometry":{"type":"Polygon","coordinates":[[[-72.98842728396453,-13.42041636146138],[-72.98843480924594,-13.419512679993607],[-72.98935797036329,-13.4195200445277],[-72.98935044852973,-13.420423726509322],[-72.98842728396453,-13.42041636146138]]]}},{"type":"Feature","properties":{"Cell_ID":118,"Area_ha":1.0,"LC":"5:1.000000","XMIN":717704.86160847,"YMIN":8515383.59738907,"XMAX":717804.86160847,"YMAX":8515483.59738907},"geometry":{"type":"Polygon","coordinates":[[[-72.9884197581294,-13.421320042860367],[-72.98842728396453,-13.42041636146138],[-72.98935044852973,-13.420423726509322],[-72.98934292614273,-13.421327408422156],[-72.9884197581294,-13.421320042860367]]]}},{"type":"Feature","properties":{"Cell_ID":119,"Area_ha":1.0,"LC":"5:0.734778,13:0.265222","XMIN":717704.86160847,"YMIN":8515283.59738907,"XMAX":717804.86160847,"YMAX":8515383.59738907},"geometry":{"type":"Polygon","coordinates":[[[-72.9884122317405,-13.42222372419056],[-72.9884197581294,-13.421320042860367],[-72.98934292614273,-13.421327408422156],[-72.98933540320223,-13.422231090266202],[-72.9884122317405,-13.42222372419056]]]}},{"type":"Feature","properties":{"Cell_ID":120,"Area_ha":1.0,"LC":"5:0.565691,13:0.434309","XMIN":717704.86160847,"YMIN":8515183.59738907,"XMAX":717804.86160847,"YMAX":8515283.59738907},"geometry":{"type":"Polygon","coordinates":[[[-72.98840470479787,-13.423127405451957],[-72.9884122317405,-13.42222372419056],[-72.98933540320223,-13.422231090266202],[-72.98932787970824,-13.423134772041454],[-72.98840470479787,-13.423127405451957]]]}},{"type":"Feature","properties":{"Cell_ID":121,"Area_ha":1.0,"LC":"5:0.212445,9:0.453527,13:0.334028","XMIN":717704.86160847,"YMIN":8514983.59738907,"XMAX":717804.86160847,"YMAX":8515083.59738907},"geometry":{"type":"Polygon","coordinates":[[[-72.98838964925135,-13.424934767768338],[-72.9883971773015,-13.42403108664455],[-72.98932035566075,-13.42403845374791],[-72.98931283105975,-13.42494213538556],[-72.98838964925135,-13.424934767768338]]]}},{"type":"Feature","properties":{"Cell_ID":122,"Area_ha":1.0,"LC":"5:0.492571,6:0.507429","XMIN":717804.86160847,"YMIN":8515583.59738907,"XMAX":717904.86160847,"YMAX":8515683.59738907},"geometry":{"type":"Polygon","coordinates":[[[-72.98751164868236,-13.419505312084286],[-72.98751917685767,-13.418601631061803],[-72.98844233397367,-13.418608998457048],[-72.98843480924594,-13.419512679993607],[-72.98751164868236,-13.419505312084286]]]}},{"type":"Feature","properties":{"Cell_ID":123,"Area_ha":1.0,"LC":"5:0.520000,6:0.480000","XMIN":717804.86160847,"YMIN":8515483.59738907,"XMAX":717904.86160847,"YMAX":8515583.59738907},"geometry":{"type":"Polygon","coordinates":[[[-72.98750411995306,-13.420408993037979],[-72.98751164868236,-13.419505312084286],[-72.98843480924594,-13.419512679993607],[-72.98842728396453,-13.42041636146138],[-72.98750411995306,-13.420408993037979]]]}},{"type":"Feature","properties":{"Cell_ID":124,"Area_ha":1.0,"LC":"5:0.799438,6:0.200562","XMIN":717804.86160847,"YMIN":8515383.59738907,"XMAX":717904.86160847,"YMAX":8515483.59738907},"geometry":{"type":"Polygon","coordinates":[[[-72.98749659066979,-13.421312673922882],[-72.98750411995306,-13.420408993037979],[-72.98842728396453,-13.42041636146138],[-72.9884197581294,-13.421320042860367],[-72.98749659066979,-13.421312673922882]]]}}]}