{"type":"FeatureCollection","features":[{"type":"Feature","properties":{"Cell_ID":1,"Area_ha":1.0,"LC":"9:0.034689,16:0.135249,17:0.655762","XMIN":719094.86160847,"YMIN":8518944.888332034,"XMAX":719194.86160847,"YMAX":8519044.888332034},"geometry":{"type":"Polygon","coordinates":[[[-72.97585716055663,-13.389034801005225],[-72.97586471448055,-13.388131124324204],[-72.9767877486984,-13.388138517876415],[-72.97678019821343,-13.38904219507443],[-72.97585716055663,-13.389034801005225]]]}},{"type":"Feature","properties":{"Cell_ID":2,"Area_ha":1.0,"LC":"9:0.084203,13:0.750950,16:0.041385,18:0.123463","XMIN":719194.86160847,"YMIN":8518844.888332034,"XMAX":719294.86160847,"YMAX":8518944.888332034},"geometry":{"type":"Polygon","coordinates":[[[-72.97492656553669,-13.389931079663938],[-72.97493412345673,-13.389027403568837],[-72.97585716055663,-13.389034801005225],[-72.9758496060758,-13.38993847761755],[-72.97492656553669,-13.389931079663938]]]}},{"type":"Feature","properties":{"Cell_ID":3,"Area_ha":1.0,"LC":"16:0.294743,18:0.615909","XMIN":719294.86160847,"YMIN":8518844.888332034,"XMAX":719394.86160847,"YMAX":8518944.888332034},"geometry":{"type":"Polygon","coordinates":[[[-72.97400352555476,-13.389923678342912],[-72.974011086914,-13.389020002765276],[-72.97493412345673,-13.389027403568837],[-72.97492656553669,-13.389931079663938],[-72.97400352555476,-13.389923678342912]]]}},{"type":"Feature","properties":{"Cell_ID":4,"Area_ha":1.0,"LC":"13:0.134734,16:0.865266","XMIN":719294.86160847,"YMIN":8518744.888332034,"XMAX":719394.86160847,"YMAX":8518844.888332034},"geometry":{"type":"Polygon","coordinates":[[[-72.97399596363809,-13.390827353851844],[-72.97400352555476,-13.389923678342912],[-72.97492656553669,-13.389931079663938],[-72.97491900705948,-13.390834755690339],[-72.97399596363809,-13.390827353851844]]]}},{"type":"Feature","properties":{"Cell_ID":5,"Area_ha":1.0,"LC":"5:0.241939,13:0.134367,16:0.623694","XMIN":719394.86160847,"YMIN":8518744.888332034,"XMAX":719494.86160847,"YMAX":8518844.888332034},"geometry":{"type":"Polygon","coordinates":[[[-72.97307292077416,-13.390819948645717],[-72.97308048613026,-13.389916273654489],[-72.97400352555476,-13.389923678342912],[-72.97399596363809,-13.390827353851844],[-72.97307292077416,-13.390819948645717]]]}},{"type":"Feature","properties":{"Cell_ID":6,"Area_ha":1.0,"LC":"7:0.055752,13:0.379401,16:0.564847","XMIN":719394.86160847,"YMIN":8518644.888332034,"XMAX":719494.86160847,"YMAX":8518744.888332034},"geometry":{"type":"Polygon","coordinates":[[[-72.97306535486035,-13.391723623568238],[-72.97307292077416,-13.390819948645717],[-72.97399596363809,-13.390827353851844],[-72.973988401164,-13.391731029292076],[-72.97306535486035,-13.391723623568238]]]}},{"type":"Feature","properties":{"Cell_ID":7,"Area_ha":1.0,"LC":"5:0.547993,13:0.127111,16:0.263897","XMIN":719494.86160847,"YMIN":8518744.888332034,"XMAX":719594.86160847,"YMAX":8518844.888332034},"geometry":{"type":"Polygon","coordinates":[[[-72.97214987846789,-13.390812540071963],[-72.97215744726344,-13.389908865598672],[-72.97308048613026,-13.389916273654489],[-72.97307292077416,-13.390819948645717],[-72.97214987846789,-13.390812540071963]]]}},{"type":"Feature","properties":{"Cell_ID":8,"Area_ha":1.0,"LC":"5:0.292976,13:0.100461,16:0.606563","XMIN":719494.86160847,"YMIN":8518644.888332034,"XMAX":719594.86160847,"YMAX":8518744.888332034},"geometry":{"type":"Polygon","coordinates":[[[-72.9721423091144,-13.391716214476544],[-72.97214987846789,-13.390812540071963],[-72.97307292077416,-13.390819948645717],[-72.97306535486035,-13.391723623568238],[-72.9721423091144,-13.391716214476544]]]}},{"type":"Feature","properties":{"Cell_ID":9,"Area_ha":1.0,"LC":"13:0.144802,16:0.855198","XMIN":719494.86160847,"YMIN":8518544.888332034,"XMAX":719594.86160847,"YMAX":8518644.888332034},"geometry":{"type":"Polygon","coordinates":[[[-72.97213473920297,-13.3926198888124],[-72.9721423091144,-13.391716214476544],[-72.97306535486035,-13.391723623568238],[-72.97305778838886,-13.392627298422044],[-72.97213473920297,-13.3926198888124]]]}},{"type":"Feature","properties":{"Cell_ID":10,"Area_ha":1.0,"LC":"5:0.529562,9:0.196122,13:0.000554,16:0.273761","XMIN":719494.86160847,"YMIN":8518444.888332034,"XMAX":719594.86160847,"YMAX":8518544.888332034},"geometry":{"type":"Polygon","coordinates":[[[-72.97212716873356,-13.393523563079539],[-72.97213473920297,-13.3926198888124],[-72.97305778838886,-13.392627298422044],[-72.97305022135964,-13.393530973207135],[-72.97212716873356,-13.393523563079539]]]}},{"type":"Feature","properties":{"Cell_ID":11,"Area_ha":1.0,"LC":"5:0.825217,9:0.174783","XMIN":719494.86160847,"YMIN":8518344.888332034,"XMAX":719594.86160847,"YMAX":8518444.888332034},"geometry":{"type":"Polygon","coordinates":[[[-72.9721195977062,-13.394427237277952],[-72.97212716873356,-13.393523563079539],[-72.97305022135964,-13.393530973207135],[-72.97304265377272,-13.394434647923498],[-72.9721195977062,-13.394427237277952]]]}},{"type":"Feature","properties":{"Cell_ID":12,"Area_ha":1.0,"LC":"5:0.092007,6:0.016722,9:0.338431,13:0.552841","XMIN":719494.86160847,"YMIN":8518244.888332034,"XMAX":719594.86160847,"YMAX":8518344.888332034},"geometry":{"type":"Polygon","coordinates":[[[-72.97211202612085,-13.395330911407633],[-72.9721195977062,-13.394427237277952],[-72.97304265377272,-13.394434647923498],[-72.97303508562807,-13.395338322571138],[-72.97211202612085,-13.395330911407633]]]}},{"type":"Feature","properties":{"Cell_ID":13,"Area_ha":1.0,"LC":"6:0.300370,9:0.403330,13:0.296300","XMIN":719494.86160847,"YMIN":8518144.888332034,"XMAX":719594.86160847,"YMAX":8518244.888332034},"geometry":{"type":"Polygon","coordinates":[[[-72.97210445397751,-13.396234585468582],[-72.97211202612085,-13.395330911407633],[-72.97303508562807,-13.395338322571138],[-72.97302751692568,-13.396241997150046],[-72.97210445397751,-13.396234585468582]]]}},{"type":"Feature","properties":{"Cell_ID":14,"Area_ha":1.0,"LC":"5:0.090441,13:0.578900,16:0.016204","XMIN":719594.86160847,"YMIN":8518744.888332034,"XMAX":719694.86160847,"YMAX":8518844.888332034},"geometry":{"type":"Polygon","coordinates":[[[-72.97122683671958,-13.390805128130594],[-72.97123440895454,-13.389901454175478],[-72.97215744726344,-13.389908865598672],[-72.97214987846789,-13.390812540071963],[-72.97122683671958,-13.390805128130594]]]}},{"type":"Feature","properties":{"Cell_ID":15,"Area_ha":1.0,"LC":"5:0.666187,13:0.333813","XMIN":719594.86160847,"YMIN":8518644.888332034,"XMAX":719694.86160847,"YMAX":8518744.888332034},"geometry":{"type":"Polygon","coordinates":[[[-72.97121926392641,-13.391708802016995],[-72.97122683671958,-13.390805128130594],[-72.97214987846789,-13.390812540071963],[-72.9721423091144,-13.391716214476544],[-72.97121926392641,-13.391708802016995]]]}},{"type":"Feature","properties":{"Cell_ID":16,"Area_ha":1.0,"LC":"5:0.207250,13:0.675659,16:0.117092","XMIN":719594.86160847,"YMIN":8518544.888332034,"XMAX":719694.86160847,"YMAX":8518644.888332034},"geometry":{"type":"Polygon","coordinates":[[[-72.97121169057505,-13.392612475834673],[-72.97121926392641,-13.391708802016995],[-72.9721423091144,-13.391716214476544],[-72.97213473920297,-13.3926198888124],[-72.97121169057505,-13.392612475834673]]]}},{"type":"Feature","properties":{"Cell_ID":17,"Area_ha":1.0,"LC":"5:0.349981,13:0.509559,16:0.140461","XMIN":719594.86160847,"YMIN":8518444.888332034,"XMAX":719694.86160847,"YMAX":8518544.888332034},"geometry":{"type":"Polygon","coordinates":[[[-72.97120411666546,-13.393516149583624],[-72.97121169057505,-13.392612475834673],[-72.97213473920297,-13.3926198888124],[-72.97212716873356,-13.393523563079539],[-72.97120411666546,-13.393516149583624]]]}},{"type":"Feature","properties":{"Cell_ID":18,"Area_ha":1.0,"LC":"5:0.298016,13:0.678567,16:0.023417","XMIN":719594.86160847,"YMIN":8518344.888332034,"XMAX":719694.86160847,"YMAX":8518444.888332034},"geometry":{"type":"Polygon","coordinates":[[[-72.97119654219766,-13.394419823263847],[-72.97120411666546,-13.393516149583624],[-72.97212716873356,-13.393523563079539],[-72.9721195977062,-13.394427237277952],[-72.97119654219766,-13.394419823263847]]]}},{"type":"Feature","properties":{"Cell_ID":19,"Area_ha":1.0,"LC":"5:0.099907,13:0.900093","XMIN":719594.86160847,"YMIN":8518244.888332034,"XMAX":719694.86160847,"YMAX":8518344.888332034},"geometry":{"type":"Polygon","coordinates":[[[-72.97118896717161,-13.395323496875337],[-72.97119654219766,-13.394419823263847],[-72.9721195977062,-13.394427237277952],[-72.97211202612085,-13.395330911407633],[-72.97118896717161,-13.395323496875337]]]}},{"type":"Feature","properties":{"Cell_ID":20,"Area_ha":1.0,"LC":"5:0.541984,13:0.458016","XMIN":719594.86160847,"YMIN":8518144.888332034,"XMAX":719694.86160847,"YMAX":8518244.888332034},"geometry":{"type":"Polygon","coordinates":[[[-72.97118139158732,-13.396227170418086],[-72.97118896717161,-13.395323496875337],[-72.97211202612085,-13.395330911407633],[-72.97210445397751,-13.396234585468582],[-72.97118139158732,-13.396227170418086]]]}},{"type":"Feature","properties":{"Cell_ID":21,"Area_ha":1.0,"LC":"5:0.757736,13:0.242264","XMIN":719594.86160847,"YMIN":8518044.888332034,"XMAX":719694.86160847,"YMAX":8518144.888332034},"geometry":{"type":"Polygon","coordinates":[[[-72.97117381544479,-13.397130843892091],[-72.97118139158732,-13.396227170418086],[-72.97210445397751,-13.396234585468582],[-72.97209688127616,-13.397138259460787],[-72.97117381544479,-13.397130843892091]]]}},{"type":"Feature","properties":{"Cell_ID":22,"Area_ha":1.0,"LC":"5:0.942863,6:0.057137","XMIN":719594.86160847,"YMIN":8517944.888332034,"XMAX":719694.86160847,"YMAX":8518044.888332034},"geometry":{"type":"Polygon","coordinates":[[[-72.97116623874396,-13.39803451729735],[-72.97117381544479,-13.397130843892091],[-72.97209688127616,-13.397138259460787],[-72.97208930801679,-13.39804193338425],[-72.97116623874396,-13.39803451729735]]]}},{"type":"Feature","properties":{"Cell_ID":23,"Area_ha":1.0,"LC":"5:0.236898,9:0.001939,13:0.448739,17:0.000201","XMIN":719694.86160847,"YMIN":8518744.888332034,"XMAX":719794.86160847,"YMAX":8518844.888332034},"geometry":{"type":"Polygon","coordinates":[[[-72.97030379552945,-13.39079771282162],[-72.97031137120383,-13.389894039384911],[-72.97123440895454,-13.389901454175478],[-72.97122683671958,-13.390805128130594],[-72.97030379552945,-13.39079771282162]]]}},{"type":"Feature","properties":{"Cell_ID":24,"Area_ha":1.0,"LC":"5:0.974644,13:0.025356","XMIN":719694.86160847,"YMIN":8518644.888332034,"XMAX":719794.86160847,"YMAX":8518744.888332034},"geometry":{"type":"Polygon","coordinates":[[[-72.97029621929663,-13.391701386189606],[-72.97030379552945,-13.39079771282162],[-72.97122683671958,-13.390805128130594],[-72.97121926392641,-13.391708802016995],[-72.97029621929663,-13.391701386189606]]]}},{"type":"Feature","properties":{"Cell_ID":25,"Area_ha":1.0,"LC":"5:0.756254,13:0.133813,16:0.109932","XMIN":719694.86160847,"YMIN":8518544.888332034,"XMAX":719794.86160847,"YMAX":8518644.888332034},"geometry":{"type":"Polygon","coordinates":[[[-72.97028864250534,-13.392605059488867],[-72.97029621929663,-13.391701386189606],[-72.97121926392641,-13.391708802016995],[-72.97121169057505,-13.392612475834673],[-72.97028864250534,-13.392605059488867]]]}},{"type":"Feature","properties":{"Cell_ID":26,"Area_ha":1.0,"LC":"5:0.082908,13:0.119861,16:0.797230","XMIN":719694.86160847,"YMIN":8518444.888332034,"XMAX":719794.86160847,"YMAX":8518544.888332034},"geometry":{"type":"Polygon","coordinates":[[[-72.97028106515558,-13.393508732719399],[-72.97028864250534,-13.392605059488867],[-72.97121169057505,-13.392612475834673],[-72.97120411666546,-13.393516149583624],[-72.97028106515558,-13.393508732719399]]]}},{"type":"Feature","properties":{"Cell_ID":27,"Area_ha":1.0,"LC":"13:0.669102,16:0.330898","XMIN":719694.86160847,"YMIN":8518344.888332034,"XMAX":719794.86160847,"YMAX":8518444.888332034},"geometry":{"type":"Polygon","coordinates":[[[-72.97027348724734,-13.394412405881194],[-72.97028106515558,-13.393508732719399],[-72.97120411666546,-13.393516149583624],[-72.97119654219766,-13.394419823263847],[-72.97027348724734,-13.394412405881194]]]}},{"type":"Feature","properties":{"Cell_ID":28,"Area_ha":1.0,"LC":"5:0.448087,13:0.551913","XMIN":719694.86160847,"YMIN":8518244.888332034,"XMAX":719794.86160847,"YMAX":8518344.888332034},"geometry":{"type":"Polygon","coordinates":[[[-72.97026590878062,-13.395316078974258],[-72.97027348724734,-13.394412405881194],[-72.97119654219766,-13.394419823263847],[-72.97118896717161,-13.395323496875337],[-72.97026590878062,-13.395316078974258]]]}},{"type":"Feature","properties":{"Cell_ID":29,"Area_ha":1.0,"LC":"5:0.872750,13:0.127250","XMIN":719694.86160847,"YMIN":8518144.888332034,"XMAX":719794.86160847,"YMAX":8518244.888332034},"geometry":{"type":"Polygon","coordinates":[[[-72.9702583297554,-13.39621975199857],[-72.97026590878062,-13.395316078974258],[-72.97118896717161,-13.395323496875337],[-72.97118139158732,-13.396227170418086],[-72.9702583297554,-13.39621975199857]]]}},{"type":"Feature","properties":{"Cell_ID":30,"Area_ha":1.0,"LC":"5:1.000000","XMIN":719694.86160847,"YMIN":8518044.888332034,"XMAX":719794.86160847,"YMAX":8518144.888332034},"geometry":{"type":"Polygon","coordinates":[[[-72.97025075017167,-13.397123424954142],[-72.9702583297554,-13.39621975199857],[-72.97118139158732,-13.396227170418086],[-72.97117381544479,-13.397130843892091],[-72.97025075017167,-13.397123424954142]]]}},{"type":"Feature","properties":{"Cell_ID":31,"Area_ha":1.0,"LC":"5:0.939539,6:0.059491,9:0.000969","XMIN":719694.86160847,"YMIN":8517944.888332034,"XMAX":719794.86160847,"YMAX":8518044.888332034},"geometry":{"type":"Polygon","coordinates":[[[-72.9702431700294,-13.398027097840957],[-72.97025075017167,-13.397123424954142],[-72.97117381544479,-13.397130843892091],[-72.97116623874396,-13.39803451729735],[-72.9702431700294,-13.398027097840957]]]}},{"type":"Feature","properties":{"Cell_ID":32,"Area_ha":1.0,"LC":"5:0.364203,6:0.187295,13:0.448502","XMIN":719694.86160847,"YMIN":8517844.888332034,"XMAX":719794.86160847,"YMAX":8517944.888332034},"geometry":{"type":"Polygon","coordinates":[[[-72.97023558932864,-13.398930770659023],[-72.9702431700294,-13.398027097840957],[-72.97116623874396,-13.39803451729735],[-72.97115866148488,-13.398938190633856],[-72.97023558932864,-13.398930770659023]]]}},{"type":"Feature","properties":{"Cell_ID":33,"Area_ha":1.0,"LC":"9:0.480000,13:0.095752,16:0.109932,17:0.114754","XMIN":719794.86160847,"YMIN":8518744.888332034,"XMAX":719894.86160847,"YMAX":8518844.888332034},"geometry":{"type":"Polygon","coordinates":[[[-72.96938075489778,-13.390790294145049],[-72.96938833401155,-13.389886621226987],[-72.97031137120383,-13.389894039384911],[-72.97030379552945,-13.39079771282162],[-72.96938075489778,-13.390790294145049]]]}},{"type":"Feature","properties":{"Cell_ID":34,"Area_ha":1.0,"LC":"5:0.306193,13:0.601800,16:0.092007","XMIN":719794.86160847,"YMIN":8518644.888332034,"XMAX":719894.86160847,"YMAX":8518744.888332034},"geometry":{"type":"Polygon","coordinates":[[[-72.9693731752253,-13.391693966994383],[-72.96938075489778,-13.390790294145049],[-72.97030379552945,-13.39079771282162],[-72.97029621929663,-13.391701386189606],[-72.9693731752253,-13.391693966994383]]]}},{"type":"Feature","properties":{"Cell_ID":35,"Area_ha":1.0,"LC":"5:0.637922,13:0.306326,16:0.055752","XMIN":719794.86160847,"YMIN":8518544.888332034,"XMAX":719894.86160847,"YMAX":8518644.888332034},"geometry":{"type":"Polygon","coordinates":[[[-72.9693655949941,-13.39259763977499],[-72.9693731752253,-13.391693966994383],[-72.97029621929663,-13.391701386189606],[-72.97028864250534,-13.392605059488867],[-72.9693655949941,-13.39259763977499]]]}},{"type":"Feature","properties":{"Cell_ID":36,"Area_ha":1.0,"LC":"5:0.864802,13:0.112889,16:0.022309","XMIN":719794.86160847,"YMIN":8518444.888332034,"XMAX":719894.86160847,"YMAX":8518544.888332034},"geometry":{"type":"Polygon","coordinates":[[[-72.96935801420418,-13.393501312486865],[-72.9693655949941,-13.39259763977499],[-72.97028864250534,-13.392605059488867],[-72.97028106515558,-13.393508732719399],[-72.96935801420418,-13.393501312486865]]]}},{"type":"Feature","properties":{"Cell_ID":37,"Area_ha":1.0,"LC":"5:0.547710,9:0.074274,13:0.378016","XMIN":719794.86160847,"YMIN":8518344.888332034,"XMAX":719894.86160847,"YMAX":8518444.888332034},"geometry":{"type":"Polygon","coordinates":[[[-72.96935043285553,-13.394404985130004],[-72.96935801420418,-13.393501312486865],[-72.97028106515558,-13.393508732719399],[-72.97027348724734,-13.394412405881194],[-72.96935043285553,-13.394404985130004]]]}},{"type":"Feature","properties":{"Cell_ID":38,"Area_ha":1.0,"LC":"5:0.128219,9:0.345217,13:0.526563","XMIN":719794.86160847,"YMIN":8518244.888332034,"XMAX":719894.86160847,"YMAX":8518344.888332034},"geometry":{"type":"Polygon","coordinates":[[[-72.96934285094812,-13.395308657704398],[-72.96935043285553,-13.394404985130004],[-72.97027348724734,-13.394412405881194],[-72.97026590878062,-13.395316078974258],[-72.96934285094812,-13.395308657704398]]]}},{"type":"Feature","properties":{"Cell_ID":39,"Area_ha":1.0,"LC":"5:0.265224,9:0.123878,13:0.610898","XMIN":719794.86160847,"YMIN":8518144.888332034,"XMAX":719894.86160847,"YMAX":8518244.888332034},"geometry":{"type":"Polygon","coordinates":[[[-72.96933526848198,-13.396212330210052],[-72.96934285094812,-13.395308657704398],[-72.97026590878062,-13.395316078974258],[-72.9702583297554,-13.39621975199857],[-72.96933526848198,-13.396212330210052]]]}},{"type":"Feature","properties":{"Cell_ID":40,"Area_ha":1.0,"LC":"5:0.498431,9:0.501569","XMIN":719794.86160847,"YMIN":8518044.888332034,"XMAX":719894.86160847,"YMAX":8518144.888332034},"geometry":{"type":"Polygon","coordinates":[[[-72.96932768545707,-13.397116002646948],[-72.96933526848198,-13.396212330210052],[-72.9702583297554,-13.39621975199857],[-72.97025075017167,-13.397123424954142],[-72.96932768545707,-13.397116002646948]]]}},{"type":"Feature","properties":{"Cell_ID":41,"Area_ha":1.0,"LC":"5:0.500461,6:0.094783,9:0.404757","XMIN":719794.86160847,"YMIN":8517944.888332034,"XMAX":719894.86160847,"YMAX":8518044.888332034},"geometry":{"type":"Polygon","coordinates":[[[-72.9693201018734,-13.39801967501509],[-72.96932768545707,-13.397116002646948],[-72.97025075017167,-13.397123424954142],[-72.9702431700294,-13.398027097840957],[-72.9693201018734,-13.39801967501509]]]}},{"type":"Feature","properties":{"Cell_ID":42,"Area_ha":1.0,"LC":"5:0.753437,6:0.178431,13:0.068132","XMIN":719794.86160847,"YMIN":8517844.888332034,"XMAX":719894.86160847,"YMAX":8517944.888332034},"geometry":{"type":"Polygon","coordinates":[[[-72.96931251773093,-13.398923347314476],[-72.9693201018734,-13.39801967501509],[-72.9702431700294,-13.398027097840957],[-72.97023558932864,-13.398930770659023],[-72.96931251773093,-13.398923347314476]]]}},{"type":"Feature","properties":{"Cell_ID":43,"Area_ha":1.0,"LC":"5:0.423417,13:0.576583","XMIN":719794.86160847,"YMIN":8517744.888332034,"XMAX":719894.86160847,"YMAX":8517844.888332034},"geometry":{"type":"Polygon","coordinates":[[[-72.96930493302968,-13.3998270195451],[-72.96931251773093,-13.398923347314476],[-72.97023558932864,-13.398930770659023],[-72.97022800806933,-13.399834443408329],[-72.96930493302968,-13.3998270195451]]]}},{"type":"Feature","properties":{"Cell_ID":44,"Area_ha":1.0,"LC":"13:1.000000","XMIN":719794.86160847,"YMIN":8517644.888332034,"XMAX":719894.86160847,"YMAX":8517744.888332034},"geometry":{"type":"Polygon","coordinates":[[[-72.96929734776963,-13.40073069170695],[-72.96930493302968,-13.3998270195451],[-72.97022800806933,-13.399834443408329],[-72.97022042625144,-13.400738116088867],[-72.96929734776963,-13.40073069170695]]]}},{"type":"Feature","properties":{"Cell_ID":45,"Area_ha":1.0,"LC":"5:0.000415,13:0.999585","XMIN":719794.86160847,"YMIN":8517544.888332034,"XMAX":719894.86160847,"YMAX":8517644.888332034},"geometry":{"type":"Polygon","coordinates":[[[-72.96928976195075,-13.40163436380003],[-72.96929734776963,-13.40073069170695],[-72.97022042625144,-13.400738116088867],[-72.97021284387502,-13.401641788700637],[-72.96928976195075,-13.40163436380003]]]}},{"type":"Feature","properties":{"Cell_ID":46,"Area_ha":1.0,"LC":"5:0.431595,13:0.568405","XMIN":719794.86160847,"YMIN":8517444.888332034,"XMAX":719894.86160847,"YMAX":8517544.888332034},"geometry":{"type":"Polygon","coordinates":[[[-72.96928217557304,-13.402538035824337],[-72.96928976195075,-13.40163436380003],[-72.97021284387502,-13.401641788700637],[-72.97020526094003,-13.402545461243637],[-72.96928217557304,-13.402538035824337]]]}},{"type":"Feature","properties":{"Cell_ID":47,"Area_ha":1.0,"LC":"5:0.653674,13:0.346326","XMIN":719794.86160847,"YMIN":8517344.888332034,"XMAX":719894.86160847,"YMAX":8517444.888332034},"geometry":{"type":"Polygon","coordinates":[[[-72.96927458863652,-13.403441707779859],[-72.96928217557304,-13.402538035824337],[-72.97020526094003,-13.402545461243637],[-72.97019767744646,-13.403449133717857],[-72.96927458863652,-13.403441707779859]]]}},{"type":"Feature","properties":{"Cell_ID":48,"Area_ha":1.0,"LC":"5:0.944248,7:0.055752","XMIN":719794.86160847,"YMIN":8517244.888332034,"XMAX":719894.86160847,"YMAX":8517344.888332034},"geometry":{"type":"Polygon","coordinates":[[[-72.96926700114116,-13.4043453796666],[-72.96927458863652,-13.403441707779859],[-72.97019767744646,-13.403449133717857],[-72.9701900933943,-13.404352806123295],[-72.96926700114116,-13.4043453796666]]]}},{"type":"Feature","properties":{"Cell_ID":49,"Area_ha":1.0,"LC":"5:0.821569,6:0.156122,7:0.022309","XMIN":719794.86160847,"YMIN":8517144.888332034,"XMAX":719894.86160847,"YMAX":8517244.888332034},"geometry":{"type":"Polygon","coordinates":[[[-72.96925941308695,-13.405249051484544],[-72.96926700114116,-13.4043453796666],[-72.9701900933943,-13.404352806123295],[-72.97018250878354,-13.405256478459949],[-72.96925941308695,-13.405249051484544]]]}},{"type":"Feature","properties":{"Cell_ID":50,"Area_ha":1.0,"LC":"5:0.966142,13:0.033858","XMIN":719794.86160847,"YMIN":8517044.888332034,"XMAX":719894.86160847,"YMAX":8517144.888332034},"geometry":{"type":"Polygon","coordinates":[[[-72.96925182447386,-13.406152723233697],[-72.96925941308695,-13.405249051484544],[-72.97018250878354,-13.405256478459949],[-72.97017492361417,-13.406160150727809],[-72.96925182447386,-13.406152723233697]]]}},{"type":"Feature","properties":{"Cell_ID":51,"Area_ha":1.0,"LC":"5:0.113021,13:0.886979","XMIN":719794.86160847,"YMIN":8516944.888332034,"XMAX":719894.86160847,"YMAX":8517044.888332034},"geometry":{"type":"Polygon","coordinates":[[[-72.9692442353019,-13.407056394914054],[-72.96925182447386,-13.406152723233697],[-72.97017492361417,-13.406160150727809],[-72.97016733788618,-13.407063822926881],[-72.9692442353019,-13.407056394914054]]]}},{"type":"Feature","properties":{"Cell_ID":52,"Area_ha":1.0,"LC":"9:0.417552,16:0.389102,17:0.130423","XMIN":719894.86160847,"YMIN":8518744.888332034,"XMAX":719994.86160847,"YMAX":8518844.888332034},"geometry":{"type":"Polygon","coordinates":[[[-72.96845771482481,-13.390782872100887],[-72.96846529737799,-13.389879199701701],[-72.96938833401155,-13.389886621226987],[-72.96938075489778,-13.390790294145049],[-72.96845771482481,-13.390782872100887]]]}},{"type":"Feature","properties":{"Cell_ID":53,"Area_ha":1.0,"LC":"5:0.252796,9:0.064387,13:0.349981,16:0.332837","XMIN":719894.86160847,"YMIN":8518644.888332034,"XMAX":719994.86160847,"YMAX":8518744.888332034},"geometry":{"type":"Polygon","coordinates":[[[-72.96845013171269,-13.39168654443134],[-72.96845771482481,-13.390782872100887],[-72.96938075489778,-13.390790294145049],[-72.9693731752253,-13.391693966994383],[-72.96845013171269,-13.39168654443134]]]}},{"type":"Feature","properties":{"Cell_ID":54,"Area_ha":1.0,"LC":"5:0.837736,13:0.162264","XMIN":719894.86160847,"YMIN":8518544.888332034,"XMAX":719994.86160847,"YMAX":8518644.888332034},"geometry":{"type":"Polygon","coordinates":[[[-72.96844254804158,-13.392590216693058],[-72.96845013171269,-13.39168654443134],[-72.9693731752253,-13.391693966994383],[-72.9693655949941,-13.39259763977499],[-72.96844254804158,-13.392590216693058]]]}},{"type":"Feature","properties":{"Cell_ID":55,"Area_ha":1.0,"LC":"5:0.997646,16:0.002354","XMIN":719894.86160847,"YMIN":8518444.888332034,"XMAX":719994.86160847,"YMAX":8518544.888332034},"geometry":{"type":"Polygon","coordinates":[[[-72.9684349638115,-13.393493888886043],[-72.96844254804158,-13.392590216693058],[-72.9693655949941,-13.39259763977499],[-72.96935801420418,-13.393501312486865],[-72.9684349638115,-13.393493888886043]]]}},{"type":"Feature","properties":{"Cell_ID":56,"Area_ha":1.0,"LC":"5:0.406605,9:0.098522,13:0.491411,16:0.003463","XMIN":719894.86160847,"YMIN":8518344.888332034,"XMAX":719994.86160847,"YMAX":8518444.888332034},"geometry":{"type":"Polygon","coordinates":[[[-72.96842737902244,-13.394397561010283],[-72.9684349638115,-13.393493888886043],[-72.96935801420418,-13.393501312486865],[-72.96935043285553,-13.394404985130004],[-72.96842737902244,-13.394397561010283]]]}},{"type":"Feature","properties":{"Cell_ID":57,"Area_ha":1.0,"LC":"5:0.100370,9:0.751041,13:0.148589","XMIN":719894.86160847,"YMIN":8518244.888332034,"XMAX":719994.86160847,"YMAX":8518344.888332034},"geometry":{"type":"Polygon","coordinates":[[[-72.96841979367439,-13.39530123306578],[-72.96842737902244,-13.394397561010283],[-72.96935043285553,-13.394404985130004],[-72.96934285094812,-13.395308657704398],[-72.96841979367439,-13.39530123306578]]]}},{"type":"Feature","properties":{"Cell_ID":58,"Area_ha":1.0,"LC":"5:0.270902,9:0.690068,13:0.039031","XMIN":719894.86160847,"YMIN":8518144.888332034,"XMAX":719994.86160847,"YMAX":8518244.888332034},"geometry":{"type":"Polygon","coordinates":[[[-72.96841220776734,-13.396204905052526],[-72.96841979367439,-13.39530123306578],[-72.96934285094812,-13.395308657704398],[-72.96933526848198,-13.396212330210052],[-72.96841220776734,-13.396204905052526]]]}},{"type":"Feature","properties":{"Cell_ID":59,"Area_ha":1.0,"LC":"5:0.623971,9:0.376029","XMIN":719894.86160847,"YMIN":8518044.888332034,"XMAX":719994.86160847,"YMAX":8518144.888332034},"geometry":{"type":"Polygon","coordinates":[[[-72.96840462130126,-13.39710857697052],[-72.96841220776734,-13.396204905052526],[-72.96933526848198,-13.396212330210052],[-72.96932768545707,-13.397116002646948],[-72.96840462130126,-13.39710857697052]]]}},{"type":"Feature","properties":{"Cell_ID":60,"Area_ha":1.0,"LC":"5:0.952750,9:0.047250","XMIN":719894.86160847,"YMIN":8517944.888332034,"XMAX":719994.86160847,"YMAX":8518044.888332034},"geometry":{"type":"Polygon","coordinates":[[[-72.96839703427615,-13.39801224881975],[-72.96840462130126,-13.39710857697052],[-72.96932768545707,-13.397116002646948],[-72.9693201018734,-13.39801967501509],[-72.96839703427615,-13.39801224881975]]]}},{"type":"Feature","properties":{"Cell_ID":61,"Area_ha":1.0,"LC":"5:1.000000","XMIN":719894.86160847,"YMIN":8517844.888332034,"XMAX":719994.86160847,"YMAX":8517944.888332034},"geometry":{"type":"Polygon","coordinates":[[[-72.96838944669202,-13.398915920600224],[-72.96839703427615,-13.39801224881975],[-72.9693201018734,-13.39801967501509],[-72.96931251773093,-13.398923347314476],[-72.96838944669202,-13.398915920600224]]]}},{"type":"Feature","properties":{"Cell_ID":62,"Area_ha":1.0,"LC":"5:0.317639,13:0.682361","XMIN":719894.86160847,"YMIN":8517744.888332034,"XMAX":719994.86160847,"YMAX":8517844.888332034},"geometry":{"type":"Polygon","coordinates":[[[-72.96838185854882,-13.399819592311925],[-72.96838944669202,-13.398915920600224],[-72.96931251773093,-13.398923347314476],[-72.96930493302968,-13.3998270195451],[-72.96838185854882,-13.399819592311925]]]}},{"type":"Feature","properties":{"Cell_ID":63,"Area_ha":1.0,"LC":"5:0.159121,13:0.840879","XMIN":719894.86160847,"YMIN":8517644.888332034,"XMAX":719994.86160847,"YMAX":8517744.888332034},"geometry":{"type":"Polygon","coordinates":[[[-72.96837426984659,-13.400723263954857],[-72.96838185854882,-13.399819592311925],[-72.96930493302968,-13.3998270195451],[-72.96929734776963,-13.40073069170695],[-72.96837426984659,-13.400723263954857]]]}},{"type":"Feature","properties":{"Cell_ID":64,"Area_ha":1.0,"LC":"5:0.615843,13:0.384157","XMIN":719894.86160847,"YMIN":8517544.888332034,"XMAX":719994.86160847,"YMAX":8517644.888332034},"geometry":{"type":"Polygon","coordinates":[[[-72.96836668058529,-13.401626935529013],[-72.96837426984659,-13.400723263954857],[-72.96929734776963,-13.40073069170695],[-72.96928976195075,-13.40163436380003],[-72.96836668058529,-13.401626935529013]]]}},{"type":"Feature","properties":{"Cell_ID":65,"Area_ha":1.0,"LC":"5:0.964757,13:0.035243","XMIN":719894.86160847,"YMIN":8517444.888332034,"XMAX":719994.86160847,"YMAX":8517544.888332034},"geometry":{"type":"Polygon","coordinates":[[[-72.9683590907649,-13.402530607034386],[-72.96836668058529,-13.401626935529013],[-72.96928976195075,-13.40163436380003],[-72.96928217557304,-13.402538035824337],[-72.9683590907649,-13.402530607034386]]]}},{"type":"Feature","properties":{"Cell_ID":66,"Area_ha":1.0,"LC":"5:0.757182,13:0.242818","XMIN":719894.86160847,"YMIN":8517344.888332034,"XMAX":719994.86160847,"YMAX":8517444.888332034},"geometry":{"type":"Polygon","coordinates":[[[-72.96835150038542,-13.403434278470977],[-72.9683590907649,-13.402530607034386],[-72.96928217557304,-13.402538035824337],[-72.96927458863652,-13.403441707779859],[-72.96835150038542,-13.403434278470977]]]}},{"type":"Feature","properties":{"Cell_ID":67,"Area_ha":1.0,"LC":"5:0.998615,9:0.001385","XMIN":719894.86160847,"YMIN":8517244.888332034,"XMAX":719994.86160847,"YMAX":8517344.888332034},"geometry":{"type":"Polygon","coordinates":[[[-72.96834390944687,-13.404337949838778],[-72.96835150038542,-13.403434278470977],[-72.96927458863652,-13.403441707779859],[-72.96926700114116,-13.4043453796666],[-72.96834390944687,-13.404337949838778]]]}},{"type":"Feature","properties":{"Cell_ID":68,"Area_ha":1.0,"LC":"5:0.917507,9:0.082493","XMIN":719894.86160847,"YMIN":8517144.888332034,"XMAX":719994.86160847,"YMAX":8517244.888332034},"geometry":{"type":"Polygon","coordinates":[[[-72.9683363179492,-13.405241621137787],[-72.96834390944687,-13.404337949838778],[-72.96926700114116,-13.4043453796666],[-72.96925941308695,-13.405249051484544],[-72.9683363179492,-13.405241621137787]]]}},{"type":"Feature","properties":{"Cell_ID":69,"Area_ha":1.0,"LC":"9:0.226193,16:0.659491,17:0.113679","XMIN":719994.86160847,"YMIN":8518744.888332034,"XMAX":720094.86160847,"YMAX":8518844.888332034},"geometry":{"type":"Polygon","coordinates":[[[-72.9675346753108,-13.390775446689148],[-72.96754226130336,-13.389871774809082],[-72.96846529737799,-13.389879199701701],[-72.96845771482481,-13.390782872100887],[-72.9675346753108,-13.390775446689148]]]}},{"type":"Feature","properties":{"Cell_ID":70,"Area_ha":1.0,"LC":"5:0.604715,9:0.209929,13:0.002908,16:0.182448","XMIN":719994.86160847,"YMIN":8518644.888332034,"XMAX":720094.86160847,"YMAX":8518744.888332034},"geometry":{"type":"Polygon","coordinates":[[[-72.96752708875904,-13.39167911850048],[-72.9675346753108,-13.390775446689148],[-72.96845771482481,-13.390782872100887],[-72.96845013171269,-13.39168654443134],[-72.96752708875904,-13.39167911850048]]]}},{"type":"Feature","properties":{"Cell_ID":71,"Area_ha":1.0,"LC":"5:0.998615,13:0.001385","XMIN":719994.86160847,"YMIN":8518544.888332034,"XMAX":720094.86160847,"YMAX":8518644.888332034},"geometry":{"type":"Polygon","coordinates":[[[-72.96751950164804,-13.392582790243077],[-72.96752708875904,-13.39167911850048],[-72.96845013171269,-13.39168654443134],[-72.96844254804158,-13.392590216693058],[-72.96751950164804,-13.392582790243077]]]}},{"type":"Feature","properties":{"Cell_ID":72,"Area_ha":1.0,"LC":"5:0.763233,13:0.004847,16:0.231919","XMIN":719994.86160847,"YMIN":8518444.888332034,"XMAX":720094.86160847,"YMAX":8518544.888332034},"geometry":{"type":"Polygon","coordinates":[[[-72.96751191397783,-13.393486461916932],[-72.96751950164804,-13.392582790243077],[-72.96844254804158,-13.392590216693058],[-72.9684349638115,-13.393493888886043],[-72.96751191397783,-13.393486461916932]]]}},{"type":"Feature","properties":{"Cell_ID":73,"Area_ha":1.0,"LC":"5:0.288081,9:0.210026,13:0.219630,16:0.282264","XMIN":719994.86160847,"YMIN":8518344.888332034,"XMAX":720094.86160847,"YMAX":8518444.888332034},"geometry":{"type":"Polygon","coordinates":[[[-72.96750432574837,-13.394390133522045],[-72.96751191397783,-13.393486461916932],[-72.9684349638115,-13.393493888886043],[-72.96842737902244,-13.394397561010283],[-72.96750432574837,-13.394390133522045]]]}},{"type":"Feature","properties":{"Cell_ID":74,"Area_ha":1.0,"LC":"5:0.201524,9:0.774644,13:0.023833","XMIN":719994.86160847,"YMIN":8518244.888332034,"XMAX":720094.86160847,"YMAX":8518344.888332034},"geometry":{"type":"Polygon","coordinates":[[[-72.96749673695966,-13.395293805058405],[-72.96750432574837,-13.394390133522045],[-72.96842737902244,-13.394397561010283],[-72.96841979367439,-13.39530123306578],[-72.96749673695966,-13.395293805058405]]]}},{"type":"Feature","properties":{"Cell_ID":75,"Area_ha":1.0,"LC":"5:0.569056,9:0.430944","XMIN":719994.86160847,"YMIN":8518144.888332034,"XMAX":720094.86160847,"YMAX":8518244.888332034},"geometry":{"type":"Polygon","coordinates":[[[-72.96748914761169,-13.39619747652601],[-72.96749673695966,-13.395293805058405],[-72.96841979367439,-13.39530123306578],[-72.96841220776734,-13.396204905052526],[-72.96748914761169,-13.39619747652601]]]}},{"type":"Feature","properties":{"Cell_ID":76,"Area_ha":1.0,"LC":"5:0.768081,9:0.231919","XMIN":719994.86160847,"YMIN":8518044.888332034,"XMAX":720094.86160847,"YMAX":8518144.888332034},"geometry":{"type":"Polygon","coordinates":[[[-72.96748155770446,-13.397101147924861],[-72.96748914761169,-13.39619747652601],[-72.96841220776734,-13.396204905052526],[-72.96840462130126,-13.39710857697052],[-72.96748155770446,-13.397101147924861]]]}},{"type":"Feature","properties":{"Cell_ID":77,"Area_ha":1.0,"LC":"5:0.488502,9:0.511498","XMIN":719994.86160847,"YMIN":8517944.888332034,"XMAX":720094.86160847,"YMAX":8518044.888332034},"geometry":{"type":"Polygon","coordinates":[[[-72.96747396723795,-13.398004819254949],[-72.96748155770446,-13.397101147924861],[-72.96840462130126,-13.39710857697052],[-72.96839703427615,-13.39801224881975],[-72.96747396723795,-13.398004819254949]]]}},{"type":"Feature","properties":{"Cell_ID":78,"Area_ha":1.0,"LC":"5:1.000000","XMIN":719994.86160847,"YMIN":8517844.888332034,"XMAX":720094.86160847,"YMAX":8517944.888332034},"geometry":{"type":"Polygon","coordinates":[[[-72.96746637621214,-13.39890849051627],[-72.96747396723795,-13.398004819254949],[-72.96839703427615,-13.39801224881975],[-72.96838944669202,-13.398915920600224],[-72.96746637621214,-13.39890849051627]]]}},{"type":"Feature","properties":{"Cell_ID":79,"Area_ha":1.0,"LC":"5:1.000000","XMIN":719994.86160847,"YMIN":8517744.888332034,"XMAX":720094.86160847,"YMAX":8517844.888332034},"geometry":{"type":"Polygon","coordinates":[[[-72.96745878462704,-13.39981216170882],[-72.96746637621214,-13.39890849051627],[-72.96838944669202,-13.398915920600224],[-72.96838185854882,-13.399819592311925],[-72.96745878462704,-13.39981216170882]]]}},{"type":"Feature","properties":{"Cell_ID":80,"Area_ha":1.0,"LC":"5:0.765726,13:0.234274","XMIN":719994.86160847,"YMIN":8517644.888332034,"XMAX":720094.86160847,"YMAX":8517744.888332034},"geometry":{"type":"Polygon","coordinates":[[[-72.96745119248263,-13.400715832832596],[-72.96745878462704,-13.39981216170882],[-72.96838185854882,-13.399819592311925],[-72.96837426984659,-13.400723263954857],[-72.96745119248263,-13.400715832832596]]]}},{"type":"Feature","properties":{"Cell_ID":81,"Area_ha":1.0,"LC":"5:0.754274,13:0.245726","XMIN":719994.86160847,"YMIN":8517544.888332034,"XMAX":720094.86160847,"YMAX":8517644.888332034},"geometry":{"type":"Polygon","coordinates":[[[-72.96744359977889,-13.401619503887588],[-72.96745119248263,-13.400715832832596],[-72.96837426984659,-13.400723263954857],[-72.96836668058529,-13.401626935529013],[-72.96744359977889,-13.401619503887588]]]}},{"type":"Feature","properties":{"Cell_ID":82,"Area_ha":1.0,"LC":"5:0.715700,13:0.284300","XMIN":719994.86160847,"YMIN":8517444.888332034,"XMAX":720094.86160847,"YMAX":8517544.888332034},"geometry":{"type":"Polygon","coordinates":[[[-72.96743600651584,-13.402523174873798],[-72.96744359977889,-13.401619503887588],[-72.96836668058529,-13.401626935529013],[-72.9683590907649,-13.402530607034386],[-72.96743600651584,-13.402523174873798]]]}},{"type":"Feature","properties":{"Cell_ID":83,"Area_ha":1.0,"LC":"5:0.270535,13:0.729465","XMIN":719994.86160847,"YMIN":8517344.888332034,"XMAX":720094.86160847,"YMAX":8517444.888332034},"geometry":{"type":"Polygon","coordinates":[[[-72.96742841269344,-13.403426845791222],[-72.96743600651584,-13.402523174873798],[-72.9683590907649,-13.402530607034386],[-72.96835150038542,-13.403434278470977],[-72.96742841269344,-13.403426845791222]]]}},{"type":"Feature","properties":{"Cell_ID":84,"Area_ha":1.0,"LC":"16:0.909102,17:0.090898","XMIN":720094.86160847,"YMIN":8518744.888332034,"XMAX":720194.86160847,"YMAX":8518844.888332034},"geometry":{"type":"Polygon","coordinates":[[[-72.966611636356,-13.390768017909842],[-72.96661922578792,-13.389864346549128],[-72.96754226130336,-13.389871774809082],[-72.9675346753108,-13.390775446689148],[-72.966611636356,-13.390768017909842]]]}},{"type":"Feature","properties":{"Cell_ID":85,"Area_ha":1.0,"LC":"5:0.034274,13:0.569472,16:0.396254","XMIN":720094.86160847,"YMIN":8518644.888332034,"XMAX":720194.86160847,"YMAX":8518744.888332034},"geometry":{"type":"Polygon","coordinates":[[[-72.9666040463646,-13.391671689201818],[-72.966611636356,-13.390768017909842],[-72.9675346753108,-13.390775446689148],[-72.96752708875904,-13.39167911850048],[-72.9666040463646,-13.391671689201818]]]}},{"type":"Feature","properties":{"Cell_ID":86,"Area_ha":1.0,"LC":"5:0.343833,13:0.656167","XMIN":720094.86160847,"YMIN":8518544.888332034,"XMAX":720194.86160847,"YMAX":8518644.888332034},"geometry":{"type":"Polygon","coordinates":[[[-72.96659645581373,-13.392575360425054],[-72.9666040463646,-13.391671689201818],[-72.96752708875904,-13.39167911850048],[-72.96751950164804,-13.392582790243077],[-72.96659645581373,-13.392575360425054]]]}},{"type":"Feature","properties":{"Cell_ID":87,"Area_ha":1.0,"LC":"5:0.297137,13:0.702863","XMIN":720094.86160847,"YMIN":8518444.888332034,"XMAX":720194.86160847,"YMAX":8518544.888332034},"geometry":{"type":"Polygon","coordinates":[[[-72.96658886470338,-13.393479031579549],[-72.96659645581373,-13.392575360425054],[-72.96751950164804,-13.392582790243077],[-72.96751191397783,-13.393486461916932],[-72.96658886470338,-13.393479031579549]]]}},{"type":"Feature","properties":{"Cell_ID":88,"Area_ha":1.0,"LC":"5:0.690441,13:0.309559","XMIN":720094.86160847,"YMIN":8518344.888332034,"XMAX":720194.86160847,"YMAX":8518444.888332034},"geometry":{"type":"Polygon","coordinates":[[[-72.96658127303354,-13.394382702665293],[-72.96658886470338,-13.393479031579549],[-72.96751191397783,-13.393486461916932],[-72.96750432574837,-13.394390133522045],[-72.96658127303354,-13.394382702665293]]]}},{"type":"Feature","properties":{"Cell_ID":89,"Area_ha":1.0,"LC":"5:0.388589,9:0.129472,13:0.481939","XMIN":720094.86160847,"YMIN":8518244.888332034,"XMAX":720194.86160847,"YMAX":8518344.888332034},"geometry":{"type":"Polygon","coordinates":[[[-72.96657368080419,-13.395286373682282],[-72.96658127303354,-13.394382702665293],[-72.96750432574837,-13.394390133522045],[-72.96749673695966,-13.395293805058405],[-72.96657368080419,-13.395286373682282]]]}},{"type":"Feature","properties":{"Cell_ID":90,"Area_ha":1.0,"LC":"5:0.205726,9:0.582863,13:0.211411","XMIN":720094.86160847,"YMIN":8518144.888332034,"XMAX":720194.86160847,"YMAX":8518244.888332034},"geometry":{"type":"Polygon","coordinates":[[[-72.96656608801533,-13.396190044630519],[-72.96657368080419,-13.395286373682282],[-72.96749673695966,-13.395293805058405],[-72.96748914761169,-13.39619747652601],[-72.96656608801533,-13.396190044630519]]]}},{"type":"Feature","properties":{"Cell_ID":91,"Area_ha":1.0,"LC":"5:0.173259,9:0.518152,13:0.308589","XMIN":720094.86160847,"YMIN":8518044.888332034,"XMAX":720194.86160847,"YMAX":8518144.888332034},"geometry":{"type":"Polygon","coordinates":[[[-72.96655849466694,-13.397093715509987],[-72.96656608801533,-13.396190044630519],[-72.96748914761169,-13.39619747652601],[-72.96748155770446,-13.397101147924861],[-72.96655849466694,-13.397093715509987]]]}},{"type":"Feature","properties":{"Cell_ID":92,"Area_ha":1.0,"LC":"5:0.336722,9:0.646142,13:0.017137","XMIN":720094.86160847,"YMIN":8517944.888332034,"XMAX":720194.86160847,"YMAX":8518044.888332034},"geometry":{"type":"Polygon","coordinates":[[[-72.96655090075903,-13.397997386320695],[-72.96655849466694,-13.397093715509987],[-72.96748155770446,-13.397101147924861],[-72.96747396723795,-13.398004819254949],[-72.96655090075903,-13.397997386320695]]]}},{"type":"Feature","properties":{"Cell_ID":93,"Area_ha":1.0,"LC":"5:0.369887,9:0.127250,13:0.502863","XMIN":720094.86160847,"YMIN":8517844.888332034,"XMAX":720194.86160847,"YMAX":8517944.888332034},"geometry":{"type":"Polygon","coordinates":[[[-72.96654330629157,-13.39890105706263],[-72.96655090075903,-13.397997386320695],[-72.96747396723795,-13.398004819254949],[-72.96746637621214,-13.39890849051627],[-72.96654330629157,-13.39890105706263]]]}},{"type":"Feature","properties":{"Cell_ID":94,"Area_ha":1.0,"LC":"5:1.000000","XMIN":720094.86160847,"YMIN":8517744.888332034,"XMAX":720194.86160847,"YMAX":8517844.888332034},"geometry":{"type":"Polygon","coordinates":[[[-72.96653571126456,-13.399804727735791],[-72.96654330629157,-13.39890105706263],[-72.96746637621214,-13.39890849051627],[-72.96745878462704,-13.39981216170882],[-72.96653571126456,-13.399804727735791]]]}},{"type":"Feature","properties":{"Cell_ID":95,"Area_ha":1.0,"LC":"5:1.000000","XMIN":720094.86160847,"YMIN":8517644.888332034,"XMAX":720194.86160847,"YMAX":8517744.888332034},"geometry":{"type":"Polygon","coordinates":[[[-72.96652811567799,-13.400708398340171],[-72.96653571126456,-13.399804727735791],[-72.96745878462704,-13.39981216170882],[-72.96745119248263,-13.400715832832596],[-72.96652811567799,-13.400708398340171]]]}},{"type":"Feature","properties":{"Cell_ID":96,"Area_ha":1.0,"LC":"5:1.000000","XMIN":720094.86160847,"YMIN":8517544.888332034,"XMAX":720194.86160847,"YMAX":8517644.888332034},"geometry":{"type":"Polygon","coordinates":[[[-72.96652051953184,-13.401612068875771],[-72.96652811567799,-13.400708398340171],[-72.96745119248263,-13.400715832832596],[-72.96744359977889,-13.401619503887588],[-72.96652051953184,-13.401612068875771]]]}},{"type":"Feature","properties":{"Cell_ID":97,"Area_ha":1.0,"LC":"5:1.000000","XMIN":720094.86160847,"YMIN":8517444.888332034,"XMAX":720194.86160847,"YMAX":8517544.888332034},"geometry":{"type":"Polygon","coordinates":[[[-72.96651292282611,-13.402515739342583],[-72.96652051953184,-13.401612068875771],[-72.96744359977889,-13.401619503887588],[-72.96743600651584,-13.402523174873798],[-72.96651292282611,-13.402515739342583]]]}},{"type":"Feature","properties":{"Cell_ID":98,"Area_ha":1.0,"LC":"16:1.000000","XMIN":720194.86160847,"YMIN":8518744.888332034,"XMAX":720294.86160847,"YMAX":8518844.888332034},"geometry":{"type":"Polygon","coordinates":[[[-72.96568859796065,-13.390760585762973],[-72.96569619083195,-13.389856914921847],[-72.96661922578792,-13.389864346549128],[-72.966611636356,-13.390768017909842],[-72.96568859796065,-13.390760585762973]]]}},{"type":"Feature","properties":{"Cell_ID":99,"Area_ha":1.0,"LC":"5:0.033858,13:0.370441,16:0.595700","XMIN":720194.86160847,"YMIN":8518644.888332034,"XMAX":720294.86160847,"YMAX":8518744.888332034},"geometry":{"type":"Polygon","coordinates":[[[-72.96568100452964,-13.39166425653536],[-72.96568859796065,-13.390760585762973],[-72.966611636356,-13.390768017909842],[-72.9666040463646,-13.391671689201818],[-72.96568100452964,-13.39166425653536]]]}},{"type":"Feature","properties":{"Cell_ID":100,"Area_ha":1.0,"LC":"5:0.555983,13:0.443463,16:0.000554","XMIN":720194.86160847,"YMIN":8518544.888332034,"XMAX":720294.86160847,"YMAX":8518644.888332034},"geometry":{"type":"Polygon","coordinates":[[[-72.9656734105389,-13.392567927239003],[-72.96568100452964,-13.39166425653536],[-72.9666040463646,-13.391671689201818],[-72.96659645581373,-13.392575360425054],[-72.9656734105389,-13.392567927239003]]]}},{"type":"Feature","properties":{"Cell_ID":101,"Area_ha":1.0,"LC":"5:0.290574,13:0.709426","XMIN":720194.86160847,"YMIN":8518444.888332034,"XMAX":720294.86160847,"YMAX":8518544.888332034},"geometry":{"type":"Polygon","coordinates":[[[-72.96566581598843,-13.393471597873896],[-72.9656734105389,-13.392567927239003],[-72.96659645581373,-13.392575360425054],[-72.96658886470338,-13.393479031579549],[-72.96566581598843,-13.393471597873896]]]}},{"type":"Feature","properties":{"Cell_ID":102,"Area_ha":1.0,"LC":"5:0.298245,13:0.701755","XMIN":720194.86160847,"YMIN":8518344.888332034,"XMAX":720294.86160847,"YMAX":8518444.888332034},"geometry":{"type":"Polygon","coordinates":[[[-72.96565822087821,-13.39437526844004],[-72.96566581598843,-13.393471597873896],[-72.96658886470338,-13.393479031579549],[-72.96658127303354,-13.394382702665293],[-72.96565822087821,-13.39437526844004]]]}},{"type":"Feature","properties":{"Cell_ID":103,"Area_ha":1.0,"LC":"5:0.181339,9:0.268548,13:0.550113","XMIN":720194.86160847,"YMIN":8518244.888332034,"XMAX":720294.86160847,"YMAX":8518344.888332034},"geometry":{"type":"Polygon","coordinates":[[[-72.96565062520823,-13.395278938937423],[-72.96565822087821,-13.39437526844004],[-72.96658127303354,-13.394382702665293],[-72.96657368080419,-13.395286373682282],[-72.96565062520823,-13.395278938937423]]]}},{"type":"Feature","properties":{"Cell_ID":104,"Area_ha":1.0,"LC":"9:0.466235,13:0.533765","XMIN":720194.86160847,"YMIN":8518144.888332034,"XMAX":720294.86160847,"YMAX":8518244.888332034},"geometry":{"type":"Polygon","coordinates":[[[-72.96564302897848,-13.396182609366052],[-72.96565062520823,-13.395278938937423],[-72.96657368080419,-13.395286373682282],[-72.96656608801533,-13.396190044630519],[-72.96564302897848,-13.396182609366052]]]}},{"type":"Feature","properties":{"Cell_ID":105,"Area_ha":1.0,"LC":"5:0.140045,9:0.372705,13:0.487250","XMIN":720194.86160847,"YMIN":8518044.888332034,"XMAX":720294.86160847,"YMAX":8518144.888332034},"geometry":{"type":"Polygon","coordinates":[[[-72.96563543218898,-13.39708627972591],[-72.96564302897848,-13.396182609366052],[-72.96656608801533,-13.396190044630519],[-72.96655849466694,-13.397093715509987],[-72.96563543218898,-13.39708627972591]]]}},{"type":"Feature","properties":{"Cell_ID":106,"Area_ha":1.0,"LC":"5:0.454734,9:0.419539,13:0.125726","XMIN":720194.86160847,"YMIN":8517944.888332034,"XMAX":720294.86160847,"YMAX":8518044.888332034},"geometry":{"type":"Polygon","coordinates":[[[-72.96562783483965,-13.397989950017],[-72.96563543218898,-13.39708627972591],[-72.96655849466694,-13.397093715509987],[-72.96655090075903,-13.397997386320695],[-72.96562783483965,-13.397989950017]]]}},{"type":"Feature","properties":{"Cell_ID":107,"Area_ha":1.0,"LC":"5:0.938661,9:0.061339","XMIN":720194.86160847,"YMIN":8517844.888332034,"XMAX":720294.86160847,"YMAX":8517944.888332034},"geometry":{"type":"Polygon","coordinates":[[[-72.96562023693056,-13.398893620239315],[-72.96562783483965,-13.397989950017],[-72.96655090075903,-13.397997386320695],[-72.96654330629157,-13.39890105706263],[-72.96562023693056,-13.398893620239315]]]}},{"type":"Feature","properties":{"Cell_ID":108,"Area_ha":1.0,"LC":"5:1.000000","XMIN":720194.86160847,"YMIN":8517744.888332034,"XMAX":720294.86160847,"YMAX":8517844.888332034},"geometry":{"type":"Polygon","coordinates":[[[-72.96561263846165,-13.399797290392852],[-72.96562023693056,-13.398893620239315],[-72.96654330629157,-13.39890105706263],[-72.96653571126456,-13.399804727735791],[-72.96561263846165,-13.399797290392852]]]}},{"type":"Feature","properties":{"Cell_ID":109,"Area_ha":1.0,"LC":"5:1.000000","XMIN":720194.86160847,"YMIN":8517644.888332034,"XMAX":720294.86160847,"YMAX":8517744.888332034},"geometry":{"type":"Polygon","coordinates":[[[-72.96560503943292,-13.400700960477606],[-72.96561263846165,-13.399797290392852],[-72.96653571126456,-13.399804727735791],[-72.96652811567799,-13.400708398340171],[-72.96560503943292,-13.400700960477606]]]}},{"type":"Feature","properties":{"Cell_ID":110,"Area_ha":1.0,"LC":"5:1.000000","XMIN":720194.86160847,"YMIN":8517544.888332034,"XMAX":720294.86160847,"YMAX":8517644.888332034},"geometry":{"type":"Polygon","coordinates":[[[-72.96559743984437,-13.40160463049357],[-72.96560503943292,-13.400700960477606],[-72.96652811567799,-13.400708398340171],[-72.96652051953184,-13.401612068875771],[-72.96559743984437,-13.40160463049357]]]}},{"type":"Feature","properties":{"Cell_ID":111,"Area_ha":1.0,"LC":"5:0.016722,13:0.575752,16:0.407526","XMIN":720294.86160847,"YMIN":8518544.888332034,"XMAX":720394.86160847,"YMAX":8518644.888332034},"geometry":{"type":"Polygon","coordinates":[[[-72.96475036582382,-13.392560490684932],[-72.96475796325441,-13.39165682050112],[-72.96568100452964,-13.39166425653536],[-72.9656734105389,-13.392567927239003],[-72.96475036582382,-13.392560490684932]]]}},{"type":"Feature","properties":{"Cell_ID":112,"Area_ha":1.0,"LC":"5:0.252290,13:0.371452,16:0.376258","XMIN":720294.86160847,"YMIN":8518444.888332034,"XMAX":720394.86160847,"YMAX":8518544.888332034},"geometry":{"type":"Polygon","coordinates":[[[-72.96474276783323,-13.393464160799992],[-72.96475036582382,-13.392560490684932],[-72.9656734105389,-13.392567927239003],[-72.96566581598843,-13.393471597873896],[-72.96474276783323,-13.393464160799992]]]}},{"type":"Feature","properties":{"Cell_ID":113,"Area_ha":1.0,"LC":"5:0.582724,13:0.346193,16:0.071082","XMIN":720294.86160847,"YMIN":8518344.888332034,"XMAX":720394.86160847,"YMAX":8518444.888332034},"geometry":{"type":"Polygon","coordinates":[[[-72.96473516928265,-13.3943678308463],[-72.96474276783323,-13.393464160799992],[-72.96566581598843,-13.393471597873896],[-72.96565822087821,-13.39437526844004],[-72.96473516928265,-13.3943678308463]]]}}]}