{"type":"FeatureCollection","features":[{"type":"Feature","properties":{"Cell_ID":1,"Area_ha":1.0,"LC":"16:0.445931,17:0.124390","XMIN":720357.4980225044,"YMIN":8518857.487904783,"XMAX":720457.4980225044,"YMAX":8518957.487904783},"geometry":{"type":"Polygon","coordinates":[[[-72.96419595840914,-13.38973096263474],[-72.96420355624338,-13.388827292561752],[-72.96512658641656,-13.388834729080024],[-72.96511899202137,-13.389738399672979],[-72.96419595840914,-13.38973096263474]]]}},{"type":"Feature","properties":{"Cell_ID":2,"Area_ha":1.0,"LC":"9:0.258977,16:0.553196,17:0.118084","XMIN":720457.4980225044,"YMIN":8518857.487904783,"XMAX":720557.4980225044,"YMAX":8518957.487904783},"geometry":{"type":"Polygon","coordinates":[[[-72.96327292535702,-13.38972352222923],[-72.96328052663031,-13.388819852676443],[-72.96420355624338,-13.388827292561752],[-72.96419595840914,-13.38973096263474],[-72.96327292535702,-13.38972352222923]]]}},{"type":"Feature","properties":{"Cell_ID":3,"Area_ha":1.0,"LC":"9:0.221023,13:0.353282,16:0.425695","XMIN":720457.4980225044,"YMIN":8518757.487904783,"XMAX":720557.4980225044,"YMAX":8518857.487904783},"geometry":{"type":"Polygon","coordinates":[[[-72.96326532352334,-13.390627191713271],[-72.96327292535702,-13.38972352222923],[-72.96419595840914,-13.38973096263474],[-72.96418836001479,-13.390634632638983],[-72.96326532352334,-13.390627191713271]]]}},{"type":"Feature","properties":{"Cell_ID":4,"Area_ha":1.0,"LC":"16:0.193282,17:0.376920","XMIN":720557.4980225044,"YMIN":8518957.487904783,"XMAX":720657.4980225044,"YMAX":8519057.487904783},"geometry":{"type":"Polygon","coordinates":[[[-72.9623574975776,-13.388812409424109],[-72.96236510172932,-13.387908740323015],[-72.96328812734325,-13.387916183054918],[-72.96328052663031,-13.388819852676443],[-72.9623574975776,-13.388812409424109]]]}},{"type":"Feature","properties":{"Cell_ID":5,"Area_ha":1.0,"LC":"9:0.220711,16:0.764422,17:0.014866","XMIN":720557.4980225044,"YMIN":8518857.487904783,"XMAX":720657.4980225044,"YMAX":8518957.487904783},"geometry":{"type":"Polygon","coordinates":[[[-72.96234989286528,-13.389716078456459],[-72.9623574975776,-13.388812409424109],[-72.96328052663031,-13.388819852676443],[-72.96327292535702,-13.38972352222923],[-72.96234989286528,-13.389716078456459]]]}},{"type":"Feature","properties":{"Cell_ID":6,"Area_ha":1.0,"LC":"9:0.006804,13:0.433446,16:0.559749","XMIN":720557.4980225044,"YMIN":8518757.487904783,"XMAX":720657.4980225044,"YMAX":8518857.487904783},"geometry":{"type":"Polygon","coordinates":[[[-72.9623422875923,-13.39061974742006],[-72.96234989286528,-13.389716078456459],[-72.96327292535702,-13.38972352222923],[-72.96326532352334,-13.390627191713271],[-72.9623422875923,-13.39061974742006]]]}},{"type":"Feature","properties":{"Cell_ID":7,"Area_ha":1.0,"LC":"13:1.000000","XMIN":720557.4980225044,"YMIN":8518657.487904783,"XMAX":720657.4980225044,"YMAX":8518757.487904783},"geometry":{"type":"Polygon","coordinates":[[[-72.96233468175872,-13.391523416314909],[-72.9623422875923,-13.39061974742006],[-72.96326532352334,-13.390627191713271],[-72.96325772112931,-13.391530861128564],[-72.96233468175872,-13.391523416314909]]]}},{"type":"Feature","properties":{"Cell_ID":8,"Area_ha":1.0,"LC":"16:0.525931,17:0.420217","XMIN":720657.4980225044,"YMIN":8518957.487904783,"XMAX":720757.4980225044,"YMAX":8519057.487904783},"geometry":{"type":"Polygon","coordinates":[[[-72.96143446908552,-13.38880496280476],[-72.96144207667602,-13.387901294224337],[-72.96236510172932,-13.387908740323015],[-72.9623574975776,-13.388812409424109],[-72.96143446908552,-13.38880496280476]]]}},{"type":"Feature","properties":{"Cell_ID":9,"Area_ha":1.0,"LC":"16:1.000000","XMIN":720657.4980225044,"YMIN":8518857.487904783,"XMAX":720757.4980225044,"YMAX":8518957.487904783},"geometry":{"type":"Polygon","coordinates":[[[-72.96142686093415,-13.389708631316438],[-72.96143446908552,-13.38880496280476],[-72.9623574975776,-13.388812409424109],[-72.96234989286528,-13.389716078456459],[-72.96142686093415,-13.389708631316438]]]}},{"type":"Feature","properties":{"Cell_ID":10,"Area_ha":1.0,"LC":"13:0.365931,16:0.634069","XMIN":720657.4980225044,"YMIN":8518757.487904783,"XMAX":720757.4980225044,"YMAX":8518857.487904783},"geometry":{"type":"Polygon","coordinates":[[[-72.96141925222192,-13.390612299759365],[-72.96142686093415,-13.389708631316438],[-72.96234989286528,-13.389716078456459],[-72.9623422875923,-13.39061974742006],[-72.96141925222192,-13.390612299759365]]]}},{"type":"Feature","properties":{"Cell_ID":11,"Area_ha":1.0,"LC":"5:0.316360,13:0.683640","XMIN":720657.4980225044,"YMIN":8518657.487904783,"XMAX":720757.4980225044,"YMAX":8518757.487904783},"geometry":{"type":"Polygon","coordinates":[[[-72.96141164294878,-13.391515968133534],[-72.96141925222192,-13.390612299759365],[-72.9623422875923,-13.39061974742006],[-72.96233468175872,-13.391523416314909],[-72.96141164294878,-13.391515968133534]]]}},{"type":"Feature","properties":{"Cell_ID":12,"Area_ha":1.0,"LC":"5:0.176124,13:0.823876","XMIN":720657.4980225044,"YMIN":8518557.487904783,"XMAX":720757.4980225044,"YMAX":8518657.487904783},"geometry":{"type":"Polygon","coordinates":[[[-72.96140403311473,-13.392419636438945],[-72.96141164294878,-13.391515968133534],[-72.96233468175872,-13.391523416314909],[-72.96232707536448,-13.392427085141001],[-72.96140403311473,-13.392419636438945]]]}},{"type":"Feature","properties":{"Cell_ID":13,"Area_ha":1.0,"LC":"16:1.000000","XMIN":720757.4980225044,"YMIN":8518857.487904783,"XMAX":720857.4980225044,"YMAX":8518957.487904783},"geometry":{"type":"Polygon","coordinates":[[[-72.96050382956389,-13.38970118080918],[-72.96051144115428,-13.388797512818405],[-72.96143446908552,-13.38880496280476],[-72.96142686093415,-13.389708631316438],[-72.96050382956389,-13.38970118080918]]]}},{"type":"Feature","properties":{"Cell_ID":14,"Area_ha":1.0,"LC":"5:0.043164,13:0.516525,16:0.440311","XMIN":720757.4980225044,"YMIN":8518757.487904783,"XMAX":720857.4980225044,"YMAX":8518857.487904783},"geometry":{"type":"Polygon","coordinates":[[[-72.96049621741238,-13.390604848731192],[-72.96050382956389,-13.38970118080918],[-72.96142686093415,-13.389708631316438],[-72.96141925222192,-13.390612299759365],[-72.96049621741238,-13.390604848731192]]]}},{"type":"Feature","properties":{"Cell_ID":15,"Area_ha":1.0,"LC":"5:0.722602,13:0.277398","XMIN":720757.4980225044,"YMIN":8518657.487904783,"XMAX":720857.4980225044,"YMAX":8518757.487904783},"geometry":{"type":"Polygon","coordinates":[[[-72.96048860469972,-13.391508516584448],[-72.96049621741238,-13.390604848731192],[-72.96141925222192,-13.390612299759365],[-72.96141164294878,-13.391515968133534],[-72.96048860469972,-13.391508516584448]]]}},{"type":"Feature","properties":{"Cell_ID":16,"Area_ha":1.0,"LC":"5:0.324172,13:0.675828","XMIN":720757.4980225044,"YMIN":8518557.487904783,"XMAX":720857.4980225044,"YMAX":8518657.487904783},"geometry":{"type":"Polygon","coordinates":[[[-72.96048099142591,-13.39241218436894],[-72.96048860469972,-13.391508516584448],[-72.96141164294878,-13.391515968133534],[-72.96140403311473,-13.392419636438945],[-72.96048099142591,-13.39241218436894]]]}},{"type":"Feature","properties":{"Cell_ID":17,"Area_ha":1.0,"LC":"5:0.169406,9:0.175813,13:0.654780","XMIN":720757.4980225044,"YMIN":8518457.487904783,"XMAX":720857.4980225044,"YMAX":8518557.487904783},"geometry":{"type":"Polygon","coordinates":[[[-72.96047337759094,-13.393315852084664],[-72.96048099142591,-13.39241218436894],[-72.96140403311473,-13.392419636438945],[-72.9613964227198,-13.39332330467559],[-72.96047337759094,-13.393315852084664]]]}},{"type":"Feature","properties":{"Cell_ID":18,"Area_ha":1.0,"LC":"5:0.179764,13:0.820236","XMIN":720857.4980225044,"YMIN":8518557.487904783,"XMAX":720957.4980225044,"YMAX":8518657.487904783},"geometry":{"type":"Polygon","coordinates":[[[-72.95955795029823,-13.392404728930993],[-72.95956556701182,-13.391501061667656],[-72.96048860469972,-13.391508516584448],[-72.96048099142591,-13.39241218436894],[-72.95955795029823,-13.392404728930993]]]}}]}