{"type":"FeatureCollection","features":[{"type":"Feature","properties":{"Cell_ID":1,"Area_ha":1.0,"LC":"16:0.553406","XMIN":723844.86160847,"YMIN":8519260.587700475,"XMAX":723944.86160847,"YMAX":8519360.587700475},"geometry":{"type":"Polygon","coordinates":[[[-72.93203787928717,-13.38582688088629],[-72.93204559475436,-13.384923228816058],[-72.93296859138599,-13.38493078062041],[-72.93296087935647,-13.385834433218804],[-72.93203787928717,-13.38582688088629]]]}},{"type":"Feature","properties":{"Cell_ID":2,"Area_ha":1.0,"LC":"16:1.000000","XMIN":723844.86160847,"YMIN":8519160.587700475,"XMAX":723944.86160847,"YMAX":8519260.587700475},"geometry":{"type":"Polygon","coordinates":[[[-72.93203016325104,-13.386730532887668],[-72.93203787928717,-13.38582688088629],[-72.93296087935647,-13.385834433218804],[-72.93295316675831,-13.386738085748346],[-72.93203016325104,-13.386730532887668]]]}},{"type":"Feature","properties":{"Cell_ID":3,"Area_ha":1.0,"LC":"16:1.000000","XMIN":723844.86160847,"YMIN":8519060.587700475,"XMAX":723944.86160847,"YMAX":8519160.587700475},"geometry":{"type":"Polygon","coordinates":[[[-72.932022446646,-13.38763418482019],[-72.93203016325104,-13.386730532887668],[-72.93295316675831,-13.386738085748346],[-72.93294545359146,-13.387641738209032],[-72.932022446646,-13.38763418482019]]]}},{"type":"Feature","properties":{"Cell_ID":4,"Area_ha":1.0,"LC":"16:0.872372","XMIN":723944.86160847,"YMIN":8519260.587700475,"XMAX":724044.86160847,"YMAX":8519360.587700475},"geometry":{"type":"Polygon","coordinates":[[[-72.93111487978676,-13.38581932518779],[-72.93112259869164,-13.38491567364595],[-72.93204559475436,-13.384923228816058],[-72.93203787928717,-13.38582688088629],[-72.93111487978676,-13.38581932518779]]]}},{"type":"Feature","properties":{"Cell_ID":5,"Area_ha":1.0,"LC":"16:1.000000","XMIN":723944.86160847,"YMIN":8519160.587700475,"XMAX":724044.86160847,"YMAX":8519260.587700475},"geometry":{"type":"Polygon","coordinates":[[[-72.93110716031272,-13.386722976660769],[-72.93111487978676,-13.38581932518779],[-72.93203787928717,-13.38582688088629],[-72.93203016325104,-13.386730532887668],[-72.93110716031272,-13.386722976660769]]]}},{"type":"Feature","properties":{"Cell_ID":6,"Area_ha":1.0,"LC":"13:0.100201,16:0.899799","XMIN":723944.86160847,"YMIN":8519060.587700475,"XMAX":724044.86160847,"YMAX":8519160.587700475},"geometry":{"type":"Polygon","coordinates":[[[-72.93109944026949,-13.387626628064888],[-72.93110716031272,-13.386722976660769],[-72.93203016325104,-13.386730532887668],[-72.932022446646,-13.38763418482019],[-72.93109944026949,-13.387626628064888]]]}},{"type":"Feature","properties":{"Cell_ID":7,"Area_ha":1.0,"LC":"13:0.616123,16:0.383877","XMIN":723944.86160847,"YMIN":8518960.587700475,"XMAX":724044.86160847,"YMAX":8519060.587700475},"geometry":{"type":"Polygon","coordinates":[[[-72.93109171965708,-13.38853027940014],[-72.93109944026949,-13.387626628064888],[-72.932022446646,-13.38763418482019],[-72.93201472947204,-13.388537836683849],[-72.93109171965708,-13.38853027940014]]]}},{"type":"Feature","properties":{"Cell_ID":8,"Area_ha":1.0,"LC":"13:0.107755,16:0.892245","XMIN":723944.86160847,"YMIN":8518860.587700475,"XMAX":724044.86160847,"YMAX":8518960.587700475},"geometry":{"type":"Polygon","coordinates":[[[-72.93108399847546,-13.389433930666522],[-72.93109171965708,-13.38853027940014],[-72.93201472947204,-13.388537836683849],[-72.93200701172911,-13.38944148847864],[-72.93108399847546,-13.389433930666522]]]}},{"type":"Feature","properties":{"Cell_ID":9,"Area_ha":1.0,"LC":"16:1.000000","XMIN":724044.86160847,"YMIN":8519260.587700475,"XMAX":724144.86160847,"YMAX":8519360.587700475},"geometry":{"type":"Polygon","coordinates":[[[-72.93019188085555,-13.385811766123306],[-72.93019960319809,-13.384908115110095],[-72.93112259869164,-13.38491567364595],[-72.93111487978676,-13.38581932518779],[-72.93019188085555,-13.385811766123306]]]}},{"type":"Feature","properties":{"Cell_ID":10,"Area_ha":1.0,"LC":"16:1.000000","XMIN":724044.86160847,"YMIN":8519160.587700475,"XMAX":724144.86160847,"YMAX":8519260.587700475},"geometry":{"type":"Polygon","coordinates":[[[-72.93018415794357,-13.386715417067656],[-72.93019188085555,-13.385811766123306],[-72.93111487978676,-13.38581932518779],[-72.93110716031272,-13.386722976660769],[-72.93018415794357,-13.386715417067656]]]}},{"type":"Feature","properties":{"Cell_ID":11,"Area_ha":1.0,"LC":"13:0.174228,16:0.825772","XMIN":724044.86160847,"YMIN":8519060.587700475,"XMAX":724144.86160847,"YMAX":8519160.587700475},"geometry":{"type":"Polygon","coordinates":[[[-72.93017643446217,-13.387619067943135],[-72.93018415794357,-13.386715417067656],[-72.93110716031272,-13.386722976660769],[-72.93109944026949,-13.387626628064888],[-72.93017643446217,-13.387619067943135]]]}},{"type":"Feature","properties":{"Cell_ID":12,"Area_ha":1.0,"LC":"13:0.524802,16:0.475198","XMIN":724044.86160847,"YMIN":8518960.587700475,"XMAX":724144.86160847,"YMAX":8519060.587700475},"geometry":{"type":"Polygon","coordinates":[[[-72.93016871041132,-13.388522718749746],[-72.93017643446217,-13.387619067943135],[-72.93109944026949,-13.387626628064888],[-72.93109171965708,-13.38853027940014],[-72.93016871041132,-13.388522718749746]]]}},{"type":"Feature","properties":{"Cell_ID":13,"Area_ha":1.0,"LC":"13:0.037983,16:0.962017","XMIN":724044.86160847,"YMIN":8518860.587700475,"XMAX":724144.86160847,"YMAX":8518960.587700475},"geometry":{"type":"Polygon","coordinates":[[[-72.93016098579103,-13.389426369487484],[-72.93016871041132,-13.388522718749746],[-72.93109171965708,-13.38853027940014],[-72.93108399847546,-13.389433930666522],[-72.93016098579103,-13.389426369487484]]]}},{"type":"Feature","properties":{"Cell_ID":14,"Area_ha":1.0,"LC":"13:0.491554,16:0.508446","XMIN":724044.86160847,"YMIN":8518760.587700475,"XMAX":724144.86160847,"YMAX":8518860.587700475},"geometry":{"type":"Polygon","coordinates":[[[-72.93015326060127,-13.390330020156341],[-72.93016098579103,-13.389426369487484],[-72.93108399847546,-13.389433930666522],[-72.93107627672464,-13.39033758186403],[-72.93015326060127,-13.390330020156341]]]}},{"type":"Feature","properties":{"Cell_ID":15,"Area_ha":1.0,"LC":"9:0.118061,13:0.490663,16:0.391276","XMIN":724044.86160847,"YMIN":8518660.587700475,"XMAX":724144.86160847,"YMAX":8518760.587700475},"geometry":{"type":"Polygon","coordinates":[[[-72.93014553484203,-13.391233670756314],[-72.93015326060127,-13.390330020156341],[-72.93107627672464,-13.39033758186403],[-72.9310685544046,-13.391241232992655],[-72.93014553484203,-13.391233670756314]]]}},{"type":"Feature","properties":{"Cell_ID":16,"Area_ha":1.0,"LC":"13:0.143677,16:0.856323","XMIN":724044.86160847,"YMIN":8518560.587700475,"XMAX":724144.86160847,"YMAX":8518660.587700475},"geometry":{"type":"Polygon","coordinates":[[[-72.93013780851332,-13.3921373212874],[-72.93014553484203,-13.391233670756314],[-72.9310685544046,-13.391241232992655],[-72.93106083151534,-13.392144884052396],[-72.93013780851332,-13.3921373212874]]]}},{"type":"Feature","properties":{"Cell_ID":17,"Area_ha":1.0,"LC":"16:0.656711,17:0.011062","XMIN":724144.86160847,"YMIN":8519360.587700475,"XMAX":724244.86160847,"YMAX":8519460.587700475},"geometry":{"type":"Polygon","coordinates":[[[-72.92927660827394,-13.38490055320851],[-72.92928433348449,-13.383996902655307],[-72.93020732497122,-13.384004464028031],[-72.93019960319809,-13.384908115110095],[-72.92927660827394,-13.38490055320851]]]}},{"type":"Feature","properties":{"Cell_ID":18,"Area_ha":1.0,"LC":"16:1.000000","XMIN":724144.86160847,"YMIN":8519260.587700475,"XMAX":724244.86160847,"YMAX":8519360.587700475},"geometry":{"type":"Polygon","coordinates":[[[-72.92926888249373,-13.385804203692857],[-72.92927660827394,-13.38490055320851],[-72.93019960319809,-13.384908115110095],[-72.93019188085555,-13.385811766123306],[-72.92926888249373,-13.385804203692857]]]}},{"type":"Feature","properties":{"Cell_ID":19,"Area_ha":1.0,"LC":"16:1.000000","XMIN":724144.86160847,"YMIN":8519160.587700475,"XMAX":724244.86160847,"YMAX":8519260.587700475},"geometry":{"type":"Polygon","coordinates":[[[-72.92926115614385,-13.386707854108336],[-72.92926888249373,-13.385804203692857],[-72.93019188085555,-13.385811766123306],[-72.93018415794357,-13.386715417067656],[-72.92926115614385,-13.386707854108336]]]}},{"type":"Feature","properties":{"Cell_ID":20,"Area_ha":1.0,"LC":"16:1.000000","XMIN":724144.86160847,"YMIN":8519060.587700475,"XMAX":724244.86160847,"YMAX":8519160.587700475},"geometry":{"type":"Polygon","coordinates":[[[-72.92925342922429,-13.387611504454942],[-72.92926115614385,-13.386707854108336],[-72.93018415794357,-13.386715417067656],[-72.93017643446217,-13.387619067943135],[-72.92925342922429,-13.387611504454942]]]}},{"type":"Feature","properties":{"Cell_ID":21,"Area_ha":1.0,"LC":"13:0.076122,16:0.923878","XMIN":724144.86160847,"YMIN":8518960.587700475,"XMAX":724244.86160847,"YMAX":8519060.587700475},"geometry":{"type":"Polygon","coordinates":[[[-72.92924570173503,-13.388515154732678],[-72.92925342922429,-13.387611504454942],[-72.93017643446217,-13.387619067943135],[-72.93016871041132,-13.388522718749746],[-72.92924570173503,-13.388515154732678]]]}},{"type":"Feature","properties":{"Cell_ID":22,"Area_ha":1.0,"LC":"16:1.000000","XMIN":724144.86160847,"YMIN":8518860.587700475,"XMAX":724244.86160847,"YMAX":8518960.587700475},"geometry":{"type":"Polygon","coordinates":[[[-72.92923797367605,-13.389418804941537],[-72.92924570173503,-13.388515154732678],[-72.93016871041132,-13.388522718749746],[-72.93016098579103,-13.389426369487484],[-72.92923797367605,-13.389418804941537]]]}},{"type":"Feature","properties":{"Cell_ID":23,"Area_ha":1.0,"LC":"16:1.000000","XMIN":724144.86160847,"YMIN":8518760.587700475,"XMAX":724244.86160847,"YMAX":8518860.587700475},"geometry":{"type":"Polygon","coordinates":[[[-72.92923024504736,-13.390322455081508],[-72.92923797367605,-13.389418804941537],[-72.93016098579103,-13.389426369487484],[-72.93015326060127,-13.390330020156341],[-72.92923024504736,-13.390322455081508]]]}},{"type":"Feature","properties":{"Cell_ID":24,"Area_ha":1.0,"LC":"13:0.240813,16:0.759187","XMIN":724144.86160847,"YMIN":8518660.587700475,"XMAX":724244.86160847,"YMAX":8518760.587700475},"geometry":{"type":"Polygon","coordinates":[[[-72.92922251584895,-13.391226105152596],[-72.92923024504736,-13.390322455081508],[-72.93015326060127,-13.390330020156341],[-72.93014553484203,-13.391233670756314],[-72.92922251584895,-13.391226105152596]]]}},{"type":"Feature","properties":{"Cell_ID":25,"Area_ha":1.0,"LC":"13:0.379108,16:0.620892","XMIN":724144.86160847,"YMIN":8518560.587700475,"XMAX":724244.86160847,"YMAX":8518660.587700475},"geometry":{"type":"Polygon","coordinates":[[[-72.9292147860808,-13.392129755154789],[-72.92922251584895,-13.391226105152596],[-72.93014553484203,-13.391233670756314],[-72.93013780851332,-13.3921373212874],[-72.9292147860808,-13.392129755154789]]]}},{"type":"Feature","properties":{"Cell_ID":26,"Area_ha":1.0,"LC":"13:0.113292,16:0.886708","XMIN":724144.86160847,"YMIN":8518460.587700475,"XMAX":724244.86160847,"YMAX":8518560.587700475},"geometry":{"type":"Polygon","coordinates":[[[-72.9292070557429,-13.393033405088088],[-72.9292147860808,-13.392129755154789],[-72.93013780851332,-13.3921373212874],[-72.9301300816151,-13.393040971749597],[-72.9292070557429,-13.393033405088088]]]}},{"type":"Feature","properties":{"Cell_ID":27,"Area_ha":1.0,"LC":"16:0.930258,17:0.044722","XMIN":724244.86160847,"YMIN":8519360.587700475,"XMAX":724344.86160847,"YMAX":8519460.587700475},"geometry":{"type":"Polygon","coordinates":[[[-72.92835361391947,-13.384892987941202],[-72.9283613425674,-13.383989337917093],[-72.92928433348449,-13.383996902655307],[-72.92927660827394,-13.38490055320851],[-72.92835361391947,-13.384892987941202]]]}},{"type":"Feature","properties":{"Cell_ID":28,"Area_ha":1.0,"LC":"16:1.000000","XMIN":724244.86160847,"YMIN":8519260.587700475,"XMAX":724344.86160847,"YMAX":8519360.587700475},"geometry":{"type":"Polygon","coordinates":[[[-72.9283458847016,-13.385796637896446],[-72.92835361391947,-13.384892987941202],[-72.92927660827394,-13.38490055320851],[-72.92926888249373,-13.385804203692857],[-72.9283458847016,-13.385796637896446]]]}},{"type":"Feature","properties":{"Cell_ID":29,"Area_ha":1.0,"LC":"16:1.000000","XMIN":724244.86160847,"YMIN":8519160.587700475,"XMAX":724344.86160847,"YMAX":8519260.587700475},"geometry":{"type":"Polygon","coordinates":[[[-72.92833815491383,-13.386700287782823],[-72.9283458847016,-13.385796637896446],[-72.92926888249373,-13.385804203692857],[-72.92926115614385,-13.386707854108336],[-72.92833815491383,-13.386700287782823]]]}},{"type":"Feature","properties":{"Cell_ID":30,"Area_ha":1.0,"LC":"16:1.000000","XMIN":724244.86160847,"YMIN":8519060.587700475,"XMAX":724344.86160847,"YMAX":8519160.587700475},"geometry":{"type":"Polygon","coordinates":[[[-72.92833042455611,-13.38760393760032],[-72.92833815491383,-13.386700287782823],[-72.92926115614385,-13.386707854108336],[-72.92925342922429,-13.387611504454942],[-72.92833042455611,-13.38760393760032]]]}},{"type":"Feature","properties":{"Cell_ID":31,"Area_ha":1.0,"LC":"16:1.000000","XMIN":724244.86160847,"YMIN":8518960.587700475,"XMAX":724344.86160847,"YMAX":8519060.587700475},"geometry":{"type":"Polygon","coordinates":[[[-72.92832269362843,-13.388507587348945],[-72.92833042455611,-13.38760393760032],[-72.92925342922429,-13.387611504454942],[-72.92924570173503,-13.388515154732678],[-72.92832269362843,-13.388507587348945]]]}},{"type":"Feature","properties":{"Cell_ID":32,"Area_ha":1.0,"LC":"16:1.000000","XMIN":724244.86160847,"YMIN":8518860.587700475,"XMAX":724344.86160847,"YMAX":8518960.587700475},"geometry":{"type":"Polygon","coordinates":[[[-72.92831496213078,-13.389411237028687],[-72.92832269362843,-13.388507587348945],[-72.92924570173503,-13.388515154732678],[-72.92923797367605,-13.389418804941537],[-72.92831496213078,-13.389411237028687]]]}},{"type":"Feature","properties":{"Cell_ID":33,"Area_ha":1.0,"LC":"16:1.000000","XMIN":724244.86160847,"YMIN":8518760.587700475,"XMAX":724344.86160847,"YMAX":8518860.587700475},"geometry":{"type":"Polygon","coordinates":[[[-72.92830723006318,-13.390314886639539],[-72.92831496213078,-13.389411237028687],[-72.92923797367605,-13.389418804941537],[-72.92923024504736,-13.390322455081508],[-72.92830723006318,-13.390314886639539]]]}},{"type":"Feature","properties":{"Cell_ID":34,"Area_ha":1.0,"LC":"9:0.020969,16:0.979031","XMIN":724244.86160847,"YMIN":8518660.587700475,"XMAX":724344.86160847,"YMAX":8518760.587700475},"geometry":{"type":"Polygon","coordinates":[[[-72.92829949742561,-13.391218536181503],[-72.92830723006318,-13.390314886639539],[-72.92923024504736,-13.390322455081508],[-72.92922251584895,-13.391226105152596],[-72.92829949742561,-13.391218536181503]]]}},{"type":"Feature","properties":{"Cell_ID":35,"Area_ha":1.0,"LC":"16:1.000000","XMIN":724244.86160847,"YMIN":8518560.587700475,"XMAX":724344.86160847,"YMAX":8518660.587700475},"geometry":{"type":"Polygon","coordinates":[[[-72.92829176421803,-13.39212218565457],[-72.92829949742561,-13.391218536181503],[-72.92922251584895,-13.391226105152596],[-72.9292147860808,-13.392129755154789],[-72.92829176421803,-13.39212218565457]]]}},{"type":"Feature","properties":{"Cell_ID":36,"Area_ha":1.0,"LC":"16:1.000000","XMIN":724244.86160847,"YMIN":8518460.587700475,"XMAX":724344.86160847,"YMAX":8518560.587700475},"geometry":{"type":"Polygon","coordinates":[[[-72.92828403044047,-13.39302583505874],[-72.92829176421803,-13.39212218565457],[-72.9292147860808,-13.392129755154789],[-72.9292070557429,-13.393033405088088],[-72.92828403044047,-13.39302583505874]]]}},{"type":"Feature","properties":{"Cell_ID":37,"Area_ha":1.0,"LC":"16:1.000000","XMIN":724344.86160847,"YMIN":8519360.587700475,"XMAX":724444.86160847,"YMAX":8519460.587700475},"geometry":{"type":"Polygon","coordinates":[[[-72.9274306201349,-13.384885419308176],[-72.92743835222022,-13.383981769813401],[-72.9283613425674,-13.383989337917093],[-72.92835361391947,-13.384892987941202],[-72.9274306201349,-13.384885419308176]]]}},{"type":"Feature","properties":{"Cell_ID":38,"Area_ha":1.0,"LC":"16:1.000000","XMIN":724344.86160847,"YMIN":8519260.587700475,"XMAX":724444.86160847,"YMAX":8519360.587700475},"geometry":{"type":"Polygon","coordinates":[[[-72.92742288747941,-13.385789068734084],[-72.9274306201349,-13.384885419308176],[-72.92835361391947,-13.384892987941202],[-72.9283458847016,-13.385796637896446],[-72.92742288747941,-13.385789068734084]]]}},{"type":"Feature","properties":{"Cell_ID":39,"Area_ha":1.0,"LC":"16:1.000000","XMIN":724344.86160847,"YMIN":8519160.587700475,"XMAX":724444.86160847,"YMAX":8519260.587700475},"geometry":{"type":"Polygon","coordinates":[[[-72.92741515425374,-13.38669271809112],[-72.92742288747941,-13.385789068734084],[-72.9283458847016,-13.385796637896446],[-72.92833815491383,-13.386700287782823],[-72.92741515425374,-13.38669271809112]]]}},{"type":"Feature","properties":{"Cell_ID":40,"Area_ha":1.0,"LC":"13:0.055432,16:0.944568","XMIN":724344.86160847,"YMIN":8519060.587700475,"XMAX":724444.86160847,"YMAX":8519160.587700475},"geometry":{"type":"Polygon","coordinates":[[[-72.92740742045785,-13.387596367379276],[-72.92741515425374,-13.38669271809112],[-72.92833815491383,-13.386700287782823],[-72.92833042455611,-13.38760393760032],[-72.92740742045785,-13.387596367379276]]]}},{"type":"Feature","properties":{"Cell_ID":41,"Area_ha":1.0,"LC":"13:0.028446,16:0.971554","XMIN":724344.86160847,"YMIN":8518960.587700475,"XMAX":724444.86160847,"YMAX":8519060.587700475},"geometry":{"type":"Polygon","coordinates":[[[-72.92739968609179,-13.388500016598552],[-72.92740742045785,-13.387596367379276],[-72.92833042455611,-13.38760393760032],[-72.92832269362843,-13.388507587348945],[-72.92739968609179,-13.388500016598552]]]}},{"type":"Feature","properties":{"Cell_ID":42,"Area_ha":1.0,"LC":"13:0.064969,16:0.935031","XMIN":724344.86160847,"YMIN":8518860.587700475,"XMAX":724444.86160847,"YMAX":8518960.587700475},"geometry":{"type":"Polygon","coordinates":[[[-72.92739195115551,-13.389403665748944],[-72.92739968609179,-13.388500016598552],[-72.92832269362843,-13.388507587348945],[-72.92831496213078,-13.389411237028687],[-72.92739195115551,-13.389403665748944]]]}},{"type":"Feature","properties":{"Cell_ID":43,"Area_ha":1.0,"LC":"13:0.574184,16:0.425816","XMIN":724344.86160847,"YMIN":8518760.587700475,"XMAX":724444.86160847,"YMAX":8518860.587700475},"geometry":{"type":"Polygon","coordinates":[[[-72.92738421564898,-13.390307314830443],[-72.92739195115551,-13.389403665748944],[-72.92831496213078,-13.389411237028687],[-72.92830723006318,-13.390314886639539],[-72.92738421564898,-13.390307314830443]]]}},{"type":"Feature","properties":{"Cell_ID":44,"Area_ha":1.0,"LC":"9:0.357214,13:0.042786,16:0.600000","XMIN":724344.86160847,"YMIN":8518660.587700475,"XMAX":724444.86160847,"YMAX":8518760.587700475},"geometry":{"type":"Polygon","coordinates":[[[-72.92737647957225,-13.391210963843049],[-72.92738421564898,-13.390307314830443],[-72.92830723006318,-13.390314886639539],[-72.92829949742561,-13.391218536181503],[-72.92737647957225,-13.391210963843049]]]}},{"type":"Feature","properties":{"Cell_ID":45,"Area_ha":1.0,"LC":"9:0.162786,16:0.837214","XMIN":724344.86160847,"YMIN":8518560.587700475,"XMAX":724444.86160847,"YMAX":8518660.587700475},"geometry":{"type":"Polygon","coordinates":[[[-72.92736874292527,-13.392114612786756],[-72.92737647957225,-13.391210963843049],[-72.92829949742561,-13.391218536181503],[-72.92829176421803,-13.39212218565457],[-72.92736874292527,-13.392114612786756]]]}},{"type":"Feature","properties":{"Cell_ID":46,"Area_ha":1.0,"LC":"16:1.000000","XMIN":724344.86160847,"YMIN":8518460.587700475,"XMAX":724444.86160847,"YMAX":8518560.587700475},"geometry":{"type":"Polygon","coordinates":[[[-72.92736100570804,-13.393018261661558],[-72.92736874292527,-13.392114612786756],[-72.92829176421803,-13.39212218565457],[-72.92828403044047,-13.39302583505874],[-72.92736100570804,-13.393018261661558]]]}},{"type":"Feature","properties":{"Cell_ID":47,"Area_ha":1.0,"LC":"16:0.629660,17:0.105248","XMIN":724444.86160847,"YMIN":8519460.587700475,"XMAX":724544.86160847,"YMAX":8519560.587700475},"geometry":{"type":"Polygon","coordinates":[[[-72.92651536244321,-13.383974198344239],[-72.92652309739549,-13.383070549310158],[-72.92744608373539,-13.38307812024976],[-72.92743835222022,-13.383981769813401],[-72.92651536244321,-13.383974198344239]]]}},{"type":"Feature","properties":{"Cell_ID":48,"Area_ha":1.0,"LC":"16:1.000000","XMIN":724444.86160847,"YMIN":8519360.587700475,"XMAX":724544.86160847,"YMAX":8519460.587700475},"geometry":{"type":"Polygon","coordinates":[[[-72.92650762692051,-13.384877847309447],[-72.92651536244321,-13.383974198344239],[-72.92743835222022,-13.383981769813401],[-72.9274306201349,-13.384885419308176],[-72.92650762692051,-13.384877847309447]]]}},{"type":"Feature","properties":{"Cell_ID":49,"Area_ha":1.0,"LC":"16:1.000000","XMIN":724444.86160847,"YMIN":8519260.587700475,"XMAX":724544.86160847,"YMAX":8519360.587700475},"geometry":{"type":"Polygon","coordinates":[[[-72.92649989082739,-13.385781496205782],[-72.92650762692051,-13.384877847309447],[-72.9274306201349,-13.384885419308176],[-72.92742288747941,-13.385789068734084],[-72.92649989082739,-13.385781496205782]]]}},{"type":"Feature","properties":{"Cell_ID":50,"Area_ha":1.0,"LC":"16:1.000000","XMIN":724444.86160847,"YMIN":8519160.587700475,"XMAX":724544.86160847,"YMAX":8519260.587700475},"geometry":{"type":"Polygon","coordinates":[[[-72.92649215416382,-13.386685145033246],[-72.92649989082739,-13.385781496205782],[-72.92742288747941,-13.385789068734084],[-72.92741515425374,-13.38669271809112],[-72.92649215416382,-13.386685145033246]]]}},{"type":"Feature","properties":{"Cell_ID":51,"Area_ha":1.0,"LC":"13:0.327521,16:0.672479","XMIN":724444.86160847,"YMIN":8519060.587700475,"XMAX":724544.86160847,"YMAX":8519160.587700475},"geometry":{"type":"Polygon","coordinates":[[[-72.92648441692982,-13.38758879379182],[-72.92649215416382,-13.386685145033246],[-72.92741515425374,-13.38669271809112],[-72.92740742045785,-13.387596367379276],[-72.92648441692982,-13.38758879379182]]]}},{"type":"Feature","properties":{"Cell_ID":52,"Area_ha":1.0,"LC":"13:0.188601,16:0.811399","XMIN":724444.86160847,"YMIN":8518960.587700475,"XMAX":724544.86160847,"YMAX":8519060.587700475},"geometry":{"type":"Polygon","coordinates":[[[-72.92647667912536,-13.388492442481517],[-72.92648441692982,-13.38758879379182],[-72.92740742045785,-13.387596367379276],[-72.92739968609179,-13.388500016598552],[-72.92647667912536,-13.388492442481517]]]}},{"type":"Feature","properties":{"Cell_ID":53,"Area_ha":1.0,"LC":"13:0.037983,16:0.962017","XMIN":724444.86160847,"YMIN":8518860.587700475,"XMAX":724544.86160847,"YMAX":8518960.587700475},"geometry":{"type":"Polygon","coordinates":[[[-72.92646894075044,-13.38939609110232],[-72.92647667912536,-13.388492442481517],[-72.92739968609179,-13.388500016598552],[-72.92739195115551,-13.389403665748944],[-72.92646894075044,-13.38939609110232]]]}},{"type":"Feature","properties":{"Cell_ID":54,"Area_ha":1.0,"LC":"13:0.556479,16:0.443521","XMIN":724444.86160847,"YMIN":8518760.587700475,"XMAX":724544.86160847,"YMAX":8518860.587700475},"geometry":{"type":"Polygon","coordinates":[[[-72.92646120180503,-13.390299739654228],[-72.92646894075044,-13.38939609110232],[-72.92739195115551,-13.389403665748944],[-72.92738421564898,-13.390307314830443],[-72.92646120180503,-13.390299739654228]]]}},{"type":"Feature","properties":{"Cell_ID":55,"Area_ha":1.0,"LC":"9:0.139031,13:0.049416,16:0.811554","XMIN":724444.86160847,"YMIN":8518660.587700475,"XMAX":724544.86160847,"YMAX":8518760.587700475},"geometry":{"type":"Polygon","coordinates":[[[-72.92645346228915,-13.391203388137237],[-72.92646120180503,-13.390299739654228],[-72.92738421564898,-13.390307314830443],[-72.92737647957225,-13.391210963843049],[-72.92645346228915,-13.391203388137237]]]}},{"type":"Feature","properties":{"Cell_ID":56,"Area_ha":1.0,"LC":"16:1.000000","XMIN":724444.86160847,"YMIN":8518560.587700475,"XMAX":724544.86160847,"YMAX":8518660.587700475},"geometry":{"type":"Polygon","coordinates":[[[-72.92644572220274,-13.392107036551348],[-72.92645346228915,-13.391203388137237],[-72.92737647957225,-13.391210963843049],[-72.92736874292527,-13.392114612786756],[-72.92644572220274,-13.392107036551348]]]}},{"type":"Feature","properties":{"Cell_ID":57,"Area_ha":1.0,"LC":"16:1.000000","XMIN":724444.86160847,"YMIN":8518460.587700475,"XMAX":724544.86160847,"YMAX":8518560.587700475},"geometry":{"type":"Polygon","coordinates":[[[-72.92643798154586,-13.39301068489655],[-72.92644572220274,-13.392107036551348],[-72.92736874292527,-13.392114612786756],[-72.92736100570804,-13.393018261661558],[-72.92643798154586,-13.39301068489655]]]}},{"type":"Feature","properties":{"Cell_ID":58,"Area_ha":1.0,"LC":"16:0.728691,17:0.229030","XMIN":724544.86160847,"YMIN":8519460.587700475,"XMAX":724644.86160847,"YMAX":8519560.587700475},"geometry":{"type":"Polygon","coordinates":[[[-72.92559237323661,-13.383966623509616],[-72.92560011162601,-13.383062975005336],[-72.92652309739549,-13.383070549310158],[-72.92651536244321,-13.383974198344239],[-72.92559237323661,-13.383966623509616]]]}},{"type":"Feature","properties":{"Cell_ID":59,"Area_ha":1.0,"LC":"16:1.000000","XMIN":724544.86160847,"YMIN":8519360.587700475,"XMAX":724644.86160847,"YMAX":8519460.587700475},"geometry":{"type":"Polygon","coordinates":[[[-72.92558463427656,-13.384870271945019],[-72.92559237323661,-13.383966623509616],[-72.92651536244321,-13.383974198344239],[-72.92650762692051,-13.384877847309447],[-72.92558463427656,-13.384870271945019]]]}},{"type":"Feature","properties":{"Cell_ID":60,"Area_ha":1.0,"LC":"16:1.000000","XMIN":724544.86160847,"YMIN":8519260.587700475,"XMAX":724644.86160847,"YMAX":8519360.587700475},"geometry":{"type":"Polygon","coordinates":[[[-72.92557689474582,-13.385773920311554],[-72.92558463427656,-13.384870271945019],[-72.92650762692051,-13.384877847309447],[-72.92649989082739,-13.385781496205782],[-72.92557689474582,-13.385773920311554]]]}},{"type":"Feature","properties":{"Cell_ID":61,"Area_ha":1.0,"LC":"16:1.000000","XMIN":724544.86160847,"YMIN":8519160.587700475,"XMAX":724644.86160847,"YMAX":8519260.587700475},"geometry":{"type":"Polygon","coordinates":[[[-72.92556915464438,-13.386677568609203],[-72.92557689474582,-13.385773920311554],[-72.92649989082739,-13.385781496205782],[-72.92649215416382,-13.386685145033246],[-72.92556915464438,-13.386677568609203]]]}},{"type":"Feature","properties":{"Cell_ID":62,"Area_ha":1.0,"LC":"16:1.000000","XMIN":724544.86160847,"YMIN":8519060.587700475,"XMAX":724644.86160847,"YMAX":8519160.587700475},"geometry":{"type":"Polygon","coordinates":[[[-72.92556141397225,-13.387581216837965],[-72.92556915464438,-13.386677568609203],[-72.92649215416382,-13.386685145033246],[-72.92648441692982,-13.38758879379182],[-72.92556141397225,-13.387581216837965]]]}},{"type":"Feature","properties":{"Cell_ID":63,"Area_ha":1.0,"LC":"16:1.000000","XMIN":724544.86160847,"YMIN":8518960.587700475,"XMAX":724644.86160847,"YMAX":8519060.587700475},"geometry":{"type":"Polygon","coordinates":[[[-72.92555367272941,-13.38848486499784],[-72.92556141397225,-13.387581216837965],[-72.92648441692982,-13.38758879379182],[-72.92647667912536,-13.388492442481517],[-72.92555367272941,-13.38848486499784]]]}},{"type":"Feature","properties":{"Cell_ID":64,"Area_ha":1.0,"LC":"16:1.000000","XMIN":724544.86160847,"YMIN":8518860.587700475,"XMAX":724644.86160847,"YMAX":8518960.587700475},"geometry":{"type":"Polygon","coordinates":[[[-72.92554593091585,-13.389388513088825],[-72.92555367272941,-13.38848486499784],[-72.92647667912536,-13.388492442481517],[-72.92646894075044,-13.38939609110232],[-72.92554593091585,-13.389388513088825]]]}},{"type":"Feature","properties":{"Cell_ID":65,"Area_ha":1.0,"LC":"5:0.439153,13:0.149337,16:0.411510","XMIN":724544.86160847,"YMIN":8518760.587700475,"XMAX":724644.86160847,"YMAX":8518860.587700475},"geometry":{"type":"Polygon","coordinates":[[[-72.92553818853156,-13.390292161110908],[-72.92554593091585,-13.389388513088825],[-72.92646894075044,-13.38939609110232],[-72.92646120180503,-13.390299739654228],[-72.92553818853156,-13.390292161110908]]]}},{"type":"Feature","properties":{"Cell_ID":66,"Area_ha":1.0,"LC":"5:0.042786,13:0.084846,16:0.872368","XMIN":724544.86160847,"YMIN":8518660.587700475,"XMAX":724644.86160847,"YMAX":8518760.587700475},"geometry":{"type":"Polygon","coordinates":[[[-72.92553044557653,-13.391195809064087],[-72.92553818853156,-13.390292161110908],[-72.92646120180503,-13.390299739654228],[-72.92645346228915,-13.391203388137237],[-72.92553044557653,-13.391195809064087]]]}},{"type":"Feature","properties":{"Cell_ID":67,"Area_ha":1.0,"LC":"16:1.000000","XMIN":724544.86160847,"YMIN":8518560.587700475,"XMAX":724644.86160847,"YMAX":8518660.587700475},"geometry":{"type":"Polygon","coordinates":[[[-72.92552270205074,-13.392099456948364],[-72.92553044557653,-13.391195809064087],[-72.92645346228915,-13.391203388137237],[-72.92644572220274,-13.392107036551348],[-72.92552270205074,-13.392099456948364]]]}},{"type":"Feature","properties":{"Cell_ID":68,"Area_ha":1.0,"LC":"5:0.062908,13:0.191677,16:0.745415","XMIN":724544.86160847,"YMIN":8518460.587700475,"XMAX":724644.86160847,"YMAX":8518560.587700475},"geometry":{"type":"Polygon","coordinates":[[[-72.9255149579542,-13.393003104763727],[-72.92552270205074,-13.392099456948364],[-72.92644572220274,-13.392107036551348],[-72.92643798154586,-13.39301068489655],[-72.9255149579542,-13.393003104763727]]]}},{"type":"Feature","properties":{"Cell_ID":69,"Area_ha":1.0,"LC":"13:0.028446,16:0.971554","XMIN":724644.86160847,"YMIN":8519260.587700475,"XMAX":724744.86160847,"YMAX":8519360.587700475},"geometry":{"type":"Polygon","coordinates":[[[-72.92465389923491,-13.385766341051399],[-72.92466164220326,-13.384862693214908],[-72.92558463427656,-13.384870271945019],[-72.92557689474582,-13.385773920311554],[-72.92465389923491,-13.385766341051399]]]}},{"type":"Feature","properties":{"Cell_ID":70,"Area_ha":1.0,"LC":"16:1.000000","XMIN":724644.86160847,"YMIN":8519060.587700475,"XMAX":724744.86160847,"YMAX":8519160.587700475},"geometry":{"type":"Polygon","coordinates":[[[-72.92463841158538,-13.387573636517718],[-72.92464615569563,-13.386669988819005],[-72.92556915464438,-13.386677568609203],[-72.92556141397225,-13.387581216837965],[-72.92463841158538,-13.387573636517718]]]}},{"type":"Feature","properties":{"Cell_ID":71,"Area_ha":1.0,"LC":"5:0.553616,16:0.446384","XMIN":724644.86160847,"YMIN":8518660.587700475,"XMAX":724744.86160847,"YMAX":8518760.587700475},"geometry":{"type":"Polygon","coordinates":[[[-72.92460742943466,-13.391188226623605],[-72.92461517582882,-13.390284579200486],[-72.92553818853156,-13.390292161110908],[-72.92553044557653,-13.391195809064087],[-72.92460742943466,-13.391188226623605]]]}},{"type":"Feature","properties":{"Cell_ID":72,"Area_ha":1.0,"LC":"5:0.587633,16:0.412367","XMIN":724644.86160847,"YMIN":8518560.587700475,"XMAX":724744.86160847,"YMAX":8518660.587700475},"geometry":{"type":"Polygon","coordinates":[[[-72.92459968246949,-13.392091873977812],[-72.92460742943466,-13.391188226623605],[-72.92553044557653,-13.391195809064087],[-72.92552270205074,-13.392099456948364],[-72.92459968246949,-13.392091873977812]]]}},{"type":"Feature","properties":{"Cell_ID":73,"Area_ha":1.0,"LC":"5:0.481939,13:0.254228,16:0.263833","XMIN":724644.86160847,"YMIN":8518460.587700475,"XMAX":724744.86160847,"YMAX":8518560.587700475},"geometry":{"type":"Polygon","coordinates":[[[-72.92459193493332,-13.392995521263106],[-72.92459968246949,-13.392091873977812],[-72.92552270205074,-13.392099456948364],[-72.9255149579542,-13.393003104763727],[-72.92459193493332,-13.392995521263106]]]}},{"type":"Feature","properties":{"Cell_ID":74,"Area_ha":1.0,"LC":"5:0.041939,13:0.682017,16:0.276044","XMIN":724644.86160847,"YMIN":8518360.587700475,"XMAX":724744.86160847,"YMAX":8518460.587700475},"geometry":{"type":"Polygon","coordinates":[[[-72.92458418682611,-13.393899168479479],[-72.92459193493332,-13.392995521263106],[-72.9255149579542,-13.393003104763727],[-72.92550721328689,-13.393906752510178],[-72.92458418682611,-13.393899168479479]]]}},{"type":"Feature","properties":{"Cell_ID":75,"Area_ha":1.0,"LC":"5:0.144892,7:0.438061,9:0.012245,13:0.284724,16:0.120078","XMIN":724644.86160847,"YMIN":8518260.587700475,"XMAX":724744.86160847,"YMAX":8518360.587700475},"geometry":{"type":"Polygon","coordinates":[[[-72.92457643814788,-13.394802815626925],[-72.92458418682611,-13.393899168479479],[-72.92550721328689,-13.393906752510178],[-72.9254994680488,-13.394810400187705],[-72.92457643814788,-13.394802815626925]]]}}]}